<gpx xmlns:ns3="http://www.garmin.com/xmlschemas/TrackPointExtension/v1" xmlns="http://www.topografix.com/GPX/1/1" xmlns:xsi="http://www.w3.org/2001/XMLSchema-instance" xmlns:ns2="http://www.garmin.com/xmlschemas/GpxExtensions/v3" creator="Garmin Connect" version="1.1" xsi:schemaLocation="http://www.topografix.com/GPX/1/1 http://www.topografix.com/GPX/11.xsd">
  <extensions>
<distance>192.77</distance>
<average_hr>113.0</average_hr>
<average_speed>1.4869999885559082</average_speed>
<start_time>2022-12-12T07:30:41+00:00</start_time>
<end_time>2022-12-12T07:32:50.651000+00:00</end_time>
<moving_time>123.0</moving_time>
<elapsed_time>129.651</elapsed_time>
</extensions>
<metadata>
    <link href="connect.garmin.com">
      <text>Garmin Connect</text>
    </link>
    <time>2022-12-12T07:30:41.000Z</time>
  </metadata>
  <trk>
    <name>广州市 跑步</name>
    <type>running</type>
    <trkseg>
      <trkpt lat="23.184438385069370269775390625" lon="113.27402760274708271026611328125">
        <ele>26.200000762939453125</ele>
        <time>2022-12-12T07:30:57.000Z</time>
        <extensions>
          <ns3:TrackPointExtension>
            <ns3:hr>95</ns3:hr>
            <ns3:cad>58</ns3:cad>
          </ns3:TrackPointExtension>
        </extensions>
      </trkpt>
      <trkpt lat="23.18421819247305393218994140625" lon="113.27399373985826969146728515625">
        <ele>22.3999996185302734375</ele>
        <time>2022-12-12T07:31:07.000Z</time>
        <extensions>
          <ns3:TrackPointExtension>
            <ns3:hr>91</ns3:hr>
            <ns3:cad>85</ns3:cad>
          </ns3:TrackPointExtension>
        </extensions>
      </trkpt>
      <trkpt lat="23.18412129767239093780517578125" lon="113.2739297859370708465576171875">
        <ele>20.6000003814697265625</ele>
        <time>2022-12-12T07:31:11.000Z</time>
        <extensions>
          <ns3:TrackPointExtension>
            <ns3:hr>96</ns3:hr>
            <ns3:cad>86</ns3:cad>
          </ns3:TrackPointExtension>
        </extensions>
      </trkpt>
      <trkpt lat="23.18408391438424587249755859375" lon="113.27391511760652065277099609375">
        <ele>20</ele>
        <time>2022-12-12T07:31:13.000Z</time>
        <extensions>
          <ns3:TrackPointExtension>
            <ns3:hr>100</ns3:hr>
            <ns3:cad>86</ns3:cad>
          </ns3:TrackPointExtension>
        </extensions>
      </trkpt>
      <trkpt lat="23.18404183723032474517822265625" lon="113.2739029638469219207763671875">
        <ele>19.799999237060546875</ele>
        <time>2022-12-12T07:31:15.000Z</time>
        <extensions>
          <ns3:TrackPointExtension>
            <ns3:hr>104</ns3:hr>
            <ns3:cad>87</ns3:cad>
          </ns3:TrackPointExtension>
        </extensions>
      </trkpt>
      <trkpt lat="23.18401551805436611175537109375" lon="113.2738892175257205963134765625">
        <ele>19.6000003814697265625</ele>
        <time>2022-12-12T07:31:16.000Z</time>
        <extensions>
          <ns3:TrackPointExtension>
            <ns3:hr>108</ns3:hr>
            <ns3:cad>87</ns3:cad>
          </ns3:TrackPointExtension>
        </extensions>
      </trkpt>
      <trkpt lat="23.183989115059375762939453125" lon="113.27387697994709014892578125">
        <ele>19.6000003814697265625</ele>
        <time>2022-12-12T07:31:17.000Z</time>
        <extensions>
          <ns3:TrackPointExtension>
            <ns3:hr>112</ns3:hr>
            <ns3:cad>87</ns3:cad>
          </ns3:TrackPointExtension>
        </extensions>
      </trkpt>
      <trkpt lat="23.18393270485103130340576171875" lon="113.27386222779750823974609375">
        <ele>19.3999996185302734375</ele>
        <time>2022-12-12T07:31:19.000Z</time>
        <extensions>
          <ns3:TrackPointExtension>
            <ns3:hr>117</ns3:hr>
            <ns3:cad>87</ns3:cad>
          </ns3:TrackPointExtension>
        </extensions>
      </trkpt>
      <trkpt lat="23.18388425745069980621337890625" lon="113.27385493554174900054931640625">
        <ele>19.3999996185302734375</ele>
        <time>2022-12-12T07:31:21.000Z</time>
        <extensions>
          <ns3:TrackPointExtension>
            <ns3:hr>122</ns3:hr>
            <ns3:cad>88</ns3:cad>
          </ns3:TrackPointExtension>
        </extensions>
      </trkpt>
      <trkpt lat="23.18386162631213665008544921875" lon="113.27385325916111469268798828125">
        <ele>19.200000762939453125</ele>
        <time>2022-12-12T07:31:22.000Z</time>
        <extensions>
          <ns3:TrackPointExtension>
            <ns3:hr>126</ns3:hr>
            <ns3:cad>88</ns3:cad>
          </ns3:TrackPointExtension>
        </extensions>
      </trkpt>
      <trkpt lat="23.18384033627808094024658203125" lon="113.2738452963531017303466796875">
        <ele>19.200000762939453125</ele>
        <time>2022-12-12T07:31:23.000Z</time>
        <extensions>
          <ns3:TrackPointExtension>
            <ns3:hr>131</ns3:hr>
            <ns3:cad>87</ns3:cad>
          </ns3:TrackPointExtension>
        </extensions>
      </trkpt>
      <trkpt lat="23.18380974233150482177734375" lon="113.2738347351551055908203125">
        <ele>19</ele>
        <time>2022-12-12T07:31:24.000Z</time>
        <extensions>
          <ns3:TrackPointExtension>
            <ns3:hr>128</ns3:hr>
            <ns3:cad>87</ns3:cad>
          </ns3:TrackPointExtension>
        </extensions>
      </trkpt>
      <trkpt lat="23.183779902756214141845703125" lon="113.27382090501487255096435546875">
        <ele>19</ele>
        <time>2022-12-12T07:31:25.000Z</time>
        <extensions>
          <ns3:TrackPointExtension>
            <ns3:hr>125</ns3:hr>
            <ns3:cad>86</ns3:cad>
          </ns3:TrackPointExtension>
        </extensions>
      </trkpt>
      <trkpt lat="23.18371343426406383514404296875" lon="113.2737956754863262176513671875">
        <ele>19</ele>
        <time>2022-12-12T07:31:28.000Z</time>
        <extensions>
          <ns3:TrackPointExtension>
            <ns3:hr>122</ns3:hr>
            <ns3:cad>86</ns3:cad>
          </ns3:TrackPointExtension>
        </extensions>
      </trkpt>
      <trkpt lat="23.18367521278560161590576171875" lon="113.27378402464091777801513671875">
        <ele>19</ele>
        <time>2022-12-12T07:31:30.000Z</time>
        <extensions>
          <ns3:TrackPointExtension>
            <ns3:hr>125</ns3:hr>
            <ns3:cad>86</ns3:cad>
          </ns3:TrackPointExtension>
        </extensions>
      </trkpt>
      <trkpt lat="23.18361100740730762481689453125" lon="113.2737712003290653228759765625">
        <ele>19</ele>
        <time>2022-12-12T07:31:33.000Z</time>
        <extensions>
          <ns3:TrackPointExtension>
            <ns3:hr>132</ns3:hr>
            <ns3:cad>86</ns3:cad>
          </ns3:TrackPointExtension>
        </extensions>
      </trkpt>
      <trkpt lat="23.1835864484310150146484375" lon="113.27376432716846466064453125">
        <ele>19.200000762939453125</ele>
        <time>2022-12-12T07:31:34.000Z</time>
        <extensions>
          <ns3:TrackPointExtension>
            <ns3:hr>129</ns3:hr>
            <ns3:cad>86</ns3:cad>
          </ns3:TrackPointExtension>
        </extensions>
      </trkpt>
      <trkpt lat="23.18356256000697612762451171875" lon="113.27376357279717922210693359375">
        <ele>19.200000762939453125</ele>
        <time>2022-12-12T07:31:35.000Z</time>
        <extensions>
          <ns3:TrackPointExtension>
            <ns3:hr>126</ns3:hr>
            <ns3:cad>86</ns3:cad>
          </ns3:TrackPointExtension>
        </extensions>
      </trkpt>
      <trkpt lat="23.183517046272754669189453125" lon="113.27375091612339019775390625">
        <ele>19.200000762939453125</ele>
        <time>2022-12-12T07:31:37.000Z</time>
        <extensions>
          <ns3:TrackPointExtension>
            <ns3:hr>129</ns3:hr>
            <ns3:cad>87</ns3:cad>
          </ns3:TrackPointExtension>
        </extensions>
      </trkpt>
      <trkpt lat="23.18348360247910022735595703125" lon="113.2737393490970134735107421875">
        <ele>19</ele>
        <time>2022-12-12T07:31:39.000Z</time>
        <extensions>
          <ns3:TrackPointExtension>
            <ns3:hr>126</ns3:hr>
            <ns3:cad>87</ns3:cad>
          </ns3:TrackPointExtension>
        </extensions>
      </trkpt>
      <trkpt lat="23.183408081531524658203125" lon="113.27371378429234027862548828125">
        <ele>18.799999237060546875</ele>
        <time>2022-12-12T07:31:46.000Z</time>
        <extensions>
          <ns3:TrackPointExtension>
            <ns3:hr>129</ns3:hr>
            <ns3:cad>63</ns3:cad>
          </ns3:TrackPointExtension>
        </extensions>
      </trkpt>
      <trkpt lat="23.18339911289513111114501953125" lon="113.27371470630168914794921875">
        <ele>18.799999237060546875</ele>
        <time>2022-12-12T07:31:47.000Z</time>
        <extensions>
          <ns3:TrackPointExtension>
            <ns3:hr>133</ns3:hr>
            <ns3:cad>63</ns3:cad>
          </ns3:TrackPointExtension>
        </extensions>
      </trkpt>
      <trkpt lat="23.18338134326040744781494140625" lon="113.27371336519718170166015625">
        <ele>18.799999237060546875</ele>
        <time>2022-12-12T07:31:49.000Z</time>
        <extensions>
          <ns3:TrackPointExtension>
            <ns3:hr>133</ns3:hr>
            <ns3:cad>63</ns3:cad>
          </ns3:TrackPointExtension>
        </extensions>
      </trkpt>
      <trkpt lat="23.18332099355757236480712890625" lon="113.27370841987431049346923828125">
        <ele>19</ele>
        <time>2022-12-12T07:31:54.000Z</time>
        <extensions>
          <ns3:TrackPointExtension>
            <ns3:hr>131</ns3:hr>
            <ns3:cad>61</ns3:cad>
          </ns3:TrackPointExtension>
        </extensions>
      </trkpt>
      <trkpt lat="23.183291070163249969482421875" lon="113.27370439656078815460205078125">
        <ele>19</ele>
        <time>2022-12-12T07:31:58.000Z</time>
        <extensions>
          <ns3:TrackPointExtension>
            <ns3:hr>128</ns3:hr>
            <ns3:cad>61</ns3:cad>
          </ns3:TrackPointExtension>
        </extensions>
      </trkpt>
      <trkpt lat="23.18327673710882663726806640625" lon="113.2736997865140438079833984375">
        <ele>19</ele>
        <time>2022-12-12T07:32:00.000Z</time>
        <extensions>
          <ns3:TrackPointExtension>
            <ns3:hr>126</ns3:hr>
            <ns3:cad>56</ns3:cad>
          </ns3:TrackPointExtension>
        </extensions>
      </trkpt>
      <trkpt lat="23.1832546927034854888916015625" lon="113.27369651757180690765380859375">
        <ele>19.200000762939453125</ele>
        <time>2022-12-12T07:32:03.000Z</time>
        <extensions>
          <ns3:TrackPointExtension>
            <ns3:hr>124</ns3:hr>
            <ns3:cad>57</ns3:cad>
          </ns3:TrackPointExtension>
        </extensions>
      </trkpt>
      <trkpt lat="23.18324052728712558746337890625" lon="113.27369785867631435394287109375">
        <ele>19.200000762939453125</ele>
        <time>2022-12-12T07:32:06.000Z</time>
        <extensions>
          <ns3:TrackPointExtension>
            <ns3:hr>121</ns3:hr>
            <ns3:cad>57</ns3:cad>
          </ns3:TrackPointExtension>
        </extensions>
      </trkpt>
      <trkpt lat="23.18322627805173397064208984375" lon="113.27370070852339267730712890625">
        <ele>19.6000003814697265625</ele>
        <time>2022-12-12T07:32:09.000Z</time>
        <extensions>
          <ns3:TrackPointExtension>
            <ns3:hr>120</ns3:hr>
            <ns3:cad>57</ns3:cad>
          </ns3:TrackPointExtension>
        </extensions>
      </trkpt>
      <trkpt lat="23.18319660611450672149658203125" lon="113.27371043153107166290283203125">
        <ele>20.6000003814697265625</ele>
        <time>2022-12-12T07:32:13.000Z</time>
        <extensions>
          <ns3:TrackPointExtension>
            <ns3:hr>118</ns3:hr>
            <ns3:cad>57</ns3:cad>
          </ns3:TrackPointExtension>
        </extensions>
      </trkpt>
      <trkpt lat="23.18318671546876430511474609375" lon="113.2737105153501033782958984375">
        <ele>20.799999237060546875</ele>
        <time>2022-12-12T07:32:14.000Z</time>
        <extensions>
          <ns3:TrackPointExtension>
            <ns3:hr>117</ns3:hr>
            <ns3:cad>58</ns3:cad>
          </ns3:TrackPointExtension>
        </extensions>
      </trkpt>
      <trkpt lat="23.18316844291985034942626953125" lon="113.27370590530335903167724609375">
        <ele>21.200000762939453125</ele>
        <time>2022-12-12T07:32:16.000Z</time>
        <extensions>
          <ns3:TrackPointExtension>
            <ns3:hr>117</ns3:hr>
            <ns3:cad>59</ns3:cad>
          </ns3:TrackPointExtension>
        </extensions>
      </trkpt>
      <trkpt lat="23.1831433810293674468994140625" lon="113.2736877165734767913818359375">
        <ele>21.6000003814697265625</ele>
        <time>2022-12-12T07:32:19.000Z</time>
        <extensions>
          <ns3:TrackPointExtension>
            <ns3:hr>116</ns3:hr>
            <ns3:cad>61</ns3:cad>
          </ns3:TrackPointExtension>
        </extensions>
      </trkpt>
      <trkpt lat="23.18311236798763275146484375" lon="113.273666761815547943115234375">
        <ele>22</ele>
        <time>2022-12-12T07:32:22.000Z</time>
        <extensions>
          <ns3:TrackPointExtension>
            <ns3:hr>114</ns3:hr>
            <ns3:cad>61</ns3:cad>
          </ns3:TrackPointExtension>
        </extensions>
      </trkpt>
      <trkpt lat="23.18307473324239253997802734375" lon="113.27364094555377960205078125">
        <ele>22.6000003814697265625</ele>
        <time>2022-12-12T07:32:26.000Z</time>
        <extensions>
          <ns3:TrackPointExtension>
            <ns3:hr>112</ns3:hr>
            <ns3:cad>61</ns3:cad>
          </ns3:TrackPointExtension>
        </extensions>
      </trkpt>
      <trkpt lat="23.1830384396016597747802734375" lon="113.27363113872706890106201171875">
        <ele>23.200000762939453125</ele>
        <time>2022-12-12T07:32:29.000Z</time>
        <extensions>
          <ns3:TrackPointExtension>
            <ns3:hr>110</ns3:hr>
            <ns3:cad>59</ns3:cad>
          </ns3:TrackPointExtension>
        </extensions>
      </trkpt>
      <trkpt lat="23.18297431804239749908447265625" lon="113.27357699163258075714111328125">
        <ele>23.799999237060546875</ele>
        <time>2022-12-12T07:32:35.000Z</time>
        <extensions>
          <ns3:TrackPointExtension>
            <ns3:hr>107</ns3:hr>
            <ns3:cad>0</ns3:cad>
          </ns3:TrackPointExtension>
        </extensions>
      </trkpt>
      <trkpt lat="23.18294933997094631195068359375" lon="113.27356140129268169403076171875">
        <ele>24.3999996185302734375</ele>
        <time>2022-12-12T07:32:37.000Z</time>
        <extensions>
          <ns3:TrackPointExtension>
            <ns3:hr>107</ns3:hr>
            <ns3:cad>61</ns3:cad>
          </ns3:TrackPointExtension>
        </extensions>
      </trkpt>
      <trkpt lat="23.182921595871448516845703125" lon="113.27354564331471920013427734375">
        <ele>25.200000762939453125</ele>
        <time>2022-12-12T07:32:40.000Z</time>
        <extensions>
          <ns3:TrackPointExtension>
            <ns3:hr>106</ns3:hr>
            <ns3:cad>61</ns3:cad>
          </ns3:TrackPointExtension>
        </extensions>
      </trkpt>
      <trkpt lat="23.1828922592103481292724609375" lon="113.27354949899017810821533203125">
        <ele>25.799999237060546875</ele>
        <time>2022-12-12T07:32:44.000Z</time>
        <extensions>
          <ns3:TrackPointExtension>
            <ns3:hr>104</ns3:hr>
            <ns3:cad>0</ns3:cad>
          </ns3:TrackPointExtension>
        </extensions>
      </trkpt>
      <trkpt lat="23.1828872300684452056884765625" lon="113.2735499180853366851806640625">
        <ele>26</ele>
        <time>2022-12-12T07:32:47.000Z</time>
        <extensions>
          <ns3:TrackPointExtension>
            <ns3:hr>103</ns3:hr>
            <ns3:cad>66</ns3:cad>
          </ns3:TrackPointExtension>
        </extensions>
      </trkpt>
      <trkpt lat="23.18292503245174884796142578125" lon="113.273551762104034423828125">
        <ele>25</ele>
        <time>2022-12-12T07:32:51.000Z</time>
        <extensions>
          <ns3:TrackPointExtension>
            <ns3:hr>102</ns3:hr>
            <ns3:cad>0</ns3:cad>
          </ns3:TrackPointExtension>
        </extensions>
      </trkpt>
      <trkpt lat="23.18293291144073009490966796875" lon="113.27355318702757358551025390625">
        <ele>24.799999237060546875</ele>
        <time>2022-12-12T07:32:52.000Z</time>
        <extensions>
          <ns3:TrackPointExtension>
            <ns3:hr>101</ns3:hr>
            <ns3:cad>0</ns3:cad>
          </ns3:TrackPointExtension>
        </extensions>
      </trkpt>
    </trkseg>
  </trk>
</gpx>
