<gpx xmlns:ns3="http://www.garmin.com/xmlschemas/TrackPointExtension/v1" xmlns="http://www.topografix.com/GPX/1/1" xmlns:xsi="http://www.w3.org/2001/XMLSchema-instance" xmlns:ns2="http://www.garmin.com/xmlschemas/GpxExtensions/v3" creator="Garmin Connect" version="1.1" xsi:schemaLocation="http://www.topografix.com/GPX/1/1 http://www.topografix.com/GPX/11.xsd">
  <extensions>
<distance>5204.76</distance>
<average_hr></average_hr>
<average_speed>2.118000030517578</average_speed>
<start_time>2023-05-20T09:33:01+00:00</start_time>
<end_time>2023-05-20T10:13:58.408000+00:00</end_time>
<moving_time>2457.101</moving_time>
<elapsed_time>2457.408</elapsed_time>
</extensions>
<metadata>
    <link href="connect.garmin.com">
      <text>Garmin Connect</text>
    </link>
    <time>2023-05-20T09:33:01.000Z</time>
  </metadata>
  <trk>
    <name>跑步</name>
    <type>running</type>
    <trkseg>
      <trkpt lat="23.18142701871693134307861328125" lon="113.2655911333858966827392578125">
        <ele>9</ele>
        <time>2023-05-20T09:50:04.000Z</time>
        <extensions>
          <ns3:TrackPointExtension>
            <ns3:cad>81</ns3:cad>
          </ns3:TrackPointExtension>
        </extensions>
      </trkpt>
      <trkpt lat="23.1812306307256221771240234375" lon="113.265539668500423431396484375">
        <ele>10.80000019073486328125</ele>
        <time>2023-05-20T09:50:14.000Z</time>
        <extensions>
          <ns3:TrackPointExtension>
            <ns3:cad>80</ns3:cad>
          </ns3:TrackPointExtension>
        </extensions>
      </trkpt>
      <trkpt lat="23.1810898147523403167724609375" lon="113.26534495688974857330322265625">
        <ele>12.80000019073486328125</ele>
        <time>2023-05-20T09:50:20.000Z</time>
        <extensions>
          <ns3:TrackPointExtension>
            <ns3:cad>81</ns3:cad>
          </ns3:TrackPointExtension>
        </extensions>
      </trkpt>
      <trkpt lat="23.18095159716904163360595703125" lon="113.265194334089756011962890625">
        <ele>14.6000003814697265625</ele>
        <time>2023-05-20T09:50:24.000Z</time>
        <extensions>
          <ns3:TrackPointExtension>
            <ns3:cad>80</ns3:cad>
          </ns3:TrackPointExtension>
        </extensions>
      </trkpt>
      <trkpt lat="23.18080441094934940338134765625" lon="113.26503884978592395782470703125">
        <ele>16.200000762939453125</ele>
        <time>2023-05-20T09:50:28.000Z</time>
        <extensions>
          <ns3:TrackPointExtension>
            <ns3:cad>80</ns3:cad>
          </ns3:TrackPointExtension>
        </extensions>
      </trkpt>
      <trkpt lat="23.18063291721045970916748046875" lon="113.26495855115354061126708984375">
        <ele>16.6000003814697265625</ele>
        <time>2023-05-20T09:50:37.000Z</time>
        <extensions>
          <ns3:TrackPointExtension>
            <ns3:cad>81</ns3:cad>
          </ns3:TrackPointExtension>
        </extensions>
      </trkpt>
      <trkpt lat="23.18045756779611110687255859375" lon="113.264881186187267303466796875">
        <ele>15.19999980926513671875</ele>
        <time>2023-05-20T09:50:51.000Z</time>
        <extensions>
          <ns3:TrackPointExtension>
            <ns3:cad>61</ns3:cad>
          </ns3:TrackPointExtension>
        </extensions>
      </trkpt>
      <trkpt lat="23.1802871637046337127685546875" lon="113.264813125133514404296875">
        <ele>11.80000019073486328125</ele>
        <time>2023-05-20T09:51:08.000Z</time>
        <extensions>
          <ns3:TrackPointExtension>
            <ns3:cad>61</ns3:cad>
          </ns3:TrackPointExtension>
        </extensions>
      </trkpt>
      <trkpt lat="23.18010586313903331756591796875" lon="113.26475973241031169891357421875">
        <ele>9</ele>
        <time>2023-05-20T09:51:28.000Z</time>
        <extensions>
          <ns3:TrackPointExtension>
            <ns3:cad>57</ns3:cad>
          </ns3:TrackPointExtension>
        </extensions>
      </trkpt>
      <trkpt lat="23.17991651594638824462890625" lon="113.26472402550280094146728515625">
        <ele>6.19999980926513671875</ele>
        <time>2023-05-20T09:51:46.000Z</time>
        <extensions>
          <ns3:TrackPointExtension>
            <ns3:cad>61</ns3:cad>
          </ns3:TrackPointExtension>
        </extensions>
      </trkpt>
      <trkpt lat="23.17972716875374317169189453125" lon="113.26467842794954776763916015625">
        <ele>7.400000095367431640625</ele>
        <time>2023-05-20T09:52:00.000Z</time>
        <extensions>
          <ns3:TrackPointExtension>
            <ns3:cad>79</ns3:cad>
          </ns3:TrackPointExtension>
        </extensions>
      </trkpt>
      <trkpt lat="23.17958953790366649627685546875" lon="113.2645293138921260833740234375">
        <ele>10.3999996185302734375</ele>
        <time>2023-05-20T09:52:08.000Z</time>
        <extensions>
          <ns3:TrackPointExtension>
            <ns3:cad>81</ns3:cad>
          </ns3:TrackPointExtension>
        </extensions>
      </trkpt>
      <trkpt lat="23.179423324763774871826171875" lon="113.264437951147556304931640625">
        <ele>14.80000019073486328125</ele>
        <time>2023-05-20T09:52:18.000Z</time>
        <extensions>
          <ns3:TrackPointExtension>
            <ns3:cad>80</ns3:cad>
          </ns3:TrackPointExtension>
        </extensions>
      </trkpt>
      <trkpt lat="23.17925401031970977783203125" lon="113.26433359645307064056396484375">
        <ele>15.6000003814697265625</ele>
        <time>2023-05-20T09:52:27.000Z</time>
        <extensions>
          <ns3:TrackPointExtension>
            <ns3:cad>81</ns3:cad>
          </ns3:TrackPointExtension>
        </extensions>
      </trkpt>
      <trkpt lat="23.1790815107524394989013671875" lon="113.26423636637628078460693359375">
        <ele>13</ele>
        <time>2023-05-20T09:52:35.000Z</time>
        <extensions>
          <ns3:TrackPointExtension>
            <ns3:cad>80</ns3:cad>
          </ns3:TrackPointExtension>
        </extensions>
      </trkpt>
      <trkpt lat="23.17895553074777126312255859375" lon="113.2640902698040008544921875">
        <ele>9.6000003814697265625</ele>
        <time>2023-05-20T09:52:43.000Z</time>
        <extensions>
          <ns3:TrackPointExtension>
            <ns3:cad>80</ns3:cad>
          </ns3:TrackPointExtension>
        </extensions>
      </trkpt>
      <trkpt lat="23.17879862152040004730224609375" lon="113.2639831490814685821533203125">
        <ele>8</ele>
        <time>2023-05-20T09:52:51.000Z</time>
        <extensions>
          <ns3:TrackPointExtension>
            <ns3:cad>80</ns3:cad>
          </ns3:TrackPointExtension>
        </extensions>
      </trkpt>
      <trkpt lat="23.1786302290856838226318359375" lon="113.26391282491385936737060546875">
        <ele>8</ele>
        <time>2023-05-20T09:52:59.000Z</time>
        <extensions>
          <ns3:TrackPointExtension>
            <ns3:cad>81</ns3:cad>
          </ns3:TrackPointExtension>
        </extensions>
      </trkpt>
      <trkpt lat="23.17848782055079936981201171875" lon="113.2637823186814785003662109375">
        <ele>7.80000019073486328125</ele>
        <time>2023-05-20T09:53:06.000Z</time>
        <extensions>
          <ns3:TrackPointExtension>
            <ns3:cad>82</ns3:cad>
          </ns3:TrackPointExtension>
        </extensions>
      </trkpt>
      <trkpt lat="23.17832688800990581512451171875" lon="113.26366354711353778839111328125">
        <ele>7.599999904632568359375</ele>
        <time>2023-05-20T09:53:14.000Z</time>
        <extensions>
          <ns3:TrackPointExtension>
            <ns3:cad>80</ns3:cad>
          </ns3:TrackPointExtension>
        </extensions>
      </trkpt>
      <trkpt lat="23.17822027020156383514404296875" lon="113.26354234479367733001708984375">
        <ele>7</ele>
        <time>2023-05-20T09:53:36.000Z</time>
        <extensions>
          <ns3:TrackPointExtension>
            <ns3:cad>77</ns3:cad>
          </ns3:TrackPointExtension>
        </extensions>
      </trkpt>
      <trkpt lat="23.178027234971523284912109375" lon="113.263504207134246826171875">
        <ele>7</ele>
        <time>2023-05-20T09:53:43.000Z</time>
        <extensions>
          <ns3:TrackPointExtension>
            <ns3:cad>80</ns3:cad>
          </ns3:TrackPointExtension>
        </extensions>
      </trkpt>
      <trkpt lat="23.1778554059565067291259765625" lon="113.26343254186213016510009765625">
        <ele>7.19999980926513671875</ele>
        <time>2023-05-20T09:53:50.000Z</time>
        <extensions>
          <ns3:TrackPointExtension>
            <ns3:cad>81</ns3:cad>
          </ns3:TrackPointExtension>
        </extensions>
      </trkpt>
      <trkpt lat="23.17768030799925327301025390625" lon="113.26334260404109954833984375">
        <ele>7.19999980926513671875</ele>
        <time>2023-05-20T09:53:56.000Z</time>
        <extensions>
          <ns3:TrackPointExtension>
            <ns3:cad>77</ns3:cad>
          </ns3:TrackPointExtension>
        </extensions>
      </trkpt>
      <trkpt lat="23.17751233465969562530517578125" lon="113.2632364891469478607177734375">
        <ele>9</ele>
        <time>2023-05-20T09:54:03.000Z</time>
        <extensions>
          <ns3:TrackPointExtension>
            <ns3:cad>80</ns3:cad>
          </ns3:TrackPointExtension>
        </extensions>
      </trkpt>
      <trkpt lat="23.1773531623184680938720703125" lon="113.26312174089252948760986328125">
        <ele>10.19999980926513671875</ele>
        <time>2023-05-20T09:54:10.000Z</time>
        <extensions>
          <ns3:TrackPointExtension>
            <ns3:cad>81</ns3:cad>
          </ns3:TrackPointExtension>
        </extensions>
      </trkpt>
      <trkpt lat="23.17716834135353565216064453125" lon="113.263066671788692474365234375">
        <ele>9.3999996185302734375</ele>
        <time>2023-05-20T09:54:18.000Z</time>
        <extensions>
          <ns3:TrackPointExtension>
            <ns3:cad>82</ns3:cad>
          </ns3:TrackPointExtension>
        </extensions>
      </trkpt>
      <trkpt lat="23.17699919454753398895263671875" lon="113.26296114362776279449462890625">
        <ele>8.80000019073486328125</ele>
        <time>2023-05-20T09:54:25.000Z</time>
        <extensions>
          <ns3:TrackPointExtension>
            <ns3:cad>80</ns3:cad>
          </ns3:TrackPointExtension>
        </extensions>
      </trkpt>
      <trkpt lat="23.17696876823902130126953125" lon="113.262950666248798370361328125">
        <ele>8.80000019073486328125</ele>
        <time>2023-05-20T09:54:26.000Z</time>
        <extensions>
          <ns3:TrackPointExtension>
            <ns3:cad>80</ns3:cad>
          </ns3:TrackPointExtension>
        </extensions>
      </trkpt>
      <trkpt lat="23.176787383854389190673828125" lon="113.26285955496132373809814453125">
        <ele>9.80000019073486328125</ele>
        <time>2023-05-20T09:54:33.000Z</time>
        <extensions>
          <ns3:TrackPointExtension>
            <ns3:cad>80</ns3:cad>
          </ns3:TrackPointExtension>
        </extensions>
      </trkpt>
      <trkpt lat="23.17661815322935581207275390625" lon="113.2627396099269390106201171875">
        <ele>12.3999996185302734375</ele>
        <time>2023-05-20T09:54:41.000Z</time>
        <extensions>
          <ns3:TrackPointExtension>
            <ns3:cad>81</ns3:cad>
          </ns3:TrackPointExtension>
        </extensions>
      </trkpt>
      <trkpt lat="23.17646493203938007354736328125" lon="113.2626192457973957061767578125">
        <ele>12.19999980926513671875</ele>
        <time>2023-05-20T09:54:49.000Z</time>
        <extensions>
          <ns3:TrackPointExtension>
            <ns3:cad>80</ns3:cad>
          </ns3:TrackPointExtension>
        </extensions>
      </trkpt>
      <trkpt lat="23.17629695869982242584228515625" lon="113.262547664344310760498046875">
        <ele>11</ele>
        <time>2023-05-20T09:54:57.000Z</time>
        <extensions>
          <ns3:TrackPointExtension>
            <ns3:cad>80</ns3:cad>
          </ns3:TrackPointExtension>
        </extensions>
      </trkpt>
      <trkpt lat="23.17614130675792694091796875" lon="113.26245286501944065093994140625">
        <ele>10.3999996185302734375</ele>
        <time>2023-05-20T09:55:06.000Z</time>
        <extensions>
          <ns3:TrackPointExtension>
            <ns3:cad>81</ns3:cad>
          </ns3:TrackPointExtension>
        </extensions>
      </trkpt>
      <trkpt lat="23.17606779746711254119873046875" lon="113.26226125471293926239013671875">
        <ele>9</ele>
        <time>2023-05-20T09:55:15.000Z</time>
        <extensions>
          <ns3:TrackPointExtension>
            <ns3:cad>81</ns3:cad>
          </ns3:TrackPointExtension>
        </extensions>
      </trkpt>
      <trkpt lat="23.1759134866297245025634765625" lon="113.26213158667087554931640625">
        <ele>6.400000095367431640625</ele>
        <time>2023-05-20T09:55:21.000Z</time>
        <extensions>
          <ns3:TrackPointExtension>
            <ns3:cad>79</ns3:cad>
          </ns3:TrackPointExtension>
        </extensions>
      </trkpt>
      <trkpt lat="23.17575909197330474853515625" lon="113.26201616786420345306396484375">
        <ele>2.599999904632568359375</ele>
        <time>2023-05-20T09:55:26.000Z</time>
        <extensions>
          <ns3:TrackPointExtension>
            <ns3:cad>79</ns3:cad>
          </ns3:TrackPointExtension>
        </extensions>
      </trkpt>
      <trkpt lat="23.17559405229985713958740234375" lon="113.261927068233489990234375">
        <ele>-0.20000000298023223876953125</ele>
        <time>2023-05-20T09:55:31.000Z</time>
        <extensions>
          <ns3:TrackPointExtension>
            <ns3:cad>79</ns3:cad>
          </ns3:TrackPointExtension>
        </extensions>
      </trkpt>
      <trkpt lat="23.17538953386247158050537109375" lon="113.2618883438408374786376953125">
        <ele>-0.800000011920928955078125</ele>
        <time>2023-05-20T09:55:36.000Z</time>
        <extensions>
          <ns3:TrackPointExtension>
            <ns3:cad>79</ns3:cad>
          </ns3:TrackPointExtension>
        </extensions>
      </trkpt>
      <trkpt lat="23.1751906313002109527587890625" lon="113.261851966381072998046875">
        <ele>1.60000002384185791015625</ele>
        <time>2023-05-20T09:55:40.000Z</time>
        <extensions>
          <ns3:TrackPointExtension>
            <ns3:cad>79</ns3:cad>
          </ns3:TrackPointExtension>
        </extensions>
      </trkpt>
      <trkpt lat="23.1749985180795192718505859375" lon="113.2618457637727260589599609375">
        <ele>5.400000095367431640625</ele>
        <time>2023-05-20T09:55:44.000Z</time>
        <extensions>
          <ns3:TrackPointExtension>
            <ns3:cad>77</ns3:cad>
          </ns3:TrackPointExtension>
        </extensions>
      </trkpt>
      <trkpt lat="23.1748161278665065765380859375" lon="113.26180460862815380096435546875">
        <ele>8.6000003814697265625</ele>
        <time>2023-05-20T09:55:49.000Z</time>
        <extensions>
          <ns3:TrackPointExtension>
            <ns3:cad>82</ns3:cad>
          </ns3:TrackPointExtension>
        </extensions>
      </trkpt>
      <trkpt lat="23.174570538103580474853515625" lon="113.26173889450728893280029296875">
        <ele>12.6000003814697265625</ele>
        <time>2023-05-20T09:55:56.000Z</time>
        <extensions>
          <ns3:TrackPointExtension>
            <ns3:cad>82</ns3:cad>
          </ns3:TrackPointExtension>
        </extensions>
      </trkpt>
      <trkpt lat="23.1744241900742053985595703125" lon="113.26160763390362262725830078125">
        <ele>14.19999980926513671875</ele>
        <time>2023-05-20T09:56:04.000Z</time>
        <extensions>
          <ns3:TrackPointExtension>
            <ns3:cad>82</ns3:cad>
          </ns3:TrackPointExtension>
        </extensions>
      </trkpt>
      <trkpt lat="23.174207098782062530517578125" lon="113.2614715956151485443115234375">
        <ele>15.3999996185302734375</ele>
        <time>2023-05-20T09:56:12.000Z</time>
        <extensions>
          <ns3:TrackPointExtension>
            <ns3:cad>82</ns3:cad>
          </ns3:TrackPointExtension>
        </extensions>
      </trkpt>
      <trkpt lat="23.17406033165752887725830078125" lon="113.2613141834735870361328125">
        <ele>16.200000762939453125</ele>
        <time>2023-05-20T09:56:19.000Z</time>
        <extensions>
          <ns3:TrackPointExtension>
            <ns3:cad>82</ns3:cad>
          </ns3:TrackPointExtension>
        </extensions>
      </trkpt>
      <trkpt lat="23.1739450804889202117919921875" lon="113.2610984332859516143798828125">
        <ele>18.6000003814697265625</ele>
        <time>2023-05-20T09:56:28.000Z</time>
        <extensions>
          <ns3:TrackPointExtension>
            <ns3:cad>82</ns3:cad>
          </ns3:TrackPointExtension>
        </extensions>
      </trkpt>
      <trkpt lat="23.17387886345386505126953125" lon="113.26089777052402496337890625">
        <ele>16.6000003814697265625</ele>
        <time>2023-05-20T09:56:36.000Z</time>
        <extensions>
          <ns3:TrackPointExtension>
            <ns3:cad>81</ns3:cad>
          </ns3:TrackPointExtension>
        </extensions>
      </trkpt>
      <trkpt lat="23.17309968173503875732421875" lon="113.25989328324794769287109375">
        <ele>11.3999996185302734375</ele>
        <time>2023-05-20T09:58:19.000Z</time>
        <extensions>
          <ns3:TrackPointExtension>
            <ns3:cad>0</ns3:cad>
          </ns3:TrackPointExtension>
        </extensions>
      </trkpt>
      <trkpt lat="23.1731005199253559112548828125" lon="113.25987375341355800628662109375">
        <ele>11.6000003814697265625</ele>
        <time>2023-05-20T09:58:23.000Z</time>
        <extensions>
          <ns3:TrackPointExtension>
            <ns3:cad>0</ns3:cad>
          </ns3:TrackPointExtension>
        </extensions>
      </trkpt>
      <trkpt lat="23.17296582274138927459716796875" lon="113.25973712839186191558837890625">
        <ele>11.19999980926513671875</ele>
        <time>2023-05-20T09:58:29.000Z</time>
        <extensions>
          <ns3:TrackPointExtension>
            <ns3:cad>74</ns3:cad>
          </ns3:TrackPointExtension>
        </extensions>
      </trkpt>
      <trkpt lat="23.1728621385991573333740234375" lon="113.2595655508339405059814453125">
        <ele>12.6000003814697265625</ele>
        <time>2023-05-20T09:58:34.000Z</time>
        <extensions>
          <ns3:TrackPointExtension>
            <ns3:cad>74</ns3:cad>
          </ns3:TrackPointExtension>
        </extensions>
      </trkpt>
      <trkpt lat="23.1728027947247028350830078125" lon="113.25937561690807342529296875">
        <ele>15.19999980926513671875</ele>
        <time>2023-05-20T09:58:41.000Z</time>
        <extensions>
          <ns3:TrackPointExtension>
            <ns3:cad>82</ns3:cad>
          </ns3:TrackPointExtension>
        </extensions>
      </trkpt>
      <trkpt lat="23.17267052829265594482421875" lon="113.25923345983028411865234375">
        <ele>13.3999996185302734375</ele>
        <time>2023-05-20T09:58:49.000Z</time>
        <extensions>
          <ns3:TrackPointExtension>
            <ns3:cad>83</ns3:cad>
          </ns3:TrackPointExtension>
        </extensions>
      </trkpt>
      <trkpt lat="23.172561563551425933837890625" lon="113.2590519078075885772705078125">
        <ele>11.80000019073486328125</ele>
        <time>2023-05-20T09:58:58.000Z</time>
        <extensions>
          <ns3:TrackPointExtension>
            <ns3:cad>82</ns3:cad>
          </ns3:TrackPointExtension>
        </extensions>
      </trkpt>
      <trkpt lat="23.172405660152435302734375" lon="113.25890212319791316986083984375">
        <ele>10.80000019073486328125</ele>
        <time>2023-05-20T09:59:06.000Z</time>
        <extensions>
          <ns3:TrackPointExtension>
            <ns3:cad>81</ns3:cad>
          </ns3:TrackPointExtension>
        </extensions>
      </trkpt>
      <trkpt lat="23.17224682308733463287353515625" lon="113.25874119065701961517333984375">
        <ele>14</ele>
        <time>2023-05-20T09:59:14.000Z</time>
        <extensions>
          <ns3:TrackPointExtension>
            <ns3:cad>82</ns3:cad>
          </ns3:TrackPointExtension>
        </extensions>
      </trkpt>
      <trkpt lat="23.1720252893865108489990234375" lon="113.25862459838390350341796875">
        <ele>16</ele>
        <time>2023-05-20T09:59:22.000Z</time>
        <extensions>
          <ns3:TrackPointExtension>
            <ns3:cad>82</ns3:cad>
          </ns3:TrackPointExtension>
        </extensions>
      </trkpt>
      <trkpt lat="23.17182906903326511383056640625" lon="113.2585396058857440948486328125">
        <ele>15.80000019073486328125</ele>
        <time>2023-05-20T09:59:31.000Z</time>
        <extensions>
          <ns3:TrackPointExtension>
            <ns3:cad>81</ns3:cad>
          </ns3:TrackPointExtension>
        </extensions>
      </trkpt>
      <trkpt lat="23.1716846488416194915771484375" lon="113.25840071775019168853759765625">
        <ele>13.19999980926513671875</ele>
        <time>2023-05-20T09:59:38.000Z</time>
        <extensions>
          <ns3:TrackPointExtension>
            <ns3:cad>81</ns3:cad>
          </ns3:TrackPointExtension>
        </extensions>
      </trkpt>
      <trkpt lat="23.17161365412175655364990234375" lon="113.25835243798792362213134765625">
        <ele>12.19999980926513671875</ele>
        <time>2023-05-20T09:59:43.000Z</time>
        <extensions>
          <ns3:TrackPointExtension>
            <ns3:cad>80</ns3:cad>
          </ns3:TrackPointExtension>
        </extensions>
      </trkpt>
      <trkpt lat="23.1724990345537662506103515625" lon="113.2565188966691493988037109375">
        <ele>-6.599999904632568359375</ele>
        <time>2023-05-20T10:00:59.000Z</time>
        <extensions>
          <ns3:TrackPointExtension>
            <ns3:cad>61</ns3:cad>
          </ns3:TrackPointExtension>
        </extensions>
      </trkpt>
      <trkpt lat="23.17267916165292263031005859375" lon="113.2577991485595703125">
        <ele>8.3999996185302734375</ele>
        <time>2023-05-20T10:01:51.000Z</time>
        <extensions>
          <ns3:TrackPointExtension>
            <ns3:cad>61</ns3:cad>
          </ns3:TrackPointExtension>
        </extensions>
      </trkpt>
      <trkpt lat="23.17275979556143283843994140625" lon="113.25762941502034664154052734375">
        <ele>5</ele>
        <time>2023-05-20T10:02:06.000Z</time>
        <extensions>
          <ns3:TrackPointExtension>
            <ns3:cad>80</ns3:cad>
          </ns3:TrackPointExtension>
        </extensions>
      </trkpt>
      <trkpt lat="23.17286901175975799560546875" lon="113.2574625313282012939453125">
        <ele>1.7999999523162841796875</ele>
        <time>2023-05-20T10:02:15.000Z</time>
        <extensions>
          <ns3:TrackPointExtension>
            <ns3:cad>81</ns3:cad>
          </ns3:TrackPointExtension>
        </extensions>
      </trkpt>
      <trkpt lat="23.17303807474672794342041015625" lon="113.2574073784053325653076171875">
        <ele>0</ele>
        <time>2023-05-20T10:02:23.000Z</time>
        <extensions>
          <ns3:TrackPointExtension>
            <ns3:cad>81</ns3:cad>
          </ns3:TrackPointExtension>
        </extensions>
      </trkpt>
      <trkpt lat="23.1732228957116603851318359375" lon="113.2574824802577495574951171875">
        <ele>-0.4000000059604644775390625</ele>
        <time>2023-05-20T10:02:33.000Z</time>
        <extensions>
          <ns3:TrackPointExtension>
            <ns3:cad>81</ns3:cad>
          </ns3:TrackPointExtension>
        </extensions>
      </trkpt>
      <trkpt lat="23.17338592372834682464599609375" lon="113.2575937919318675994873046875">
        <ele>0.60000002384185791015625</ele>
        <time>2023-05-20T10:02:42.000Z</time>
        <extensions>
          <ns3:TrackPointExtension>
            <ns3:cad>83</ns3:cad>
          </ns3:TrackPointExtension>
        </extensions>
      </trkpt>
      <trkpt lat="23.17355792038142681121826171875" lon="113.2576967217028141021728515625">
        <ele>1.7999999523162841796875</ele>
        <time>2023-05-20T10:02:50.000Z</time>
        <extensions>
          <ns3:TrackPointExtension>
            <ns3:cad>82</ns3:cad>
          </ns3:TrackPointExtension>
        </extensions>
      </trkpt>
      <trkpt lat="23.1736651249229907989501953125" lon="113.2577473483979701995849609375">
        <ele>2.599999904632568359375</ele>
        <time>2023-05-20T10:02:56.000Z</time>
        <extensions>
          <ns3:TrackPointExtension>
            <ns3:cad>82</ns3:cad>
          </ns3:TrackPointExtension>
        </extensions>
      </trkpt>
      <trkpt lat="23.17353679798543453216552734375" lon="113.25762824155390262603759765625">
        <ele>2.7999999523162841796875</ele>
        <time>2023-05-20T10:03:06.000Z</time>
        <extensions>
          <ns3:TrackPointExtension>
            <ns3:cad>80</ns3:cad>
          </ns3:TrackPointExtension>
        </extensions>
      </trkpt>
      <trkpt lat="23.17336899228394031524658203125" lon="113.2575354538857936859130859375">
        <ele>1.39999997615814208984375</ele>
        <time>2023-05-20T10:03:14.000Z</time>
        <extensions>
          <ns3:TrackPointExtension>
            <ns3:cad>82</ns3:cad>
          </ns3:TrackPointExtension>
        </extensions>
      </trkpt>
      <trkpt lat="23.17320688627660274505615234375" lon="113.25744585134088993072509765625">
        <ele>0.60000002384185791015625</ele>
        <time>2023-05-20T10:03:21.000Z</time>
        <extensions>
          <ns3:TrackPointExtension>
            <ns3:cad>84</ns3:cad>
          </ns3:TrackPointExtension>
        </extensions>
      </trkpt>
      <trkpt lat="23.17301074974238872528076171875" lon="113.25738281942903995513916015625">
        <ele>-0.60000002384185791015625</ele>
        <time>2023-05-20T10:03:29.000Z</time>
        <extensions>
          <ns3:TrackPointExtension>
            <ns3:cad>83</ns3:cad>
          </ns3:TrackPointExtension>
        </extensions>
      </trkpt>
      <trkpt lat="23.1728507392108440399169921875" lon="113.25727620162069797515869140625">
        <ele>-2.2000000476837158203125</ele>
        <time>2023-05-20T10:03:36.000Z</time>
        <extensions>
          <ns3:TrackPointExtension>
            <ns3:cad>81</ns3:cad>
          </ns3:TrackPointExtension>
        </extensions>
      </trkpt>
      <trkpt lat="23.1726928241550922393798828125" lon="113.25717075727880001068115234375">
        <ele>-3.599999904632568359375</ele>
        <time>2023-05-20T10:03:48.000Z</time>
        <extensions>
          <ns3:TrackPointExtension>
            <ns3:cad>63</ns3:cad>
          </ns3:TrackPointExtension>
        </extensions>
      </trkpt>
      <trkpt lat="23.1725583784282207489013671875" lon="113.2570452801883220672607421875">
        <ele>-9.3999996185302734375</ele>
        <time>2023-05-20T10:04:03.000Z</time>
        <extensions>
          <ns3:TrackPointExtension>
            <ns3:cad>61</ns3:cad>
          </ns3:TrackPointExtension>
        </extensions>
      </trkpt>
      <trkpt lat="23.17240540869534015655517578125" lon="113.2569296099245548248291015625">
        <ele>-15.6000003814697265625</ele>
        <time>2023-05-20T10:04:20.000Z</time>
        <extensions>
          <ns3:TrackPointExtension>
            <ns3:cad>61</ns3:cad>
          </ns3:TrackPointExtension>
        </extensions>
      </trkpt>
      <trkpt lat="23.172251097857952117919921875" lon="113.256823830306529998779296875">
        <ele>-21</ele>
        <time>2023-05-20T10:04:34.000Z</time>
        <extensions>
          <ns3:TrackPointExtension>
            <ns3:cad>79</ns3:cad>
          </ns3:TrackPointExtension>
        </extensions>
      </trkpt>
      <trkpt lat="23.17209720611572265625" lon="113.2566939108073711395263671875">
        <ele>-26</ele>
        <time>2023-05-20T10:04:45.000Z</time>
        <extensions>
          <ns3:TrackPointExtension>
            <ns3:cad>81</ns3:cad>
          </ns3:TrackPointExtension>
        </extensions>
      </trkpt>
      <trkpt lat="23.17195898853242397308349609375" lon="113.25658218003809452056884765625">
        <ele>-28.799999237060546875</ele>
        <time>2023-05-20T10:04:55.000Z</time>
        <extensions>
          <ns3:TrackPointExtension>
            <ns3:cad>79</ns3:cad>
          </ns3:TrackPointExtension>
        </extensions>
      </trkpt>
      <trkpt lat="23.1718103773891925811767578125" lon="113.256457708775997161865234375">
        <ele>-27.799999237060546875</ele>
        <time>2023-05-20T10:05:07.000Z</time>
        <extensions>
          <ns3:TrackPointExtension>
            <ns3:cad>61</ns3:cad>
          </ns3:TrackPointExtension>
        </extensions>
      </trkpt>
      <trkpt lat="23.1716762669384479522705078125" lon="113.25632720254361629486083984375">
        <ele>-22</ele>
        <time>2023-05-20T10:05:18.000Z</time>
        <extensions>
          <ns3:TrackPointExtension>
            <ns3:cad>62</ns3:cad>
          </ns3:TrackPointExtension>
        </extensions>
      </trkpt>
      <trkpt lat="23.17160979844629764556884765625" lon="113.25624883174896240234375">
        <ele>-16.6000003814697265625</ele>
        <time>2023-05-20T10:05:25.000Z</time>
        <extensions>
          <ns3:TrackPointExtension>
            <ns3:cad>55</ns3:cad>
          </ns3:TrackPointExtension>
        </extensions>
      </trkpt>
      <trkpt lat="23.17159336991608142852783203125" lon="113.2562352530658245086669921875">
        <ele>-15.3999996185302734375</ele>
        <time>2023-05-20T10:05:27.000Z</time>
        <extensions>
          <ns3:TrackPointExtension>
            <ns3:cad>58</ns3:cad>
          </ns3:TrackPointExtension>
        </extensions>
      </trkpt>
      <trkpt lat="23.17146730609238147735595703125" lon="113.2561504282057285308837890625">
        <ele>-9.3999996185302734375</ele>
        <time>2023-05-20T10:05:43.000Z</time>
        <extensions>
          <ns3:TrackPointExtension>
            <ns3:cad>57</ns3:cad>
          </ns3:TrackPointExtension>
        </extensions>
      </trkpt>
      <trkpt lat="23.1713748537003993988037109375" lon="113.25607473962008953094482421875">
        <ele>-4.80000019073486328125</ele>
        <time>2023-05-20T10:05:56.000Z</time>
        <extensions>
          <ns3:TrackPointExtension>
            <ns3:cad>55</ns3:cad>
          </ns3:TrackPointExtension>
        </extensions>
      </trkpt>
      <trkpt lat="23.17136571742594242095947265625" lon="113.25606836937367916107177734375">
        <ele>-4.400000095367431640625</ele>
        <time>2023-05-20T10:05:58.000Z</time>
        <extensions>
          <ns3:TrackPointExtension>
            <ns3:cad>55</ns3:cad>
          </ns3:TrackPointExtension>
        </extensions>
      </trkpt>
      <trkpt lat="23.17135364748537540435791015625" lon="113.25605194084346294403076171875">
        <ele>-3.599999904632568359375</ele>
        <time>2023-05-20T10:06:01.000Z</time>
        <extensions>
          <ns3:TrackPointExtension>
            <ns3:cad>54</ns3:cad>
          </ns3:TrackPointExtension>
        </extensions>
      </trkpt>
      <trkpt lat="23.17130251787602901458740234375" lon="113.25602092780172824859619140625">
        <ele>-1.39999997615814208984375</ele>
        <time>2023-05-20T10:06:08.000Z</time>
        <extensions>
          <ns3:TrackPointExtension>
            <ns3:cad>61</ns3:cad>
          </ns3:TrackPointExtension>
        </extensions>
      </trkpt>
      <trkpt lat="23.1711575947701930999755859375" lon="113.25588547624647617340087890625">
        <ele>1</ele>
        <time>2023-05-20T10:06:26.000Z</time>
        <extensions>
          <ns3:TrackPointExtension>
            <ns3:cad>59</ns3:cad>
          </ns3:TrackPointExtension>
        </extensions>
      </trkpt>
      <trkpt lat="23.1711435131728649139404296875" lon="113.255870640277862548828125">
        <ele>1.39999997615814208984375</ele>
        <time>2023-05-20T10:06:29.000Z</time>
        <extensions>
          <ns3:TrackPointExtension>
            <ns3:cad>56</ns3:cad>
          </ns3:TrackPointExtension>
        </extensions>
      </trkpt>
      <trkpt lat="23.171132616698741912841796875" lon="113.2558584026992321014404296875">
        <ele>1.60000002384185791015625</ele>
        <time>2023-05-20T10:06:31.000Z</time>
        <extensions>
          <ns3:TrackPointExtension>
            <ns3:cad>58</ns3:cad>
          </ns3:TrackPointExtension>
        </extensions>
      </trkpt>
      <trkpt lat="23.1711233966052532196044921875" lon="113.2558459974825382232666015625">
        <ele>1.7999999523162841796875</ele>
        <time>2023-05-20T10:06:33.000Z</time>
        <extensions>
          <ns3:TrackPointExtension>
            <ns3:cad>57</ns3:cad>
          </ns3:TrackPointExtension>
        </extensions>
      </trkpt>
      <trkpt lat="23.17111761309206485748291015625" lon="113.2558205164968967437744140625">
        <ele>2.400000095367431640625</ele>
        <time>2023-05-20T10:06:36.000Z</time>
        <extensions>
          <ns3:TrackPointExtension>
            <ns3:cad>56</ns3:cad>
          </ns3:TrackPointExtension>
        </extensions>
      </trkpt>
      <trkpt lat="23.17110219039022922515869140625" lon="113.25581238605082035064697265625">
        <ele>2.599999904632568359375</ele>
        <time>2023-05-20T10:06:38.000Z</time>
        <extensions>
          <ns3:TrackPointExtension>
            <ns3:cad>54</ns3:cad>
          </ns3:TrackPointExtension>
        </extensions>
      </trkpt>
      <trkpt lat="23.1711329519748687744140625" lon="113.2556895911693572998046875">
        <ele>5.400000095367431640625</ele>
        <time>2023-05-20T10:07:37.000Z</time>
        <extensions>
          <ns3:TrackPointExtension>
            <ns3:cad>80</ns3:cad>
          </ns3:TrackPointExtension>
        </extensions>
      </trkpt>
      <trkpt lat="23.17123889923095703125" lon="113.25551466085016727447509765625">
        <ele>9.6000003814697265625</ele>
        <time>2023-05-20T10:07:46.000Z</time>
        <extensions>
          <ns3:TrackPointExtension>
            <ns3:cad>79</ns3:cad>
          </ns3:TrackPointExtension>
        </extensions>
      </trkpt>
      <trkpt lat="23.17142472602427005767822265625" lon="113.255493454635143280029296875">
        <ele>8.6000003814697265625</ele>
        <time>2023-05-20T10:07:55.000Z</time>
        <extensions>
          <ns3:TrackPointExtension>
            <ns3:cad>81</ns3:cad>
          </ns3:TrackPointExtension>
        </extensions>
      </trkpt>
      <trkpt lat="23.17161382175981998443603515625" lon="113.25553201138973236083984375">
        <ele>4.80000019073486328125</ele>
        <time>2023-05-20T10:08:03.000Z</time>
        <extensions>
          <ns3:TrackPointExtension>
            <ns3:cad>81</ns3:cad>
          </ns3:TrackPointExtension>
        </extensions>
      </trkpt>
      <trkpt lat="23.17179839126765727996826171875" lon="113.25555791147053241729736328125">
        <ele>2.400000095367431640625</ele>
        <time>2023-05-20T10:08:14.000Z</time>
        <extensions>
          <ns3:TrackPointExtension>
            <ns3:cad>76</ns3:cad>
          </ns3:TrackPointExtension>
        </extensions>
      </trkpt>
      <trkpt lat="23.1719055958092212677001953125" lon="113.25556813739240169525146484375">
        <ele>2.400000095367431640625</ele>
        <time>2023-05-20T10:08:20.000Z</time>
        <extensions>
          <ns3:TrackPointExtension>
            <ns3:cad>79</ns3:cad>
          </ns3:TrackPointExtension>
        </extensions>
      </trkpt>
      <trkpt lat="23.172003328800201416015625" lon="113.2554255612194538116455078125">
        <ele>4.400000095367431640625</ele>
        <time>2023-05-20T10:08:32.000Z</time>
        <extensions>
          <ns3:TrackPointExtension>
            <ns3:cad>59</ns3:cad>
          </ns3:TrackPointExtension>
        </extensions>
      </trkpt>
      <trkpt lat="23.1721781753003597259521484375" lon="113.25534115545451641082763671875">
        <ele>6</ele>
        <time>2023-05-20T10:08:47.000Z</time>
        <extensions>
          <ns3:TrackPointExtension>
            <ns3:cad>57</ns3:cad>
          </ns3:TrackPointExtension>
        </extensions>
      </trkpt>
      <trkpt lat="23.1723686121404170989990234375" lon="113.255291283130645751953125">
        <ele>8.19999980926513671875</ele>
        <time>2023-05-20T10:08:58.000Z</time>
        <extensions>
          <ns3:TrackPointExtension>
            <ns3:cad>78</ns3:cad>
          </ns3:TrackPointExtension>
        </extensions>
      </trkpt>
      <trkpt lat="23.172560892999172210693359375" lon="113.2552847452461719512939453125">
        <ele>8</ele>
        <time>2023-05-20T10:09:08.000Z</time>
        <extensions>
          <ns3:TrackPointExtension>
            <ns3:cad>81</ns3:cad>
          </ns3:TrackPointExtension>
        </extensions>
      </trkpt>
      <trkpt lat="23.1727491505444049835205078125" lon="113.25525180436670780181884765625">
        <ele>6.80000019073486328125</ele>
        <time>2023-05-20T10:09:17.000Z</time>
        <extensions>
          <ns3:TrackPointExtension>
            <ns3:cad>81</ns3:cad>
          </ns3:TrackPointExtension>
        </extensions>
      </trkpt>
      <trkpt lat="23.17294168286025524139404296875" lon="113.25523135252296924591064453125">
        <ele>5</ele>
        <time>2023-05-20T10:09:26.000Z</time>
        <extensions>
          <ns3:TrackPointExtension>
            <ns3:cad>81</ns3:cad>
          </ns3:TrackPointExtension>
        </extensions>
      </trkpt>
      <trkpt lat="23.1731377355754375457763671875" lon="113.25520201586186885833740234375">
        <ele>7</ele>
        <time>2023-05-20T10:09:35.000Z</time>
        <extensions>
          <ns3:TrackPointExtension>
            <ns3:cad>81</ns3:cad>
          </ns3:TrackPointExtension>
        </extensions>
      </trkpt>
      <trkpt lat="23.17332959733903408050537109375" lon="113.25515105389058589935302734375">
        <ele>10.6000003814697265625</ele>
        <time>2023-05-20T10:09:45.000Z</time>
        <extensions>
          <ns3:TrackPointExtension>
            <ns3:cad>82</ns3:cad>
          </ns3:TrackPointExtension>
        </extensions>
      </trkpt>
      <trkpt lat="23.1735276617109775543212890625" lon="113.25513529591262340545654296875">
        <ele>12.6000003814697265625</ele>
        <time>2023-05-20T10:09:58.000Z</time>
        <extensions>
          <ns3:TrackPointExtension>
            <ns3:cad>80</ns3:cad>
          </ns3:TrackPointExtension>
        </extensions>
      </trkpt>
      <trkpt lat="23.17371751181781291961669921875" lon="113.25510629452764987945556640625">
        <ele>12.19999980926513671875</ele>
        <time>2023-05-20T10:10:08.000Z</time>
        <extensions>
          <ns3:TrackPointExtension>
            <ns3:cad>81</ns3:cad>
          </ns3:TrackPointExtension>
        </extensions>
      </trkpt>
      <trkpt lat="23.17387810908257961273193359375" lon="113.2551093958318233489990234375">
        <ele>9.80000019073486328125</ele>
        <time>2023-05-20T10:10:16.000Z</time>
        <extensions>
          <ns3:TrackPointExtension>
            <ns3:cad>81</ns3:cad>
          </ns3:TrackPointExtension>
        </extensions>
      </trkpt>
      <trkpt lat="23.17390836775302886962890625" lon="113.2551110722124576568603515625">
        <ele>9.6000003814697265625</ele>
        <time>2023-05-20T10:10:18.000Z</time>
        <extensions>
          <ns3:TrackPointExtension>
            <ns3:cad>62</ns3:cad>
          </ns3:TrackPointExtension>
        </extensions>
      </trkpt>
      <trkpt lat="23.1740895844995975494384765625" lon="113.25508265756070613861083984375">
        <ele>7.400000095367431640625</ele>
        <time>2023-05-20T10:10:26.000Z</time>
        <extensions>
          <ns3:TrackPointExtension>
            <ns3:cad>79</ns3:cad>
          </ns3:TrackPointExtension>
        </extensions>
      </trkpt>
      <trkpt lat="23.17429167218506336212158203125" lon="113.2550158537924289703369140625">
        <ele>7.19999980926513671875</ele>
        <time>2023-05-20T10:10:35.000Z</time>
        <extensions>
          <ns3:TrackPointExtension>
            <ns3:cad>78</ns3:cad>
          </ns3:TrackPointExtension>
        </extensions>
      </trkpt>
      <trkpt lat="23.17447305656969547271728515625" lon="113.254993222653865814208984375">
        <ele>6.400000095367431640625</ele>
        <time>2023-05-20T10:10:43.000Z</time>
        <extensions>
          <ns3:TrackPointExtension>
            <ns3:cad>75</ns3:cad>
          </ns3:TrackPointExtension>
        </extensions>
      </trkpt>
      <trkpt lat="23.17451454699039459228515625" lon="113.25497134588658809661865234375">
        <ele>6</ele>
        <time>2023-05-20T10:10:47.000Z</time>
        <extensions>
          <ns3:TrackPointExtension>
            <ns3:cad>0</ns3:cad>
          </ns3:TrackPointExtension>
        </extensions>
      </trkpt>
      <trkpt lat="23.17453508265316486358642578125" lon="113.2548240758478641510009765625">
        <ele>5.599999904632568359375</ele>
        <time>2023-05-20T10:11:06.000Z</time>
        <extensions>
          <ns3:TrackPointExtension>
            <ns3:cad>59</ns3:cad>
          </ns3:TrackPointExtension>
        </extensions>
      </trkpt>
      <trkpt lat="23.17452586255967617034912109375" lon="113.25480001978576183319091796875">
        <ele>5.599999904632568359375</ele>
        <time>2023-05-20T10:11:09.000Z</time>
        <extensions>
          <ns3:TrackPointExtension>
            <ns3:cad>59</ns3:cad>
          </ns3:TrackPointExtension>
        </extensions>
      </trkpt>
      <trkpt lat="23.17447322420775890350341796875" lon="113.2547342218458652496337890625">
        <ele>6</ele>
        <time>2023-05-20T10:11:15.000Z</time>
        <extensions>
          <ns3:TrackPointExtension>
            <ns3:cad>58</ns3:cad>
          </ns3:TrackPointExtension>
        </extensions>
      </trkpt>
      <trkpt lat="23.1744669377803802490234375" lon="113.25470848940312862396240234375">
        <ele>6</ele>
        <time>2023-05-20T10:11:17.000Z</time>
        <extensions>
          <ns3:TrackPointExtension>
            <ns3:cad>58</ns3:cad>
          </ns3:TrackPointExtension>
        </extensions>
      </trkpt>
      <trkpt lat="23.1745039857923984527587890625" lon="113.25455342419445514678955078125">
        <ele>5.80000019073486328125</ele>
        <time>2023-05-20T10:11:29.000Z</time>
        <extensions>
          <ns3:TrackPointExtension>
            <ns3:cad>61</ns3:cad>
          </ns3:TrackPointExtension>
        </extensions>
      </trkpt>
      <trkpt lat="23.17457296885550022125244140625" lon="113.254561387002468109130859375">
        <ele>4.80000019073486328125</ele>
        <time>2023-05-20T10:11:36.000Z</time>
        <extensions>
          <ns3:TrackPointExtension>
            <ns3:cad>74</ns3:cad>
          </ns3:TrackPointExtension>
        </extensions>
      </trkpt>
      <trkpt lat="23.17460867576301097869873046875" lon="113.25455862097442150115966796875">
        <ele>4.400000095367431640625</ele>
        <time>2023-05-20T10:11:40.000Z</time>
        <extensions>
          <ns3:TrackPointExtension>
            <ns3:cad>74</ns3:cad>
          </ns3:TrackPointExtension>
        </extensions>
      </trkpt>
      <trkpt lat="23.17472971044480800628662109375" lon="113.25455677695572376251220703125">
        <ele>4.400000095367431640625</ele>
        <time>2023-05-20T10:11:53.000Z</time>
        <extensions>
          <ns3:TrackPointExtension>
            <ns3:cad>67</ns3:cad>
          </ns3:TrackPointExtension>
        </extensions>
      </trkpt>
      <trkpt lat="23.174785114824771881103515625" lon="113.25454520992934703826904296875">
        <ele>4.599999904632568359375</ele>
        <time>2023-05-20T10:11:59.000Z</time>
        <extensions>
          <ns3:TrackPointExtension>
            <ns3:cad>61</ns3:cad>
          </ns3:TrackPointExtension>
        </extensions>
      </trkpt>
      <trkpt lat="23.174807913601398468017578125" lon="113.2545320503413677215576171875">
        <ele>4.400000095367431640625</ele>
        <time>2023-05-20T10:12:03.000Z</time>
        <extensions>
          <ns3:TrackPointExtension>
            <ns3:cad>61</ns3:cad>
          </ns3:TrackPointExtension>
        </extensions>
      </trkpt>
      <trkpt lat="23.17482576705515384674072265625" lon="113.25454051606357097625732421875">
        <ele>4.400000095367431640625</ele>
        <time>2023-05-20T10:12:05.000Z</time>
        <extensions>
          <ns3:TrackPointExtension>
            <ns3:cad>58</ns3:cad>
          </ns3:TrackPointExtension>
        </extensions>
      </trkpt>
      <trkpt lat="23.17484688945114612579345703125" lon="113.254535906016826629638671875">
        <ele>4.400000095367431640625</ele>
        <time>2023-05-20T10:12:07.000Z</time>
        <extensions>
          <ns3:TrackPointExtension>
            <ns3:cad>58</ns3:cad>
          </ns3:TrackPointExtension>
        </extensions>
      </trkpt>
      <trkpt lat="23.174868263304233551025390625" lon="113.254529200494289398193359375">
        <ele>4.19999980926513671875</ele>
        <time>2023-05-20T10:12:09.000Z</time>
        <extensions>
          <ns3:TrackPointExtension>
            <ns3:cad>58</ns3:cad>
          </ns3:TrackPointExtension>
        </extensions>
      </trkpt>
      <trkpt lat="23.1749140284955501556396484375" lon="113.2545126043260097503662109375">
        <ele>4</ele>
        <time>2023-05-20T10:12:13.000Z</time>
        <extensions>
          <ns3:TrackPointExtension>
            <ns3:cad>56</ns3:cad>
          </ns3:TrackPointExtension>
        </extensions>
      </trkpt>
      <trkpt lat="23.17492836154997348785400390625" lon="113.25450397096574306488037109375">
        <ele>4</ele>
        <time>2023-05-20T10:12:15.000Z</time>
        <extensions>
          <ns3:TrackPointExtension>
            <ns3:cad>56</ns3:cad>
          </ns3:TrackPointExtension>
        </extensions>
      </trkpt>
      <trkpt lat="23.1749800778925418853759765625" lon="113.2544834353029727935791015625">
        <ele>4.19999980926513671875</ele>
        <time>2023-05-20T10:12:22.000Z</time>
        <extensions>
          <ns3:TrackPointExtension>
            <ns3:cad>56</ns3:cad>
          </ns3:TrackPointExtension>
        </extensions>
      </trkpt>
      <trkpt lat="23.1750085763633251190185546875" lon="113.25434890575706958770751953125">
        <ele>5.80000019073486328125</ele>
        <time>2023-05-20T10:12:31.000Z</time>
        <extensions>
          <ns3:TrackPointExtension>
            <ns3:cad>79</ns3:cad>
          </ns3:TrackPointExtension>
        </extensions>
      </trkpt>
      <trkpt lat="23.17505191080272197723388671875" lon="113.2541982829570770263671875">
        <ele>10</ele>
        <time>2023-05-20T10:12:42.000Z</time>
        <extensions>
          <ns3:TrackPointExtension>
            <ns3:cad>61</ns3:cad>
          </ns3:TrackPointExtension>
        </extensions>
      </trkpt>
      <trkpt lat="23.17506096325814723968505859375" lon="113.2541374303400516510009765625">
        <ele>11.3999996185302734375</ele>
        <time>2023-05-20T10:12:46.000Z</time>
        <extensions>
          <ns3:TrackPointExtension>
            <ns3:cad>61</ns3:cad>
          </ns3:TrackPointExtension>
        </extensions>
      </trkpt>
      <trkpt lat="23.175061382353305816650390625" lon="113.25406559742987155914306640625">
        <ele>12.80000019073486328125</ele>
        <time>2023-05-20T10:12:50.000Z</time>
        <extensions>
          <ns3:TrackPointExtension>
            <ns3:cad>61</ns3:cad>
          </ns3:TrackPointExtension>
        </extensions>
      </trkpt>
      <trkpt lat="23.17506599240005016326904296875" lon="113.2538668625056743621826171875">
        <ele>13.3999996185302734375</ele>
        <time>2023-05-20T10:13:04.000Z</time>
        <extensions>
          <ns3:TrackPointExtension>
            <ns3:cad>61</ns3:cad>
          </ns3:TrackPointExtension>
        </extensions>
      </trkpt>
      <trkpt lat="23.175063394010066986083984375" lon="113.25382285751402378082275390625">
        <ele>13</ele>
        <time>2023-05-20T10:13:08.000Z</time>
        <extensions>
          <ns3:TrackPointExtension>
            <ns3:cad>61</ns3:cad>
          </ns3:TrackPointExtension>
        </extensions>
      </trkpt>
      <trkpt lat="23.17504839040338993072509765625" lon="113.25377692468464374542236328125">
        <ele>13.3999996185302734375</ele>
        <time>2023-05-20T10:13:14.000Z</time>
        <extensions>
          <ns3:TrackPointExtension>
            <ns3:cad>0</ns3:cad>
          </ns3:TrackPointExtension>
        </extensions>
      </trkpt>
      <trkpt lat="23.1750280223786830902099609375" lon="113.2537277229130268096923828125">
        <ele>13.6000003814697265625</ele>
        <time>2023-05-20T10:13:18.000Z</time>
        <extensions>
          <ns3:TrackPointExtension>
            <ns3:cad>61</ns3:cad>
          </ns3:TrackPointExtension>
        </extensions>
      </trkpt>
      <trkpt lat="23.175051994621753692626953125" lon="113.25353510677814483642578125">
        <ele>13</ele>
        <time>2023-05-20T10:13:35.000Z</time>
        <extensions>
          <ns3:TrackPointExtension>
            <ns3:cad>61</ns3:cad>
          </ns3:TrackPointExtension>
        </extensions>
      </trkpt>
      <trkpt lat="23.175077475607395172119140625" lon="113.25332379899919033050537109375">
        <ele>15</ele>
        <time>2023-05-20T10:13:51.000Z</time>
        <extensions>
          <ns3:TrackPointExtension>
            <ns3:cad>0</ns3:cad>
          </ns3:TrackPointExtension>
        </extensions>
      </trkpt>
      <trkpt lat="23.175090886652469635009765625" lon="113.2532187737524509429931640625">
        <ele>15.6000003814697265625</ele>
        <time>2023-05-20T10:14:00.000Z</time>
        <extensions>
          <ns3:TrackPointExtension>
            <ns3:cad>0</ns3:cad>
          </ns3:TrackPointExtension>
        </extensions>
      </trkpt>
    </trkseg>
  </trk>
</gpx>
