<gpx xmlns:ns3="http://www.garmin.com/xmlschemas/TrackPointExtension/v1" xmlns="http://www.topografix.com/GPX/1/1" xmlns:xsi="http://www.w3.org/2001/XMLSchema-instance" xmlns:ns2="http://www.garmin.com/xmlschemas/GpxExtensions/v3" creator="Garmin Connect" version="1.1" xsi:schemaLocation="http://www.topografix.com/GPX/1/1 http://www.topografix.com/GPX/11.xsd">
  <extensions>
<distance>3059.91</distance>
<average_hr>102.0</average_hr>
<average_speed>1.13100004196167</average_speed>
<start_time>2023-07-24T13:12:55+00:00</start_time>
<end_time>2023-07-24T13:58:01.399000+00:00</end_time>
<moving_time>2646.779</moving_time>
<elapsed_time>4094.703</elapsed_time>
</extensions>
<metadata>
    <link href="connect.garmin.com">
      <text>Garmin Connect</text>
    </link>
    <time>2023-07-24T13:12:55.000Z</time>
  </metadata>
  <trk>
    <name>广州市 跑步</name>
    <type>running</type>
    <trkseg>
      <trkpt lat="23.18252873606979846954345703125" lon="113.2583800144493579864501953125">
        <ele>7.19999980926513671875</ele>
        <time>2023-07-24T13:12:55.000Z</time>
        <extensions>
          <ns3:TrackPointExtension>
            <ns3:hr>87</ns3:hr>
            <ns3:cad>0</ns3:cad>
          </ns3:TrackPointExtension>
        </extensions>
      </trkpt>
      <trkpt lat="23.18253510631620883941650390625" lon="113.2584011368453502655029296875">
        <ele>7.599999904632568359375</ele>
        <time>2023-07-24T13:12:56.000Z</time>
        <extensions>
          <ns3:TrackPointExtension>
            <ns3:hr>87</ns3:hr>
            <ns3:cad>0</ns3:cad>
          </ns3:TrackPointExtension>
        </extensions>
      </trkpt>
      <trkpt lat="23.18253510631620883941650390625" lon="113.2584011368453502655029296875">
        <ele>7.599999904632568359375</ele>
        <time>2023-07-24T13:12:57.000Z</time>
        <extensions>
          <ns3:TrackPointExtension>
            <ns3:hr>87</ns3:hr>
            <ns3:cad>0</ns3:cad>
          </ns3:TrackPointExtension>
        </extensions>
      </trkpt>
      <trkpt lat="23.18259445019066333770751953125" lon="113.25837775133550167083740234375">
        <ele>7.19999980926513671875</ele>
        <time>2023-07-24T13:53:04.000Z</time>
        <extensions>
          <ns3:TrackPointExtension>
            <ns3:hr>101</ns3:hr>
            <ns3:cad>0</ns3:cad>
          </ns3:TrackPointExtension>
        </extensions>
      </trkpt>
      <trkpt lat="23.18265479989349842071533203125" lon="113.25838856399059295654296875">
        <ele>7.400000095367431640625</ele>
        <time>2023-07-24T13:53:06.000Z</time>
        <extensions>
          <ns3:TrackPointExtension>
            <ns3:hr>101</ns3:hr>
            <ns3:cad>0</ns3:cad>
          </ns3:TrackPointExtension>
        </extensions>
      </trkpt>
      <trkpt lat="23.182668797671794891357421875" lon="113.25837607495486736297607421875">
        <ele>7.19999980926513671875</ele>
        <time>2023-07-24T13:53:09.000Z</time>
        <extensions>
          <ns3:TrackPointExtension>
            <ns3:hr>101</ns3:hr>
            <ns3:cad>0</ns3:cad>
          </ns3:TrackPointExtension>
        </extensions>
      </trkpt>
      <trkpt lat="23.1826800294220447540283203125" lon="113.25833215378224849700927734375">
        <ele>6.80000019073486328125</ele>
        <time>2023-07-24T13:53:15.000Z</time>
        <extensions>
          <ns3:TrackPointExtension>
            <ns3:hr>101</ns3:hr>
            <ns3:cad>0</ns3:cad>
          </ns3:TrackPointExtension>
        </extensions>
      </trkpt>
      <trkpt lat="23.18267223425209522247314453125" lon="113.2583293877542018890380859375">
        <ele>6.599999904632568359375</ele>
        <time>2023-07-24T13:53:17.000Z</time>
        <extensions>
          <ns3:TrackPointExtension>
            <ns3:hr>101</ns3:hr>
            <ns3:cad>0</ns3:cad>
          </ns3:TrackPointExtension>
        </extensions>
      </trkpt>
      <trkpt lat="23.18281522952020168304443359375" lon="113.2583283819258213043212890625">
        <ele>7</ele>
        <time>2023-07-24T13:53:40.000Z</time>
        <extensions>
          <ns3:TrackPointExtension>
            <ns3:hr>102</ns3:hr>
            <ns3:cad>57</ns3:cad>
          </ns3:TrackPointExtension>
        </extensions>
      </trkpt>
      <trkpt lat="23.18281221203505992889404296875" lon="113.25831321068108081817626953125">
        <ele>6.80000019073486328125</ele>
        <time>2023-07-24T13:53:41.000Z</time>
        <extensions>
          <ns3:TrackPointExtension>
            <ns3:hr>101</ns3:hr>
            <ns3:cad>57</ns3:cad>
          </ns3:TrackPointExtension>
        </extensions>
      </trkpt>
      <trkpt lat="23.182877004146575927734375" lon="113.25817457400262355804443359375">
        <ele>8</ele>
        <time>2023-07-24T13:53:53.000Z</time>
        <extensions>
          <ns3:TrackPointExtension>
            <ns3:hr>101</ns3:hr>
            <ns3:cad>62</ns3:cad>
          </ns3:TrackPointExtension>
        </extensions>
      </trkpt>
      <trkpt lat="23.182993344962596893310546875" lon="113.25803183019161224365234375">
        <ele>9.80000019073486328125</ele>
        <time>2023-07-24T13:54:16.000Z</time>
        <extensions>
          <ns3:TrackPointExtension>
            <ns3:hr>101</ns3:hr>
            <ns3:cad>0</ns3:cad>
          </ns3:TrackPointExtension>
        </extensions>
      </trkpt>
      <trkpt lat="23.18302511237561702728271484375" lon="113.25801565311849117279052734375">
        <ele>10</ele>
        <time>2023-07-24T13:54:20.000Z</time>
        <extensions>
          <ns3:TrackPointExtension>
            <ns3:hr>94</ns3:hr>
            <ns3:cad>0</ns3:cad>
          </ns3:TrackPointExtension>
        </extensions>
      </trkpt>
      <trkpt lat="23.183062076568603515625" lon="113.25801632367074489593505859375">
        <ele>10.19999980926513671875</ele>
        <time>2023-07-24T13:54:24.000Z</time>
        <extensions>
          <ns3:TrackPointExtension>
            <ns3:hr>91</ns3:hr>
            <ns3:cad>0</ns3:cad>
          </ns3:TrackPointExtension>
        </extensions>
      </trkpt>
      <trkpt lat="23.1832345761358737945556640625" lon="113.25801297090947628021240234375">
        <ele>10.80000019073486328125</ele>
        <time>2023-07-24T13:54:46.000Z</time>
        <extensions>
          <ns3:TrackPointExtension>
            <ns3:hr>91</ns3:hr>
            <ns3:cad>55</ns3:cad>
          </ns3:TrackPointExtension>
        </extensions>
      </trkpt>
      <trkpt lat="23.183267600834369659423828125" lon="113.25803811661899089813232421875">
        <ele>10.80000019073486328125</ele>
        <time>2023-07-24T13:54:51.000Z</time>
        <extensions>
          <ns3:TrackPointExtension>
            <ns3:hr>92</ns3:hr>
            <ns3:cad>0</ns3:cad>
          </ns3:TrackPointExtension>
        </extensions>
      </trkpt>
      <trkpt lat="23.18334932439029216766357421875" lon="113.25807382352650165557861328125">
        <ele>10.80000019073486328125</ele>
        <time>2023-07-24T13:55:00.000Z</time>
        <extensions>
          <ns3:TrackPointExtension>
            <ns3:hr>96</ns3:hr>
            <ns3:cad>0</ns3:cad>
          </ns3:TrackPointExtension>
        </extensions>
      </trkpt>
      <trkpt lat="23.1833666749298572540283203125" lon="113.25808136723935604095458984375">
        <ele>10.80000019073486328125</ele>
        <time>2023-07-24T13:55:02.000Z</time>
        <extensions>
          <ns3:TrackPointExtension>
            <ns3:hr>96</ns3:hr>
            <ns3:cad>0</ns3:cad>
          </ns3:TrackPointExtension>
        </extensions>
      </trkpt>
      <trkpt lat="23.18347035907208919525146484375" lon="113.25807365588843822479248046875">
        <ele>11.19999980926513671875</ele>
        <time>2023-07-24T13:55:13.000Z</time>
        <extensions>
          <ns3:TrackPointExtension>
            <ns3:hr>96</ns3:hr>
            <ns3:cad>0</ns3:cad>
          </ns3:TrackPointExtension>
        </extensions>
      </trkpt>
      <trkpt lat="23.18348561413586139678955078125" lon="113.258095867931842803955078125">
        <ele>11</ele>
        <time>2023-07-24T13:55:16.000Z</time>
        <extensions>
          <ns3:TrackPointExtension>
            <ns3:hr>96</ns3:hr>
            <ns3:cad>0</ns3:cad>
          </ns3:TrackPointExtension>
        </extensions>
      </trkpt>
      <trkpt lat="23.1835346482694149017333984375" lon="113.2581322453916072845458984375">
        <ele>11</ele>
        <time>2023-07-24T13:55:22.000Z</time>
        <extensions>
          <ns3:TrackPointExtension>
            <ns3:hr>97</ns3:hr>
            <ns3:cad>53</ns3:cad>
          </ns3:TrackPointExtension>
        </extensions>
      </trkpt>
      <trkpt lat="23.18362810648977756500244140625" lon="113.258117325603961944580078125">
        <ele>11.3999996185302734375</ele>
        <time>2023-07-24T13:55:32.000Z</time>
        <extensions>
          <ns3:TrackPointExtension>
            <ns3:hr>98</ns3:hr>
            <ns3:cad>61</ns3:cad>
          </ns3:TrackPointExtension>
        </extensions>
      </trkpt>
      <trkpt lat="23.1837207265198230743408203125" lon="113.2580651901662349700927734375">
        <ele>13</ele>
        <time>2023-07-24T13:55:44.000Z</time>
        <extensions>
          <ns3:TrackPointExtension>
            <ns3:hr>99</ns3:hr>
            <ns3:cad>0</ns3:cad>
          </ns3:TrackPointExtension>
        </extensions>
      </trkpt>
      <trkpt lat="23.18377344869077205657958984375" lon="113.25804666616022586822509765625">
        <ele>13.80000019073486328125</ele>
        <time>2023-07-24T13:55:51.000Z</time>
        <extensions>
          <ns3:TrackPointExtension>
            <ns3:hr>99</ns3:hr>
            <ns3:cad>61</ns3:cad>
          </ns3:TrackPointExtension>
        </extensions>
      </trkpt>
      <trkpt lat="23.18395164795219898223876953125" lon="113.25811187736690044403076171875">
        <ele>14.3999996185302734375</ele>
        <time>2023-07-24T13:56:14.000Z</time>
        <extensions>
          <ns3:TrackPointExtension>
            <ns3:hr>98</ns3:hr>
            <ns3:cad>61</ns3:cad>
          </ns3:TrackPointExtension>
        </extensions>
      </trkpt>
      <trkpt lat="23.18399221636354923248291015625" lon="113.25812813825905323028564453125">
        <ele>14.3999996185302734375</ele>
        <time>2023-07-24T13:56:18.000Z</time>
        <extensions>
          <ns3:TrackPointExtension>
            <ns3:hr>98</ns3:hr>
            <ns3:cad>61</ns3:cad>
          </ns3:TrackPointExtension>
        </extensions>
      </trkpt>
      <trkpt lat="23.18410067819058895111083984375" lon="113.25817977078258991241455078125">
        <ele>14.19999980926513671875</ele>
        <time>2023-07-24T13:56:28.000Z</time>
        <extensions>
          <ns3:TrackPointExtension>
            <ns3:hr>90</ns3:hr>
            <ns3:cad>0</ns3:cad>
          </ns3:TrackPointExtension>
        </extensions>
      </trkpt>
      <trkpt lat="23.18418181501328945159912109375" lon="113.25819686986505985260009765625">
        <ele>13.6000003814697265625</ele>
        <time>2023-07-24T13:56:35.000Z</time>
        <extensions>
          <ns3:TrackPointExtension>
            <ns3:hr>87</ns3:hr>
            <ns3:cad>61</ns3:cad>
          </ns3:TrackPointExtension>
        </extensions>
      </trkpt>
      <trkpt lat="23.18435230292379856109619140625" lon="113.25827096588909626007080078125">
        <ele>12</ele>
        <time>2023-07-24T13:56:50.000Z</time>
        <extensions>
          <ns3:TrackPointExtension>
            <ns3:hr>88</ns3:hr>
            <ns3:cad>61</ns3:cad>
          </ns3:TrackPointExtension>
        </extensions>
      </trkpt>
      <trkpt lat="23.18440779112279415130615234375" lon="113.25832041911780834197998046875">
        <ele>12</ele>
        <time>2023-07-24T13:56:56.000Z</time>
        <extensions>
          <ns3:TrackPointExtension>
            <ns3:hr>91</ns3:hr>
            <ns3:cad>0</ns3:cad>
          </ns3:TrackPointExtension>
        </extensions>
      </trkpt>
      <trkpt lat="23.184471242129802703857421875" lon="113.25840524397790431976318359375">
        <ele>12</ele>
        <time>2023-07-24T13:57:10.000Z</time>
        <extensions>
          <ns3:TrackPointExtension>
            <ns3:hr>94</ns3:hr>
            <ns3:cad>57</ns3:cad>
          </ns3:TrackPointExtension>
        </extensions>
      </trkpt>
      <trkpt lat="23.18456755019724369049072265625" lon="113.25846844352781772613525390625">
        <ele>12</ele>
        <time>2023-07-24T13:57:22.000Z</time>
        <extensions>
          <ns3:TrackPointExtension>
            <ns3:hr>97</ns3:hr>
            <ns3:cad>0</ns3:cad>
          </ns3:TrackPointExtension>
        </extensions>
      </trkpt>
      <trkpt lat="23.18460476584732532501220703125" lon="113.25848487205803394317626953125">
        <ele>12</ele>
        <time>2023-07-24T13:57:27.000Z</time>
        <extensions>
          <ns3:TrackPointExtension>
            <ns3:hr>98</ns3:hr>
            <ns3:cad>0</ns3:cad>
          </ns3:TrackPointExtension>
        </extensions>
      </trkpt>
      <trkpt lat="23.1847342662513256072998046875" lon="113.25861076824367046356201171875">
        <ele>14.80000019073486328125</ele>
        <time>2023-07-24T13:57:49.000Z</time>
        <extensions>
          <ns3:TrackPointExtension>
            <ns3:hr>97</ns3:hr>
            <ns3:cad>0</ns3:cad>
          </ns3:TrackPointExtension>
        </extensions>
      </trkpt>
      <trkpt lat="23.18475848995149135589599609375" lon="113.25861990451812744140625">
        <ele>15.3999996185302734375</ele>
        <time>2023-07-24T13:57:52.000Z</time>
        <extensions>
          <ns3:TrackPointExtension>
            <ns3:hr>97</ns3:hr>
            <ns3:cad>0</ns3:cad>
          </ns3:TrackPointExtension>
        </extensions>
      </trkpt>
      <trkpt lat="23.1847818754613399505615234375" lon="113.2586324773728847503662109375">
        <ele>16</ele>
        <time>2023-07-24T13:57:55.000Z</time>
        <extensions>
          <ns3:TrackPointExtension>
            <ns3:hr>97</ns3:hr>
            <ns3:cad>0</ns3:cad>
          </ns3:TrackPointExtension>
        </extensions>
      </trkpt>
      <trkpt lat="23.18497843109071254730224609375" lon="113.258631639182567596435546875">
        <ele>20</ele>
        <time>2023-07-24T13:58:15.000Z</time>
        <extensions>
          <ns3:TrackPointExtension>
            <ns3:hr>98</ns3:hr>
            <ns3:cad>0</ns3:cad>
          </ns3:TrackPointExtension>
        </extensions>
      </trkpt>
      <trkpt lat="23.185071051120758056640625" lon="113.2585473172366619110107421875">
        <ele>22.3999996185302734375</ele>
        <time>2023-07-24T13:58:27.000Z</time>
        <extensions>
          <ns3:TrackPointExtension>
            <ns3:hr>98</ns3:hr>
            <ns3:cad>58</ns3:cad>
          </ns3:TrackPointExtension>
        </extensions>
      </trkpt>
      <trkpt lat="23.1851540319621562957763671875" lon="113.2584420405328273773193359375">
        <ele>23.200000762939453125</ele>
        <time>2023-07-24T13:58:39.000Z</time>
        <extensions>
          <ns3:TrackPointExtension>
            <ns3:hr>98</ns3:hr>
            <ns3:cad>0</ns3:cad>
          </ns3:TrackPointExtension>
        </extensions>
      </trkpt>
      <trkpt lat="23.18516065366566181182861328125" lon="113.25840474106371402740478515625">
        <ele>22.799999237060546875</ele>
        <time>2023-07-24T13:58:42.000Z</time>
        <extensions>
          <ns3:TrackPointExtension>
            <ns3:hr>98</ns3:hr>
            <ns3:cad>0</ns3:cad>
          </ns3:TrackPointExtension>
        </extensions>
      </trkpt>
      <trkpt lat="23.18512243218719959259033203125" lon="113.2582100294530391693115234375">
        <ele>20.799999237060546875</ele>
        <time>2023-07-24T13:59:01.000Z</time>
        <extensions>
          <ns3:TrackPointExtension>
            <ns3:hr>97</ns3:hr>
            <ns3:cad>0</ns3:cad>
          </ns3:TrackPointExtension>
        </extensions>
      </trkpt>
      <trkpt lat="23.1850963644683361053466796875" lon="113.25806577689945697784423828125">
        <ele>19.6000003814697265625</ele>
        <time>2023-07-24T13:59:15.000Z</time>
        <extensions>
          <ns3:TrackPointExtension>
            <ns3:hr>98</ns3:hr>
            <ns3:cad>61</ns3:cad>
          </ns3:TrackPointExtension>
        </extensions>
      </trkpt>
      <trkpt lat="23.185079433023929595947265625" lon="113.25792663730680942535400390625">
        <ele>19</ele>
        <time>2023-07-24T13:59:27.000Z</time>
        <extensions>
          <ns3:TrackPointExtension>
            <ns3:hr>101</ns3:hr>
            <ns3:cad>59</ns3:cad>
          </ns3:TrackPointExtension>
        </extensions>
      </trkpt>
      <trkpt lat="23.18507499061524868011474609375" lon="113.2578881643712520599365234375">
        <ele>19.200000762939453125</ele>
        <time>2023-07-24T13:59:30.000Z</time>
        <extensions>
          <ns3:TrackPointExtension>
            <ns3:hr>104</ns3:hr>
            <ns3:cad>59</ns3:cad>
          </ns3:TrackPointExtension>
        </extensions>
      </trkpt>
      <trkpt lat="23.18505286239087581634521484375" lon="113.25782907195389270782470703125">
        <ele>18.6000003814697265625</ele>
        <time>2023-07-24T13:59:34.000Z</time>
        <extensions>
          <ns3:TrackPointExtension>
            <ns3:hr>101</ns3:hr>
            <ns3:cad>61</ns3:cad>
          </ns3:TrackPointExtension>
        </extensions>
      </trkpt>
      <trkpt lat="23.1850169040262699127197265625" lon="113.25765221379697322845458984375">
        <ele>17.200000762939453125</ele>
        <time>2023-07-24T13:59:51.000Z</time>
        <extensions>
          <ns3:TrackPointExtension>
            <ns3:hr>108</ns3:hr>
            <ns3:cad>58</ns3:cad>
          </ns3:TrackPointExtension>
        </extensions>
      </trkpt>
      <trkpt lat="23.18501648493111133575439453125" lon="113.2576243020594120025634765625">
        <ele>17.200000762939453125</ele>
        <time>2023-07-24T13:59:52.000Z</time>
        <extensions>
          <ns3:TrackPointExtension>
            <ns3:hr>111</ns3:hr>
            <ns3:cad>58</ns3:cad>
          </ns3:TrackPointExtension>
        </extensions>
      </trkpt>
      <trkpt lat="23.18501648493111133575439453125" lon="113.2576243020594120025634765625">
        <ele>17.200000762939453125</ele>
        <time>2023-07-24T13:59:53.000Z</time>
        <extensions>
          <ns3:TrackPointExtension>
            <ns3:hr>111</ns3:hr>
            <ns3:cad>58</ns3:cad>
          </ns3:TrackPointExtension>
        </extensions>
      </trkpt>
      <trkpt lat="23.18502889014780521392822265625" lon="113.2574848271906375885009765625">
        <ele>16.3999996185302734375</ele>
        <time>2023-07-24T14:00:05.000Z</time>
        <extensions>
          <ns3:TrackPointExtension>
            <ns3:hr>108</ns3:hr>
            <ns3:cad>61</ns3:cad>
          </ns3:TrackPointExtension>
        </extensions>
      </trkpt>
      <trkpt lat="23.1850034929811954498291015625" lon="113.257381059229373931884765625">
        <ele>16.200000762939453125</ele>
        <time>2023-07-24T14:00:17.000Z</time>
        <extensions>
          <ns3:TrackPointExtension>
            <ns3:hr>105</ns3:hr>
            <ns3:cad>0</ns3:cad>
          </ns3:TrackPointExtension>
        </extensions>
      </trkpt>
      <trkpt lat="23.18489561788737773895263671875" lon="113.25721853412687778472900390625">
        <ele>17.200000762939453125</ele>
        <time>2023-07-24T14:00:36.000Z</time>
        <extensions>
          <ns3:TrackPointExtension>
            <ns3:hr>103</ns3:hr>
            <ns3:cad>61</ns3:cad>
          </ns3:TrackPointExtension>
        </extensions>
      </trkpt>
      <trkpt lat="23.18487365730106830596923828125" lon="113.2571674883365631103515625">
        <ele>17.200000762939453125</ele>
        <time>2023-07-24T14:00:40.000Z</time>
        <extensions>
          <ns3:TrackPointExtension>
            <ns3:hr>96</ns3:hr>
            <ns3:cad>0</ns3:cad>
          </ns3:TrackPointExtension>
        </extensions>
      </trkpt>
      <trkpt lat="23.18476301617920398712158203125" lon="113.257014937698841094970703125">
        <ele>16</ele>
        <time>2023-07-24T14:00:57.000Z</time>
        <extensions>
          <ns3:TrackPointExtension>
            <ns3:hr>95</ns3:hr>
            <ns3:cad>61</ns3:cad>
          </ns3:TrackPointExtension>
        </extensions>
      </trkpt>
      <trkpt lat="23.1846729107201099395751953125" lon="113.25683414004743099212646484375">
        <ele>15.3999996185302734375</ele>
        <time>2023-07-24T14:01:20.000Z</time>
        <extensions>
          <ns3:TrackPointExtension>
            <ns3:hr>97</ns3:hr>
            <ns3:cad>0</ns3:cad>
          </ns3:TrackPointExtension>
        </extensions>
      </trkpt>
      <trkpt lat="23.18454600870609283447265625" lon="113.256735987961292266845703125">
        <ele>15.3999996185302734375</ele>
        <time>2023-07-24T14:01:41.000Z</time>
        <extensions>
          <ns3:TrackPointExtension>
            <ns3:hr>100</ns3:hr>
            <ns3:cad>0</ns3:cad>
          </ns3:TrackPointExtension>
        </extensions>
      </trkpt>
      <trkpt lat="23.18437878973782062530517578125" lon="113.2566084153950214385986328125">
        <ele>15</ele>
        <time>2023-07-24T14:01:52.000Z</time>
        <extensions>
          <ns3:TrackPointExtension>
            <ns3:hr>103</ns3:hr>
            <ns3:cad>0</ns3:cad>
          </ns3:TrackPointExtension>
        </extensions>
      </trkpt>
      <trkpt lat="23.18432279862463474273681640625" lon="113.25655368156731128692626953125">
        <ele>14.19999980926513671875</ele>
        <time>2023-07-24T14:01:56.000Z</time>
        <extensions>
          <ns3:TrackPointExtension>
            <ns3:hr>100</ns3:hr>
            <ns3:cad>61</ns3:cad>
          </ns3:TrackPointExtension>
        </extensions>
      </trkpt>
      <trkpt lat="23.18420427851378917694091796875" lon="113.25639928691089153289794921875">
        <ele>11.6000003814697265625</ele>
        <time>2023-07-24T14:02:11.000Z</time>
        <extensions>
          <ns3:TrackPointExtension>
            <ns3:hr>101</ns3:hr>
            <ns3:cad>0</ns3:cad>
          </ns3:TrackPointExtension>
        </extensions>
      </trkpt>
      <trkpt lat="23.1840492971241474151611328125" lon="113.25629132799804210662841796875">
        <ele>8.6000003814697265625</ele>
        <time>2023-07-24T14:02:28.000Z</time>
        <extensions>
          <ns3:TrackPointExtension>
            <ns3:hr>102</ns3:hr>
            <ns3:cad>0</ns3:cad>
          </ns3:TrackPointExtension>
        </extensions>
      </trkpt>
      <trkpt lat="23.18401149474084377288818359375" lon="113.25618336908519268035888671875">
        <ele>7.80000019073486328125</ele>
        <time>2023-07-24T14:02:37.000Z</time>
        <extensions>
          <ns3:TrackPointExtension>
            <ns3:hr>100</ns3:hr>
            <ns3:cad>0</ns3:cad>
          </ns3:TrackPointExtension>
        </extensions>
      </trkpt>
      <trkpt lat="23.18395382724702358245849609375" lon="113.25599762611091136932373046875">
        <ele>7.400000095367431640625</ele>
        <time>2023-07-24T14:02:53.000Z</time>
        <extensions>
          <ns3:TrackPointExtension>
            <ns3:hr>100</ns3:hr>
            <ns3:cad>0</ns3:cad>
          </ns3:TrackPointExtension>
        </extensions>
      </trkpt>
      <trkpt lat="23.18393723107874393463134765625" lon="113.25579486787319183349609375">
        <ele>9.3999996185302734375</ele>
        <time>2023-07-24T14:03:08.000Z</time>
        <extensions>
          <ns3:TrackPointExtension>
            <ns3:hr>99</ns3:hr>
            <ns3:cad>61</ns3:cad>
          </ns3:TrackPointExtension>
        </extensions>
      </trkpt>
      <trkpt lat="23.18390571512281894683837890625" lon="113.25569403357803821563720703125">
        <ele>9.3999996185302734375</ele>
        <time>2023-07-24T14:03:20.000Z</time>
        <extensions>
          <ns3:TrackPointExtension>
            <ns3:hr>99</ns3:hr>
            <ns3:cad>61</ns3:cad>
          </ns3:TrackPointExtension>
        </extensions>
      </trkpt>
      <trkpt lat="23.18389649502933025360107421875" lon="113.25568632222712039947509765625">
        <ele>9.3999996185302734375</ele>
        <time>2023-07-24T14:03:22.000Z</time>
        <extensions>
          <ns3:TrackPointExtension>
            <ns3:hr>99</ns3:hr>
            <ns3:cad>53</ns3:cad>
          </ns3:TrackPointExtension>
        </extensions>
      </trkpt>
      <trkpt lat="23.18387947976589202880859375" lon="113.25567291118204593658447265625">
        <ele>9.3999996185302734375</ele>
        <time>2023-07-24T14:03:24.000Z</time>
        <extensions>
          <ns3:TrackPointExtension>
            <ns3:hr>99</ns3:hr>
            <ns3:cad>59</ns3:cad>
          </ns3:TrackPointExtension>
        </extensions>
      </trkpt>
      <trkpt lat="23.18387067876756191253662109375" lon="113.25565279461443424224853515625">
        <ele>9.3999996185302734375</ele>
        <time>2023-07-24T14:03:26.000Z</time>
        <extensions>
          <ns3:TrackPointExtension>
            <ns3:hr>99</ns3:hr>
            <ns3:cad>60</ns3:cad>
          </ns3:TrackPointExtension>
        </extensions>
      </trkpt>
      <trkpt lat="23.18386347033083438873291015625" lon="113.2555945403873920440673828125">
        <ele>9.19999980926513671875</ele>
        <time>2023-07-24T14:03:32.000Z</time>
        <extensions>
          <ns3:TrackPointExtension>
            <ns3:hr>100</ns3:hr>
            <ns3:cad>0</ns3:cad>
          </ns3:TrackPointExtension>
        </extensions>
      </trkpt>
      <trkpt lat="23.18383388221263885498046875" lon="113.2555281557142734527587890625">
        <ele>9</ele>
        <time>2023-07-24T14:03:37.000Z</time>
        <extensions>
          <ns3:TrackPointExtension>
            <ns3:hr>100</ns3:hr>
            <ns3:cad>61</ns3:cad>
          </ns3:TrackPointExtension>
        </extensions>
      </trkpt>
      <trkpt lat="23.18374805152416229248046875" lon="113.2553541474044322967529296875">
        <ele>10.19999980926513671875</ele>
        <time>2023-07-24T14:03:51.000Z</time>
        <extensions>
          <ns3:TrackPointExtension>
            <ns3:hr>100</ns3:hr>
            <ns3:cad>0</ns3:cad>
          </ns3:TrackPointExtension>
        </extensions>
      </trkpt>
      <trkpt lat="23.1837053038179874420166015625" lon="113.25532137416303157806396484375">
        <ele>11</ele>
        <time>2023-07-24T14:03:56.000Z</time>
        <extensions>
          <ns3:TrackPointExtension>
            <ns3:hr>99</ns3:hr>
            <ns3:cad>61</ns3:cad>
          </ns3:TrackPointExtension>
        </extensions>
      </trkpt>
      <trkpt lat="23.18356306292116641998291015625" lon="113.25527007691562175750732421875">
        <ele>14.3999996185302734375</ele>
        <time>2023-07-24T14:04:10.000Z</time>
        <extensions>
          <ns3:TrackPointExtension>
            <ns3:hr>99</ns3:hr>
            <ns3:cad>0</ns3:cad>
          </ns3:TrackPointExtension>
        </extensions>
      </trkpt>
      <trkpt lat="23.18343222141265869140625" lon="113.25513361953198909759521484375">
        <ele>16</ele>
        <time>2023-07-24T14:04:27.000Z</time>
        <extensions>
          <ns3:TrackPointExtension>
            <ns3:hr>99</ns3:hr>
            <ns3:cad>61</ns3:cad>
          </ns3:TrackPointExtension>
        </extensions>
      </trkpt>
      <trkpt lat="23.18335686810314655303955078125" lon="113.25494234450161457061767578125">
        <ele>16.799999237060546875</ele>
        <time>2023-07-24T14:04:43.000Z</time>
        <extensions>
          <ns3:TrackPointExtension>
            <ns3:hr>99</ns3:hr>
            <ns3:cad>61</ns3:cad>
          </ns3:TrackPointExtension>
        </extensions>
      </trkpt>
      <trkpt lat="23.18320414982736110687255859375" lon="113.25484427623450756072998046875">
        <ele>16</ele>
        <time>2023-07-24T14:05:00.000Z</time>
        <extensions>
          <ns3:TrackPointExtension>
            <ns3:hr>99</ns3:hr>
            <ns3:cad>0</ns3:cad>
          </ns3:TrackPointExtension>
        </extensions>
      </trkpt>
      <trkpt lat="23.1830231845378875732421875" lon="113.25480052269995212554931640625">
        <ele>15.3999996185302734375</ele>
        <time>2023-07-24T14:05:12.000Z</time>
        <extensions>
          <ns3:TrackPointExtension>
            <ns3:hr>97</ns3:hr>
            <ns3:cad>61</ns3:cad>
          </ns3:TrackPointExtension>
        </extensions>
      </trkpt>
      <trkpt lat="23.18289552815258502960205078125" lon="113.2547952421009540557861328125">
        <ele>16.3999996185302734375</ele>
        <time>2023-07-24T14:05:28.000Z</time>
        <extensions>
          <ns3:TrackPointExtension>
            <ns3:hr>99</ns3:hr>
            <ns3:cad>0</ns3:cad>
          </ns3:TrackPointExtension>
        </extensions>
      </trkpt>
      <trkpt lat="23.182790167629718780517578125" lon="113.25479314662516117095947265625">
        <ele>17.3999996185302734375</ele>
        <time>2023-07-24T14:05:40.000Z</time>
        <extensions>
          <ns3:TrackPointExtension>
            <ns3:hr>97</ns3:hr>
            <ns3:cad>61</ns3:cad>
          </ns3:TrackPointExtension>
        </extensions>
      </trkpt>
      <trkpt lat="23.182781450450420379638671875" lon="113.2547761313617229461669921875">
        <ele>17.6000003814697265625</ele>
        <time>2023-07-24T14:05:42.000Z</time>
        <extensions>
          <ns3:TrackPointExtension>
            <ns3:hr>97</ns3:hr>
            <ns3:cad>61</ns3:cad>
          </ns3:TrackPointExtension>
        </extensions>
      </trkpt>
      <trkpt lat="23.18273224867880344390869140625" lon="113.254751153290271759033203125">
        <ele>17.6000003814697265625</ele>
        <time>2023-07-24T14:05:48.000Z</time>
        <extensions>
          <ns3:TrackPointExtension>
            <ns3:hr>98</ns3:hr>
            <ns3:cad>57</ns3:cad>
          </ns3:TrackPointExtension>
        </extensions>
      </trkpt>
      <trkpt lat="23.182710371911525726318359375" lon="113.254751153290271759033203125">
        <ele>17.6000003814697265625</ele>
        <time>2023-07-24T14:05:51.000Z</time>
        <extensions>
          <ns3:TrackPointExtension>
            <ns3:hr>98</ns3:hr>
            <ns3:cad>57</ns3:cad>
          </ns3:TrackPointExtension>
        </extensions>
      </trkpt>
      <trkpt lat="23.18269469775259494781494140625" lon="113.2547405920922756195068359375">
        <ele>17.6000003814697265625</ele>
        <time>2023-07-24T14:05:55.000Z</time>
        <extensions>
          <ns3:TrackPointExtension>
            <ns3:hr>98</ns3:hr>
            <ns3:cad>60</ns3:cad>
          </ns3:TrackPointExtension>
        </extensions>
      </trkpt>
      <trkpt lat="23.1825591623783111572265625" lon="113.25465836562216281890869140625">
        <ele>17.6000003814697265625</ele>
        <time>2023-07-24T14:06:03.000Z</time>
        <extensions>
          <ns3:TrackPointExtension>
            <ns3:hr>98</ns3:hr>
            <ns3:cad>60</ns3:cad>
          </ns3:TrackPointExtension>
        </extensions>
      </trkpt>
      <trkpt lat="23.1824470125138759613037109375" lon="113.254647217690944671630859375">
        <ele>17</ele>
        <time>2023-07-24T14:06:08.000Z</time>
        <extensions>
          <ns3:TrackPointExtension>
            <ns3:hr>98</ns3:hr>
            <ns3:cad>0</ns3:cad>
          </ns3:TrackPointExtension>
        </extensions>
      </trkpt>
      <trkpt lat="23.18227727897465229034423828125" lon="113.25456448830664157867431640625">
        <ele>15</ele>
        <time>2023-07-24T14:06:22.000Z</time>
        <extensions>
          <ns3:TrackPointExtension>
            <ns3:hr>98</ns3:hr>
            <ns3:cad>57</ns3:cad>
          </ns3:TrackPointExtension>
        </extensions>
      </trkpt>
      <trkpt lat="23.18217694759368896484375" lon="113.25456817634403705596923828125">
        <ele>13.80000019073486328125</ele>
        <time>2023-07-24T14:06:31.000Z</time>
        <extensions>
          <ns3:TrackPointExtension>
            <ns3:hr>99</ns3:hr>
            <ns3:cad>61</ns3:cad>
          </ns3:TrackPointExtension>
        </extensions>
      </trkpt>
      <trkpt lat="23.18216730840504169464111328125" lon="113.25456230901181697845458984375">
        <ele>13.6000003814697265625</ele>
        <time>2023-07-24T14:06:33.000Z</time>
        <extensions>
          <ns3:TrackPointExtension>
            <ns3:hr>99</ns3:hr>
            <ns3:cad>61</ns3:cad>
          </ns3:TrackPointExtension>
        </extensions>
      </trkpt>
      <trkpt lat="23.18208239972591400146484375" lon="113.2545588724315166473388671875">
        <ele>13.3999996185302734375</ele>
        <time>2023-07-24T14:06:45.000Z</time>
        <extensions>
          <ns3:TrackPointExtension>
            <ns3:hr>99</ns3:hr>
            <ns3:cad>61</ns3:cad>
          </ns3:TrackPointExtension>
        </extensions>
      </trkpt>
      <trkpt lat="23.18207208998501300811767578125" lon="113.254537917673587799072265625">
        <ele>13.19999980926513671875</ele>
        <time>2023-07-24T14:06:50.000Z</time>
        <extensions>
          <ns3:TrackPointExtension>
            <ns3:hr>98</ns3:hr>
            <ns3:cad>57</ns3:cad>
          </ns3:TrackPointExtension>
        </extensions>
      </trkpt>
      <trkpt lat="23.18201936781406402587890625" lon="113.25453699566423892974853515625">
        <ele>13.19999980926513671875</ele>
        <time>2023-07-24T14:06:59.000Z</time>
        <extensions>
          <ns3:TrackPointExtension>
            <ns3:hr>98</ns3:hr>
            <ns3:cad>57</ns3:cad>
          </ns3:TrackPointExtension>
        </extensions>
      </trkpt>
      <trkpt lat="23.181982152163982391357421875" lon="113.2545286975800991058349609375">
        <ele>13</ele>
        <time>2023-07-24T14:07:06.000Z</time>
        <extensions>
          <ns3:TrackPointExtension>
            <ns3:hr>98</ns3:hr>
            <ns3:cad>0</ns3:cad>
          </ns3:TrackPointExtension>
        </extensions>
      </trkpt>
      <trkpt lat="23.1818539090454578399658203125" lon="113.25458829291164875030517578125">
        <ele>12</ele>
        <time>2023-07-24T14:07:14.000Z</time>
        <extensions>
          <ns3:TrackPointExtension>
            <ns3:hr>99</ns3:hr>
            <ns3:cad>55</ns3:cad>
          </ns3:TrackPointExtension>
        </extensions>
      </trkpt>
      <trkpt lat="23.1818394921720027923583984375" lon="113.25458946637809276580810546875">
        <ele>12</ele>
        <time>2023-07-24T14:07:16.000Z</time>
        <extensions>
          <ns3:TrackPointExtension>
            <ns3:hr>100</ns3:hr>
            <ns3:cad>55</ns3:cad>
          </ns3:TrackPointExtension>
        </extensions>
      </trkpt>
      <trkpt lat="23.181797750294208526611328125" lon="113.254566751420497894287109375">
        <ele>12.19999980926513671875</ele>
        <time>2023-07-24T14:07:22.000Z</time>
        <extensions>
          <ns3:TrackPointExtension>
            <ns3:hr>100</ns3:hr>
            <ns3:cad>60</ns3:cad>
          </ns3:TrackPointExtension>
        </extensions>
      </trkpt>
      <trkpt lat="23.18177754990756511688232421875" lon="113.25455677695572376251220703125">
        <ele>12.19999980926513671875</ele>
        <time>2023-07-24T14:07:24.000Z</time>
        <extensions>
          <ns3:TrackPointExtension>
            <ns3:hr>100</ns3:hr>
            <ns3:cad>0</ns3:cad>
          </ns3:TrackPointExtension>
        </extensions>
      </trkpt>
      <trkpt lat="23.18156096152961254119873046875" lon="113.2544981874525547027587890625">
        <ele>13</ele>
        <time>2023-07-24T14:07:33.000Z</time>
        <extensions>
          <ns3:TrackPointExtension>
            <ns3:hr>99</ns3:hr>
            <ns3:cad>53</ns3:cad>
          </ns3:TrackPointExtension>
        </extensions>
      </trkpt>
      <trkpt lat="23.1814579479396343231201171875" lon="113.25446583330631256103515625">
        <ele>13.3999996185302734375</ele>
        <time>2023-07-24T14:07:44.000Z</time>
        <extensions>
          <ns3:TrackPointExtension>
            <ns3:hr>100</ns3:hr>
            <ns3:cad>61</ns3:cad>
          </ns3:TrackPointExtension>
        </extensions>
      </trkpt>
      <trkpt lat="23.18141176365315914154052734375" lon="113.2544385083019733428955078125">
        <ele>13.6000003814697265625</ele>
        <time>2023-07-24T14:07:50.000Z</time>
        <extensions>
          <ns3:TrackPointExtension>
            <ns3:hr>100</ns3:hr>
            <ns3:cad>53</ns3:cad>
          </ns3:TrackPointExtension>
        </extensions>
      </trkpt>
      <trkpt lat="23.18139114417135715484619140625" lon="113.25442249886691570281982421875">
        <ele>13.6000003814697265625</ele>
        <time>2023-07-24T14:07:52.000Z</time>
        <extensions>
          <ns3:TrackPointExtension>
            <ns3:hr>100</ns3:hr>
            <ns3:cad>53</ns3:cad>
          </ns3:TrackPointExtension>
        </extensions>
      </trkpt>
      <trkpt lat="23.18132878281176090240478515625" lon="113.2543724589049816131591796875">
        <ele>13.80000019073486328125</ele>
        <time>2023-07-24T14:08:01.000Z</time>
        <extensions>
          <ns3:TrackPointExtension>
            <ns3:hr>100</ns3:hr>
            <ns3:cad>60</ns3:cad>
          </ns3:TrackPointExtension>
        </extensions>
      </trkpt>
      <trkpt lat="23.18129491992294788360595703125" lon="113.25435544364154338836669921875">
        <ele>14</ele>
        <time>2023-07-24T14:08:05.000Z</time>
        <extensions>
          <ns3:TrackPointExtension>
            <ns3:hr>98</ns3:hr>
            <ns3:cad>55</ns3:cad>
          </ns3:TrackPointExtension>
        </extensions>
      </trkpt>
      <trkpt lat="23.1812644936144351959228515625" lon="113.2543446309864521026611328125">
        <ele>14.3999996185302734375</ele>
        <time>2023-07-24T14:08:10.000Z</time>
        <extensions>
          <ns3:TrackPointExtension>
            <ns3:hr>95</ns3:hr>
            <ns3:cad>56</ns3:cad>
          </ns3:TrackPointExtension>
        </extensions>
      </trkpt>
      <trkpt lat="23.18124412558972835540771484375" lon="113.25434102676808834075927734375">
        <ele>14.6000003814697265625</ele>
        <time>2023-07-24T14:08:12.000Z</time>
        <extensions>
          <ns3:TrackPointExtension>
            <ns3:hr>94</ns3:hr>
            <ns3:cad>55</ns3:cad>
          </ns3:TrackPointExtension>
        </extensions>
      </trkpt>
      <trkpt lat="23.18113583140075206756591796875" lon="113.25436281971633434295654296875">
        <ele>15.80000019073486328125</ele>
        <time>2023-07-24T14:08:27.000Z</time>
        <extensions>
          <ns3:TrackPointExtension>
            <ns3:hr>93</ns3:hr>
            <ns3:cad>59</ns3:cad>
          </ns3:TrackPointExtension>
        </extensions>
      </trkpt>
      <trkpt lat="23.18109744228422641754150390625" lon="113.254352845251560211181640625">
        <ele>16.200000762939453125</ele>
        <time>2023-07-24T14:08:33.000Z</time>
        <extensions>
          <ns3:TrackPointExtension>
            <ns3:hr>94</ns3:hr>
            <ns3:cad>61</ns3:cad>
          </ns3:TrackPointExtension>
        </extensions>
      </trkpt>
      <trkpt lat="23.18105419166386127471923828125" lon="113.2543543539941310882568359375">
        <ele>16.6000003814697265625</ele>
        <time>2023-07-24T14:08:40.000Z</time>
        <extensions>
          <ns3:TrackPointExtension>
            <ns3:hr>93</ns3:hr>
            <ns3:cad>0</ns3:cad>
          </ns3:TrackPointExtension>
        </extensions>
      </trkpt>
      <trkpt lat="23.1810361705720424652099609375" lon="113.2543020509183406829833984375">
        <ele>16.799999237060546875</ele>
        <time>2023-07-24T14:08:49.000Z</time>
        <extensions>
          <ns3:TrackPointExtension>
            <ns3:hr>97</ns3:hr>
            <ns3:cad>61</ns3:cad>
          </ns3:TrackPointExtension>
        </extensions>
      </trkpt>
      <trkpt lat="23.181008510291576385498046875" lon="113.2542343251407146453857421875">
        <ele>17.3999996185302734375</ele>
        <time>2023-07-24T14:08:59.000Z</time>
        <extensions>
          <ns3:TrackPointExtension>
            <ns3:hr>97</ns3:hr>
            <ns3:cad>61</ns3:cad>
          </ns3:TrackPointExtension>
        </extensions>
      </trkpt>
      <trkpt lat="23.18103139288723468780517578125" lon="113.2540458999574184417724609375">
        <ele>17.799999237060546875</ele>
        <time>2023-07-24T14:09:09.000Z</time>
        <extensions>
          <ns3:TrackPointExtension>
            <ns3:hr>97</ns3:hr>
            <ns3:cad>59</ns3:cad>
          </ns3:TrackPointExtension>
        </extensions>
      </trkpt>
      <trkpt lat="23.18096936680376529693603515625" lon="113.25393584556877613067626953125">
        <ele>20.3999996185302734375</ele>
        <time>2023-07-24T14:09:16.000Z</time>
        <extensions>
          <ns3:TrackPointExtension>
            <ns3:hr>97</ns3:hr>
            <ns3:cad>61</ns3:cad>
          </ns3:TrackPointExtension>
        </extensions>
      </trkpt>
      <trkpt lat="23.18096819333732128143310546875" lon="113.2539288885891437530517578125">
        <ele>20.6000003814697265625</ele>
        <time>2023-07-24T14:09:18.000Z</time>
        <extensions>
          <ns3:TrackPointExtension>
            <ns3:hr>97</ns3:hr>
            <ns3:cad>60</ns3:cad>
          </ns3:TrackPointExtension>
        </extensions>
      </trkpt>
      <trkpt lat="23.18096953444182872772216796875" lon="113.2539201714098453521728515625">
        <ele>20.799999237060546875</ele>
        <time>2023-07-24T14:09:20.000Z</time>
        <extensions>
          <ns3:TrackPointExtension>
            <ns3:hr>97</ns3:hr>
            <ns3:cad>60</ns3:cad>
          </ns3:TrackPointExtension>
        </extensions>
      </trkpt>
      <trkpt lat="23.18086409009993076324462890625" lon="113.25387440621852874755859375">
        <ele>22.799999237060546875</ele>
        <time>2023-07-24T14:09:39.000Z</time>
        <extensions>
          <ns3:TrackPointExtension>
            <ns3:hr>101</ns3:hr>
            <ns3:cad>71</ns3:cad>
          </ns3:TrackPointExtension>
        </extensions>
      </trkpt>
      <trkpt lat="23.1808594800531864166259765625" lon="113.2538702152669429779052734375">
        <ele>22.799999237060546875</ele>
        <time>2023-07-24T14:09:40.000Z</time>
        <extensions>
          <ns3:TrackPointExtension>
            <ns3:hr>106</ns3:hr>
            <ns3:cad>71</ns3:cad>
          </ns3:TrackPointExtension>
        </extensions>
      </trkpt>
      <trkpt lat="23.18085604347288608551025390625" lon="113.2538745738565921783447265625">
        <ele>22.799999237060546875</ele>
        <time>2023-07-24T14:09:41.000Z</time>
        <extensions>
          <ns3:TrackPointExtension>
            <ns3:hr>109</ns3:hr>
            <ns3:cad>71</ns3:cad>
          </ns3:TrackPointExtension>
        </extensions>
      </trkpt>
      <trkpt lat="23.18085470236837863922119140625" lon="113.253868035972118377685546875">
        <ele>23</ele>
        <time>2023-07-24T14:09:42.000Z</time>
        <extensions>
          <ns3:TrackPointExtension>
            <ns3:hr>113</ns3:hr>
            <ns3:cad>71</ns3:cad>
          </ns3:TrackPointExtension>
        </extensions>
      </trkpt>
      <trkpt lat="23.18084967322647571563720703125" lon="113.25386225245893001556396484375">
        <ele>23.200000762939453125</ele>
        <time>2023-07-24T14:09:43.000Z</time>
        <extensions>
          <ns3:TrackPointExtension>
            <ns3:hr>116</ns3:hr>
            <ns3:cad>71</ns3:cad>
          </ns3:TrackPointExtension>
        </extensions>
      </trkpt>
      <trkpt lat="23.1808407045900821685791015625" lon="113.25385487638413906097412109375">
        <ele>23.3999996185302734375</ele>
        <time>2023-07-24T14:09:45.000Z</time>
        <extensions>
          <ns3:TrackPointExtension>
            <ns3:hr>120</ns3:hr>
            <ns3:cad>71</ns3:cad>
          </ns3:TrackPointExtension>
        </extensions>
      </trkpt>
      <trkpt lat="23.180830813944339752197265625" lon="113.2538625039160251617431640625">
        <ele>23.3999996185302734375</ele>
        <time>2023-07-24T14:09:51.000Z</time>
        <extensions>
          <ns3:TrackPointExtension>
            <ns3:hr>123</ns3:hr>
            <ns3:cad>71</ns3:cad>
          </ns3:TrackPointExtension>
        </extensions>
      </trkpt>
      <trkpt lat="23.18081262521445751190185546875" lon="113.25385906733572483062744140625">
        <ele>23.6000003814697265625</ele>
        <time>2023-07-24T14:09:54.000Z</time>
        <extensions>
          <ns3:TrackPointExtension>
            <ns3:hr>120</ns3:hr>
            <ns3:cad>71</ns3:cad>
          </ns3:TrackPointExtension>
        </extensions>
      </trkpt>
      <trkpt lat="23.18074255250394344329833984375" lon="113.25386795215308666229248046875">
        <ele>24.6000003814697265625</ele>
        <time>2023-07-24T14:10:01.000Z</time>
        <extensions>
          <ns3:TrackPointExtension>
            <ns3:hr>114</ns3:hr>
            <ns3:cad>71</ns3:cad>
          </ns3:TrackPointExtension>
        </extensions>
      </trkpt>
      <trkpt lat="23.18070868961513042449951171875" lon="113.25386526994407176971435546875">
        <ele>24.799999237060546875</ele>
        <time>2023-07-24T14:10:05.000Z</time>
        <extensions>
          <ns3:TrackPointExtension>
            <ns3:hr>117</ns3:hr>
            <ns3:cad>71</ns3:cad>
          </ns3:TrackPointExtension>
        </extensions>
      </trkpt>
      <trkpt lat="23.180645070970058441162109375" lon="113.25386510230600833892822265625">
        <ele>25</ele>
        <time>2023-07-24T14:10:12.000Z</time>
        <extensions>
          <ns3:TrackPointExtension>
            <ns3:hr>114</ns3:hr>
            <ns3:cad>58</ns3:cad>
          </ns3:TrackPointExtension>
        </extensions>
      </trkpt>
      <trkpt lat="23.1804970465600490570068359375" lon="113.253892846405506134033203125">
        <ele>25.6000003814697265625</ele>
        <time>2023-07-24T14:10:23.000Z</time>
        <extensions>
          <ns3:TrackPointExtension>
            <ns3:hr>111</ns3:hr>
            <ns3:cad>61</ns3:cad>
          </ns3:TrackPointExtension>
        </extensions>
      </trkpt>
      <trkpt lat="23.180403001606464385986328125" lon="113.253871388733386993408203125">
        <ele>26</ele>
        <time>2023-07-24T14:10:31.000Z</time>
        <extensions>
          <ns3:TrackPointExtension>
            <ns3:hr>108</ns3:hr>
            <ns3:cad>61</ns3:cad>
          </ns3:TrackPointExtension>
        </extensions>
      </trkpt>
      <trkpt lat="23.180221952497959136962890625" lon="113.25386828742921352386474609375">
        <ele>26.200000762939453125</ele>
        <time>2023-07-24T14:10:50.000Z</time>
        <extensions>
          <ns3:TrackPointExtension>
            <ns3:hr>106</ns3:hr>
            <ns3:cad>59</ns3:cad>
          </ns3:TrackPointExtension>
        </extensions>
      </trkpt>
      <trkpt lat="23.1800165958702564239501953125" lon="113.2539325766265392303466796875">
        <ele>28</ele>
        <time>2023-07-24T14:10:54.000Z</time>
        <extensions>
          <ns3:TrackPointExtension>
            <ns3:hr>107</ns3:hr>
            <ns3:cad>58</ns3:cad>
          </ns3:TrackPointExtension>
        </extensions>
      </trkpt>
      <trkpt lat="23.179840408265590667724609375" lon="113.25388915836811065673828125">
        <ele>26</ele>
        <time>2023-07-24T14:11:04.000Z</time>
        <extensions>
          <ns3:TrackPointExtension>
            <ns3:hr>105</ns3:hr>
            <ns3:cad>57</ns3:cad>
          </ns3:TrackPointExtension>
        </extensions>
      </trkpt>
      <trkpt lat="23.179707638919353485107421875" lon="113.25380190275609493255615234375">
        <ele>23.799999237060546875</ele>
        <time>2023-07-24T14:11:16.000Z</time>
        <extensions>
          <ns3:TrackPointExtension>
            <ns3:hr>102</ns3:hr>
            <ns3:cad>55</ns3:cad>
          </ns3:TrackPointExtension>
        </extensions>
      </trkpt>
      <trkpt lat="23.179534636437892913818359375" lon="113.25368103571236133575439453125">
        <ele>20.799999237060546875</ele>
        <time>2023-07-24T14:11:46.000Z</time>
        <extensions>
          <ns3:TrackPointExtension>
            <ns3:hr>101</ns3:hr>
            <ns3:cad>61</ns3:cad>
          </ns3:TrackPointExtension>
        </extensions>
      </trkpt>
      <trkpt lat="23.17960361950099468231201171875" lon="113.25348540209233760833740234375">
        <ele>23.6000003814697265625</ele>
        <time>2023-07-24T14:12:02.000Z</time>
        <extensions>
          <ns3:TrackPointExtension>
            <ns3:hr>100</ns3:hr>
            <ns3:cad>64</ns3:cad>
          </ns3:TrackPointExtension>
        </extensions>
      </trkpt>
      <trkpt lat="23.1796206347644329071044921875" lon="113.253285996615886688232421875">
        <ele>23.799999237060546875</ele>
        <time>2023-07-24T14:12:19.000Z</time>
        <extensions>
          <ns3:TrackPointExtension>
            <ns3:hr>100</ns3:hr>
            <ns3:cad>61</ns3:cad>
          </ns3:TrackPointExtension>
        </extensions>
      </trkpt>
      <trkpt lat="23.179558105766773223876953125" lon="113.2530886866152286529541015625">
        <ele>23.200000762939453125</ele>
        <time>2023-07-24T14:12:36.000Z</time>
        <extensions>
          <ns3:TrackPointExtension>
            <ns3:hr>100</ns3:hr>
            <ns3:cad>0</ns3:cad>
          </ns3:TrackPointExtension>
        </extensions>
      </trkpt>
      <trkpt lat="23.1795435212552547454833984375" lon="113.25304334051907062530517578125">
        <ele>23</ele>
        <time>2023-07-24T14:12:42.000Z</time>
        <extensions>
          <ns3:TrackPointExtension>
            <ns3:hr>99</ns3:hr>
            <ns3:cad>0</ns3:cad>
          </ns3:TrackPointExtension>
        </extensions>
      </trkpt>
      <trkpt lat="23.17955332808196544647216796875" lon="113.25302339158952236175537109375">
        <ele>23.200000762939453125</ele>
        <time>2023-07-24T14:12:44.000Z</time>
        <extensions>
          <ns3:TrackPointExtension>
            <ns3:hr>99</ns3:hr>
            <ns3:cad>0</ns3:cad>
          </ns3:TrackPointExtension>
        </extensions>
      </trkpt>
      <trkpt lat="23.179579563438892364501953125" lon="113.25294476933777332305908203125">
        <ele>23.200000762939453125</ele>
        <time>2023-07-24T14:12:47.000Z</time>
        <extensions>
          <ns3:TrackPointExtension>
            <ns3:hr>99</ns3:hr>
            <ns3:cad>0</ns3:cad>
          </ns3:TrackPointExtension>
        </extensions>
      </trkpt>
      <trkpt lat="23.1795810721814632415771484375" lon="113.2529086433351039886474609375">
        <ele>23.200000762939453125</ele>
        <time>2023-07-24T14:12:49.000Z</time>
        <extensions>
          <ns3:TrackPointExtension>
            <ns3:hr>100</ns3:hr>
            <ns3:cad>61</ns3:cad>
          </ns3:TrackPointExtension>
        </extensions>
      </trkpt>
      <trkpt lat="23.17952231504023075103759765625" lon="113.25271904468536376953125">
        <ele>21.799999237060546875</ele>
        <time>2023-07-24T14:13:07.000Z</time>
        <extensions>
          <ns3:TrackPointExtension>
            <ns3:hr>100</ns3:hr>
            <ns3:cad>61</ns3:cad>
          </ns3:TrackPointExtension>
        </extensions>
      </trkpt>
      <trkpt lat="23.17944872193038463592529296875" lon="113.2525338046252727508544921875">
        <ele>21</ele>
        <time>2023-07-24T14:13:26.000Z</time>
        <extensions>
          <ns3:TrackPointExtension>
            <ns3:hr>100</ns3:hr>
            <ns3:cad>59</ns3:cad>
          </ns3:TrackPointExtension>
        </extensions>
      </trkpt>
      <trkpt lat="23.1794020347297191619873046875" lon="113.25233892537653446197509765625">
        <ele>19.6000003814697265625</ele>
        <time>2023-07-24T14:13:48.000Z</time>
        <extensions>
          <ns3:TrackPointExtension>
            <ns3:hr>98</ns3:hr>
            <ns3:cad>0</ns3:cad>
          </ns3:TrackPointExtension>
        </extensions>
      </trkpt>
      <trkpt lat="23.1792820058763027191162109375" lon="113.252182938158512115478515625">
        <ele>19.200000762939453125</ele>
        <time>2023-07-24T14:14:04.000Z</time>
        <extensions>
          <ns3:TrackPointExtension>
            <ns3:hr>98</ns3:hr>
            <ns3:cad>0</ns3:cad>
          </ns3:TrackPointExtension>
        </extensions>
      </trkpt>
      <trkpt lat="23.1792669184505939483642578125" lon="113.252163827419281005859375">
        <ele>19</ele>
        <time>2023-07-24T14:14:08.000Z</time>
        <extensions>
          <ns3:TrackPointExtension>
            <ns3:hr>98</ns3:hr>
            <ns3:cad>61</ns3:cad>
          </ns3:TrackPointExtension>
        </extensions>
      </trkpt>
      <trkpt lat="23.179215453565120697021484375" lon="113.25208679772913455963134765625">
        <ele>17.799999237060546875</ele>
        <time>2023-07-24T14:14:17.000Z</time>
        <extensions>
          <ns3:TrackPointExtension>
            <ns3:hr>98</ns3:hr>
            <ns3:cad>61</ns3:cad>
          </ns3:TrackPointExtension>
        </extensions>
      </trkpt>
      <trkpt lat="23.17920296452939510345458984375" lon="113.25207137502729892730712890625">
        <ele>17.6000003814697265625</ele>
        <time>2023-07-24T14:14:19.000Z</time>
        <extensions>
          <ns3:TrackPointExtension>
            <ns3:hr>98</ns3:hr>
            <ns3:cad>0</ns3:cad>
          </ns3:TrackPointExtension>
        </extensions>
      </trkpt>
      <trkpt lat="23.1791160441935062408447265625" lon="113.25200750492513179779052734375">
        <ele>16.3999996185302734375</ele>
        <time>2023-07-24T14:14:26.000Z</time>
        <extensions>
          <ns3:TrackPointExtension>
            <ns3:hr>97</ns3:hr>
            <ns3:cad>58</ns3:cad>
          </ns3:TrackPointExtension>
        </extensions>
      </trkpt>
      <trkpt lat="23.179079331457614898681640625" lon="113.25187481939792633056640625">
        <ele>14</ele>
        <time>2023-07-24T14:14:35.000Z</time>
        <extensions>
          <ns3:TrackPointExtension>
            <ns3:hr>97</ns3:hr>
            <ns3:cad>59</ns3:cad>
          </ns3:TrackPointExtension>
        </extensions>
      </trkpt>
      <trkpt lat="23.17908226512372493743896484375" lon="113.251822851598262786865234375">
        <ele>13.6000003814697265625</ele>
        <time>2023-07-24T14:14:39.000Z</time>
        <extensions>
          <ns3:TrackPointExtension>
            <ns3:hr>97</ns3:hr>
            <ns3:cad>0</ns3:cad>
          </ns3:TrackPointExtension>
        </extensions>
      </trkpt>
      <trkpt lat="23.17907388322055339813232421875" lon="113.2517869770526885986328125">
        <ele>13.3999996185302734375</ele>
        <time>2023-07-24T14:14:43.000Z</time>
        <extensions>
          <ns3:TrackPointExtension>
            <ns3:hr>101</ns3:hr>
            <ns3:cad>57</ns3:cad>
          </ns3:TrackPointExtension>
        </extensions>
      </trkpt>
      <trkpt lat="23.179069273173809051513671875" lon="113.2517636753618717193603515625">
        <ele>13.19999980926513671875</ele>
        <time>2023-07-24T14:14:46.000Z</time>
        <extensions>
          <ns3:TrackPointExtension>
            <ns3:hr>100</ns3:hr>
            <ns3:cad>61</ns3:cad>
          </ns3:TrackPointExtension>
        </extensions>
      </trkpt>
      <trkpt lat="23.17906332202255725860595703125" lon="113.25175001285970211029052734375">
        <ele>13.19999980926513671875</ele>
        <time>2023-07-24T14:14:48.000Z</time>
        <extensions>
          <ns3:TrackPointExtension>
            <ns3:hr>100</ns3:hr>
            <ns3:cad>61</ns3:cad>
          </ns3:TrackPointExtension>
        </extensions>
      </trkpt>
      <trkpt lat="23.17902862094342708587646484375" lon="113.2515739090740680694580078125">
        <ele>12.6000003814697265625</ele>
        <time>2023-07-24T14:15:16.000Z</time>
        <extensions>
          <ns3:TrackPointExtension>
            <ns3:hr>99</ns3:hr>
            <ns3:cad>61</ns3:cad>
          </ns3:TrackPointExtension>
        </extensions>
      </trkpt>
      <trkpt lat="23.178994171321392059326171875" lon="113.25148866511881351470947265625">
        <ele>13.3999996185302734375</ele>
        <time>2023-07-24T14:15:24.000Z</time>
        <extensions>
          <ns3:TrackPointExtension>
            <ns3:hr>98</ns3:hr>
            <ns3:cad>0</ns3:cad>
          </ns3:TrackPointExtension>
        </extensions>
      </trkpt>
      <trkpt lat="23.1789782457053661346435546875" lon="113.2514431513845920562744140625">
        <ele>14</ele>
        <time>2023-07-24T14:15:27.000Z</time>
        <extensions>
          <ns3:TrackPointExtension>
            <ns3:hr>96</ns3:hr>
            <ns3:cad>0</ns3:cad>
          </ns3:TrackPointExtension>
        </extensions>
      </trkpt>
      <trkpt lat="23.1789641641080379486083984375" lon="113.251392357051372528076171875">
        <ele>14.6000003814697265625</ele>
        <time>2023-07-24T14:15:29.000Z</time>
        <extensions>
          <ns3:TrackPointExtension>
            <ns3:hr>96</ns3:hr>
            <ns3:cad>53</ns3:cad>
          </ns3:TrackPointExtension>
        </extensions>
      </trkpt>
      <trkpt lat="23.1788391061127185821533203125" lon="113.25123989023268222808837890625">
        <ele>16.3999996185302734375</ele>
        <time>2023-07-24T14:15:43.000Z</time>
        <extensions>
          <ns3:TrackPointExtension>
            <ns3:hr>96</ns3:hr>
            <ns3:cad>61</ns3:cad>
          </ns3:TrackPointExtension>
        </extensions>
      </trkpt>
      <trkpt lat="23.17876308225095272064208984375" lon="113.25107015669345855712890625">
        <ele>18</ele>
        <time>2023-07-24T14:16:04.000Z</time>
        <extensions>
          <ns3:TrackPointExtension>
            <ns3:hr>96</ns3:hr>
            <ns3:cad>57</ns3:cad>
          </ns3:TrackPointExtension>
        </extensions>
      </trkpt>
      <trkpt lat="23.1787388585507869720458984375" lon="113.25104190967977046966552734375">
        <ele>18.200000762939453125</ele>
        <time>2023-07-24T14:16:09.000Z</time>
        <extensions>
          <ns3:TrackPointExtension>
            <ns3:hr>96</ns3:hr>
            <ns3:cad>57</ns3:cad>
          </ns3:TrackPointExtension>
        </extensions>
      </trkpt>
      <trkpt lat="23.17870239727199077606201171875" lon="113.250984661281108856201171875">
        <ele>19</ele>
        <time>2023-07-24T14:16:21.000Z</time>
        <extensions>
          <ns3:TrackPointExtension>
            <ns3:hr>96</ns3:hr>
            <ns3:cad>56</ns3:cad>
          </ns3:TrackPointExtension>
        </extensions>
      </trkpt>
      <trkpt lat="23.1785202585160732269287109375" lon="113.2508483715355396270751953125">
        <ele>21.200000762939453125</ele>
        <time>2023-07-24T14:16:42.000Z</time>
        <extensions>
          <ns3:TrackPointExtension>
            <ns3:hr>96</ns3:hr>
            <ns3:cad>61</ns3:cad>
          </ns3:TrackPointExtension>
        </extensions>
      </trkpt>
      <trkpt lat="23.178109712898731231689453125" lon="113.25069422833621501922607421875">
        <ele>25.200000762939453125</ele>
        <time>2023-07-24T14:19:05.000Z</time>
        <extensions>
          <ns3:TrackPointExtension>
            <ns3:hr>138</ns3:hr>
            <ns3:cad>61</ns3:cad>
          </ns3:TrackPointExtension>
        </extensions>
      </trkpt>
      <trkpt lat="23.178096972405910491943359375" lon="113.25072146952152252197265625">
        <ele>25</ele>
        <time>2023-07-24T14:19:08.000Z</time>
        <extensions>
          <ns3:TrackPointExtension>
            <ns3:hr>137</ns3:hr>
            <ns3:cad>61</ns3:cad>
          </ns3:TrackPointExtension>
        </extensions>
      </trkpt>
      <trkpt lat="23.17819529213011264801025390625" lon="113.25065734796226024627685546875">
        <ele>25.799999237060546875</ele>
        <time>2023-07-24T14:19:12.000Z</time>
        <extensions>
          <ns3:TrackPointExtension>
            <ns3:hr>134</ns3:hr>
            <ns3:cad>0</ns3:cad>
          </ns3:TrackPointExtension>
        </extensions>
      </trkpt>
      <trkpt lat="23.1782785244286060333251953125" lon="113.2506435178220272064208984375">
        <ele>25.3999996185302734375</ele>
        <time>2023-07-24T14:19:15.000Z</time>
        <extensions>
          <ns3:TrackPointExtension>
            <ns3:hr>133</ns3:hr>
            <ns3:cad>0</ns3:cad>
          </ns3:TrackPointExtension>
        </extensions>
      </trkpt>
      <trkpt lat="23.178284056484699249267578125" lon="113.2506389915943145751953125">
        <ele>25.3999996185302734375</ele>
        <time>2023-07-24T14:19:17.000Z</time>
        <extensions>
          <ns3:TrackPointExtension>
            <ns3:hr>133</ns3:hr>
            <ns3:cad>61</ns3:cad>
          </ns3:TrackPointExtension>
        </extensions>
      </trkpt>
      <trkpt lat="23.17831657826900482177734375" lon="113.2506780512630939483642578125">
        <ele>24.799999237060546875</ele>
        <time>2023-07-24T14:19:20.000Z</time>
        <extensions>
          <ns3:TrackPointExtension>
            <ns3:hr>131</ns3:hr>
            <ns3:cad>0</ns3:cad>
          </ns3:TrackPointExtension>
        </extensions>
      </trkpt>
      <trkpt lat="23.17832236178219318389892578125" lon="113.25068148784339427947998046875">
        <ele>24.799999237060546875</ele>
        <time>2023-07-24T14:19:23.000Z</time>
        <extensions>
          <ns3:TrackPointExtension>
            <ns3:hr>130</ns3:hr>
            <ns3:cad>0</ns3:cad>
          </ns3:TrackPointExtension>
        </extensions>
      </trkpt>
      <trkpt lat="23.1783589906990528106689453125" lon="113.25065181590616703033447265625">
        <ele>24.6000003814697265625</ele>
        <time>2023-07-24T14:19:29.000Z</time>
        <extensions>
          <ns3:TrackPointExtension>
            <ns3:hr>127</ns3:hr>
            <ns3:cad>0</ns3:cad>
          </ns3:TrackPointExtension>
        </extensions>
      </trkpt>
      <trkpt lat="23.17837248556315898895263671875" lon="113.25062700547277927398681640625">
        <ele>24.6000003814697265625</ele>
        <time>2023-07-24T14:19:38.000Z</time>
        <extensions>
          <ns3:TrackPointExtension>
            <ns3:hr>124</ns3:hr>
            <ns3:cad>61</ns3:cad>
          </ns3:TrackPointExtension>
        </extensions>
      </trkpt>
      <trkpt lat="23.17838824354112148284912109375" lon="113.2505593635141849517822265625">
        <ele>24.6000003814697265625</ele>
        <time>2023-07-24T14:20:09.000Z</time>
        <extensions>
          <ns3:TrackPointExtension>
            <ns3:hr>121</ns3:hr>
            <ns3:cad>0</ns3:cad>
          </ns3:TrackPointExtension>
        </extensions>
      </trkpt>
      <trkpt lat="23.1783412210643291473388671875" lon="113.25058861635625362396240234375">
        <ele>25.200000762939453125</ele>
        <time>2023-07-24T14:20:13.000Z</time>
        <extensions>
          <ns3:TrackPointExtension>
            <ns3:hr>118</ns3:hr>
            <ns3:cad>0</ns3:cad>
          </ns3:TrackPointExtension>
        </extensions>
      </trkpt>
      <trkpt lat="23.1783351860940456390380859375" lon="113.25060420669615268707275390625">
        <ele>25.200000762939453125</ele>
        <time>2023-07-24T14:20:15.000Z</time>
        <extensions>
          <ns3:TrackPointExtension>
            <ns3:hr>118</ns3:hr>
            <ns3:cad>0</ns3:cad>
          </ns3:TrackPointExtension>
        </extensions>
      </trkpt>
      <trkpt lat="23.17828598432242870330810546875" lon="113.25060755945742130279541015625">
        <ele>25.6000003814697265625</ele>
        <time>2023-07-24T14:20:26.000Z</time>
        <extensions>
          <ns3:TrackPointExtension>
            <ns3:hr>115</ns3:hr>
            <ns3:cad>0</ns3:cad>
          </ns3:TrackPointExtension>
        </extensions>
      </trkpt>
      <trkpt lat="23.17825756967067718505859375" lon="113.25060881674289703369140625">
        <ele>26</ele>
        <time>2023-07-24T14:20:34.000Z</time>
        <extensions>
          <ns3:TrackPointExtension>
            <ns3:hr>112</ns3:hr>
            <ns3:cad>0</ns3:cad>
          </ns3:TrackPointExtension>
        </extensions>
      </trkpt>
      <trkpt lat="23.178219683468341827392578125" lon="113.2506032846868038177490234375">
        <ele>26.200000762939453125</ele>
        <time>2023-07-24T14:20:45.000Z</time>
        <extensions>
          <ns3:TrackPointExtension>
            <ns3:hr>116</ns3:hr>
            <ns3:cad>0</ns3:cad>
          </ns3:TrackPointExtension>
        </extensions>
      </trkpt>
      <trkpt lat="23.17821976728737354278564453125" lon="113.25060705654323101043701171875">
        <ele>26.200000762939453125</ele>
        <time>2023-07-24T14:20:46.000Z</time>
        <extensions>
          <ns3:TrackPointExtension>
            <ns3:hr>113</ns3:hr>
            <ns3:cad>0</ns3:cad>
          </ns3:TrackPointExtension>
        </extensions>
      </trkpt>
      <trkpt lat="23.17824005149304866790771484375" lon="113.2506411708891391754150390625">
        <ele>25.799999237060546875</ele>
        <time>2023-07-24T14:20:51.000Z</time>
        <extensions>
          <ns3:TrackPointExtension>
            <ns3:hr>117</ns3:hr>
            <ns3:cad>0</ns3:cad>
          </ns3:TrackPointExtension>
        </extensions>
      </trkpt>
      <trkpt lat="23.17829855717718601226806640625" lon="113.2506068050861358642578125">
        <ele>25.6000003814697265625</ele>
        <time>2023-07-24T14:20:59.000Z</time>
        <extensions>
          <ns3:TrackPointExtension>
            <ns3:hr>120</ns3:hr>
            <ns3:cad>0</ns3:cad>
          </ns3:TrackPointExtension>
        </extensions>
      </trkpt>
      <trkpt lat="23.17824013531208038330078125" lon="113.250546120107173919677734375">
        <ele>26.6000003814697265625</ele>
        <time>2023-07-24T14:21:10.000Z</time>
        <extensions>
          <ns3:TrackPointExtension>
            <ns3:hr>116</ns3:hr>
            <ns3:cad>60</ns3:cad>
          </ns3:TrackPointExtension>
        </extensions>
      </trkpt>
    </trkseg>
  </trk>
</gpx>
