<gpx xmlns:ns3="http://www.garmin.com/xmlschemas/TrackPointExtension/v1" xmlns="http://www.topografix.com/GPX/1/1" xmlns:xsi="http://www.w3.org/2001/XMLSchema-instance" xmlns:ns2="http://www.garmin.com/xmlschemas/GpxExtensions/v3" creator="Garmin Connect" version="1.1" xsi:schemaLocation="http://www.topografix.com/GPX/1/1 http://www.topografix.com/GPX/11.xsd">
  <extensions>
<distance>57.5</distance>
<average_hr>84.0</average_hr>
<average_speed>0.8619999885559082</average_speed>
<start_time>2023-08-09T05:39:29+00:00</start_time>
<end_time>2023-08-09T05:40:35.719000+00:00</end_time>
<moving_time>48.0</moving_time>
<elapsed_time>66.719</elapsed_time>
</extensions>
<metadata>
    <link href="connect.garmin.com">
      <text>Garmin Connect</text>
    </link>
    <time>2023-08-09T05:39:29.000Z</time>
  </metadata>
  <trk>
    <name>广州市 跑步</name>
    <type>running</type>
    <trkseg>
      <trkpt lat="23.1783271394670009613037109375" lon="113.25088030658662319183349609375">
        <ele>22.6000003814697265625</ele>
        <time>2023-08-09T05:39:29.000Z</time>
        <extensions>
          <ns3:TrackPointExtension>
            <ns3:hr>74</ns3:hr>
            <ns3:cad>0</ns3:cad>
          </ns3:TrackPointExtension>
        </extensions>
      </trkpt>
      <trkpt lat="23.17832102067768573760986328125" lon="113.2508795522153377532958984375">
        <ele>22.6000003814697265625</ele>
        <time>2023-08-09T05:39:30.000Z</time>
        <extensions>
          <ns3:TrackPointExtension>
            <ns3:hr>74</ns3:hr>
            <ns3:cad>0</ns3:cad>
          </ns3:TrackPointExtension>
        </extensions>
      </trkpt>
      <trkpt lat="23.17818070761859416961669921875" lon="113.250930011272430419921875">
        <ele>21.799999237060546875</ele>
        <time>2023-08-09T05:39:38.000Z</time>
        <extensions>
          <ns3:TrackPointExtension>
            <ns3:hr>73</ns3:hr>
            <ns3:cad>0</ns3:cad>
          </ns3:TrackPointExtension>
        </extensions>
      </trkpt>
      <trkpt lat="23.17808247171342372894287109375" lon="113.25106739066541194915771484375">
        <ele>21.200000762939453125</ele>
        <time>2023-08-09T05:39:45.000Z</time>
        <extensions>
          <ns3:TrackPointExtension>
            <ns3:hr>73</ns3:hr>
            <ns3:cad>75</ns3:cad>
          </ns3:TrackPointExtension>
        </extensions>
      </trkpt>
      <trkpt lat="23.1779784522950649261474609375" lon="113.251101337373256683349609375">
        <ele>22.200000762939453125</ele>
        <time>2023-08-09T05:39:47.000Z</time>
        <extensions>
          <ns3:TrackPointExtension>
            <ns3:hr>76</ns3:hr>
            <ns3:cad>75</ns3:cad>
          </ns3:TrackPointExtension>
        </extensions>
      </trkpt>
      <trkpt lat="23.17798666656017303466796875" lon="113.25109563767910003662109375">
        <ele>22</ele>
        <time>2023-08-09T05:39:48.000Z</time>
        <extensions>
          <ns3:TrackPointExtension>
            <ns3:hr>79</ns3:hr>
            <ns3:cad>75</ns3:cad>
          </ns3:TrackPointExtension>
        </extensions>
      </trkpt>
      <trkpt lat="23.178013823926448822021484375" lon="113.25115674175322055816650390625">
        <ele>22.200000762939453125</ele>
        <time>2023-08-09T05:39:50.000Z</time>
        <extensions>
          <ns3:TrackPointExtension>
            <ns3:hr>78</ns3:hr>
            <ns3:cad>75</ns3:cad>
          </ns3:TrackPointExtension>
        </extensions>
      </trkpt>
      <trkpt lat="23.1780113093554973602294921875" lon="113.251214325428009033203125">
        <ele>22.6000003814697265625</ele>
        <time>2023-08-09T05:39:54.000Z</time>
        <extensions>
          <ns3:TrackPointExtension>
            <ns3:hr>75</ns3:hr>
            <ns3:cad>96</ns3:cad>
          </ns3:TrackPointExtension>
        </extensions>
      </trkpt>
      <trkpt lat="23.17800988443195819854736328125" lon="113.251203931868076324462890625">
        <ele>22.6000003814697265625</ele>
        <time>2023-08-09T05:39:55.000Z</time>
        <extensions>
          <ns3:TrackPointExtension>
            <ns3:hr>75</ns3:hr>
            <ns3:cad>106</ns3:cad>
          </ns3:TrackPointExtension>
        </extensions>
      </trkpt>
      <trkpt lat="23.17800653167068958282470703125" lon="113.25120334513485431671142578125">
        <ele>22.6000003814697265625</ele>
        <time>2023-08-09T05:39:59.000Z</time>
        <extensions>
          <ns3:TrackPointExtension>
            <ns3:hr>77</ns3:hr>
            <ns3:cad>120</ns3:cad>
          </ns3:TrackPointExtension>
        </extensions>
      </trkpt>
      <trkpt lat="23.17800552584230899810791015625" lon="113.251199238002300262451171875">
        <ele>22.6000003814697265625</ele>
        <time>2023-08-09T05:40:00.000Z</time>
        <extensions>
          <ns3:TrackPointExtension>
            <ns3:hr>80</ns3:hr>
            <ns3:cad>120</ns3:cad>
          </ns3:TrackPointExtension>
        </extensions>
      </trkpt>
      <trkpt lat="23.1780052743852138519287109375" lon="113.251190185546875">
        <ele>22.6000003814697265625</ele>
        <time>2023-08-09T05:40:01.000Z</time>
        <extensions>
          <ns3:TrackPointExtension>
            <ns3:hr>81</ns3:hr>
            <ns3:cad>120</ns3:cad>
          </ns3:TrackPointExtension>
        </extensions>
      </trkpt>
      <trkpt lat="23.178006112575531005859375" lon="113.25117417611181735992431640625">
        <ele>22.3999996185302734375</ele>
        <time>2023-08-09T05:40:04.000Z</time>
        <extensions>
          <ns3:TrackPointExtension>
            <ns3:hr>84</ns3:hr>
            <ns3:cad>120</ns3:cad>
          </ns3:TrackPointExtension>
        </extensions>
      </trkpt>
      <trkpt lat="23.17800275981426239013671875" lon="113.2511702366173267364501953125">
        <ele>22.3999996185302734375</ele>
        <time>2023-08-09T05:40:07.000Z</time>
        <extensions>
          <ns3:TrackPointExtension>
            <ns3:hr>85</ns3:hr>
            <ns3:cad>120</ns3:cad>
          </ns3:TrackPointExtension>
        </extensions>
      </trkpt>
      <trkpt lat="23.17799027077853679656982421875" lon="113.2511564902961254119873046875">
        <ele>22.3999996185302734375</ele>
        <time>2023-08-09T05:40:09.000Z</time>
        <extensions>
          <ns3:TrackPointExtension>
            <ns3:hr>82</ns3:hr>
            <ns3:cad>120</ns3:cad>
          </ns3:TrackPointExtension>
        </extensions>
      </trkpt>
      <trkpt lat="23.17798356525599956512451171875" lon="113.25114819221198558807373046875">
        <ele>22.6000003814697265625</ele>
        <time>2023-08-09T05:40:10.000Z</time>
        <extensions>
          <ns3:TrackPointExtension>
            <ns3:hr>85</ns3:hr>
            <ns3:cad>120</ns3:cad>
          </ns3:TrackPointExtension>
        </extensions>
      </trkpt>
      <trkpt lat="23.17797417752444744110107421875" lon="113.251139558851718902587890625">
        <ele>22.6000003814697265625</ele>
        <time>2023-08-09T05:40:12.000Z</time>
        <extensions>
          <ns3:TrackPointExtension>
            <ns3:hr>85</ns3:hr>
            <ns3:cad>120</ns3:cad>
          </ns3:TrackPointExtension>
        </extensions>
      </trkpt>
      <trkpt lat="23.17796495743095874786376953125" lon="113.25113293714821338653564453125">
        <ele>22.6000003814697265625</ele>
        <time>2023-08-09T05:40:14.000Z</time>
        <extensions>
          <ns3:TrackPointExtension>
            <ns3:hr>88</ns3:hr>
            <ns3:cad>120</ns3:cad>
          </ns3:TrackPointExtension>
        </extensions>
      </trkpt>
      <trkpt lat="23.177954144775867462158203125" lon="113.2511206157505512237548828125">
        <ele>22.6000003814697265625</ele>
        <time>2023-08-09T05:40:15.000Z</time>
        <extensions>
          <ns3:TrackPointExtension>
            <ns3:hr>91</ns3:hr>
            <ns3:cad>120</ns3:cad>
          </ns3:TrackPointExtension>
        </extensions>
      </trkpt>
      <trkpt lat="23.17795137874782085418701171875" lon="113.25109966099262237548828125">
        <ele>22.3999996185302734375</ele>
        <time>2023-08-09T05:40:18.000Z</time>
        <extensions>
          <ns3:TrackPointExtension>
            <ns3:hr>91</ns3:hr>
            <ns3:cad>0</ns3:cad>
          </ns3:TrackPointExtension>
        </extensions>
      </trkpt>
      <trkpt lat="23.17794500850141048431396484375" lon="113.251079879701137542724609375">
        <ele>22.200000762939453125</ele>
        <time>2023-08-09T05:40:25.000Z</time>
        <extensions>
          <ns3:TrackPointExtension>
            <ns3:hr>97</ns3:hr>
            <ns3:cad>0</ns3:cad>
          </ns3:TrackPointExtension>
        </extensions>
      </trkpt>
      <trkpt lat="23.17794735543429851531982421875" lon="113.25107007287442684173583984375">
        <ele>22.200000762939453125</ele>
        <time>2023-08-09T05:40:28.000Z</time>
        <extensions>
          <ns3:TrackPointExtension>
            <ns3:hr>100</ns3:hr>
            <ns3:cad>0</ns3:cad>
          </ns3:TrackPointExtension>
        </extensions>
      </trkpt>
      <trkpt lat="23.17793847061693668365478515625" lon="113.251068480312824249267578125">
        <ele>22.200000762939453125</ele>
        <time>2023-08-09T05:40:29.000Z</time>
        <extensions>
          <ns3:TrackPointExtension>
            <ns3:hr>104</ns3:hr>
            <ns3:cad>0</ns3:cad>
          </ns3:TrackPointExtension>
        </extensions>
      </trkpt>
      <trkpt lat="23.17796160466969013214111328125" lon="113.25102430768311023712158203125">
        <ele>22</ele>
        <time>2023-08-09T05:40:35.000Z</time>
        <extensions>
          <ns3:TrackPointExtension>
            <ns3:hr>109</ns3:hr>
            <ns3:cad>0</ns3:cad>
          </ns3:TrackPointExtension>
        </extensions>
      </trkpt>
    </trkseg>
  </trk>
</gpx>
