<gpx xmlns:ns3="http://www.garmin.com/xmlschemas/TrackPointExtension/v1" xmlns="http://www.topografix.com/GPX/1/1" xmlns:xsi="http://www.w3.org/2001/XMLSchema-instance" xmlns:ns2="http://www.garmin.com/xmlschemas/GpxExtensions/v3" creator="Garmin Connect" version="1.1" xsi:schemaLocation="http://www.topografix.com/GPX/1/1 http://www.topografix.com/GPX/11.xsd">
  <extensions>
<distance>1068.66</distance>
<average_hr>149.0</average_hr>
<average_speed>1.9299999475479126</average_speed>
<start_time>2017-09-16T23:17:57+00:00</start_time>
<end_time>2017-09-16T23:27:10.798000+00:00</end_time>
<moving_time>551.0</moving_time>
<elapsed_time>557.798</elapsed_time>
</extensions>
<metadata>
    <link href="connect.garmin.com">
      <text>Garmin Connect</text>
    </link>
    <time>2017-09-16T23:17:57.000Z</time>
  </metadata>
  <trk>
    <name>佛山市 跑步</name>
    <type>running</type>
    <trkseg>
      <trkpt lat="22.952358908951282501220703125" lon="113.08151992969214916229248046875">
        <ele>4.400000095367431640625</ele>
        <time>2017-09-16T23:21:15.000Z</time>
        <extensions>
          <ns3:TrackPointExtension>
            <ns3:hr>145</ns3:hr>
            <ns3:cad>61</ns3:cad>
          </ns3:TrackPointExtension>
        </extensions>
      </trkpt>
      <trkpt lat="22.95238883234560489654541015625" lon="113.0815436504781246185302734375">
        <ele>3.599999904632568359375</ele>
        <time>2017-09-16T23:21:18.000Z</time>
        <extensions>
          <ns3:TrackPointExtension>
            <ns3:hr>141</ns3:hr>
            <ns3:cad>61</ns3:cad>
          </ns3:TrackPointExtension>
        </extensions>
      </trkpt>
      <trkpt lat="22.9523905925452709197998046875" lon="113.08151992969214916229248046875">
        <ele>4</ele>
        <time>2017-09-16T23:21:24.000Z</time>
        <extensions>
          <ns3:TrackPointExtension>
            <ns3:hr>141</ns3:hr>
            <ns3:cad>61</ns3:cad>
          </ns3:TrackPointExtension>
        </extensions>
      </trkpt>
      <trkpt lat="22.952366285026073455810546875" lon="113.08147542178630828857421875">
        <ele>5.19999980926513671875</ele>
        <time>2017-09-16T23:21:27.000Z</time>
        <extensions>
          <ns3:TrackPointExtension>
            <ns3:hr>138</ns3:hr>
            <ns3:cad>61</ns3:cad>
          </ns3:TrackPointExtension>
        </extensions>
      </trkpt>
      <trkpt lat="22.95236335135996341705322265625" lon="113.08144734241068363189697265625">
        <ele>5.599999904632568359375</ele>
        <time>2017-09-16T23:21:30.000Z</time>
        <extensions>
          <ns3:TrackPointExtension>
            <ns3:hr>139</ns3:hr>
            <ns3:cad>61</ns3:cad>
          </ns3:TrackPointExtension>
        </extensions>
      </trkpt>
      <trkpt lat="22.95238229446113109588623046875" lon="113.08141046203672885894775390625">
        <ele>6.19999980926513671875</ele>
        <time>2017-09-16T23:21:37.000Z</time>
        <extensions>
          <ns3:TrackPointExtension>
            <ns3:hr>137</ns3:hr>
            <ns3:cad>61</ns3:cad>
          </ns3:TrackPointExtension>
        </extensions>
      </trkpt>
      <trkpt lat="22.952393777668476104736328125" lon="113.08139973320066928863525390625">
        <ele>6.19999980926513671875</ele>
        <time>2017-09-16T23:21:40.000Z</time>
        <extensions>
          <ns3:TrackPointExtension>
            <ns3:hr>134</ns3:hr>
            <ns3:cad>61</ns3:cad>
          </ns3:TrackPointExtension>
        </extensions>
      </trkpt>
      <trkpt lat="22.951974682509899139404296875" lon="113.08136486448347568511962890625">
        <ele>6.599999904632568359375</ele>
        <time>2017-09-16T23:21:44.000Z</time>
        <extensions>
          <ns3:TrackPointExtension>
            <ns3:hr>131</ns3:hr>
            <ns3:cad>61</ns3:cad>
          </ns3:TrackPointExtension>
        </extensions>
      </trkpt>
      <trkpt lat="22.9519446752965450286865234375" lon="113.08147181756794452667236328125">
        <ele>5.400000095367431640625</ele>
        <time>2017-09-16T23:21:52.000Z</time>
        <extensions>
          <ns3:TrackPointExtension>
            <ns3:hr>128</ns3:hr>
            <ns3:cad>64</ns3:cad>
          </ns3:TrackPointExtension>
        </extensions>
      </trkpt>
      <trkpt lat="22.95196755789220333099365234375" lon="113.08147584088146686553955078125">
        <ele>5.400000095367431640625</ele>
        <time>2017-09-16T23:21:54.000Z</time>
        <extensions>
          <ns3:TrackPointExtension>
            <ns3:hr>123</ns3:hr>
            <ns3:cad>61</ns3:cad>
          </ns3:TrackPointExtension>
        </extensions>
      </trkpt>
      <trkpt lat="22.9521592520177364349365234375" lon="113.081365115940570831298828125">
        <ele>7.400000095367431640625</ele>
        <time>2017-09-16T23:22:14.000Z</time>
        <extensions>
          <ns3:TrackPointExtension>
            <ns3:hr>122</ns3:hr>
            <ns3:cad>61</ns3:cad>
          </ns3:TrackPointExtension>
        </extensions>
      </trkpt>
      <trkpt lat="22.95216755010187625885009765625" lon="113.0813558958470821380615234375">
        <ele>7.599999904632568359375</ele>
        <time>2017-09-16T23:22:16.000Z</time>
        <extensions>
          <ns3:TrackPointExtension>
            <ns3:hr>123</ns3:hr>
            <ns3:cad>61</ns3:cad>
          </ns3:TrackPointExtension>
        </extensions>
      </trkpt>
      <trkpt lat="22.95218012295663356781005859375" lon="113.08134072460234165191650390625">
        <ele>7.80000019073486328125</ele>
        <time>2017-09-16T23:22:18.000Z</time>
        <extensions>
          <ns3:TrackPointExtension>
            <ns3:hr>123</ns3:hr>
            <ns3:cad>61</ns3:cad>
          </ns3:TrackPointExtension>
        </extensions>
      </trkpt>
      <trkpt lat="22.95219386927783489227294921875" lon="113.081311471760272979736328125">
        <ele>8.3999996185302734375</ele>
        <time>2017-09-16T23:22:20.000Z</time>
        <extensions>
          <ns3:TrackPointExtension>
            <ns3:hr>122</ns3:hr>
            <ns3:cad>54</ns3:cad>
          </ns3:TrackPointExtension>
        </extensions>
      </trkpt>
      <trkpt lat="22.9522239603102207183837890625" lon="113.08130183257162570953369140625">
        <ele>8.3999996185302734375</ele>
        <time>2017-09-16T23:22:22.000Z</time>
        <extensions>
          <ns3:TrackPointExtension>
            <ns3:hr>122</ns3:hr>
            <ns3:cad>54</ns3:cad>
          </ns3:TrackPointExtension>
        </extensions>
      </trkpt>
      <trkpt lat="22.9522980563342571258544921875" lon="113.08127450756728649139404296875">
        <ele>9</ele>
        <time>2017-09-16T23:22:28.000Z</time>
        <extensions>
          <ns3:TrackPointExtension>
            <ns3:hr>121</ns3:hr>
            <ns3:cad>54</ns3:cad>
          </ns3:TrackPointExtension>
        </extensions>
      </trkpt>
      <trkpt lat="22.95236863195896148681640625" lon="113.08123913593590259552001953125">
        <ele>9.3999996185302734375</ele>
        <time>2017-09-16T23:22:34.000Z</time>
        <extensions>
          <ns3:TrackPointExtension>
            <ns3:hr>121</ns3:hr>
            <ns3:cad>0</ns3:cad>
          </ns3:TrackPointExtension>
        </extensions>
      </trkpt>
      <trkpt lat="22.95238598249852657318115234375" lon="113.08123796246945858001708984375">
        <ele>9.3999996185302734375</ele>
        <time>2017-09-16T23:22:38.000Z</time>
        <extensions>
          <ns3:TrackPointExtension>
            <ns3:hr>121</ns3:hr>
            <ns3:cad>0</ns3:cad>
          </ns3:TrackPointExtension>
        </extensions>
      </trkpt>
      <trkpt lat="22.9524646885693073272705078125" lon="113.0812150798738002777099609375">
        <ele>9.6000003814697265625</ele>
        <time>2017-09-16T23:22:42.000Z</time>
        <extensions>
          <ns3:TrackPointExtension>
            <ns3:hr>137</ns3:hr>
            <ns3:cad>0</ns3:cad>
          </ns3:TrackPointExtension>
        </extensions>
      </trkpt>
      <trkpt lat="22.9524878226220607757568359375" lon="113.0812127329409122467041015625">
        <ele>9.6000003814697265625</ele>
        <time>2017-09-16T23:22:43.000Z</time>
        <extensions>
          <ns3:TrackPointExtension>
            <ns3:hr>140</ns3:hr>
            <ns3:cad>75</ns3:cad>
          </ns3:TrackPointExtension>
        </extensions>
      </trkpt>
      <trkpt lat="22.95253752730786800384521484375" lon="113.08122304268181324005126953125">
        <ele>9.6000003814697265625</ele>
        <time>2017-09-16T23:22:45.000Z</time>
        <extensions>
          <ns3:TrackPointExtension>
            <ns3:hr>137</ns3:hr>
            <ns3:cad>78</ns3:cad>
          </ns3:TrackPointExtension>
        </extensions>
      </trkpt>
      <trkpt lat="22.95261883176863193511962890625" lon="113.08123259805142879486083984375">
        <ele>9.6000003814697265625</ele>
        <time>2017-09-16T23:22:49.000Z</time>
        <extensions>
          <ns3:TrackPointExtension>
            <ns3:hr>142</ns3:hr>
            <ns3:cad>79</ns3:cad>
          </ns3:TrackPointExtension>
        </extensions>
      </trkpt>
      <trkpt lat="22.9526343382894992828369140625" lon="113.081223964691162109375">
        <ele>9.80000019073486328125</ele>
        <time>2017-09-16T23:22:50.000Z</time>
        <extensions>
          <ns3:TrackPointExtension>
            <ns3:hr>145</ns3:hr>
            <ns3:cad>78</ns3:cad>
          </ns3:TrackPointExtension>
        </extensions>
      </trkpt>
      <trkpt lat="22.95265018008649349212646484375" lon="113.08121130801737308502197265625">
        <ele>9.6000003814697265625</ele>
        <time>2017-09-16T23:22:51.000Z</time>
        <extensions>
          <ns3:TrackPointExtension>
            <ns3:hr>145</ns3:hr>
            <ns3:cad>77</ns3:cad>
          </ns3:TrackPointExtension>
        </extensions>
      </trkpt>
      <trkpt lat="22.95272612012922763824462890625" lon="113.081181384623050689697265625">
        <ele>8.80000019073486328125</ele>
        <time>2017-09-16T23:22:55.000Z</time>
        <extensions>
          <ns3:TrackPointExtension>
            <ns3:hr>142</ns3:hr>
            <ns3:cad>80</ns3:cad>
          </ns3:TrackPointExtension>
        </extensions>
      </trkpt>
      <trkpt lat="22.9527520202100276947021484375" lon="113.08117845095694065093994140625">
        <ele>8.3999996185302734375</ele>
        <time>2017-09-16T23:22:56.000Z</time>
        <extensions>
          <ns3:TrackPointExtension>
            <ns3:hr>145</ns3:hr>
            <ns3:cad>80</ns3:cad>
          </ns3:TrackPointExtension>
        </extensions>
      </trkpt>
      <trkpt lat="22.95277758501470088958740234375" lon="113.08117358945310115814208984375">
        <ele>8</ele>
        <time>2017-09-16T23:22:57.000Z</time>
        <extensions>
          <ns3:TrackPointExtension>
            <ns3:hr>149</ns3:hr>
            <ns3:cad>80</ns3:cad>
          </ns3:TrackPointExtension>
        </extensions>
      </trkpt>
      <trkpt lat="22.9529126174747943878173828125" lon="113.0811614356935024261474609375">
        <ele>7</ele>
        <time>2017-09-16T23:23:02.000Z</time>
        <extensions>
          <ns3:TrackPointExtension>
            <ns3:hr>152</ns3:hr>
            <ns3:cad>83</ns3:cad>
          </ns3:TrackPointExtension>
        </extensions>
      </trkpt>
      <trkpt lat="22.95303390361368656158447265625" lon="113.08114961721003055572509765625">
        <ele>4.80000019073486328125</ele>
        <time>2017-09-16T23:23:06.000Z</time>
        <extensions>
          <ns3:TrackPointExtension>
            <ns3:hr>148</ns3:hr>
            <ns3:cad>81</ns3:cad>
          </ns3:TrackPointExtension>
        </extensions>
      </trkpt>
      <trkpt lat="22.95310514979064464569091796875" lon="113.08115179650485515594482421875">
        <ele>3</ele>
        <time>2017-09-16T23:23:09.000Z</time>
        <extensions>
          <ns3:TrackPointExtension>
            <ns3:hr>151</ns3:hr>
            <ns3:cad>80</ns3:cad>
          </ns3:TrackPointExtension>
        </extensions>
      </trkpt>
      <trkpt lat="22.95315728522837162017822265625" lon="113.08117694221436977386474609375">
        <ele>1</ele>
        <time>2017-09-16T23:23:11.000Z</time>
        <extensions>
          <ns3:TrackPointExtension>
            <ns3:hr>155</ns3:hr>
            <ns3:cad>80</ns3:cad>
          </ns3:TrackPointExtension>
        </extensions>
      </trkpt>
      <trkpt lat="22.9532995261251926422119140625" lon="113.08121348731219768524169921875">
        <ele>0</ele>
        <time>2017-09-16T23:23:14.000Z</time>
        <extensions>
          <ns3:TrackPointExtension>
            <ns3:hr>150</ns3:hr>
            <ns3:cad>80</ns3:cad>
          </ns3:TrackPointExtension>
        </extensions>
      </trkpt>
      <trkpt lat="22.9534611292183399200439453125" lon="113.08125355280935764312744140625">
        <ele>-0.800000011920928955078125</ele>
        <time>2017-09-16T23:23:16.000Z</time>
        <extensions>
          <ns3:TrackPointExtension>
            <ns3:hr>147</ns3:hr>
            <ns3:cad>80</ns3:cad>
          </ns3:TrackPointExtension>
        </extensions>
      </trkpt>
      <trkpt lat="22.953628599643707275390625" lon="113.0812647007405757904052734375">
        <ele>-0.20000000298023223876953125</ele>
        <time>2017-09-16T23:23:19.000Z</time>
        <extensions>
          <ns3:TrackPointExtension>
            <ns3:hr>155</ns3:hr>
            <ns3:cad>61</ns3:cad>
          </ns3:TrackPointExtension>
        </extensions>
      </trkpt>
      <trkpt lat="22.95371417887508869171142578125" lon="113.081254474818706512451171875">
        <ele>0.20000000298023223876953125</ele>
        <time>2017-09-16T23:23:20.000Z</time>
        <extensions>
          <ns3:TrackPointExtension>
            <ns3:hr>156</ns3:hr>
            <ns3:cad>61</ns3:cad>
          </ns3:TrackPointExtension>
        </extensions>
      </trkpt>
      <trkpt lat="22.95374921523034572601318359375" lon="113.08124584145843982696533203125">
        <ele>0.20000000298023223876953125</ele>
        <time>2017-09-16T23:23:22.000Z</time>
        <extensions>
          <ns3:TrackPointExtension>
            <ns3:hr>157</ns3:hr>
            <ns3:cad>61</ns3:cad>
          </ns3:TrackPointExtension>
        </extensions>
      </trkpt>
      <trkpt lat="22.953824736177921295166015625" lon="113.08125145733356475830078125">
        <ele>0.20000000298023223876953125</ele>
        <time>2017-09-16T23:23:26.000Z</time>
        <extensions>
          <ns3:TrackPointExtension>
            <ns3:hr>154</ns3:hr>
            <ns3:cad>61</ns3:cad>
          </ns3:TrackPointExtension>
        </extensions>
      </trkpt>
      <trkpt lat="22.95380361378192901611328125" lon="113.08125304989516735076904296875">
        <ele>0.20000000298023223876953125</ele>
        <time>2017-09-16T23:23:30.000Z</time>
        <extensions>
          <ns3:TrackPointExtension>
            <ns3:hr>157</ns3:hr>
            <ns3:cad>79</ns3:cad>
          </ns3:TrackPointExtension>
        </extensions>
      </trkpt>
      <trkpt lat="22.95374938286840915679931640625" lon="113.08125774376094341278076171875">
        <ele>0.20000000298023223876953125</ele>
        <time>2017-09-16T23:23:33.000Z</time>
        <extensions>
          <ns3:TrackPointExtension>
            <ns3:hr>154</ns3:hr>
            <ns3:cad>78</ns3:cad>
          </ns3:TrackPointExtension>
        </extensions>
      </trkpt>
      <trkpt lat="22.95375508256256580352783203125" lon="113.08126394636929035186767578125">
        <ele>0</ele>
        <time>2017-09-16T23:23:36.000Z</time>
        <extensions>
          <ns3:TrackPointExtension>
            <ns3:hr>152</ns3:hr>
            <ns3:cad>77</ns3:cad>
          </ns3:TrackPointExtension>
        </extensions>
      </trkpt>
      <trkpt lat="22.953780479729175567626953125" lon="113.0812730826437473297119140625">
        <ele>0</ele>
        <time>2017-09-16T23:23:38.000Z</time>
        <extensions>
          <ns3:TrackPointExtension>
            <ns3:hr>155</ns3:hr>
            <ns3:cad>78</ns3:cad>
          </ns3:TrackPointExtension>
        </extensions>
      </trkpt>
      <trkpt lat="22.95379095710813999176025390625" lon="113.08127232827246189117431640625">
        <ele>0</ele>
        <time>2017-09-16T23:23:39.000Z</time>
        <extensions>
          <ns3:TrackPointExtension>
            <ns3:hr>158</ns3:hr>
            <ns3:cad>78</ns3:cad>
          </ns3:TrackPointExtension>
        </extensions>
      </trkpt>
      <trkpt lat="22.95388097874820232391357421875" lon="113.0812576599419116973876953125">
        <ele>0.20000000298023223876953125</ele>
        <time>2017-09-16T23:23:46.000Z</time>
        <extensions>
          <ns3:TrackPointExtension>
            <ns3:hr>157</ns3:hr>
            <ns3:cad>80</ns3:cad>
          </ns3:TrackPointExtension>
        </extensions>
      </trkpt>
      <trkpt lat="22.95392557047307491302490234375" lon="113.0812851525843143463134765625">
        <ele>0</ele>
        <time>2017-09-16T23:23:50.000Z</time>
        <extensions>
          <ns3:TrackPointExtension>
            <ns3:hr>159</ns3:hr>
            <ns3:cad>80</ns3:cad>
          </ns3:TrackPointExtension>
        </extensions>
      </trkpt>
      <trkpt lat="22.9539412446320056915283203125" lon="113.0813237093389034271240234375">
        <ele>0</ele>
        <time>2017-09-16T23:23:53.000Z</time>
        <extensions>
          <ns3:TrackPointExtension>
            <ns3:hr>160</ns3:hr>
            <ns3:cad>81</ns3:cad>
          </ns3:TrackPointExtension>
        </extensions>
      </trkpt>
      <trkpt lat="22.95399882830679416656494140625" lon="113.0815178342163562774658203125">
        <ele>0</ele>
        <time>2017-09-16T23:24:01.000Z</time>
        <extensions>
          <ns3:TrackPointExtension>
            <ns3:hr>159</ns3:hr>
            <ns3:cad>82</ns3:cad>
          </ns3:TrackPointExtension>
        </extensions>
      </trkpt>
      <trkpt lat="22.95407309196889400482177734375" lon="113.08158941566944122314453125">
        <ele>0.60000002384185791015625</ele>
        <time>2017-09-16T23:24:05.000Z</time>
        <extensions>
          <ns3:TrackPointExtension>
            <ns3:hr>157</ns3:hr>
            <ns3:cad>64</ns3:cad>
          </ns3:TrackPointExtension>
        </extensions>
      </trkpt>
      <trkpt lat="22.9541112296283245086669921875" lon="113.08163593523204326629638671875">
        <ele>1</ele>
        <time>2017-09-16T23:24:07.000Z</time>
        <extensions>
          <ns3:TrackPointExtension>
            <ns3:hr>157</ns3:hr>
            <ns3:cad>64</ns3:cad>
          </ns3:TrackPointExtension>
        </extensions>
      </trkpt>
      <trkpt lat="22.95413260348141193389892578125" lon="113.08175931684672832489013671875">
        <ele>0.60000002384185791015625</ele>
        <time>2017-09-16T23:24:16.000Z</time>
        <extensions>
          <ns3:TrackPointExtension>
            <ns3:hr>157</ns3:hr>
            <ns3:cad>61</ns3:cad>
          </ns3:TrackPointExtension>
        </extensions>
      </trkpt>
      <trkpt lat="22.95414282940328121185302734375" lon="113.081778176128864288330078125">
        <ele>0.60000002384185791015625</ele>
        <time>2017-09-16T23:24:18.000Z</time>
        <extensions>
          <ns3:TrackPointExtension>
            <ns3:hr>156</ns3:hr>
            <ns3:cad>56</ns3:cad>
          </ns3:TrackPointExtension>
        </extensions>
      </trkpt>
      <trkpt lat="22.95413176529109477996826171875" lon="113.08183006010949611663818359375">
        <ele>0.20000000298023223876953125</ele>
        <time>2017-09-16T23:24:23.000Z</time>
        <extensions>
          <ns3:TrackPointExtension>
            <ns3:hr>155</ns3:hr>
            <ns3:cad>61</ns3:cad>
          </ns3:TrackPointExtension>
        </extensions>
      </trkpt>
      <trkpt lat="22.9541256465017795562744140625" lon="113.08185763657093048095703125">
        <ele>0.20000000298023223876953125</ele>
        <time>2017-09-16T23:24:26.000Z</time>
        <extensions>
          <ns3:TrackPointExtension>
            <ns3:hr>154</ns3:hr>
            <ns3:cad>57</ns3:cad>
          </ns3:TrackPointExtension>
        </extensions>
      </trkpt>
      <trkpt lat="22.95412153936922550201416015625" lon="113.081897199153900146484375">
        <ele>0.4000000059604644775390625</ele>
        <time>2017-09-16T23:24:30.000Z</time>
        <extensions>
          <ns3:TrackPointExtension>
            <ns3:hr>153</ns3:hr>
            <ns3:cad>57</ns3:cad>
          </ns3:TrackPointExtension>
        </extensions>
      </trkpt>
      <trkpt lat="22.954109720885753631591796875" lon="113.08199518360197544097900390625">
        <ele>1.39999997615814208984375</ele>
        <time>2017-09-16T23:24:38.000Z</time>
        <extensions>
          <ns3:TrackPointExtension>
            <ns3:hr>150</ns3:hr>
            <ns3:cad>58</ns3:cad>
          </ns3:TrackPointExtension>
        </extensions>
      </trkpt>
      <trkpt lat="22.95410930179059505462646484375" lon="113.08212476782500743865966796875">
        <ele>3.2000000476837158203125</ele>
        <time>2017-09-16T23:24:48.000Z</time>
        <extensions>
          <ns3:TrackPointExtension>
            <ns3:hr>147</ns3:hr>
            <ns3:cad>61</ns3:cad>
          </ns3:TrackPointExtension>
        </extensions>
      </trkpt>
      <trkpt lat="22.95410444028675556182861328125" lon="113.08213792741298675537109375">
        <ele>3.2000000476837158203125</ele>
        <time>2017-09-16T23:24:50.000Z</time>
        <extensions>
          <ns3:TrackPointExtension>
            <ns3:hr>145</ns3:hr>
            <ns3:cad>61</ns3:cad>
          </ns3:TrackPointExtension>
        </extensions>
      </trkpt>
      <trkpt lat="22.95410678721964359283447265625" lon="113.08217690326273441314697265625">
        <ele>3.599999904632568359375</ele>
        <time>2017-09-16T23:24:54.000Z</time>
        <extensions>
          <ns3:TrackPointExtension>
            <ns3:hr>143</ns3:hr>
            <ns3:cad>61</ns3:cad>
          </ns3:TrackPointExtension>
        </extensions>
      </trkpt>
      <trkpt lat="22.95410578139126300811767578125" lon="113.08223851025104522705078125">
        <ele>4</ele>
        <time>2017-09-16T23:24:59.000Z</time>
        <extensions>
          <ns3:TrackPointExtension>
            <ns3:hr>140</ns3:hr>
            <ns3:cad>61</ns3:cad>
          </ns3:TrackPointExtension>
        </extensions>
      </trkpt>
      <trkpt lat="22.95410175807774066925048828125" lon="113.08225552551448345184326171875">
        <ele>4.19999980926513671875</ele>
        <time>2017-09-16T23:25:00.000Z</time>
        <extensions>
          <ns3:TrackPointExtension>
            <ns3:hr>134</ns3:hr>
            <ns3:cad>61</ns3:cad>
          </ns3:TrackPointExtension>
        </extensions>
      </trkpt>
      <trkpt lat="22.95408868230879306793212890625" lon="113.08232476003468036651611328125">
        <ele>4.80000019073486328125</ele>
        <time>2017-09-16T23:25:08.000Z</time>
        <extensions>
          <ns3:TrackPointExtension>
            <ns3:hr>132</ns3:hr>
            <ns3:cad>61</ns3:cad>
          </ns3:TrackPointExtension>
        </extensions>
      </trkpt>
      <trkpt lat="22.9540765285491943359375" lon="113.082371614873409271240234375">
        <ele>5.400000095367431640625</ele>
        <time>2017-09-16T23:25:13.000Z</time>
        <extensions>
          <ns3:TrackPointExtension>
            <ns3:hr>129</ns3:hr>
            <ns3:cad>61</ns3:cad>
          </ns3:TrackPointExtension>
        </extensions>
      </trkpt>
      <trkpt lat="22.95407627709209918975830078125" lon="113.08239248581230640411376953125">
        <ele>5.400000095367431640625</ele>
        <time>2017-09-16T23:25:15.000Z</time>
        <extensions>
          <ns3:TrackPointExtension>
            <ns3:hr>127</ns3:hr>
            <ns3:cad>61</ns3:cad>
          </ns3:TrackPointExtension>
        </extensions>
      </trkpt>
      <trkpt lat="22.9540793783962726593017578125" lon="113.0824834294617176055908203125">
        <ele>5.19999980926513671875</ele>
        <time>2017-09-16T23:25:23.000Z</time>
        <extensions>
          <ns3:TrackPointExtension>
            <ns3:hr>127</ns3:hr>
            <ns3:cad>62</ns3:cad>
          </ns3:TrackPointExtension>
        </extensions>
      </trkpt>
      <trkpt lat="22.95408725738525390625" lon="113.082573115825653076171875">
        <ele>5.400000095367431640625</ele>
        <time>2017-09-16T23:25:30.000Z</time>
        <extensions>
          <ns3:TrackPointExtension>
            <ns3:hr>124</ns3:hr>
            <ns3:cad>61</ns3:cad>
          </ns3:TrackPointExtension>
        </extensions>
      </trkpt>
      <trkpt lat="22.95407451689243316650390625" lon="113.08265768922865390777587890625">
        <ele>5.80000019073486328125</ele>
        <time>2017-09-16T23:25:40.000Z</time>
        <extensions>
          <ns3:TrackPointExtension>
            <ns3:hr>121</ns3:hr>
            <ns3:cad>61</ns3:cad>
          </ns3:TrackPointExtension>
        </extensions>
      </trkpt>
      <trkpt lat="22.95407560653984546661376953125" lon="113.0826959945261478424072265625">
        <ele>5.80000019073486328125</ele>
        <time>2017-09-16T23:25:44.000Z</time>
        <extensions>
          <ns3:TrackPointExtension>
            <ns3:hr>120</ns3:hr>
            <ns3:cad>61</ns3:cad>
          </ns3:TrackPointExtension>
        </extensions>
      </trkpt>
      <trkpt lat="22.95408130623400211334228515625" lon="113.082915432751178741455078125">
        <ele>4.400000095367431640625</ele>
        <time>2017-09-16T23:25:53.000Z</time>
        <extensions>
          <ns3:TrackPointExtension>
            <ns3:hr>121</ns3:hr>
            <ns3:cad>82</ns3:cad>
          </ns3:TrackPointExtension>
        </extensions>
      </trkpt>
      <trkpt lat="22.95409035868942737579345703125" lon="113.0830269120633602142333984375">
        <ele>3.7999999523162841796875</ele>
        <time>2017-09-16T23:25:57.000Z</time>
        <extensions>
          <ns3:TrackPointExtension>
            <ns3:hr>125</ns3:hr>
            <ns3:cad>82</ns3:cad>
          </ns3:TrackPointExtension>
        </extensions>
      </trkpt>
      <trkpt lat="22.95409438200294971466064453125" lon="113.08305566199123859405517578125">
        <ele>3.7999999523162841796875</ele>
        <time>2017-09-16T23:25:58.000Z</time>
        <extensions>
          <ns3:TrackPointExtension>
            <ns3:hr>130</ns3:hr>
            <ns3:cad>82</ns3:cad>
          </ns3:TrackPointExtension>
        </extensions>
      </trkpt>
      <trkpt lat="22.95410360209643840789794921875" lon="113.0831134133040904998779296875">
        <ele>3.599999904632568359375</ele>
        <time>2017-09-16T23:26:00.000Z</time>
        <extensions>
          <ns3:TrackPointExtension>
            <ns3:hr>133</ns3:hr>
            <ns3:cad>82</ns3:cad>
          </ns3:TrackPointExtension>
        </extensions>
      </trkpt>
      <trkpt lat="22.95411902479827404022216796875" lon="113.08321709744632244110107421875">
        <ele>3.599999904632568359375</ele>
        <time>2017-09-16T23:26:04.000Z</time>
        <extensions>
          <ns3:TrackPointExtension>
            <ns3:hr>144</ns3:hr>
            <ns3:cad>82</ns3:cad>
          </ns3:TrackPointExtension>
        </extensions>
      </trkpt>
      <trkpt lat="22.954131178557872772216796875" lon="113.08326588012278079986572265625">
        <ele>3.7999999523162841796875</ele>
        <time>2017-09-16T23:26:06.000Z</time>
        <extensions>
          <ns3:TrackPointExtension>
            <ns3:hr>149</ns3:hr>
            <ns3:cad>82</ns3:cad>
          </ns3:TrackPointExtension>
        </extensions>
      </trkpt>
      <trkpt lat="22.9541296698153018951416015625" lon="113.0832921154797077178955078125">
        <ele>3.7999999523162841796875</ele>
        <time>2017-09-16T23:26:07.000Z</time>
        <extensions>
          <ns3:TrackPointExtension>
            <ns3:hr>149</ns3:hr>
            <ns3:cad>82</ns3:cad>
          </ns3:TrackPointExtension>
        </extensions>
      </trkpt>
      <trkpt lat="22.9541377164423465728759765625" lon="113.08341407217085361480712890625">
        <ele>4.19999980926513671875</ele>
        <time>2017-09-16T23:26:12.000Z</time>
        <extensions>
          <ns3:TrackPointExtension>
            <ns3:hr>152</ns3:hr>
            <ns3:cad>82</ns3:cad>
          </ns3:TrackPointExtension>
        </extensions>
      </trkpt>
      <trkpt lat="22.9541460983455181121826171875" lon="113.0835268087685108184814453125">
        <ele>4.400000095367431640625</ele>
        <time>2017-09-16T23:26:16.000Z</time>
        <extensions>
          <ns3:TrackPointExtension>
            <ns3:hr>155</ns3:hr>
            <ns3:cad>81</ns3:cad>
          </ns3:TrackPointExtension>
        </extensions>
      </trkpt>
      <trkpt lat="22.95414333231747150421142578125" lon="113.0836049281060695648193359375">
        <ele>4.19999980926513671875</ele>
        <time>2017-09-16T23:26:19.000Z</time>
        <extensions>
          <ns3:TrackPointExtension>
            <ns3:hr>154</ns3:hr>
            <ns3:cad>82</ns3:cad>
          </ns3:TrackPointExtension>
        </extensions>
      </trkpt>
      <trkpt lat="22.95415473170578479766845703125" lon="113.08374884538352489471435546875">
        <ele>4.400000095367431640625</ele>
        <time>2017-09-16T23:26:24.000Z</time>
        <extensions>
          <ns3:TrackPointExtension>
            <ns3:hr>157</ns3:hr>
            <ns3:cad>82</ns3:cad>
          </ns3:TrackPointExtension>
        </extensions>
      </trkpt>
      <trkpt lat="22.95416043139994144439697265625" lon="113.08384917676448822021484375">
        <ele>4.400000095367431640625</ele>
        <time>2017-09-16T23:26:27.000Z</time>
        <extensions>
          <ns3:TrackPointExtension>
            <ns3:hr>153</ns3:hr>
            <ns3:cad>82</ns3:cad>
          </ns3:TrackPointExtension>
        </extensions>
      </trkpt>
      <trkpt lat="22.954153306782245635986328125" lon="113.0839033238589763641357421875">
        <ele>4.599999904632568359375</ele>
        <time>2017-09-16T23:26:30.000Z</time>
        <extensions>
          <ns3:TrackPointExtension>
            <ns3:hr>158</ns3:hr>
            <ns3:cad>81</ns3:cad>
          </ns3:TrackPointExtension>
        </extensions>
      </trkpt>
      <trkpt lat="22.95414953492581844329833984375" lon="113.08391489088535308837890625">
        <ele>4.599999904632568359375</ele>
        <time>2017-09-16T23:26:31.000Z</time>
        <extensions>
          <ns3:TrackPointExtension>
            <ns3:hr>158</ns3:hr>
            <ns3:cad>83</ns3:cad>
          </ns3:TrackPointExtension>
        </extensions>
      </trkpt>
      <trkpt lat="22.95413629151880741119384765625" lon="113.08395110070705413818359375">
        <ele>4.599999904632568359375</ele>
        <time>2017-09-16T23:26:36.000Z</time>
        <extensions>
          <ns3:TrackPointExtension>
            <ns3:hr>155</ns3:hr>
            <ns3:cad>86</ns3:cad>
          </ns3:TrackPointExtension>
        </extensions>
      </trkpt>
      <trkpt lat="22.9541296698153018951416015625" lon="113.08396518230438232421875">
        <ele>4.80000019073486328125</ele>
        <time>2017-09-16T23:26:39.000Z</time>
        <extensions>
          <ns3:TrackPointExtension>
            <ns3:hr>153</ns3:hr>
            <ns3:cad>79</ns3:cad>
          </ns3:TrackPointExtension>
        </extensions>
      </trkpt>
      <trkpt lat="22.95412187464535236358642578125" lon="113.08399728499352931976318359375">
        <ele>4.80000019073486328125</ele>
        <time>2017-09-16T23:26:43.000Z</time>
        <extensions>
          <ns3:TrackPointExtension>
            <ns3:hr>157</ns3:hr>
            <ns3:cad>79</ns3:cad>
          </ns3:TrackPointExtension>
        </extensions>
      </trkpt>
      <trkpt lat="22.95412003062665462493896484375" lon="113.08400901965796947479248046875">
        <ele>4.80000019073486328125</ele>
        <time>2017-09-16T23:26:44.000Z</time>
        <extensions>
          <ns3:TrackPointExtension>
            <ns3:hr>177</ns3:hr>
            <ns3:cad>79</ns3:cad>
          </ns3:TrackPointExtension>
        </extensions>
      </trkpt>
      <trkpt lat="22.954116761684417724609375" lon="113.084030561149120330810546875">
        <ele>5</ele>
        <time>2017-09-16T23:26:45.000Z</time>
        <extensions>
          <ns3:TrackPointExtension>
            <ns3:hr>184</ns3:hr>
            <ns3:cad>79</ns3:cad>
          </ns3:TrackPointExtension>
        </extensions>
      </trkpt>
      <trkpt lat="22.954116761684417724609375" lon="113.084030561149120330810546875">
        <ele>5</ele>
        <time>2017-09-16T23:26:46.000Z</time>
        <extensions>
          <ns3:TrackPointExtension>
            <ns3:hr>188</ns3:hr>
            <ns3:cad>79</ns3:cad>
          </ns3:TrackPointExtension>
        </extensions>
      </trkpt>
      <trkpt lat="22.95411651022732257843017578125" lon="113.08403902687132358551025390625">
        <ele>5</ele>
        <time>2017-09-16T23:26:47.000Z</time>
        <extensions>
          <ns3:TrackPointExtension>
            <ns3:hr>179</ns3:hr>
            <ns3:cad>51</ns3:cad>
          </ns3:TrackPointExtension>
        </extensions>
      </trkpt>
      <trkpt lat="22.95410946942865848541259765625" lon="113.08405830524861812591552734375">
        <ele>5</ele>
        <time>2017-09-16T23:26:48.000Z</time>
        <extensions>
          <ns3:TrackPointExtension>
            <ns3:hr>179</ns3:hr>
            <ns3:cad>51</ns3:cad>
          </ns3:TrackPointExtension>
        </extensions>
      </trkpt>
      <trkpt lat="22.95410946942865848541259765625" lon="113.08405830524861812591552734375">
        <ele>5</ele>
        <time>2017-09-16T23:26:49.000Z</time>
        <extensions>
          <ns3:TrackPointExtension>
            <ns3:hr>174</ns3:hr>
            <ns3:cad>51</ns3:cad>
          </ns3:TrackPointExtension>
        </extensions>
      </trkpt>
      <trkpt lat="22.9541055299341678619384765625" lon="113.08406383730471134185791015625">
        <ele>5</ele>
        <time>2017-09-16T23:26:50.000Z</time>
        <extensions>
          <ns3:TrackPointExtension>
            <ns3:hr>176</ns3:hr>
            <ns3:cad>51</ns3:cad>
          </ns3:TrackPointExtension>
        </extensions>
      </trkpt>
      <trkpt lat="22.95408616773784160614013671875" lon="113.084080517292022705078125">
        <ele>5.400000095367431640625</ele>
        <time>2017-09-16T23:26:53.000Z</time>
        <extensions>
          <ns3:TrackPointExtension>
            <ns3:hr>181</ns3:hr>
            <ns3:cad>51</ns3:cad>
          </ns3:TrackPointExtension>
        </extensions>
      </trkpt>
      <trkpt lat="22.954083569347858428955078125" lon="113.0840947665274143218994140625">
        <ele>5.400000095367431640625</ele>
        <time>2017-09-16T23:26:55.000Z</time>
        <extensions>
          <ns3:TrackPointExtension>
            <ns3:hr>177</ns3:hr>
            <ns3:cad>51</ns3:cad>
          </ns3:TrackPointExtension>
        </extensions>
      </trkpt>
      <trkpt lat="22.9541021771728992462158203125" lon="113.08422602713108062744140625">
        <ele>5.599999904632568359375</ele>
        <time>2017-09-16T23:27:07.000Z</time>
        <extensions>
          <ns3:TrackPointExtension>
            <ns3:hr>174</ns3:hr>
            <ns3:cad>61</ns3:cad>
          </ns3:TrackPointExtension>
        </extensions>
      </trkpt>
      <trkpt lat="22.95409773476421833038330078125" lon="113.08424807153642177581787109375">
        <ele>5.80000019073486328125</ele>
        <time>2017-09-16T23:27:11.000Z</time>
        <extensions>
          <ns3:TrackPointExtension>
            <ns3:hr>171</ns3:hr>
            <ns3:cad>0</ns3:cad>
          </ns3:TrackPointExtension>
        </extensions>
      </trkpt>
      <trkpt lat="22.954096980392932891845703125" lon="113.0842560343444347381591796875">
        <ele>5.80000019073486328125</ele>
        <time>2017-09-16T23:27:14.000Z</time>
        <extensions>
          <ns3:TrackPointExtension>
            <ns3:hr>168</ns3:hr>
            <ns3:cad>61</ns3:cad>
          </ns3:TrackPointExtension>
        </extensions>
      </trkpt>
      <trkpt lat="22.9540931247174739837646484375" lon="113.08425930328667163848876953125">
        <ele>6</ele>
        <time>2017-09-16T23:27:16.000Z</time>
        <extensions>
          <ns3:TrackPointExtension>
            <ns3:hr>166</ns3:hr>
            <ns3:cad>0</ns3:cad>
          </ns3:TrackPointExtension>
        </extensions>
      </trkpt>
    </trkseg>
  </trk>
</gpx>
