<gpx xmlns:ns3="http://www.garmin.com/xmlschemas/TrackPointExtension/v1" xmlns="http://www.topografix.com/GPX/1/1" xmlns:xsi="http://www.w3.org/2001/XMLSchema-instance" xmlns:ns2="http://www.garmin.com/xmlschemas/GpxExtensions/v3" creator="Garmin Connect" version="1.1" xsi:schemaLocation="http://www.topografix.com/GPX/1/1 http://www.topografix.com/GPX/11.xsd">
  <extensions>
<distance>3564.39</distance>
<average_hr>97.0</average_hr>
<average_speed>1.36899995803833</average_speed>
<start_time>2019-03-09T11:09:19+00:00</start_time>
<end_time>2019-03-09T11:52:41.769000+00:00</end_time>
<moving_time>2416.73</moving_time>
<elapsed_time>2607.98</elapsed_time>
</extensions>
<metadata>
    <link href="connect.garmin.com">
      <text>Garmin Connect</text>
    </link>
    <time>2019-03-09T11:09:19.000Z</time>
  </metadata>
  <trk>
    <name>广州市 跑步</name>
    <type>running</type>
    <trkseg>
      <trkpt lat="23.17233583889901638031005859375" lon="113.2579488493502140045166015625">
        <ele>10.80000019073486328125</ele>
        <time>2019-03-09T11:09:19.000Z</time>
        <extensions>
          <ns3:TrackPointExtension>
            <ns3:hr>83</ns3:hr>
            <ns3:cad>0</ns3:cad>
          </ns3:TrackPointExtension>
        </extensions>
      </trkpt>
      <trkpt lat="23.17234103567898273468017578125" lon="113.25792529620230197906494140625">
        <ele>10.19999980926513671875</ele>
        <time>2019-03-09T11:09:21.000Z</time>
        <extensions>
          <ns3:TrackPointExtension>
            <ns3:hr>86</ns3:hr>
            <ns3:cad>61</ns3:cad>
          </ns3:TrackPointExtension>
        </extensions>
      </trkpt>
      <trkpt lat="23.17234355024993419647216796875" lon="113.25790702365338802337646484375">
        <ele>10</ele>
        <time>2019-03-09T11:09:22.000Z</time>
        <extensions>
          <ns3:TrackPointExtension>
            <ns3:hr>91</ns3:hr>
            <ns3:cad>61</ns3:cad>
          </ns3:TrackPointExtension>
        </extensions>
      </trkpt>
      <trkpt lat="23.17234941758215427398681640625" lon="113.2578516192734241485595703125">
        <ele>9.3999996185302734375</ele>
        <time>2019-03-09T11:09:25.000Z</time>
        <extensions>
          <ns3:TrackPointExtension>
            <ns3:hr>97</ns3:hr>
            <ns3:cad>61</ns3:cad>
          </ns3:TrackPointExtension>
        </extensions>
      </trkpt>
      <trkpt lat="23.17235528491437435150146484375" lon="113.25783326290547847747802734375">
        <ele>9.3999996185302734375</ele>
        <time>2019-03-09T11:09:26.000Z</time>
        <extensions>
          <ns3:TrackPointExtension>
            <ns3:hr>97</ns3:hr>
            <ns3:cad>61</ns3:cad>
          </ns3:TrackPointExtension>
        </extensions>
      </trkpt>
      <trkpt lat="23.17239250056445598602294921875" lon="113.2577667944133281707763671875">
        <ele>9.3999996185302734375</ele>
        <time>2019-03-09T11:09:30.000Z</time>
        <extensions>
          <ns3:TrackPointExtension>
            <ns3:hr>101</ns3:hr>
            <ns3:cad>61</ns3:cad>
          </ns3:TrackPointExtension>
        </extensions>
      </trkpt>
      <trkpt lat="23.172403313219547271728515625" lon="113.25774944387376308441162109375">
        <ele>9.3999996185302734375</ele>
        <time>2019-03-09T11:09:31.000Z</time>
        <extensions>
          <ns3:TrackPointExtension>
            <ns3:hr>103</ns3:hr>
            <ns3:cad>0</ns3:cad>
          </ns3:TrackPointExtension>
        </extensions>
      </trkpt>
      <trkpt lat="23.17243742756545543670654296875" lon="113.25769965536892414093017578125">
        <ele>8.6000003814697265625</ele>
        <time>2019-03-09T11:09:34.000Z</time>
        <extensions>
          <ns3:TrackPointExtension>
            <ns3:hr>101</ns3:hr>
            <ns3:cad>67</ns3:cad>
          </ns3:TrackPointExtension>
        </extensions>
      </trkpt>
      <trkpt lat="23.172522671520709991455078125" lon="113.257493712007999420166015625">
        <ele>5.19999980926513671875</ele>
        <time>2019-03-09T11:09:42.000Z</time>
        <extensions>
          <ns3:TrackPointExtension>
            <ns3:hr>100</ns3:hr>
            <ns3:cad>61</ns3:cad>
          </ns3:TrackPointExtension>
        </extensions>
      </trkpt>
      <trkpt lat="23.17260959185659885406494140625" lon="113.257345855236053466796875">
        <ele>0.20000000298023223876953125</ele>
        <time>2019-03-09T11:09:47.000Z</time>
        <extensions>
          <ns3:TrackPointExtension>
            <ns3:hr>97</ns3:hr>
            <ns3:cad>0</ns3:cad>
          </ns3:TrackPointExtension>
        </extensions>
      </trkpt>
      <trkpt lat="23.1726525910198688507080078125" lon="113.25724887661635875701904296875">
        <ele>-2</ele>
        <time>2019-03-09T11:09:50.000Z</time>
        <extensions>
          <ns3:TrackPointExtension>
            <ns3:hr>104</ns3:hr>
            <ns3:cad>0</ns3:cad>
          </ns3:TrackPointExtension>
        </extensions>
      </trkpt>
      <trkpt lat="23.1726592965424060821533203125" lon="113.25721484608948230743408203125">
        <ele>-2.7999999523162841796875</ele>
        <time>2019-03-09T11:09:51.000Z</time>
        <extensions>
          <ns3:TrackPointExtension>
            <ns3:hr>101</ns3:hr>
            <ns3:cad>0</ns3:cad>
          </ns3:TrackPointExtension>
        </extensions>
      </trkpt>
      <trkpt lat="23.1726606376469135284423828125" lon="113.2571109943091869354248046875">
        <ele>-5.400000095367431640625</ele>
        <time>2019-03-09T11:09:54.000Z</time>
        <extensions>
          <ns3:TrackPointExtension>
            <ns3:hr>106</ns3:hr>
            <ns3:cad>0</ns3:cad>
          </ns3:TrackPointExtension>
        </extensions>
      </trkpt>
      <trkpt lat="23.1726549379527568817138671875" lon="113.25707822106778621673583984375">
        <ele>-6</ele>
        <time>2019-03-09T11:09:55.000Z</time>
        <extensions>
          <ns3:TrackPointExtension>
            <ns3:hr>106</ns3:hr>
            <ns3:cad>0</ns3:cad>
          </ns3:TrackPointExtension>
        </extensions>
      </trkpt>
      <trkpt lat="23.17254823632538318634033203125" lon="113.2569742016494274139404296875">
        <ele>-11</ele>
        <time>2019-03-09T11:10:00.000Z</time>
        <extensions>
          <ns3:TrackPointExtension>
            <ns3:hr>102</ns3:hr>
            <ns3:cad>0</ns3:cad>
          </ns3:TrackPointExtension>
        </extensions>
      </trkpt>
      <trkpt lat="23.1724098511040210723876953125" lon="113.25688007287681102752685546875">
        <ele>-16.799999237060546875</ele>
        <time>2019-03-09T11:10:05.000Z</time>
        <extensions>
          <ns3:TrackPointExtension>
            <ns3:hr>99</ns3:hr>
            <ns3:cad>0</ns3:cad>
          </ns3:TrackPointExtension>
        </extensions>
      </trkpt>
      <trkpt lat="23.17238328047096729278564453125" lon="113.25686364434659481048583984375">
        <ele>-17.799999237060546875</ele>
        <time>2019-03-09T11:10:06.000Z</time>
        <extensions>
          <ns3:TrackPointExtension>
            <ns3:hr>102</ns3:hr>
            <ns3:cad>0</ns3:cad>
          </ns3:TrackPointExtension>
        </extensions>
      </trkpt>
      <trkpt lat="23.1723578833043575286865234375" lon="113.25684688054025173187255859375">
        <ele>-18.6000003814697265625</ele>
        <time>2019-03-09T11:10:07.000Z</time>
        <extensions>
          <ns3:TrackPointExtension>
            <ns3:hr>106</ns3:hr>
            <ns3:cad>0</ns3:cad>
          </ns3:TrackPointExtension>
        </extensions>
      </trkpt>
      <trkpt lat="23.1723050773143768310546875" lon="113.256809413433074951171875">
        <ele>-20.3999996185302734375</ele>
        <time>2019-03-09T11:10:09.000Z</time>
        <extensions>
          <ns3:TrackPointExtension>
            <ns3:hr>109</ns3:hr>
            <ns3:cad>0</ns3:cad>
          </ns3:TrackPointExtension>
        </extensions>
      </trkpt>
      <trkpt lat="23.17212335765361785888671875" lon="113.25669231824576854705810546875">
        <ele>-26</ele>
        <time>2019-03-09T11:10:15.000Z</time>
        <extensions>
          <ns3:TrackPointExtension>
            <ns3:hr>109</ns3:hr>
            <ns3:cad>61</ns3:cad>
          </ns3:TrackPointExtension>
        </extensions>
      </trkpt>
      <trkpt lat="23.17198656499385833740234375" lon="113.2565976865589618682861328125">
        <ele>-28.6000003814697265625</ele>
        <time>2019-03-09T11:10:21.000Z</time>
        <extensions>
          <ns3:TrackPointExtension>
            <ns3:hr>112</ns3:hr>
            <ns3:cad>59</ns3:cad>
          </ns3:TrackPointExtension>
        </extensions>
      </trkpt>
      <trkpt lat="23.171843402087688446044921875" lon="113.256497941911220550537109375">
        <ele>-29.200000762939453125</ele>
        <time>2019-03-09T11:10:28.000Z</time>
        <extensions>
          <ns3:TrackPointExtension>
            <ns3:hr>109</ns3:hr>
            <ns3:cad>61</ns3:cad>
          </ns3:TrackPointExtension>
        </extensions>
      </trkpt>
      <trkpt lat="23.171673081815242767333984375" lon="113.25638604350388050079345703125">
        <ele>-21.3999996185302734375</ele>
        <time>2019-03-09T11:10:37.000Z</time>
        <extensions>
          <ns3:TrackPointExtension>
            <ns3:hr>107</ns3:hr>
            <ns3:cad>0</ns3:cad>
          </ns3:TrackPointExtension>
        </extensions>
      </trkpt>
      <trkpt lat="23.171512149274349212646484375" lon="113.256261907517910003662109375">
        <ele>-13.6000003814697265625</ele>
        <time>2019-03-09T11:10:46.000Z</time>
        <extensions>
          <ns3:TrackPointExtension>
            <ns3:hr>109</ns3:hr>
            <ns3:cad>61</ns3:cad>
          </ns3:TrackPointExtension>
        </extensions>
      </trkpt>
      <trkpt lat="23.1713704951107501983642578125" lon="113.2561160624027252197265625">
        <ele>-6</ele>
        <time>2019-03-09T11:10:53.000Z</time>
        <extensions>
          <ns3:TrackPointExtension>
            <ns3:hr>109</ns3:hr>
            <ns3:cad>61</ns3:cad>
          </ns3:TrackPointExtension>
        </extensions>
      </trkpt>
      <trkpt lat="23.17123428918421268463134765625" lon="113.25597885064780712127685546875">
        <ele>-0.800000011920928955078125</ele>
        <time>2019-03-09T11:11:03.000Z</time>
        <extensions>
          <ns3:TrackPointExtension>
            <ns3:hr>107</ns3:hr>
            <ns3:cad>0</ns3:cad>
          </ns3:TrackPointExtension>
        </extensions>
      </trkpt>
      <trkpt lat="23.171068914234638214111328125" lon="113.255876339972019195556640625">
        <ele>0.800000011920928955078125</ele>
        <time>2019-03-09T11:11:14.000Z</time>
        <extensions>
          <ns3:TrackPointExtension>
            <ns3:hr>107</ns3:hr>
            <ns3:cad>61</ns3:cad>
          </ns3:TrackPointExtension>
        </extensions>
      </trkpt>
      <trkpt lat="23.17105944268405437469482421875" lon="113.255866281688213348388671875">
        <ele>1</ele>
        <time>2019-03-09T11:11:15.000Z</time>
        <extensions>
          <ns3:TrackPointExtension>
            <ns3:hr>107</ns3:hr>
            <ns3:cad>0</ns3:cad>
          </ns3:TrackPointExtension>
        </extensions>
      </trkpt>
      <trkpt lat="23.1710513122379779815673828125" lon="113.25583853758871555328369140625">
        <ele>1.60000002384185791015625</ele>
        <time>2019-03-09T11:11:18.000Z</time>
        <extensions>
          <ns3:TrackPointExtension>
            <ns3:hr>107</ns3:hr>
            <ns3:cad>0</ns3:cad>
          </ns3:TrackPointExtension>
        </extensions>
      </trkpt>
      <trkpt lat="23.17104418762028217315673828125" lon="113.2558148168027400970458984375">
        <ele>2</ele>
        <time>2019-03-09T11:11:46.000Z</time>
        <extensions>
          <ns3:TrackPointExtension>
            <ns3:hr>104</ns3:hr>
            <ns3:cad>0</ns3:cad>
          </ns3:TrackPointExtension>
        </extensions>
      </trkpt>
      <trkpt lat="23.1710432656109333038330078125" lon="113.25581791810691356658935546875">
        <ele>2</ele>
        <time>2019-03-09T11:12:03.000Z</time>
        <extensions>
          <ns3:TrackPointExtension>
            <ns3:hr>101</ns3:hr>
            <ns3:cad>0</ns3:cad>
          </ns3:TrackPointExtension>
        </extensions>
      </trkpt>
      <trkpt lat="23.1710342131555080413818359375" lon="113.25581640936434268951416015625">
        <ele>2</ele>
        <time>2019-03-09T11:12:11.000Z</time>
        <extensions>
          <ns3:TrackPointExtension>
            <ns3:hr>98</ns3:hr>
            <ns3:cad>0</ns3:cad>
          </ns3:TrackPointExtension>
        </extensions>
      </trkpt>
      <trkpt lat="23.17103412933647632598876953125" lon="113.255812637507915496826171875">
        <ele>2</ele>
        <time>2019-03-09T11:12:17.000Z</time>
        <extensions>
          <ns3:TrackPointExtension>
            <ns3:hr>95</ns3:hr>
            <ns3:cad>0</ns3:cad>
          </ns3:TrackPointExtension>
        </extensions>
      </trkpt>
      <trkpt lat="23.17103572189807891845703125" lon="113.25580953620374202728271484375">
        <ele>2.2000000476837158203125</ele>
        <time>2019-03-09T11:12:23.000Z</time>
        <extensions>
          <ns3:TrackPointExtension>
            <ns3:hr>92</ns3:hr>
            <ns3:cad>0</ns3:cad>
          </ns3:TrackPointExtension>
        </extensions>
      </trkpt>
      <trkpt lat="23.17103060893714427947998046875" lon="113.2558030821382999420166015625">
        <ele>2.2000000476837158203125</ele>
        <time>2019-03-09T11:12:27.000Z</time>
        <extensions>
          <ns3:TrackPointExtension>
            <ns3:hr>86</ns3:hr>
            <ns3:cad>0</ns3:cad>
          </ns3:TrackPointExtension>
        </extensions>
      </trkpt>
      <trkpt lat="23.17102910019457340240478515625" lon="113.25580182485282421112060546875">
        <ele>2.2000000476837158203125</ele>
        <time>2019-03-09T11:12:28.000Z</time>
        <extensions>
          <ns3:TrackPointExtension>
            <ns3:hr>81</ns3:hr>
            <ns3:cad>0</ns3:cad>
          </ns3:TrackPointExtension>
        </extensions>
      </trkpt>
      <trkpt lat="23.17103127948939800262451171875" lon="113.25580065138638019561767578125">
        <ele>2.2000000476837158203125</ele>
        <time>2019-03-09T11:12:29.000Z</time>
        <extensions>
          <ns3:TrackPointExtension>
            <ns3:hr>77</ns3:hr>
            <ns3:cad>0</ns3:cad>
          </ns3:TrackPointExtension>
        </extensions>
      </trkpt>
      <trkpt lat="23.17103245295584201812744140625" lon="113.255798555910587310791015625">
        <ele>2.400000095367431640625</ele>
        <time>2019-03-09T11:12:30.000Z</time>
        <extensions>
          <ns3:TrackPointExtension>
            <ns3:hr>74</ns3:hr>
            <ns3:cad>0</ns3:cad>
          </ns3:TrackPointExtension>
        </extensions>
      </trkpt>
      <trkpt lat="23.1710337102413177490234375" lon="113.25579729862511157989501953125">
        <ele>2.400000095367431640625</ele>
        <time>2019-03-09T11:12:31.000Z</time>
        <extensions>
          <ns3:TrackPointExtension>
            <ns3:hr>74</ns3:hr>
            <ns3:cad>0</ns3:cad>
          </ns3:TrackPointExtension>
        </extensions>
      </trkpt>
      <trkpt lat="23.17106514237821102142333984375" lon="113.25568900443613529205322265625">
        <ele>4.599999904632568359375</ele>
        <time>2019-03-09T11:12:53.000Z</time>
        <extensions>
          <ns3:TrackPointExtension>
            <ns3:hr>77</ns3:hr>
            <ns3:cad>0</ns3:cad>
          </ns3:TrackPointExtension>
        </extensions>
      </trkpt>
      <trkpt lat="23.17108039744198322296142578125" lon="113.2556579075753688812255859375">
        <ele>5.19999980926513671875</ele>
        <time>2019-03-09T11:12:57.000Z</time>
        <extensions>
          <ns3:TrackPointExtension>
            <ns3:hr>80</ns3:hr>
            <ns3:cad>61</ns3:cad>
          </ns3:TrackPointExtension>
        </extensions>
      </trkpt>
      <trkpt lat="23.17109598778188228607177734375" lon="113.25563351623713970184326171875">
        <ele>5.80000019073486328125</ele>
        <time>2019-03-09T11:13:00.000Z</time>
        <extensions>
          <ns3:TrackPointExtension>
            <ns3:hr>77</ns3:hr>
            <ns3:cad>0</ns3:cad>
          </ns3:TrackPointExtension>
        </extensions>
      </trkpt>
      <trkpt lat="23.1711222231388092041015625" lon="113.2556032575666904449462890625">
        <ele>6.400000095367431640625</ele>
        <time>2019-03-09T11:13:04.000Z</time>
        <extensions>
          <ns3:TrackPointExtension>
            <ns3:hr>82</ns3:hr>
            <ns3:cad>61</ns3:cad>
          </ns3:TrackPointExtension>
        </extensions>
      </trkpt>
      <trkpt lat="23.1711317785084247589111328125" lon="113.25559412129223346710205078125">
        <ele>6.599999904632568359375</ele>
        <time>2019-03-09T11:13:05.000Z</time>
        <extensions>
          <ns3:TrackPointExtension>
            <ns3:hr>88</ns3:hr>
            <ns3:cad>61</ns3:cad>
          </ns3:TrackPointExtension>
        </extensions>
      </trkpt>
      <trkpt lat="23.17114837467670440673828125" lon="113.255575597286224365234375">
        <ele>7.19999980926513671875</ele>
        <time>2019-03-09T11:13:07.000Z</time>
        <extensions>
          <ns3:TrackPointExtension>
            <ns3:hr>93</ns3:hr>
            <ns3:cad>0</ns3:cad>
          </ns3:TrackPointExtension>
        </extensions>
      </trkpt>
      <trkpt lat="23.1711570918560028076171875" lon="113.2555640302598476409912109375">
        <ele>7.599999904632568359375</ele>
        <time>2019-03-09T11:13:08.000Z</time>
        <extensions>
          <ns3:TrackPointExtension>
            <ns3:hr>98</ns3:hr>
            <ns3:cad>0</ns3:cad>
          </ns3:TrackPointExtension>
        </extensions>
      </trkpt>
      <trkpt lat="23.171174190938472747802734375" lon="113.25553846545517444610595703125">
        <ele>8.3999996185302734375</ele>
        <time>2019-03-09T11:13:10.000Z</time>
        <extensions>
          <ns3:TrackPointExtension>
            <ns3:hr>104</ns3:hr>
            <ns3:cad>0</ns3:cad>
          </ns3:TrackPointExtension>
        </extensions>
      </trkpt>
      <trkpt lat="23.17118282429873943328857421875" lon="113.25552756898105144500732421875">
        <ele>8.6000003814697265625</ele>
        <time>2019-03-09T11:13:11.000Z</time>
        <extensions>
          <ns3:TrackPointExtension>
            <ns3:hr>103</ns3:hr>
            <ns3:cad>0</ns3:cad>
          </ns3:TrackPointExtension>
        </extensions>
      </trkpt>
      <trkpt lat="23.17124585621058940887451171875" lon="113.25547208078205585479736328125">
        <ele>10.3999996185302734375</ele>
        <time>2019-03-09T11:13:18.000Z</time>
        <extensions>
          <ns3:TrackPointExtension>
            <ns3:hr>99</ns3:hr>
            <ns3:cad>0</ns3:cad>
          </ns3:TrackPointExtension>
        </extensions>
      </trkpt>
      <trkpt lat="23.17125373519957065582275390625" lon="113.25546487234532833099365234375">
        <ele>10.3999996185302734375</ele>
        <time>2019-03-09T11:13:19.000Z</time>
        <extensions>
          <ns3:TrackPointExtension>
            <ns3:hr>102</ns3:hr>
            <ns3:cad>0</ns3:cad>
          </ns3:TrackPointExtension>
        </extensions>
      </trkpt>
      <trkpt lat="23.17126496694982051849365234375" lon="113.2554497011005878448486328125">
        <ele>10.6000003814697265625</ele>
        <time>2019-03-09T11:13:21.000Z</time>
        <extensions>
          <ns3:TrackPointExtension>
            <ns3:hr>99</ns3:hr>
            <ns3:cad>0</ns3:cad>
          </ns3:TrackPointExtension>
        </extensions>
      </trkpt>
      <trkpt lat="23.171274103224277496337890625" lon="113.2554450072348117828369140625">
        <ele>10.6000003814697265625</ele>
        <time>2019-03-09T11:13:24.000Z</time>
        <extensions>
          <ns3:TrackPointExtension>
            <ns3:hr>100</ns3:hr>
            <ns3:cad>0</ns3:cad>
          </ns3:TrackPointExtension>
        </extensions>
      </trkpt>
      <trkpt lat="23.17127443850040435791015625" lon="113.25544425286352634429931640625">
        <ele>10.6000003814697265625</ele>
        <time>2019-03-09T11:13:25.000Z</time>
        <extensions>
          <ns3:TrackPointExtension>
            <ns3:hr>96</ns3:hr>
            <ns3:cad>0</ns3:cad>
          </ns3:TrackPointExtension>
        </extensions>
      </trkpt>
      <trkpt lat="23.17127200774848461151123046875" lon="113.2554455101490020751953125">
        <ele>10.6000003814697265625</ele>
        <time>2019-03-09T11:13:29.000Z</time>
        <extensions>
          <ns3:TrackPointExtension>
            <ns3:hr>93</ns3:hr>
            <ns3:cad>0</ns3:cad>
          </ns3:TrackPointExtension>
        </extensions>
      </trkpt>
      <trkpt lat="23.171275444328784942626953125" lon="113.255449198186397552490234375">
        <ele>10.6000003814697265625</ele>
        <time>2019-03-09T11:13:48.000Z</time>
        <extensions>
          <ns3:TrackPointExtension>
            <ns3:hr>90</ns3:hr>
            <ns3:cad>0</ns3:cad>
          </ns3:TrackPointExtension>
        </extensions>
      </trkpt>
      <trkpt lat="23.17127519287168979644775390625" lon="113.25544928200542926788330078125">
        <ele>10.6000003814697265625</ele>
        <time>2019-03-09T11:13:56.000Z</time>
        <extensions>
          <ns3:TrackPointExtension>
            <ns3:hr>87</ns3:hr>
            <ns3:cad>0</ns3:cad>
          </ns3:TrackPointExtension>
        </extensions>
      </trkpt>
      <trkpt lat="23.17127468995749950408935546875" lon="113.25544944964349269866943359375">
        <ele>10.6000003814697265625</ele>
        <time>2019-03-09T11:13:57.000Z</time>
        <extensions>
          <ns3:TrackPointExtension>
            <ns3:hr>75</ns3:hr>
            <ns3:cad>0</ns3:cad>
          </ns3:TrackPointExtension>
        </extensions>
      </trkpt>
      <trkpt lat="23.17127334885299205780029296875" lon="113.2554500363767147064208984375">
        <ele>10.6000003814697265625</ele>
        <time>2019-03-09T11:13:58.000Z</time>
        <extensions>
          <ns3:TrackPointExtension>
            <ns3:hr>76</ns3:hr>
            <ns3:cad>0</ns3:cad>
          </ns3:TrackPointExtension>
        </extensions>
      </trkpt>
      <trkpt lat="23.17127854563295841217041015625" lon="113.2553652115166187286376953125">
        <ele>10</ele>
        <time>2019-03-09T11:14:32.000Z</time>
        <extensions>
          <ns3:TrackPointExtension>
            <ns3:hr>77</ns3:hr>
            <ns3:cad>0</ns3:cad>
          </ns3:TrackPointExtension>
        </extensions>
      </trkpt>
      <trkpt lat="23.17129053175449371337890625" lon="113.2552026025950908660888671875">
        <ele>8.80000019073486328125</ele>
        <time>2019-03-09T11:14:42.000Z</time>
        <extensions>
          <ns3:TrackPointExtension>
            <ns3:hr>76</ns3:hr>
            <ns3:cad>61</ns3:cad>
          </ns3:TrackPointExtension>
        </extensions>
      </trkpt>
      <trkpt lat="23.1712816469371318817138671875" lon="113.2551700808107852935791015625">
        <ele>8.3999996185302734375</ele>
        <time>2019-03-09T11:14:44.000Z</time>
        <extensions>
          <ns3:TrackPointExtension>
            <ns3:hr>79</ns3:hr>
            <ns3:cad>0</ns3:cad>
          </ns3:TrackPointExtension>
        </extensions>
      </trkpt>
      <trkpt lat="23.17127586342394351959228515625" lon="113.25508366338908672332763671875">
        <ele>7.400000095367431640625</ele>
        <time>2019-03-09T11:14:49.000Z</time>
        <extensions>
          <ns3:TrackPointExtension>
            <ns3:hr>85</ns3:hr>
            <ns3:cad>61</ns3:cad>
          </ns3:TrackPointExtension>
        </extensions>
      </trkpt>
      <trkpt lat="23.1712729297578334808349609375" lon="113.25506757013499736785888671875">
        <ele>7.19999980926513671875</ele>
        <time>2019-03-09T11:14:50.000Z</time>
        <extensions>
          <ns3:TrackPointExtension>
            <ns3:hr>85</ns3:hr>
            <ns3:cad>61</ns3:cad>
          </ns3:TrackPointExtension>
        </extensions>
      </trkpt>
      <trkpt lat="23.1712756119668483734130859375" lon="113.2550403289496898651123046875">
        <ele>6.80000019073486328125</ele>
        <time>2019-03-09T11:14:52.000Z</time>
        <extensions>
          <ns3:TrackPointExtension>
            <ns3:hr>89</ns3:hr>
            <ns3:cad>61</ns3:cad>
          </ns3:TrackPointExtension>
        </extensions>
      </trkpt>
      <trkpt lat="23.171277455985546112060546875" lon="113.25502716936171054840087890625">
        <ele>6.80000019073486328125</ele>
        <time>2019-03-09T11:14:53.000Z</time>
        <extensions>
          <ns3:TrackPointExtension>
            <ns3:hr>94</ns3:hr>
            <ns3:cad>61</ns3:cad>
          </ns3:TrackPointExtension>
        </extensions>
      </trkpt>
      <trkpt lat="23.17127720452845096588134765625" lon="113.255019374191761016845703125">
        <ele>6.599999904632568359375</ele>
        <time>2019-03-09T11:14:54.000Z</time>
        <extensions>
          <ns3:TrackPointExtension>
            <ns3:hr>97</ns3:hr>
            <ns3:cad>0</ns3:cad>
          </ns3:TrackPointExtension>
        </extensions>
      </trkpt>
      <trkpt lat="23.171282149851322174072265625" lon="113.2550163567066192626953125">
        <ele>6.599999904632568359375</ele>
        <time>2019-03-09T11:14:55.000Z</time>
        <extensions>
          <ns3:TrackPointExtension>
            <ns3:hr>103</ns3:hr>
            <ns3:cad>0</ns3:cad>
          </ns3:TrackPointExtension>
        </extensions>
      </trkpt>
      <trkpt lat="23.1712913699448108673095703125" lon="113.25501929037272930145263671875">
        <ele>6.80000019073486328125</ele>
        <time>2019-03-09T11:14:56.000Z</time>
        <extensions>
          <ns3:TrackPointExtension>
            <ns3:hr>106</ns3:hr>
            <ns3:cad>0</ns3:cad>
          </ns3:TrackPointExtension>
        </extensions>
      </trkpt>
      <trkpt lat="23.171302266418933868408203125" lon="113.25502373278141021728515625">
        <ele>7</ele>
        <time>2019-03-09T11:14:57.000Z</time>
        <extensions>
          <ns3:TrackPointExtension>
            <ns3:hr>110</ns3:hr>
            <ns3:cad>0</ns3:cad>
          </ns3:TrackPointExtension>
        </extensions>
      </trkpt>
      <trkpt lat="23.1713114865124225616455078125" lon="113.25502985157072544097900390625">
        <ele>7</ele>
        <time>2019-03-09T11:14:58.000Z</time>
        <extensions>
          <ns3:TrackPointExtension>
            <ns3:hr>114</ns3:hr>
            <ns3:cad>0</ns3:cad>
          </ns3:TrackPointExtension>
        </extensions>
      </trkpt>
      <trkpt lat="23.1713537313044071197509765625" lon="113.2550342939794063568115234375">
        <ele>6.80000019073486328125</ele>
        <time>2019-03-09T11:15:01.000Z</time>
        <extensions>
          <ns3:TrackPointExtension>
            <ns3:hr>124</ns3:hr>
            <ns3:cad>0</ns3:cad>
          </ns3:TrackPointExtension>
        </extensions>
      </trkpt>
      <trkpt lat="23.171374686062335968017578125" lon="113.2550363056361675262451171875">
        <ele>6.599999904632568359375</ele>
        <time>2019-03-09T11:15:02.000Z</time>
        <extensions>
          <ns3:TrackPointExtension>
            <ns3:hr>130</ns3:hr>
            <ns3:cad>0</ns3:cad>
          </ns3:TrackPointExtension>
        </extensions>
      </trkpt>
      <trkpt lat="23.17139605991542339324951171875" lon="113.25504007749259471893310546875">
        <ele>6.400000095367431640625</ele>
        <time>2019-03-09T11:15:03.000Z</time>
        <extensions>
          <ns3:TrackPointExtension>
            <ns3:hr>129</ns3:hr>
            <ns3:cad>0</ns3:cad>
          </ns3:TrackPointExtension>
        </extensions>
      </trkpt>
      <trkpt lat="23.1714958883821964263916015625" lon="113.25503203086555004119873046875">
        <ele>5.599999904632568359375</ele>
        <time>2019-03-09T11:15:07.000Z</time>
        <extensions>
          <ns3:TrackPointExtension>
            <ns3:hr>133</ns3:hr>
            <ns3:cad>0</ns3:cad>
          </ns3:TrackPointExtension>
        </extensions>
      </trkpt>
      <trkpt lat="23.171568475663661956787109375" lon="113.255012668669223785400390625">
        <ele>5</ele>
        <time>2019-03-09T11:15:10.000Z</time>
        <extensions>
          <ns3:TrackPointExtension>
            <ns3:hr>139</ns3:hr>
            <ns3:cad>61</ns3:cad>
          </ns3:TrackPointExtension>
        </extensions>
      </trkpt>
      <trkpt lat="23.17159823141992092132568359375" lon="113.25500085018575191497802734375">
        <ele>4.400000095367431640625</ele>
        <time>2019-03-09T11:15:11.000Z</time>
        <extensions>
          <ns3:TrackPointExtension>
            <ns3:hr>142</ns3:hr>
            <ns3:cad>61</ns3:cad>
          </ns3:TrackPointExtension>
        </extensions>
      </trkpt>
      <trkpt lat="23.171622119843959808349609375" lon="113.254996575415134429931640625">
        <ele>4.19999980926513671875</ele>
        <time>2019-03-09T11:15:12.000Z</time>
        <extensions>
          <ns3:TrackPointExtension>
            <ns3:hr>145</ns3:hr>
            <ns3:cad>61</ns3:cad>
          </ns3:TrackPointExtension>
        </extensions>
      </trkpt>
      <trkpt lat="23.171646259725093841552734375" lon="113.2549876905977725982666015625">
        <ele>4</ele>
        <time>2019-03-09T11:15:13.000Z</time>
        <extensions>
          <ns3:TrackPointExtension>
            <ns3:hr>141</ns3:hr>
            <ns3:cad>61</ns3:cad>
          </ns3:TrackPointExtension>
        </extensions>
      </trkpt>
      <trkpt lat="23.1717258878052234649658203125" lon="113.2549628801643848419189453125">
        <ele>3.599999904632568359375</ele>
        <time>2019-03-09T11:15:16.000Z</time>
        <extensions>
          <ns3:TrackPointExtension>
            <ns3:hr>144</ns3:hr>
            <ns3:cad>61</ns3:cad>
          </ns3:TrackPointExtension>
        </extensions>
      </trkpt>
      <trkpt lat="23.1717885844409465789794921875" lon="113.25494594871997833251953125">
        <ele>3.2000000476837158203125</ele>
        <time>2019-03-09T11:15:18.000Z</time>
        <extensions>
          <ns3:TrackPointExtension>
            <ns3:hr>148</ns3:hr>
            <ns3:cad>61</ns3:cad>
          </ns3:TrackPointExtension>
        </extensions>
      </trkpt>
      <trkpt lat="23.171856142580509185791015625" lon="113.25492356903851032257080078125">
        <ele>3</ele>
        <time>2019-03-09T11:15:20.000Z</time>
        <extensions>
          <ns3:TrackPointExtension>
            <ns3:hr>143</ns3:hr>
            <ns3:cad>61</ns3:cad>
          </ns3:TrackPointExtension>
        </extensions>
      </trkpt>
      <trkpt lat="23.1719242036342620849609375" lon="113.2549249939620494842529296875">
        <ele>3.400000095367431640625</ele>
        <time>2019-03-09T11:15:22.000Z</time>
        <extensions>
          <ns3:TrackPointExtension>
            <ns3:hr>134</ns3:hr>
            <ns3:cad>61</ns3:cad>
          </ns3:TrackPointExtension>
        </extensions>
      </trkpt>
      <trkpt lat="23.17198983393609523773193359375" lon="113.254927508533000946044921875">
        <ele>4</ele>
        <time>2019-03-09T11:15:24.000Z</time>
        <extensions>
          <ns3:TrackPointExtension>
            <ns3:hr>131</ns3:hr>
            <ns3:cad>0</ns3:cad>
          </ns3:TrackPointExtension>
        </extensions>
      </trkpt>
      <trkpt lat="23.17204331047832965850830078125" lon="113.254918120801448822021484375">
        <ele>4.400000095367431640625</ele>
        <time>2019-03-09T11:15:26.000Z</time>
        <extensions>
          <ns3:TrackPointExtension>
            <ns3:hr>137</ns3:hr>
            <ns3:cad>0</ns3:cad>
          </ns3:TrackPointExtension>
        </extensions>
      </trkpt>
      <trkpt lat="23.17206594161689281463623046875" lon="113.2549125887453556060791015625">
        <ele>4.400000095367431640625</ele>
        <time>2019-03-09T11:15:27.000Z</time>
        <extensions>
          <ns3:TrackPointExtension>
            <ns3:hr>140</ns3:hr>
            <ns3:cad>0</ns3:cad>
          </ns3:TrackPointExtension>
        </extensions>
      </trkpt>
      <trkpt lat="23.17209091968834400177001953125" lon="113.25490429066121578216552734375">
        <ele>4.599999904632568359375</ele>
        <time>2019-03-09T11:15:28.000Z</time>
        <extensions>
          <ns3:TrackPointExtension>
            <ns3:hr>140</ns3:hr>
            <ns3:cad>0</ns3:cad>
          </ns3:TrackPointExtension>
        </extensions>
      </trkpt>
      <trkpt lat="23.1721912510693073272705078125" lon="113.25489037670195102691650390625">
        <ele>5.80000019073486328125</ele>
        <time>2019-03-09T11:15:32.000Z</time>
        <extensions>
          <ns3:TrackPointExtension>
            <ns3:hr>137</ns3:hr>
            <ns3:cad>0</ns3:cad>
          </ns3:TrackPointExtension>
        </extensions>
      </trkpt>
      <trkpt lat="23.1722863018512725830078125" lon="113.2548809051513671875">
        <ele>6.80000019073486328125</ele>
        <time>2019-03-09T11:15:36.000Z</time>
        <extensions>
          <ns3:TrackPointExtension>
            <ns3:hr>133</ns3:hr>
            <ns3:cad>0</ns3:cad>
          </ns3:TrackPointExtension>
        </extensions>
      </trkpt>
      <trkpt lat="23.17230633459985256195068359375" lon="113.25488023459911346435546875">
        <ele>7</ele>
        <time>2019-03-09T11:15:37.000Z</time>
        <extensions>
          <ns3:TrackPointExtension>
            <ns3:hr>130</ns3:hr>
            <ns3:cad>0</ns3:cad>
          </ns3:TrackPointExtension>
        </extensions>
      </trkpt>
      <trkpt lat="23.17237506620585918426513671875" lon="113.25487428344786167144775390625">
        <ele>8</ele>
        <time>2019-03-09T11:15:40.000Z</time>
        <extensions>
          <ns3:TrackPointExtension>
            <ns3:hr>127</ns3:hr>
            <ns3:cad>0</ns3:cad>
          </ns3:TrackPointExtension>
        </extensions>
      </trkpt>
      <trkpt lat="23.172447569668292999267578125" lon="113.25486338697373867034912109375">
        <ele>8.80000019073486328125</ele>
        <time>2019-03-09T11:15:43.000Z</time>
        <extensions>
          <ns3:TrackPointExtension>
            <ns3:hr>123</ns3:hr>
            <ns3:cad>0</ns3:cad>
          </ns3:TrackPointExtension>
        </extensions>
      </trkpt>
      <trkpt lat="23.17249341867864131927490234375" lon="113.2548565976321697235107421875">
        <ele>9.19999980926513671875</ele>
        <time>2019-03-09T11:15:45.000Z</time>
        <extensions>
          <ns3:TrackPointExtension>
            <ns3:hr>119</ns3:hr>
            <ns3:cad>0</ns3:cad>
          </ns3:TrackPointExtension>
        </extensions>
      </trkpt>
      <trkpt lat="23.17261763848364353179931640625" lon="113.2548227347433567047119140625">
        <ele>10</ele>
        <time>2019-03-09T11:15:50.000Z</time>
        <extensions>
          <ns3:TrackPointExtension>
            <ns3:hr>129</ns3:hr>
            <ns3:cad>0</ns3:cad>
          </ns3:TrackPointExtension>
        </extensions>
      </trkpt>
      <trkpt lat="23.1726376712322235107421875" lon="113.25481946580111980438232421875">
        <ele>10.19999980926513671875</ele>
        <time>2019-03-09T11:15:51.000Z</time>
        <extensions>
          <ns3:TrackPointExtension>
            <ns3:hr>132</ns3:hr>
            <ns3:cad>0</ns3:cad>
          </ns3:TrackPointExtension>
        </extensions>
      </trkpt>
      <trkpt lat="23.17268603481352329254150390625" lon="113.2548110000789165496826171875">
        <ele>10.80000019073486328125</ele>
        <time>2019-03-09T11:15:52.000Z</time>
        <extensions>
          <ns3:TrackPointExtension>
            <ns3:hr>138</ns3:hr>
            <ns3:cad>0</ns3:cad>
          </ns3:TrackPointExtension>
        </extensions>
      </trkpt>
      <trkpt lat="23.17268603481352329254150390625" lon="113.2548110000789165496826171875">
        <ele>10.80000019073486328125</ele>
        <time>2019-03-09T11:15:53.000Z</time>
        <extensions>
          <ns3:TrackPointExtension>
            <ns3:hr>138</ns3:hr>
            <ns3:cad>0</ns3:cad>
          </ns3:TrackPointExtension>
        </extensions>
      </trkpt>
      <trkpt lat="23.17273381166160106658935546875" lon="113.2548026181757450103759765625">
        <ele>10.80000019073486328125</ele>
        <time>2019-03-09T11:15:55.000Z</time>
        <extensions>
          <ns3:TrackPointExtension>
            <ns3:hr>142</ns3:hr>
            <ns3:cad>0</ns3:cad>
          </ns3:TrackPointExtension>
        </extensions>
      </trkpt>
      <trkpt lat="23.17281042225658893585205078125" lon="113.2547856867313385009765625">
        <ele>11.19999980926513671875</ele>
        <time>2019-03-09T11:15:58.000Z</time>
        <extensions>
          <ns3:TrackPointExtension>
            <ns3:hr>138</ns3:hr>
            <ns3:cad>61</ns3:cad>
          </ns3:TrackPointExtension>
        </extensions>
      </trkpt>
      <trkpt lat="23.1728973425924777984619140625" lon="113.2547509856522083282470703125">
        <ele>12.80000019073486328125</ele>
        <time>2019-03-09T11:16:02.000Z</time>
        <extensions>
          <ns3:TrackPointExtension>
            <ns3:hr>135</ns3:hr>
            <ns3:cad>0</ns3:cad>
          </ns3:TrackPointExtension>
        </extensions>
      </trkpt>
      <trkpt lat="23.1730958260595798492431640625" lon="113.25468837283551692962646484375">
        <ele>17.3999996185302734375</ele>
        <time>2019-03-09T11:16:11.000Z</time>
        <extensions>
          <ns3:TrackPointExtension>
            <ns3:hr>136</ns3:hr>
            <ns3:cad>61</ns3:cad>
          </ns3:TrackPointExtension>
        </extensions>
      </trkpt>
      <trkpt lat="23.173291794955730438232421875" lon="113.254651241004467010498046875">
        <ele>20</ele>
        <time>2019-03-09T11:16:21.000Z</time>
        <extensions>
          <ns3:TrackPointExtension>
            <ns3:hr>135</ns3:hr>
            <ns3:cad>61</ns3:cad>
          </ns3:TrackPointExtension>
        </extensions>
      </trkpt>
      <trkpt lat="23.17349187098443508148193359375" lon="113.25464512221515178680419921875">
        <ele>20</ele>
        <time>2019-03-09T11:16:31.000Z</time>
        <extensions>
          <ns3:TrackPointExtension>
            <ns3:hr>136</ns3:hr>
            <ns3:cad>61</ns3:cad>
          </ns3:TrackPointExtension>
        </extensions>
      </trkpt>
      <trkpt lat="23.17369219847023487091064453125" lon="113.25464277528226375579833984375">
        <ele>17</ele>
        <time>2019-03-09T11:16:40.000Z</time>
        <extensions>
          <ns3:TrackPointExtension>
            <ns3:hr>137</ns3:hr>
            <ns3:cad>61</ns3:cad>
          </ns3:TrackPointExtension>
        </extensions>
      </trkpt>
      <trkpt lat="23.1738803721964359283447265625" lon="113.25460673309862613677978515625">
        <ele>14.3999996185302734375</ele>
        <time>2019-03-09T11:16:46.000Z</time>
        <extensions>
          <ns3:TrackPointExtension>
            <ns3:hr>136</ns3:hr>
            <ns3:cad>61</ns3:cad>
          </ns3:TrackPointExtension>
        </extensions>
      </trkpt>
      <trkpt lat="23.1740151531994342803955078125" lon="113.2545793242752552032470703125">
        <ele>12.6000003814697265625</ele>
        <time>2019-03-09T11:16:51.000Z</time>
        <extensions>
          <ns3:TrackPointExtension>
            <ns3:hr>139</ns3:hr>
            <ns3:cad>0</ns3:cad>
          </ns3:TrackPointExtension>
        </extensions>
      </trkpt>
      <trkpt lat="23.17420818842947483062744140625" lon="113.25457907281816005706787109375">
        <ele>9.6000003814697265625</ele>
        <time>2019-03-09T11:16:59.000Z</time>
        <extensions>
          <ns3:TrackPointExtension>
            <ns3:hr>141</ns3:hr>
            <ns3:cad>61</ns3:cad>
          </ns3:TrackPointExtension>
        </extensions>
      </trkpt>
      <trkpt lat="23.1743812747299671173095703125" lon="113.2545900531113147735595703125">
        <ele>7</ele>
        <time>2019-03-09T11:17:07.000Z</time>
        <extensions>
          <ns3:TrackPointExtension>
            <ns3:hr>138</ns3:hr>
            <ns3:cad>61</ns3:cad>
          </ns3:TrackPointExtension>
        </extensions>
      </trkpt>
      <trkpt lat="23.17457430996000766754150390625" lon="113.25457437895238399505615234375">
        <ele>4.80000019073486328125</ele>
        <time>2019-03-09T11:17:15.000Z</time>
        <extensions>
          <ns3:TrackPointExtension>
            <ns3:hr>136</ns3:hr>
            <ns3:cad>61</ns3:cad>
          </ns3:TrackPointExtension>
        </extensions>
      </trkpt>
      <trkpt lat="23.174673132598400115966796875" lon="113.25457572005689144134521484375">
        <ele>4.19999980926513671875</ele>
        <time>2019-03-09T11:17:20.000Z</time>
        <extensions>
          <ns3:TrackPointExtension>
            <ns3:hr>133</ns3:hr>
            <ns3:cad>61</ns3:cad>
          </ns3:TrackPointExtension>
        </extensions>
      </trkpt>
      <trkpt lat="23.174867928028106689453125" lon="113.25455392710864543914794921875">
        <ele>4.400000095367431640625</ele>
        <time>2019-03-09T11:17:30.000Z</time>
        <extensions>
          <ns3:TrackPointExtension>
            <ns3:hr>130</ns3:hr>
            <ns3:cad>0</ns3:cad>
          </ns3:TrackPointExtension>
        </extensions>
      </trkpt>
      <trkpt lat="23.1748835183680057525634765625" lon="113.25454621575772762298583984375">
        <ele>4.400000095367431640625</ele>
        <time>2019-03-09T11:17:32.000Z</time>
        <extensions>
          <ns3:TrackPointExtension>
            <ns3:hr>129</ns3:hr>
            <ns3:cad>0</ns3:cad>
          </ns3:TrackPointExtension>
        </extensions>
      </trkpt>
      <trkpt lat="23.17490086890757083892822265625" lon="113.25452425517141819000244140625">
        <ele>4</ele>
        <time>2019-03-09T11:17:38.000Z</time>
        <extensions>
          <ns3:TrackPointExtension>
            <ns3:hr>126</ns3:hr>
            <ns3:cad>0</ns3:cad>
          </ns3:TrackPointExtension>
        </extensions>
      </trkpt>
      <trkpt lat="23.17490925081074237823486328125" lon="113.2545102573931217193603515625">
        <ele>4</ele>
        <time>2019-03-09T11:17:42.000Z</time>
        <extensions>
          <ns3:TrackPointExtension>
            <ns3:hr>123</ns3:hr>
            <ns3:cad>0</ns3:cad>
          </ns3:TrackPointExtension>
        </extensions>
      </trkpt>
      <trkpt lat="23.17490925081074237823486328125" lon="113.2545102573931217193603515625">
        <ele>4</ele>
        <time>2019-03-09T11:17:46.000Z</time>
        <extensions>
          <ns3:TrackPointExtension>
            <ns3:hr>120</ns3:hr>
            <ns3:cad>0</ns3:cad>
          </ns3:TrackPointExtension>
        </extensions>
      </trkpt>
      <trkpt lat="23.174909166991710662841796875" lon="113.25451034121215343475341796875">
        <ele>4</ele>
        <time>2019-03-09T11:17:48.000Z</time>
        <extensions>
          <ns3:TrackPointExtension>
            <ns3:hr>116</ns3:hr>
            <ns3:cad>0</ns3:cad>
          </ns3:TrackPointExtension>
        </extensions>
      </trkpt>
      <trkpt lat="23.174909166991710662841796875" lon="113.25451050885021686553955078125">
        <ele>4</ele>
        <time>2019-03-09T11:17:51.000Z</time>
        <extensions>
          <ns3:TrackPointExtension>
            <ns3:hr>113</ns3:hr>
            <ns3:cad>0</ns3:cad>
          </ns3:TrackPointExtension>
        </extensions>
      </trkpt>
      <trkpt lat="23.17490883171558380126953125" lon="113.25451067648828029632568359375">
        <ele>4</ele>
        <time>2019-03-09T11:17:54.000Z</time>
        <extensions>
          <ns3:TrackPointExtension>
            <ns3:hr>110</ns3:hr>
            <ns3:cad>0</ns3:cad>
          </ns3:TrackPointExtension>
        </extensions>
      </trkpt>
      <trkpt lat="23.17490556277334690093994140625" lon="113.25451034121215343475341796875">
        <ele>4</ele>
        <time>2019-03-09T11:17:56.000Z</time>
        <extensions>
          <ns3:TrackPointExtension>
            <ns3:hr>107</ns3:hr>
            <ns3:cad>0</ns3:cad>
          </ns3:TrackPointExtension>
        </extensions>
      </trkpt>
      <trkpt lat="23.17490271292626857757568359375" lon="113.2545102573931217193603515625">
        <ele>4</ele>
        <time>2019-03-09T11:17:59.000Z</time>
        <extensions>
          <ns3:TrackPointExtension>
            <ns3:hr>104</ns3:hr>
            <ns3:cad>61</ns3:cad>
          </ns3:TrackPointExtension>
        </extensions>
      </trkpt>
      <trkpt lat="23.17490120418369770050048828125" lon="113.25450866483151912689208984375">
        <ele>4</ele>
        <time>2019-03-09T11:18:06.000Z</time>
        <extensions>
          <ns3:TrackPointExtension>
            <ns3:hr>101</ns3:hr>
            <ns3:cad>0</ns3:cad>
          </ns3:TrackPointExtension>
        </extensions>
      </trkpt>
      <trkpt lat="23.17490170709788799285888671875" lon="113.254509083926677703857421875">
        <ele>4</ele>
        <time>2019-03-09T11:18:12.000Z</time>
        <extensions>
          <ns3:TrackPointExtension>
            <ns3:hr>98</ns3:hr>
            <ns3:cad>0</ns3:cad>
          </ns3:TrackPointExtension>
        </extensions>
      </trkpt>
      <trkpt lat="23.17490388639271259307861328125" lon="113.25450883246958255767822265625">
        <ele>4</ele>
        <time>2019-03-09T11:18:19.000Z</time>
        <extensions>
          <ns3:TrackPointExtension>
            <ns3:hr>95</ns3:hr>
            <ns3:cad>0</ns3:cad>
          </ns3:TrackPointExtension>
        </extensions>
      </trkpt>
      <trkpt lat="23.1749053113162517547607421875" lon="113.25450606644153594970703125">
        <ele>4</ele>
        <time>2019-03-09T11:18:25.000Z</time>
        <extensions>
          <ns3:TrackPointExtension>
            <ns3:hr>92</ns3:hr>
            <ns3:cad>0</ns3:cad>
          </ns3:TrackPointExtension>
        </extensions>
      </trkpt>
      <trkpt lat="23.17490640096366405487060546875" lon="113.254502378404140472412109375">
        <ele>4</ele>
        <time>2019-03-09T11:18:32.000Z</time>
        <extensions>
          <ns3:TrackPointExtension>
            <ns3:hr>89</ns3:hr>
            <ns3:cad>0</ns3:cad>
          </ns3:TrackPointExtension>
        </extensions>
      </trkpt>
      <trkpt lat="23.1749100051820278167724609375" lon="113.25450363568961620330810546875">
        <ele>4</ele>
        <time>2019-03-09T11:18:39.000Z</time>
        <extensions>
          <ns3:TrackPointExtension>
            <ns3:hr>86</ns3:hr>
            <ns3:cad>0</ns3:cad>
          </ns3:TrackPointExtension>
        </extensions>
      </trkpt>
      <trkpt lat="23.1749499030411243438720703125" lon="113.25449374504387378692626953125">
        <ele>4.19999980926513671875</ele>
        <time>2019-03-09T11:18:44.000Z</time>
        <extensions>
          <ns3:TrackPointExtension>
            <ns3:hr>83</ns3:hr>
            <ns3:cad>61</ns3:cad>
          </ns3:TrackPointExtension>
        </extensions>
      </trkpt>
      <trkpt lat="23.17498519085347652435302734375" lon="113.25448117218911647796630859375">
        <ele>4.19999980926513671875</ele>
        <time>2019-03-09T11:18:47.000Z</time>
        <extensions>
          <ns3:TrackPointExtension>
            <ns3:hr>81</ns3:hr>
            <ns3:cad>0</ns3:cad>
          </ns3:TrackPointExtension>
        </extensions>
      </trkpt>
      <trkpt lat="23.1750424392521381378173828125" lon="113.25446021743118762969970703125">
        <ele>5.19999980926513671875</ele>
        <time>2019-03-09T11:18:52.000Z</time>
        <extensions>
          <ns3:TrackPointExtension>
            <ns3:hr>78</ns3:hr>
            <ns3:cad>0</ns3:cad>
          </ns3:TrackPointExtension>
        </extensions>
      </trkpt>
      <trkpt lat="23.17510957829654216766357421875" lon="113.25442166067659854888916015625">
        <ele>7</ele>
        <time>2019-03-09T11:18:59.000Z</time>
        <extensions>
          <ns3:TrackPointExtension>
            <ns3:hr>75</ns3:hr>
            <ns3:cad>0</ns3:cad>
          </ns3:TrackPointExtension>
        </extensions>
      </trkpt>
      <trkpt lat="23.1751416809856891632080078125" lon="113.2542145438492298126220703125">
        <ele>11.6000003814697265625</ele>
        <time>2019-03-09T11:19:07.000Z</time>
        <extensions>
          <ns3:TrackPointExtension>
            <ns3:hr>79</ns3:hr>
            <ns3:cad>61</ns3:cad>
          </ns3:TrackPointExtension>
        </extensions>
      </trkpt>
      <trkpt lat="23.1751440279185771942138671875" lon="113.25413432903587818145751953125">
        <ele>13.19999980926513671875</ele>
        <time>2019-03-09T11:19:10.000Z</time>
        <extensions>
          <ns3:TrackPointExtension>
            <ns3:hr>82</ns3:hr>
            <ns3:cad>0</ns3:cad>
          </ns3:TrackPointExtension>
        </extensions>
      </trkpt>
      <trkpt lat="23.17514763213694095611572265625" lon="113.25407900847494602203369140625">
        <ele>14.3999996185302734375</ele>
        <time>2019-03-09T11:19:12.000Z</time>
        <extensions>
          <ns3:TrackPointExtension>
            <ns3:hr>85</ns3:hr>
            <ns3:cad>0</ns3:cad>
          </ns3:TrackPointExtension>
        </extensions>
      </trkpt>
      <trkpt lat="23.17514595575630664825439453125" lon="113.25405134819447994232177734375">
        <ele>14.6000003814697265625</ele>
        <time>2019-03-09T11:19:13.000Z</time>
        <extensions>
          <ns3:TrackPointExtension>
            <ns3:hr>88</ns3:hr>
            <ns3:cad>0</ns3:cad>
          </ns3:TrackPointExtension>
        </extensions>
      </trkpt>
      <trkpt lat="23.1751547567546367645263671875" lon="113.25399250723421573638916015625">
        <ele>14.19999980926513671875</ele>
        <time>2019-03-09T11:19:14.000Z</time>
        <extensions>
          <ns3:TrackPointExtension>
            <ns3:hr>92</ns3:hr>
            <ns3:cad>0</ns3:cad>
          </ns3:TrackPointExtension>
        </extensions>
      </trkpt>
      <trkpt lat="23.1751547567546367645263671875" lon="113.25399250723421573638916015625">
        <ele>14.19999980926513671875</ele>
        <time>2019-03-09T11:19:15.000Z</time>
        <extensions>
          <ns3:TrackPointExtension>
            <ns3:hr>91</ns3:hr>
            <ns3:cad>0</ns3:cad>
          </ns3:TrackPointExtension>
        </extensions>
      </trkpt>
      <trkpt lat="23.1751696765422821044921875" lon="113.2539081014692783355712890625">
        <ele>13.6000003814697265625</ele>
        <time>2019-03-09T11:19:18.000Z</time>
        <extensions>
          <ns3:TrackPointExtension>
            <ns3:hr>94</ns3:hr>
            <ns3:cad>61</ns3:cad>
          </ns3:TrackPointExtension>
        </extensions>
      </trkpt>
      <trkpt lat="23.1751661561429500579833984375" lon="113.25380642898380756378173828125">
        <ele>13.19999980926513671875</ele>
        <time>2019-03-09T11:19:22.000Z</time>
        <extensions>
          <ns3:TrackPointExtension>
            <ns3:hr>98</ns3:hr>
            <ns3:cad>61</ns3:cad>
          </ns3:TrackPointExtension>
        </extensions>
      </trkpt>
      <trkpt lat="23.1751621328294277191162109375" lon="113.25358070433139801025390625">
        <ele>11.6000003814697265625</ele>
        <time>2019-03-09T11:19:30.000Z</time>
        <extensions>
          <ns3:TrackPointExtension>
            <ns3:hr>97</ns3:hr>
            <ns3:cad>0</ns3:cad>
          </ns3:TrackPointExtension>
        </extensions>
      </trkpt>
      <trkpt lat="23.17516054026782512664794921875" lon="113.25352395884692668914794921875">
        <ele>11.6000003814697265625</ele>
        <time>2019-03-09T11:19:32.000Z</time>
        <extensions>
          <ns3:TrackPointExtension>
            <ns3:hr>101</ns3:hr>
            <ns3:cad>0</ns3:cad>
          </ns3:TrackPointExtension>
        </extensions>
      </trkpt>
      <trkpt lat="23.17511326633393764495849609375" lon="113.2533025927841663360595703125">
        <ele>15</ele>
        <time>2019-03-09T11:19:40.000Z</time>
        <extensions>
          <ns3:TrackPointExtension>
            <ns3:hr>101</ns3:hr>
            <ns3:cad>0</ns3:cad>
          </ns3:TrackPointExtension>
        </extensions>
      </trkpt>
      <trkpt lat="23.17509985528886318206787109375" lon="113.2531007565557956695556640625">
        <ele>16.799999237060546875</ele>
        <time>2019-03-09T11:19:47.000Z</time>
        <extensions>
          <ns3:TrackPointExtension>
            <ns3:hr>102</ns3:hr>
            <ns3:cad>61</ns3:cad>
          </ns3:TrackPointExtension>
        </extensions>
      </trkpt>
      <trkpt lat="23.175153918564319610595703125" lon="113.253014422953128814697265625">
        <ele>18.3999996185302734375</ele>
        <time>2019-03-09T11:19:50.000Z</time>
        <extensions>
          <ns3:TrackPointExtension>
            <ns3:hr>107</ns3:hr>
            <ns3:cad>61</ns3:cad>
          </ns3:TrackPointExtension>
        </extensions>
      </trkpt>
      <trkpt lat="23.175170011818408966064453125" lon="113.25298701412975788116455078125">
        <ele>18.799999237060546875</ele>
        <time>2019-03-09T11:19:51.000Z</time>
        <extensions>
          <ns3:TrackPointExtension>
            <ns3:hr>112</ns3:hr>
            <ns3:cad>61</ns3:cad>
          </ns3:TrackPointExtension>
        </extensions>
      </trkpt>
      <trkpt lat="23.1751913018524646759033203125" lon="113.2528962381184101104736328125">
        <ele>19.3999996185302734375</ele>
        <time>2019-03-09T11:19:54.000Z</time>
        <extensions>
          <ns3:TrackPointExtension>
            <ns3:hr>115</ns3:hr>
            <ns3:cad>0</ns3:cad>
          </ns3:TrackPointExtension>
        </extensions>
      </trkpt>
      <trkpt lat="23.17519851028919219970703125" lon="113.25283681042492389678955078125">
        <ele>19.6000003814697265625</ele>
        <time>2019-03-09T11:19:55.000Z</time>
        <extensions>
          <ns3:TrackPointExtension>
            <ns3:hr>119</ns3:hr>
            <ns3:cad>0</ns3:cad>
          </ns3:TrackPointExtension>
        </extensions>
      </trkpt>
      <trkpt lat="23.17519851028919219970703125" lon="113.25283681042492389678955078125">
        <ele>19.6000003814697265625</ele>
        <time>2019-03-09T11:19:56.000Z</time>
        <extensions>
          <ns3:TrackPointExtension>
            <ns3:hr>119</ns3:hr>
            <ns3:cad>0</ns3:cad>
          </ns3:TrackPointExtension>
        </extensions>
      </trkpt>
      <trkpt lat="23.175214268267154693603515625" lon="113.2527534104883670806884765625">
        <ele>20.200000762939453125</ele>
        <time>2019-03-09T11:20:00.000Z</time>
        <extensions>
          <ns3:TrackPointExtension>
            <ns3:hr>125</ns3:hr>
            <ns3:cad>61</ns3:cad>
          </ns3:TrackPointExtension>
        </extensions>
      </trkpt>
      <trkpt lat="23.17521586082875728607177734375" lon="113.25273178517818450927734375">
        <ele>20.200000762939453125</ele>
        <time>2019-03-09T11:20:01.000Z</time>
        <extensions>
          <ns3:TrackPointExtension>
            <ns3:hr>122</ns3:hr>
            <ns3:cad>61</ns3:cad>
          </ns3:TrackPointExtension>
        </extensions>
      </trkpt>
      <trkpt lat="23.17521653138101100921630859375" lon="113.252709321677684783935546875">
        <ele>20.200000762939453125</ele>
        <time>2019-03-09T11:20:02.000Z</time>
        <extensions>
          <ns3:TrackPointExtension>
            <ns3:hr>119</ns3:hr>
            <ns3:cad>0</ns3:cad>
          </ns3:TrackPointExtension>
        </extensions>
      </trkpt>
      <trkpt lat="23.17521753720939159393310546875" lon="113.25265802443027496337890625">
        <ele>18.3999996185302734375</ele>
        <time>2019-03-09T11:20:04.000Z</time>
        <extensions>
          <ns3:TrackPointExtension>
            <ns3:hr>123</ns3:hr>
            <ns3:cad>0</ns3:cad>
          </ns3:TrackPointExtension>
        </extensions>
      </trkpt>
      <trkpt lat="23.17521820776164531707763671875" lon="113.252630196511745452880859375">
        <ele>17.6000003814697265625</ele>
        <time>2019-03-09T11:20:05.000Z</time>
        <extensions>
          <ns3:TrackPointExtension>
            <ns3:hr>127</ns3:hr>
            <ns3:cad>0</ns3:cad>
          </ns3:TrackPointExtension>
        </extensions>
      </trkpt>
      <trkpt lat="23.17522642202675342559814453125" lon="113.25257353484630584716796875">
        <ele>15.80000019073486328125</ele>
        <time>2019-03-09T11:20:06.000Z</time>
        <extensions>
          <ns3:TrackPointExtension>
            <ns3:hr>131</ns3:hr>
            <ns3:cad>0</ns3:cad>
          </ns3:TrackPointExtension>
        </extensions>
      </trkpt>
      <trkpt lat="23.17522642202675342559814453125" lon="113.25257353484630584716796875">
        <ele>15.80000019073486328125</ele>
        <time>2019-03-09T11:20:07.000Z</time>
        <extensions>
          <ns3:TrackPointExtension>
            <ns3:hr>131</ns3:hr>
            <ns3:cad>0</ns3:cad>
          </ns3:TrackPointExtension>
        </extensions>
      </trkpt>
      <trkpt lat="23.175240419805049896240234375" lon="113.25241335667669773101806640625">
        <ele>10.19999980926513671875</ele>
        <time>2019-03-09T11:20:12.000Z</time>
        <extensions>
          <ns3:TrackPointExtension>
            <ns3:hr>126</ns3:hr>
            <ns3:cad>0</ns3:cad>
          </ns3:TrackPointExtension>
        </extensions>
      </trkpt>
      <trkpt lat="23.17524050362408161163330078125" lon="113.2523795776069164276123046875">
        <ele>9</ele>
        <time>2019-03-09T11:20:13.000Z</time>
        <extensions>
          <ns3:TrackPointExtension>
            <ns3:hr>130</ns3:hr>
            <ns3:cad>0</ns3:cad>
          </ns3:TrackPointExtension>
        </extensions>
      </trkpt>
      <trkpt lat="23.1752459518611431121826171875" lon="113.252250663936138153076171875">
        <ele>4.19999980926513671875</ele>
        <time>2019-03-09T11:20:17.000Z</time>
        <extensions>
          <ns3:TrackPointExtension>
            <ns3:hr>133</ns3:hr>
            <ns3:cad>61</ns3:cad>
          </ns3:TrackPointExtension>
        </extensions>
      </trkpt>
      <trkpt lat="23.1752466224133968353271484375" lon="113.252192996442317962646484375">
        <ele>2.7999999523162841796875</ele>
        <time>2019-03-09T11:20:19.000Z</time>
        <extensions>
          <ns3:TrackPointExtension>
            <ns3:hr>139</ns3:hr>
            <ns3:cad>0</ns3:cad>
          </ns3:TrackPointExtension>
        </extensions>
      </trkpt>
      <trkpt lat="23.1752516515552997589111328125" lon="113.2521405257284641265869140625">
        <ele>2.599999904632568359375</ele>
        <time>2019-03-09T11:20:20.000Z</time>
        <extensions>
          <ns3:TrackPointExtension>
            <ns3:hr>142</ns3:hr>
            <ns3:cad>0</ns3:cad>
          </ns3:TrackPointExtension>
        </extensions>
      </trkpt>
      <trkpt lat="23.1752516515552997589111328125" lon="113.2521405257284641265869140625">
        <ele>2.599999904632568359375</ele>
        <time>2019-03-09T11:20:21.000Z</time>
        <extensions>
          <ns3:TrackPointExtension>
            <ns3:hr>142</ns3:hr>
            <ns3:cad>0</ns3:cad>
          </ns3:TrackPointExtension>
        </extensions>
      </trkpt>
      <trkpt lat="23.17526514641940593719482421875" lon="113.25207808054983615875244140625">
        <ele>4.400000095367431640625</ele>
        <time>2019-03-09T11:20:24.000Z</time>
        <extensions>
          <ns3:TrackPointExtension>
            <ns3:hr>137</ns3:hr>
            <ns3:cad>0</ns3:cad>
          </ns3:TrackPointExtension>
        </extensions>
      </trkpt>
      <trkpt lat="23.17527788691222667694091796875" lon="113.25205896981060504913330078125">
        <ele>5</ele>
        <time>2019-03-09T11:20:27.000Z</time>
        <extensions>
          <ns3:TrackPointExtension>
            <ns3:hr>140</ns3:hr>
            <ns3:cad>0</ns3:cad>
          </ns3:TrackPointExtension>
        </extensions>
      </trkpt>
      <trkpt lat="23.17529632709920406341552734375" lon="113.252056203782558441162109375">
        <ele>5.400000095367431640625</ele>
        <time>2019-03-09T11:20:29.000Z</time>
        <extensions>
          <ns3:TrackPointExtension>
            <ns3:hr>144</ns3:hr>
            <ns3:cad>0</ns3:cad>
          </ns3:TrackPointExtension>
        </extensions>
      </trkpt>
      <trkpt lat="23.1753026135265827178955078125" lon="113.252055533230304718017578125">
        <ele>5.599999904632568359375</ele>
        <time>2019-03-09T11:20:31.000Z</time>
        <extensions>
          <ns3:TrackPointExtension>
            <ns3:hr>140</ns3:hr>
            <ns3:cad>0</ns3:cad>
          </ns3:TrackPointExtension>
        </extensions>
      </trkpt>
      <trkpt lat="23.1753019429743289947509765625" lon="113.25205611996352672576904296875">
        <ele>5.599999904632568359375</ele>
        <time>2019-03-09T11:20:32.000Z</time>
        <extensions>
          <ns3:TrackPointExtension>
            <ns3:hr>136</ns3:hr>
            <ns3:cad>0</ns3:cad>
          </ns3:TrackPointExtension>
        </extensions>
      </trkpt>
      <trkpt lat="23.1753032840788364410400390625" lon="113.2520550303161144256591796875">
        <ele>5.599999904632568359375</ele>
        <time>2019-03-09T11:20:33.000Z</time>
        <extensions>
          <ns3:TrackPointExtension>
            <ns3:hr>132</ns3:hr>
            <ns3:cad>0</ns3:cad>
          </ns3:TrackPointExtension>
        </extensions>
      </trkpt>
      <trkpt lat="23.1753032840788364410400390625" lon="113.2520550303161144256591796875">
        <ele>5.599999904632568359375</ele>
        <time>2019-03-09T11:20:34.000Z</time>
        <extensions>
          <ns3:TrackPointExtension>
            <ns3:hr>132</ns3:hr>
            <ns3:cad>0</ns3:cad>
          </ns3:TrackPointExtension>
        </extensions>
      </trkpt>
      <trkpt lat="23.1753636337816715240478515625" lon="113.25203306972980499267578125">
        <ele>7.19999980926513671875</ele>
        <time>2019-03-09T11:20:45.000Z</time>
        <extensions>
          <ns3:TrackPointExtension>
            <ns3:hr>135</ns3:hr>
            <ns3:cad>0</ns3:cad>
          </ns3:TrackPointExtension>
        </extensions>
      </trkpt>
      <trkpt lat="23.17539389245212078094482421875" lon="113.25200716964900493621826171875">
        <ele>8</ele>
        <time>2019-03-09T11:20:49.000Z</time>
        <extensions>
          <ns3:TrackPointExtension>
            <ns3:hr>132</ns3:hr>
            <ns3:cad>0</ns3:cad>
          </ns3:TrackPointExtension>
        </extensions>
      </trkpt>
      <trkpt lat="23.175409734249114990234375" lon="113.25199543498456478118896484375">
        <ele>8.3999996185302734375</ele>
        <time>2019-03-09T11:20:50.000Z</time>
        <extensions>
          <ns3:TrackPointExtension>
            <ns3:hr>128</ns3:hr>
            <ns3:cad>0</ns3:cad>
          </ns3:TrackPointExtension>
        </extensions>
      </trkpt>
      <trkpt lat="23.175409734249114990234375" lon="113.25199543498456478118896484375">
        <ele>8.3999996185302734375</ele>
        <time>2019-03-09T11:20:51.000Z</time>
        <extensions>
          <ns3:TrackPointExtension>
            <ns3:hr>128</ns3:hr>
            <ns3:cad>0</ns3:cad>
          </ns3:TrackPointExtension>
        </extensions>
      </trkpt>
      <trkpt lat="23.1754259951412677764892578125" lon="113.251981772482395172119140625">
        <ele>9</ele>
        <time>2019-03-09T11:20:52.000Z</time>
        <extensions>
          <ns3:TrackPointExtension>
            <ns3:hr>125</ns3:hr>
            <ns3:cad>61</ns3:cad>
          </ns3:TrackPointExtension>
        </extensions>
      </trkpt>
      <trkpt lat="23.1754605285823345184326171875" lon="113.2519621588289737701416015625">
        <ele>9.6000003814697265625</ele>
        <time>2019-03-09T11:20:57.000Z</time>
        <extensions>
          <ns3:TrackPointExtension>
            <ns3:hr>128</ns3:hr>
            <ns3:cad>61</ns3:cad>
          </ns3:TrackPointExtension>
        </extensions>
      </trkpt>
      <trkpt lat="23.17549514584243297576904296875" lon="113.25192737393081188201904296875">
        <ele>10.19999980926513671875</ele>
        <time>2019-03-09T11:21:02.000Z</time>
        <extensions>
          <ns3:TrackPointExtension>
            <ns3:hr>131</ns3:hr>
            <ns3:cad>57</ns3:cad>
          </ns3:TrackPointExtension>
        </extensions>
      </trkpt>
      <trkpt lat="23.175522051751613616943359375" lon="113.2518900744616985321044921875">
        <ele>10.80000019073486328125</ele>
        <time>2019-03-09T11:21:05.000Z</time>
        <extensions>
          <ns3:TrackPointExtension>
            <ns3:hr>131</ns3:hr>
            <ns3:cad>59</ns3:cad>
          </ns3:TrackPointExtension>
        </extensions>
      </trkpt>
      <trkpt lat="23.17555616609752178192138671875" lon="113.25178991071879863739013671875">
        <ele>13.80000019073486328125</ele>
        <time>2019-03-09T11:21:13.000Z</time>
        <extensions>
          <ns3:TrackPointExtension>
            <ns3:hr>129</ns3:hr>
            <ns3:cad>56</ns3:cad>
          </ns3:TrackPointExtension>
        </extensions>
      </trkpt>
      <trkpt lat="23.1755507178604602813720703125" lon="113.251652531325817108154296875">
        <ele>17.799999237060546875</ele>
        <time>2019-03-09T11:21:19.000Z</time>
        <extensions>
          <ns3:TrackPointExtension>
            <ns3:hr>126</ns3:hr>
            <ns3:cad>57</ns3:cad>
          </ns3:TrackPointExtension>
        </extensions>
      </trkpt>
      <trkpt lat="23.17561735399067401885986328125" lon="113.25151783414185047149658203125">
        <ele>16.6000003814697265625</ele>
        <time>2019-03-09T11:21:32.000Z</time>
        <extensions>
          <ns3:TrackPointExtension>
            <ns3:hr>123</ns3:hr>
            <ns3:cad>58</ns3:cad>
          </ns3:TrackPointExtension>
        </extensions>
      </trkpt>
      <trkpt lat="23.1756497919559478759765625" lon="113.25150827877223491668701171875">
        <ele>16</ele>
        <time>2019-03-09T11:21:34.000Z</time>
        <extensions>
          <ns3:TrackPointExtension>
            <ns3:hr>123</ns3:hr>
            <ns3:cad>59</ns3:cad>
          </ns3:TrackPointExtension>
        </extensions>
      </trkpt>
      <trkpt lat="23.1757706589996814727783203125" lon="113.2514624297618865966796875">
        <ele>17</ele>
        <time>2019-03-09T11:21:44.000Z</time>
        <extensions>
          <ns3:TrackPointExtension>
            <ns3:hr>120</ns3:hr>
            <ns3:cad>58</ns3:cad>
          </ns3:TrackPointExtension>
        </extensions>
      </trkpt>
      <trkpt lat="23.1758286617696285247802734375" lon="113.251441977918148040771484375">
        <ele>17.3999996185302734375</ele>
        <time>2019-03-09T11:21:49.000Z</time>
        <extensions>
          <ns3:TrackPointExtension>
            <ns3:hr>117</ns3:hr>
            <ns3:cad>58</ns3:cad>
          </ns3:TrackPointExtension>
        </extensions>
      </trkpt>
      <trkpt lat="23.175911642611026763916015625" lon="113.25142957270145416259765625">
        <ele>17.799999237060546875</ele>
        <time>2019-03-09T11:21:55.000Z</time>
        <extensions>
          <ns3:TrackPointExtension>
            <ns3:hr>114</ns3:hr>
            <ns3:cad>58</ns3:cad>
          </ns3:TrackPointExtension>
        </extensions>
      </trkpt>
      <trkpt lat="23.1760120578110218048095703125" lon="113.2514230348169803619384765625">
        <ele>18.200000762939453125</ele>
        <time>2019-03-09T11:22:06.000Z</time>
        <extensions>
          <ns3:TrackPointExtension>
            <ns3:hr>112</ns3:hr>
            <ns3:cad>61</ns3:cad>
          </ns3:TrackPointExtension>
        </extensions>
      </trkpt>
      <trkpt lat="23.1760201044380664825439453125" lon="113.25142697431147098541259765625">
        <ele>18.200000762939453125</ele>
        <time>2019-03-09T11:22:09.000Z</time>
        <extensions>
          <ns3:TrackPointExtension>
            <ns3:hr>111</ns3:hr>
            <ns3:cad>61</ns3:cad>
          </ns3:TrackPointExtension>
        </extensions>
      </trkpt>
      <trkpt lat="23.17603376694023609161376953125" lon="113.25143166817724704742431640625">
        <ele>18.3999996185302734375</ele>
        <time>2019-03-09T11:22:12.000Z</time>
        <extensions>
          <ns3:TrackPointExtension>
            <ns3:hr>110</ns3:hr>
            <ns3:cad>0</ns3:cad>
          </ns3:TrackPointExtension>
        </extensions>
      </trkpt>
      <trkpt lat="23.17604516632854938507080078125" lon="113.25143535621464252471923828125">
        <ele>18.3999996185302734375</ele>
        <time>2019-03-09T11:22:15.000Z</time>
        <extensions>
          <ns3:TrackPointExtension>
            <ns3:hr>108</ns3:hr>
            <ns3:cad>0</ns3:cad>
          </ns3:TrackPointExtension>
        </extensions>
      </trkpt>
      <trkpt lat="23.1760606728494167327880859375" lon="113.25144038535654544830322265625">
        <ele>18.6000003814697265625</ele>
        <time>2019-03-09T11:22:19.000Z</time>
        <extensions>
          <ns3:TrackPointExtension>
            <ns3:hr>107</ns3:hr>
            <ns3:cad>63</ns3:cad>
          </ns3:TrackPointExtension>
        </extensions>
      </trkpt>
      <trkpt lat="23.17606444470584392547607421875" lon="113.25144139118492603302001953125">
        <ele>18.6000003814697265625</ele>
        <time>2019-03-09T11:22:20.000Z</time>
        <extensions>
          <ns3:TrackPointExtension>
            <ns3:hr>107</ns3:hr>
            <ns3:cad>63</ns3:cad>
          </ns3:TrackPointExtension>
        </extensions>
      </trkpt>
      <trkpt lat="23.17664346657693386077880859375" lon="113.2509700767695903778076171875">
        <ele>17.799999237060546875</ele>
        <time>2019-03-09T11:34:00.000Z</time>
        <extensions>
          <ns3:TrackPointExtension>
            <ns3:hr>85</ns3:hr>
            <ns3:cad>61</ns3:cad>
          </ns3:TrackPointExtension>
        </extensions>
      </trkpt>
      <trkpt lat="23.1766443885862827301025390625" lon="113.2509737648069858551025390625">
        <ele>17.799999237060546875</ele>
        <time>2019-03-09T11:34:01.000Z</time>
        <extensions>
          <ns3:TrackPointExtension>
            <ns3:hr>85</ns3:hr>
            <ns3:cad>61</ns3:cad>
          </ns3:TrackPointExtension>
        </extensions>
      </trkpt>
      <trkpt lat="23.17669023759663105010986328125" lon="113.25099195353686809539794921875">
        <ele>18</ele>
        <time>2019-03-09T11:34:04.000Z</time>
        <extensions>
          <ns3:TrackPointExtension>
            <ns3:hr>84</ns3:hr>
            <ns3:cad>61</ns3:cad>
          </ns3:TrackPointExtension>
        </extensions>
      </trkpt>
      <trkpt lat="23.1764274649322032928466796875" lon="113.2510049454867839813232421875">
        <ele>17.200000762939453125</ele>
        <time>2019-03-09T11:34:09.000Z</time>
        <extensions>
          <ns3:TrackPointExtension>
            <ns3:hr>83</ns3:hr>
            <ns3:cad>61</ns3:cad>
          </ns3:TrackPointExtension>
        </extensions>
      </trkpt>
      <trkpt lat="23.17640542052686214447021484375" lon="113.25099396519362926483154296875">
        <ele>17</ele>
        <time>2019-03-09T11:34:10.000Z</time>
        <extensions>
          <ns3:TrackPointExtension>
            <ns3:hr>83</ns3:hr>
            <ns3:cad>61</ns3:cad>
          </ns3:TrackPointExtension>
        </extensions>
      </trkpt>
      <trkpt lat="23.17636661231517791748046875" lon="113.25098172761499881744384765625">
        <ele>16.799999237060546875</ele>
        <time>2019-03-09T11:34:14.000Z</time>
        <extensions>
          <ns3:TrackPointExtension>
            <ns3:hr>81</ns3:hr>
            <ns3:cad>61</ns3:cad>
          </ns3:TrackPointExtension>
        </extensions>
      </trkpt>
      <trkpt lat="23.176353536546230316162109375" lon="113.2510086335241794586181640625">
        <ele>17</ele>
        <time>2019-03-09T11:34:18.000Z</time>
        <extensions>
          <ns3:TrackPointExtension>
            <ns3:hr>81</ns3:hr>
            <ns3:cad>57</ns3:cad>
          </ns3:TrackPointExtension>
        </extensions>
      </trkpt>
      <trkpt lat="23.17638874053955078125" lon="113.2510465197265148162841796875">
        <ele>17.3999996185302734375</ele>
        <time>2019-03-09T11:34:22.000Z</time>
        <extensions>
          <ns3:TrackPointExtension>
            <ns3:hr>81</ns3:hr>
            <ns3:cad>55</ns3:cad>
          </ns3:TrackPointExtension>
        </extensions>
      </trkpt>
      <trkpt lat="23.17639519460499286651611328125" lon="113.25105004012584686279296875">
        <ele>17.3999996185302734375</ele>
        <time>2019-03-09T11:34:24.000Z</time>
        <extensions>
          <ns3:TrackPointExtension>
            <ns3:hr>84</ns3:hr>
            <ns3:cad>55</ns3:cad>
          </ns3:TrackPointExtension>
        </extensions>
      </trkpt>
      <trkpt lat="23.1764019839465618133544921875" lon="113.25104945339262485504150390625">
        <ele>17.3999996185302734375</ele>
        <time>2019-03-09T11:34:26.000Z</time>
        <extensions>
          <ns3:TrackPointExtension>
            <ns3:hr>88</ns3:hr>
            <ns3:cad>57</ns3:cad>
          </ns3:TrackPointExtension>
        </extensions>
      </trkpt>
      <trkpt lat="23.17641531117260456085205078125" lon="113.251042664051055908203125">
        <ele>17.3999996185302734375</ele>
        <time>2019-03-09T11:34:28.000Z</time>
        <extensions>
          <ns3:TrackPointExtension>
            <ns3:hr>93</ns3:hr>
            <ns3:cad>57</ns3:cad>
          </ns3:TrackPointExtension>
        </extensions>
      </trkpt>
      <trkpt lat="23.1764209270477294921875" lon="113.2510386407375335693359375">
        <ele>17.3999996185302734375</ele>
        <time>2019-03-09T11:34:29.000Z</time>
        <extensions>
          <ns3:TrackPointExtension>
            <ns3:hr>96</ns3:hr>
            <ns3:cad>57</ns3:cad>
          </ns3:TrackPointExtension>
        </extensions>
      </trkpt>
      <trkpt lat="23.176428973674774169921875" lon="113.25103034265339374542236328125">
        <ele>17.3999996185302734375</ele>
        <time>2019-03-09T11:34:30.000Z</time>
        <extensions>
          <ns3:TrackPointExtension>
            <ns3:hr>99</ns3:hr>
            <ns3:cad>57</ns3:cad>
          </ns3:TrackPointExtension>
        </extensions>
      </trkpt>
      <trkpt lat="23.17643207497894763946533203125" lon="113.2510126568377017974853515625">
        <ele>17.200000762939453125</ele>
        <time>2019-03-09T11:34:31.000Z</time>
        <extensions>
          <ns3:TrackPointExtension>
            <ns3:hr>105</ns3:hr>
            <ns3:cad>57</ns3:cad>
          </ns3:TrackPointExtension>
        </extensions>
      </trkpt>
      <trkpt lat="23.17643207497894763946533203125" lon="113.2510126568377017974853515625">
        <ele>17.200000762939453125</ele>
        <time>2019-03-09T11:34:32.000Z</time>
        <extensions>
          <ns3:TrackPointExtension>
            <ns3:hr>105</ns3:hr>
            <ns3:cad>57</ns3:cad>
          </ns3:TrackPointExtension>
        </extensions>
      </trkpt>
      <trkpt lat="23.17643769085407257080078125" lon="113.25099362991750240325927734375">
        <ele>17.200000762939453125</ele>
        <time>2019-03-09T11:34:34.000Z</time>
        <extensions>
          <ns3:TrackPointExtension>
            <ns3:hr>108</ns3:hr>
            <ns3:cad>57</ns3:cad>
          </ns3:TrackPointExtension>
        </extensions>
      </trkpt>
      <trkpt lat="23.176454119384288787841796875" lon="113.25095909647643566131591796875">
        <ele>17</ele>
        <time>2019-03-09T11:34:38.000Z</time>
        <extensions>
          <ns3:TrackPointExtension>
            <ns3:hr>107</ns3:hr>
            <ns3:cad>56</ns3:cad>
          </ns3:TrackPointExtension>
        </extensions>
      </trkpt>
      <trkpt lat="23.17646509967744350433349609375" lon="113.25094954110682010650634765625">
        <ele>17</ele>
        <time>2019-03-09T11:34:39.000Z</time>
        <extensions>
          <ns3:TrackPointExtension>
            <ns3:hr>103</ns3:hr>
            <ns3:cad>58</ns3:cad>
          </ns3:TrackPointExtension>
        </extensions>
      </trkpt>
      <trkpt lat="23.17646509967744350433349609375" lon="113.25094954110682010650634765625">
        <ele>17</ele>
        <time>2019-03-09T11:34:40.000Z</time>
        <extensions>
          <ns3:TrackPointExtension>
            <ns3:hr>105</ns3:hr>
            <ns3:cad>58</ns3:cad>
          </ns3:TrackPointExtension>
        </extensions>
      </trkpt>
      <trkpt lat="23.176468871533870697021484375" lon="113.25093696825206279754638671875">
        <ele>16.799999237060546875</ele>
        <time>2019-03-09T11:34:42.000Z</time>
        <extensions>
          <ns3:TrackPointExtension>
            <ns3:hr>106</ns3:hr>
            <ns3:cad>56</ns3:cad>
          </ns3:TrackPointExtension>
        </extensions>
      </trkpt>
      <trkpt lat="23.176473565399646759033203125" lon="113.2509301789104938507080078125">
        <ele>16.799999237060546875</ele>
        <time>2019-03-09T11:34:43.000Z</time>
        <extensions>
          <ns3:TrackPointExtension>
            <ns3:hr>110</ns3:hr>
            <ns3:cad>56</ns3:cad>
          </ns3:TrackPointExtension>
        </extensions>
      </trkpt>
      <trkpt lat="23.176482617855072021484375" lon="113.2509154267609119415283203125">
        <ele>16.799999237060546875</ele>
        <time>2019-03-09T11:34:45.000Z</time>
        <extensions>
          <ns3:TrackPointExtension>
            <ns3:hr>111</ns3:hr>
            <ns3:cad>56</ns3:cad>
          </ns3:TrackPointExtension>
        </extensions>
      </trkpt>
      <trkpt lat="23.1764834560453891754150390625" lon="113.25090411119163036346435546875">
        <ele>16.6000003814697265625</ele>
        <time>2019-03-09T11:34:46.000Z</time>
        <extensions>
          <ns3:TrackPointExtension>
            <ns3:hr>108</ns3:hr>
            <ns3:cad>56</ns3:cad>
          </ns3:TrackPointExtension>
        </extensions>
      </trkpt>
      <trkpt lat="23.1764951907098293304443359375" lon="113.250867314636707305908203125">
        <ele>16.3999996185302734375</ele>
        <time>2019-03-09T11:34:50.000Z</time>
        <extensions>
          <ns3:TrackPointExtension>
            <ns3:hr>101</ns3:hr>
            <ns3:cad>56</ns3:cad>
          </ns3:TrackPointExtension>
        </extensions>
      </trkpt>
      <trkpt lat="23.17649879492819309234619140625" lon="113.2508587650954723358154296875">
        <ele>16.3999996185302734375</ele>
        <time>2019-03-09T11:34:51.000Z</time>
        <extensions>
          <ns3:TrackPointExtension>
            <ns3:hr>101</ns3:hr>
            <ns3:cad>56</ns3:cad>
          </ns3:TrackPointExtension>
        </extensions>
      </trkpt>
      <trkpt lat="23.17648588679730892181396484375" lon="113.2508141733705997467041015625">
        <ele>16</ele>
        <time>2019-03-09T11:34:56.000Z</time>
        <extensions>
          <ns3:TrackPointExtension>
            <ns3:hr>100</ns3:hr>
            <ns3:cad>58</ns3:cad>
          </ns3:TrackPointExtension>
        </extensions>
      </trkpt>
      <trkpt lat="23.17649728618562221527099609375" lon="113.250815011560916900634765625">
        <ele>16</ele>
        <time>2019-03-09T11:34:59.000Z</time>
        <extensions>
          <ns3:TrackPointExtension>
            <ns3:hr>98</ns3:hr>
            <ns3:cad>55</ns3:cad>
          </ns3:TrackPointExtension>
        </extensions>
      </trkpt>
      <trkpt lat="23.176505751907825469970703125" lon="113.25081895105540752410888671875">
        <ele>16.200000762939453125</ele>
        <time>2019-03-09T11:35:01.000Z</time>
        <extensions>
          <ns3:TrackPointExtension>
            <ns3:hr>95</ns3:hr>
            <ns3:cad>55</ns3:cad>
          </ns3:TrackPointExtension>
        </extensions>
      </trkpt>
      <trkpt lat="23.17651145160198211669921875" lon="113.2508228905498981475830078125">
        <ele>16.200000762939453125</ele>
        <time>2019-03-09T11:35:03.000Z</time>
        <extensions>
          <ns3:TrackPointExtension>
            <ns3:hr>98</ns3:hr>
            <ns3:cad>59</ns3:cad>
          </ns3:TrackPointExtension>
        </extensions>
      </trkpt>
      <trkpt lat="23.17651438526809215545654296875" lon="113.25082532130181789398193359375">
        <ele>16.200000762939453125</ele>
        <time>2019-03-09T11:35:04.000Z</time>
        <extensions>
          <ns3:TrackPointExtension>
            <ns3:hr>98</ns3:hr>
            <ns3:cad>59</ns3:cad>
          </ns3:TrackPointExtension>
        </extensions>
      </trkpt>
      <trkpt lat="23.17664966918528079986572265625" lon="113.25092825107276439666748046875">
        <ele>17.3999996185302734375</ele>
        <time>2019-03-09T11:35:21.000Z</time>
        <extensions>
          <ns3:TrackPointExtension>
            <ns3:hr>98</ns3:hr>
            <ns3:cad>58</ns3:cad>
          </ns3:TrackPointExtension>
        </extensions>
      </trkpt>
      <trkpt lat="23.17668403498828411102294921875" lon="113.250946439802646636962890625">
        <ele>17.6000003814697265625</ele>
        <time>2019-03-09T11:35:24.000Z</time>
        <extensions>
          <ns3:TrackPointExtension>
            <ns3:hr>97</ns3:hr>
            <ns3:cad>58</ns3:cad>
          </ns3:TrackPointExtension>
        </extensions>
      </trkpt>
      <trkpt lat="23.17688436247408390045166015625" lon="113.250903524458408355712890625">
        <ele>19.3999996185302734375</ele>
        <time>2019-03-09T11:35:39.000Z</time>
        <extensions>
          <ns3:TrackPointExtension>
            <ns3:hr>98</ns3:hr>
            <ns3:cad>57</ns3:cad>
          </ns3:TrackPointExtension>
        </extensions>
      </trkpt>
      <trkpt lat="23.17706289701163768768310546875" lon="113.250831104815006256103515625">
        <ele>21.200000762939453125</ele>
        <time>2019-03-09T11:35:59.000Z</time>
        <extensions>
          <ns3:TrackPointExtension>
            <ns3:hr>98</ns3:hr>
            <ns3:cad>57</ns3:cad>
          </ns3:TrackPointExtension>
        </extensions>
      </trkpt>
      <trkpt lat="23.17719834856688976287841796875" lon="113.2506884448230266571044921875">
        <ele>23.799999237060546875</ele>
        <time>2019-03-09T11:36:09.000Z</time>
        <extensions>
          <ns3:TrackPointExtension>
            <ns3:hr>99</ns3:hr>
            <ns3:cad>56</ns3:cad>
          </ns3:TrackPointExtension>
        </extensions>
      </trkpt>
      <trkpt lat="23.1773052178323268890380859375" lon="113.2506720162928104400634765625">
        <ele>24</ele>
        <time>2019-03-09T11:36:18.000Z</time>
        <extensions>
          <ns3:TrackPointExtension>
            <ns3:hr>98</ns3:hr>
            <ns3:cad>57</ns3:cad>
          </ns3:TrackPointExtension>
        </extensions>
      </trkpt>
      <trkpt lat="23.17753077484667301177978515625" lon="113.25067796744406223297119140625">
        <ele>23.799999237060546875</ele>
        <time>2019-03-09T11:36:30.000Z</time>
        <extensions>
          <ns3:TrackPointExtension>
            <ns3:hr>99</ns3:hr>
            <ns3:cad>59</ns3:cad>
          </ns3:TrackPointExtension>
        </extensions>
      </trkpt>
      <trkpt lat="23.177749626338481903076171875" lon="113.25078777037560939788818359375">
        <ele>22.200000762939453125</ele>
        <time>2019-03-09T11:36:43.000Z</time>
        <extensions>
          <ns3:TrackPointExtension>
            <ns3:hr>99</ns3:hr>
            <ns3:cad>58</ns3:cad>
          </ns3:TrackPointExtension>
        </extensions>
      </trkpt>
      <trkpt lat="23.17778675816953182220458984375" lon="113.25080218724906444549560546875">
        <ele>22.3999996185302734375</ele>
        <time>2019-03-09T11:36:46.000Z</time>
        <extensions>
          <ns3:TrackPointExtension>
            <ns3:hr>98</ns3:hr>
            <ns3:cad>58</ns3:cad>
          </ns3:TrackPointExtension>
        </extensions>
      </trkpt>
      <trkpt lat="23.1777997501194477081298828125" lon="113.2508332841098308563232421875">
        <ele>22.3999996185302734375</ele>
        <time>2019-03-09T11:36:50.000Z</time>
        <extensions>
          <ns3:TrackPointExtension>
            <ns3:hr>98</ns3:hr>
            <ns3:cad>61</ns3:cad>
          </ns3:TrackPointExtension>
        </extensions>
      </trkpt>
      <trkpt lat="23.177813999354839324951171875" lon="113.2508423365652561187744140625">
        <ele>22.3999996185302734375</ele>
        <time>2019-03-09T11:36:54.000Z</time>
        <extensions>
          <ns3:TrackPointExtension>
            <ns3:hr>97</ns3:hr>
            <ns3:cad>61</ns3:cad>
          </ns3:TrackPointExtension>
        </extensions>
      </trkpt>
      <trkpt lat="23.17783051170408725738525390625" lon="113.2508614473044872283935546875">
        <ele>22.3999996185302734375</ele>
        <time>2019-03-09T11:36:57.000Z</time>
        <extensions>
          <ns3:TrackPointExtension>
            <ns3:hr>98</ns3:hr>
            <ns3:cad>58</ns3:cad>
          </ns3:TrackPointExtension>
        </extensions>
      </trkpt>
      <trkpt lat="23.17783269099891185760498046875" lon="113.25088114477694034576416015625">
        <ele>22.200000762939453125</ele>
        <time>2019-03-09T11:37:00.000Z</time>
        <extensions>
          <ns3:TrackPointExtension>
            <ns3:hr>98</ns3:hr>
            <ns3:cad>59</ns3:cad>
          </ns3:TrackPointExtension>
        </extensions>
      </trkpt>
      <trkpt lat="23.177834451198577880859375" lon="113.25088583864271640777587890625">
        <ele>22.200000762939453125</ele>
        <time>2019-03-09T11:37:02.000Z</time>
        <extensions>
          <ns3:TrackPointExtension>
            <ns3:hr>98</ns3:hr>
            <ns3:cad>61</ns3:cad>
          </ns3:TrackPointExtension>
        </extensions>
      </trkpt>
      <trkpt lat="23.1778373010456562042236328125" lon="113.25079120695590972900390625">
        <ele>22.799999237060546875</ele>
        <time>2019-03-09T11:38:38.000Z</time>
        <extensions>
          <ns3:TrackPointExtension>
            <ns3:hr>82</ns3:hr>
            <ns3:cad>61</ns3:cad>
          </ns3:TrackPointExtension>
        </extensions>
      </trkpt>
      <trkpt lat="23.1778560765087604522705078125" lon="113.25082029215991497039794921875">
        <ele>22.799999237060546875</ele>
        <time>2019-03-09T11:38:39.000Z</time>
        <extensions>
          <ns3:TrackPointExtension>
            <ns3:hr>85</ns3:hr>
            <ns3:cad>0</ns3:cad>
          </ns3:TrackPointExtension>
        </extensions>
      </trkpt>
      <trkpt lat="23.177861608564853668212890625" lon="113.25081937015056610107421875">
        <ele>22.799999237060546875</ele>
        <time>2019-03-09T11:38:41.000Z</time>
        <extensions>
          <ns3:TrackPointExtension>
            <ns3:hr>88</ns3:hr>
            <ns3:cad>0</ns3:cad>
          </ns3:TrackPointExtension>
        </extensions>
      </trkpt>
      <trkpt lat="23.17785817198455333709716796875" lon="113.2508597709238529205322265625">
        <ele>22.6000003814697265625</ele>
        <time>2019-03-09T11:38:44.000Z</time>
        <extensions>
          <ns3:TrackPointExtension>
            <ns3:hr>92</ns3:hr>
            <ns3:cad>0</ns3:cad>
          </ns3:TrackPointExtension>
        </extensions>
      </trkpt>
      <trkpt lat="23.17786395549774169921875" lon="113.25086572207510471343994140625">
        <ele>22.6000003814697265625</ele>
        <time>2019-03-09T11:38:46.000Z</time>
        <extensions>
          <ns3:TrackPointExtension>
            <ns3:hr>94</ns3:hr>
            <ns3:cad>0</ns3:cad>
          </ns3:TrackPointExtension>
        </extensions>
      </trkpt>
      <trkpt lat="23.17789153195917606353759765625" lon="113.2509073801338672637939453125">
        <ele>22.3999996185302734375</ele>
        <time>2019-03-09T11:38:55.000Z</time>
        <extensions>
          <ns3:TrackPointExtension>
            <ns3:hr>100</ns3:hr>
            <ns3:cad>61</ns3:cad>
          </ns3:TrackPointExtension>
        </extensions>
      </trkpt>
    </trkseg>
  </trk>
</gpx>
