<gpx xmlns:ns3="http://www.garmin.com/xmlschemas/TrackPointExtension/v1" xmlns="http://www.topografix.com/GPX/1/1" xmlns:xsi="http://www.w3.org/2001/XMLSchema-instance" xmlns:ns2="http://www.garmin.com/xmlschemas/GpxExtensions/v3" creator="Garmin Connect" version="1.1" xsi:schemaLocation="http://www.topografix.com/GPX/1/1 http://www.topografix.com/GPX/11.xsd">
  <extensions>
<distance>1551.48</distance>
<average_hr>185.0</average_hr>
<average_speed>2.921999931335449</average_speed>
<start_time>2020-09-20T01:31:05+00:00</start_time>
<end_time>2020-09-20T01:39:55.908000+00:00</end_time>
<moving_time>525.411</moving_time>
<elapsed_time>788.992</elapsed_time>
</extensions>
<metadata>
    <link href="connect.garmin.com">
      <text>Garmin Connect</text>
    </link>
    <time>2020-09-20T01:31:05.000Z</time>
  </metadata>
  <trk>
    <name>广州市 跑步</name>
    <type>running</type>
    <trkseg>
      <trkpt lat="23.11591322533786296844482421875" lon="113.2833084650337696075439453125">
        <ele>13.6000003814697265625</ele>
        <time>2020-09-20T01:34:06.000Z</time>
        <extensions>
          <ns3:TrackPointExtension>
            <ns3:hr>189</ns3:hr>
            <ns3:cad>84</ns3:cad>
          </ns3:TrackPointExtension>
        </extensions>
      </trkpt>
      <trkpt lat="23.115791268646717071533203125" lon="113.28333201818168163299560546875">
        <ele>13.3999996185302734375</ele>
        <time>2020-09-20T01:34:12.000Z</time>
        <extensions>
          <ns3:TrackPointExtension>
            <ns3:hr>189</ns3:hr>
            <ns3:cad>84</ns3:cad>
          </ns3:TrackPointExtension>
        </extensions>
      </trkpt>
      <trkpt lat="23.11572144739329814910888671875" lon="113.28351155854761600494384765625">
        <ele>14.80000019073486328125</ele>
        <time>2020-09-20T01:34:18.000Z</time>
        <extensions>
          <ns3:TrackPointExtension>
            <ns3:hr>188</ns3:hr>
            <ns3:cad>85</ns3:cad>
          </ns3:TrackPointExtension>
        </extensions>
      </trkpt>
      <trkpt lat="23.11583309434354305267333984375" lon="113.2836799509823322296142578125">
        <ele>11.80000019073486328125</ele>
        <time>2020-09-20T01:34:24.000Z</time>
        <extensions>
          <ns3:TrackPointExtension>
            <ns3:hr>189</ns3:hr>
            <ns3:cad>83</ns3:cad>
          </ns3:TrackPointExtension>
        </extensions>
      </trkpt>
      <trkpt lat="23.1160164065659046173095703125" lon="113.2837168313562870025634765625">
        <ele>8.6000003814697265625</ele>
        <time>2020-09-20T01:34:30.000Z</time>
        <extensions>
          <ns3:TrackPointExtension>
            <ns3:hr>191</ns3:hr>
            <ns3:cad>84</ns3:cad>
          </ns3:TrackPointExtension>
        </extensions>
      </trkpt>
      <trkpt lat="23.11617641709744930267333984375" lon="113.28374407254159450531005859375">
        <ele>7.599999904632568359375</ele>
        <time>2020-09-20T01:34:36.000Z</time>
        <extensions>
          <ns3:TrackPointExtension>
            <ns3:hr>188</ns3:hr>
            <ns3:cad>84</ns3:cad>
          </ns3:TrackPointExtension>
        </extensions>
      </trkpt>
      <trkpt lat="23.11622503213584423065185546875" lon="113.28375094570219516754150390625">
        <ele>7.599999904632568359375</ele>
        <time>2020-09-20T01:34:38.000Z</time>
        <extensions>
          <ns3:TrackPointExtension>
            <ns3:hr>191</ns3:hr>
            <ns3:cad>84</ns3:cad>
          </ns3:TrackPointExtension>
        </extensions>
      </trkpt>
      <trkpt lat="23.11641681008040904998779296875" lon="113.28369026072323322296142578125">
        <ele>11.3999996185302734375</ele>
        <time>2020-09-20T01:34:46.000Z</time>
        <extensions>
          <ns3:TrackPointExtension>
            <ns3:hr>191</ns3:hr>
            <ns3:cad>83</ns3:cad>
          </ns3:TrackPointExtension>
        </extensions>
      </trkpt>
      <trkpt lat="23.1164589710533618927001953125" lon="113.2835032604634761810302734375">
        <ele>15</ele>
        <time>2020-09-20T01:34:53.000Z</time>
        <extensions>
          <ns3:TrackPointExtension>
            <ns3:hr>190</ns3:hr>
            <ns3:cad>83</ns3:cad>
          </ns3:TrackPointExtension>
        </extensions>
      </trkpt>
      <trkpt lat="23.11633097939193248748779296875" lon="113.28336487524211406707763671875">
        <ele>14.19999980926513671875</ele>
        <time>2020-09-20T01:35:00.000Z</time>
        <extensions>
          <ns3:TrackPointExtension>
            <ns3:hr>190</ns3:hr>
            <ns3:cad>84</ns3:cad>
          </ns3:TrackPointExtension>
        </extensions>
      </trkpt>
      <trkpt lat="23.11613760888576507568359375" lon="113.283341825008392333984375">
        <ele>13.80000019073486328125</ele>
        <time>2020-09-20T01:35:08.000Z</time>
        <extensions>
          <ns3:TrackPointExtension>
            <ns3:hr>190</ns3:hr>
            <ns3:cad>82</ns3:cad>
          </ns3:TrackPointExtension>
        </extensions>
      </trkpt>
      <trkpt lat="23.11595513485372066497802734375" lon="113.2833248935639858245849609375">
        <ele>13.3999996185302734375</ele>
        <time>2020-09-20T01:35:15.000Z</time>
        <extensions>
          <ns3:TrackPointExtension>
            <ns3:hr>191</ns3:hr>
            <ns3:cad>83</ns3:cad>
          </ns3:TrackPointExtension>
        </extensions>
      </trkpt>
      <trkpt lat="23.11588346958160400390625" lon="113.2833272404968738555908203125">
        <ele>13.3999996185302734375</ele>
        <time>2020-09-20T01:35:18.000Z</time>
        <extensions>
          <ns3:TrackPointExtension>
            <ns3:hr>188</ns3:hr>
            <ns3:cad>83</ns3:cad>
          </ns3:TrackPointExtension>
        </extensions>
      </trkpt>
      <trkpt lat="23.11579956673085689544677734375" lon="113.2833694852888584136962890625">
        <ele>13.19999980926513671875</ele>
        <time>2020-09-20T01:35:23.000Z</time>
        <extensions>
          <ns3:TrackPointExtension>
            <ns3:hr>189</ns3:hr>
            <ns3:cad>81</ns3:cad>
          </ns3:TrackPointExtension>
        </extensions>
      </trkpt>
      <trkpt lat="23.11574692837893962860107421875" lon="113.28357811085879802703857421875">
        <ele>14.3999996185302734375</ele>
        <time>2020-09-20T01:35:30.000Z</time>
        <extensions>
          <ns3:TrackPointExtension>
            <ns3:hr>191</ns3:hr>
            <ns3:cad>84</ns3:cad>
          </ns3:TrackPointExtension>
        </extensions>
      </trkpt>
      <trkpt lat="23.1158794462680816650390625" lon="113.2837221957743167877197265625">
        <ele>10.3999996185302734375</ele>
        <time>2020-09-20T01:35:38.000Z</time>
        <extensions>
          <ns3:TrackPointExtension>
            <ns3:hr>189</ns3:hr>
            <ns3:cad>84</ns3:cad>
          </ns3:TrackPointExtension>
        </extensions>
      </trkpt>
      <trkpt lat="23.11606896109879016876220703125" lon="113.28374155797064304351806640625">
        <ele>8</ele>
        <time>2020-09-20T01:35:46.000Z</time>
        <extensions>
          <ns3:TrackPointExtension>
            <ns3:hr>191</ns3:hr>
            <ns3:cad>83</ns3:cad>
          </ns3:TrackPointExtension>
        </extensions>
      </trkpt>
      <trkpt lat="23.11626157723367214202880859375" lon="113.2837600819766521453857421875">
        <ele>7.599999904632568359375</ele>
        <time>2020-09-20T01:35:54.000Z</time>
        <extensions>
          <ns3:TrackPointExtension>
            <ns3:hr>189</ns3:hr>
            <ns3:cad>84</ns3:cad>
          </ns3:TrackPointExtension>
        </extensions>
      </trkpt>
      <trkpt lat="23.11643860302865505218505859375" lon="113.283662013709545135498046875">
        <ele>12.19999980926513671875</ele>
        <time>2020-09-20T01:36:01.000Z</time>
        <extensions>
          <ns3:TrackPointExtension>
            <ns3:hr>189</ns3:hr>
            <ns3:cad>83</ns3:cad>
          </ns3:TrackPointExtension>
        </extensions>
      </trkpt>
      <trkpt lat="23.11645955778658390045166015625" lon="113.283474929630756378173828125">
        <ele>15.19999980926513671875</ele>
        <time>2020-09-20T01:36:08.000Z</time>
        <extensions>
          <ns3:TrackPointExtension>
            <ns3:hr>191</ns3:hr>
            <ns3:cad>83</ns3:cad>
          </ns3:TrackPointExtension>
        </extensions>
      </trkpt>
      <trkpt lat="23.116382695734500885009765625" lon="113.28339613974094390869140625">
        <ele>14.6000003814697265625</ele>
        <time>2020-09-20T01:36:12.000Z</time>
        <extensions>
          <ns3:TrackPointExtension>
            <ns3:hr>188</ns3:hr>
            <ns3:cad>83</ns3:cad>
          </ns3:TrackPointExtension>
        </extensions>
      </trkpt>
      <trkpt lat="23.1163300573825836181640625" lon="113.2833845727145671844482421875">
        <ele>14.19999980926513671875</ele>
        <time>2020-09-20T01:36:14.000Z</time>
        <extensions>
          <ns3:TrackPointExtension>
            <ns3:hr>191</ns3:hr>
            <ns3:cad>84</ns3:cad>
          </ns3:TrackPointExtension>
        </extensions>
      </trkpt>
      <trkpt lat="23.11613786034286022186279296875" lon="113.2833674736320972442626953125">
        <ele>13.6000003814697265625</ele>
        <time>2020-09-20T01:36:22.000Z</time>
        <extensions>
          <ns3:TrackPointExtension>
            <ns3:hr>189</ns3:hr>
            <ns3:cad>85</ns3:cad>
          </ns3:TrackPointExtension>
        </extensions>
      </trkpt>
      <trkpt lat="23.1159406341612339019775390625" lon="113.28335179947316646575927734375">
        <ele>13.19999980926513671875</ele>
        <time>2020-09-20T01:36:29.000Z</time>
        <extensions>
          <ns3:TrackPointExtension>
            <ns3:hr>190</ns3:hr>
            <ns3:cad>84</ns3:cad>
          </ns3:TrackPointExtension>
        </extensions>
      </trkpt>
      <trkpt lat="23.11577978543937206268310546875" lon="113.283453471958637237548828125">
        <ele>13.80000019073486328125</ele>
        <time>2020-09-20T01:36:36.000Z</time>
        <extensions>
          <ns3:TrackPointExtension>
            <ns3:hr>189</ns3:hr>
            <ns3:cad>85</ns3:cad>
          </ns3:TrackPointExtension>
        </extensions>
      </trkpt>
      <trkpt lat="23.11575614847242832183837890625" lon="113.28354994766414165496826171875">
        <ele>14.6000003814697265625</ele>
        <time>2020-09-20T01:36:39.000Z</time>
        <extensions>
          <ns3:TrackPointExtension>
            <ns3:hr>192</ns3:hr>
            <ns3:cad>85</ns3:cad>
          </ns3:TrackPointExtension>
        </extensions>
      </trkpt>
      <trkpt lat="23.11585974879562854766845703125" lon="113.28372177667915821075439453125">
        <ele>10.80000019073486328125</ele>
        <time>2020-09-20T01:36:46.000Z</time>
        <extensions>
          <ns3:TrackPointExtension>
            <ns3:hr>189</ns3:hr>
            <ns3:cad>83</ns3:cad>
          </ns3:TrackPointExtension>
        </extensions>
      </trkpt>
      <trkpt lat="23.11588925309479236602783203125" lon="113.283729739487171173095703125">
        <ele>10.19999980926513671875</ele>
        <time>2020-09-20T01:36:47.000Z</time>
        <extensions>
          <ns3:TrackPointExtension>
            <ns3:hr>186</ns3:hr>
            <ns3:cad>82</ns3:cad>
          </ns3:TrackPointExtension>
        </extensions>
      </trkpt>
      <trkpt lat="23.116075582802295684814453125" lon="113.28375597484409809112548828125">
        <ele>7.80000019073486328125</ele>
        <time>2020-09-20T01:36:54.000Z</time>
        <extensions>
          <ns3:TrackPointExtension>
            <ns3:hr>188</ns3:hr>
            <ns3:cad>85</ns3:cad>
          </ns3:TrackPointExtension>
        </extensions>
      </trkpt>
      <trkpt lat="23.11615529470145702362060546875" lon="113.2837691344320774078369140625">
        <ele>7.400000095367431640625</ele>
        <time>2020-09-20T01:36:57.000Z</time>
        <extensions>
          <ns3:TrackPointExtension>
            <ns3:hr>193</ns3:hr>
            <ns3:cad>85</ns3:cad>
          </ns3:TrackPointExtension>
        </extensions>
      </trkpt>
      <trkpt lat="23.1162608228623867034912109375" lon="113.28378380276262760162353515625">
        <ele>7</ele>
        <time>2020-09-20T01:37:01.000Z</time>
        <extensions>
          <ns3:TrackPointExtension>
            <ns3:hr>190</ns3:hr>
            <ns3:cad>85</ns3:cad>
          </ns3:TrackPointExtension>
        </extensions>
      </trkpt>
      <trkpt lat="23.11631689779460430145263671875" lon="113.2837778516113758087158203125">
        <ele>7.80000019073486328125</ele>
        <time>2020-09-20T01:37:03.000Z</time>
        <extensions>
          <ns3:TrackPointExtension>
            <ns3:hr>188</ns3:hr>
            <ns3:cad>85</ns3:cad>
          </ns3:TrackPointExtension>
        </extensions>
      </trkpt>
      <trkpt lat="23.1164616532623767852783203125" lon="113.283668048679828643798828125">
        <ele>12.3999996185302734375</ele>
        <time>2020-09-20T01:37:09.000Z</time>
        <extensions>
          <ns3:TrackPointExtension>
            <ns3:hr>191</ns3:hr>
            <ns3:cad>84</ns3:cad>
          </ns3:TrackPointExtension>
        </extensions>
      </trkpt>
      <trkpt lat="23.1164827756583690643310546875" lon="113.28358364291489124298095703125">
        <ele>14.3999996185302734375</ele>
        <time>2020-09-20T01:37:12.000Z</time>
        <extensions>
          <ns3:TrackPointExtension>
            <ns3:hr>195</ns3:hr>
            <ns3:cad>86</ns3:cad>
          </ns3:TrackPointExtension>
        </extensions>
      </trkpt>
      <trkpt lat="23.116380684077739715576171875" lon="113.283409215509891510009765625">
        <ele>14.6000003814697265625</ele>
        <time>2020-09-20T01:37:19.000Z</time>
        <extensions>
          <ns3:TrackPointExtension>
            <ns3:hr>194</ns3:hr>
            <ns3:cad>84</ns3:cad>
          </ns3:TrackPointExtension>
        </extensions>
      </trkpt>
      <trkpt lat="23.11618446372449398040771484375" lon="113.2833731733262538909912109375">
        <ele>13.6000003814697265625</ele>
        <time>2020-09-20T01:37:27.000Z</time>
        <extensions>
          <ns3:TrackPointExtension>
            <ns3:hr>194</ns3:hr>
            <ns3:cad>84</ns3:cad>
          </ns3:TrackPointExtension>
        </extensions>
      </trkpt>
      <trkpt lat="23.1160244531929492950439453125" lon="113.28335992991924285888671875">
        <ele>13.19999980926513671875</ele>
        <time>2020-09-20T01:37:33.000Z</time>
        <extensions>
          <ns3:TrackPointExtension>
            <ns3:hr>190</ns3:hr>
            <ns3:cad>85</ns3:cad>
          </ns3:TrackPointExtension>
        </extensions>
      </trkpt>
      <trkpt lat="23.115999810397624969482421875" lon="113.2833565771579742431640625">
        <ele>13</ele>
        <time>2020-09-20T01:37:34.000Z</time>
        <extensions>
          <ns3:TrackPointExtension>
            <ns3:hr>194</ns3:hr>
            <ns3:cad>85</ns3:cad>
          </ns3:TrackPointExtension>
        </extensions>
      </trkpt>
      <trkpt lat="23.11581532470881938934326171875" lon="113.283408544957637786865234375">
        <ele>13.19999980926513671875</ele>
        <time>2020-09-20T01:37:42.000Z</time>
        <extensions>
          <ns3:TrackPointExtension>
            <ns3:hr>195</ns3:hr>
            <ns3:cad>85</ns3:cad>
          </ns3:TrackPointExtension>
        </extensions>
      </trkpt>
      <trkpt lat="23.1157565675675868988037109375" lon="113.28353201039135456085205078125">
        <ele>14.6000003814697265625</ele>
        <time>2020-09-20T01:37:47.000Z</time>
        <extensions>
          <ns3:TrackPointExtension>
            <ns3:hr>192</ns3:hr>
            <ns3:cad>84</ns3:cad>
          </ns3:TrackPointExtension>
        </extensions>
      </trkpt>
      <trkpt lat="23.11582244932651519775390625" lon="113.2837057672441005706787109375">
        <ele>11.80000019073486328125</ele>
        <time>2020-09-20T01:38:01.000Z</time>
        <extensions>
          <ns3:TrackPointExtension>
            <ns3:hr>192</ns3:hr>
            <ns3:cad>61</ns3:cad>
          </ns3:TrackPointExtension>
        </extensions>
      </trkpt>
      <trkpt lat="23.11580006964504718780517578125" lon="113.28365740366280078887939453125">
        <ele>12.6000003814697265625</ele>
        <time>2020-09-20T01:42:15.000Z</time>
        <extensions>
          <ns3:TrackPointExtension>
            <ns3:hr>159</ns3:hr>
            <ns3:cad>61</ns3:cad>
          </ns3:TrackPointExtension>
        </extensions>
      </trkpt>
      <trkpt lat="23.1158055178821086883544921875" lon="113.283671401441097259521484375">
        <ele>12.3999996185302734375</ele>
        <time>2020-09-20T01:42:16.000Z</time>
        <extensions>
          <ns3:TrackPointExtension>
            <ns3:hr>160</ns3:hr>
            <ns3:cad>61</ns3:cad>
          </ns3:TrackPointExtension>
        </extensions>
      </trkpt>
      <trkpt lat="23.1158373691141605377197265625" lon="113.2837067730724811553955078125">
        <ele>11.3999996185302734375</ele>
        <time>2020-09-20T01:42:19.000Z</time>
        <extensions>
          <ns3:TrackPointExtension>
            <ns3:hr>156</ns3:hr>
            <ns3:cad>62</ns3:cad>
          </ns3:TrackPointExtension>
        </extensions>
      </trkpt>
      <trkpt lat="23.11587232165038585662841796875" lon="113.2837201841175556182861328125">
        <ele>10.6000003814697265625</ele>
        <time>2020-09-20T01:42:21.000Z</time>
        <extensions>
          <ns3:TrackPointExtension>
            <ns3:hr>153</ns3:hr>
            <ns3:cad>62</ns3:cad>
          </ns3:TrackPointExtension>
        </extensions>
      </trkpt>
      <trkpt lat="23.11608941294252872467041015625" lon="113.2837473414838314056396484375">
        <ele>7.80000019073486328125</ele>
        <time>2020-09-20T01:42:27.000Z</time>
        <extensions>
          <ns3:TrackPointExtension>
            <ns3:hr>153</ns3:hr>
            <ns3:cad>83</ns3:cad>
          </ns3:TrackPointExtension>
        </extensions>
      </trkpt>
      <trkpt lat="23.1161823682487010955810546875" lon="113.283757902681827545166015625">
        <ele>7.400000095367431640625</ele>
        <time>2020-09-20T01:42:29.000Z</time>
        <extensions>
          <ns3:TrackPointExtension>
            <ns3:hr>156</ns3:hr>
            <ns3:cad>84</ns3:cad>
          </ns3:TrackPointExtension>
        </extensions>
      </trkpt>
      <trkpt lat="23.11627230606973171234130859375" lon="113.28376770950853824615478515625">
        <ele>7.400000095367431640625</ele>
        <time>2020-09-20T01:42:31.000Z</time>
        <extensions>
          <ns3:TrackPointExtension>
            <ns3:hr>160</ns3:hr>
            <ns3:cad>85</ns3:cad>
          </ns3:TrackPointExtension>
        </extensions>
      </trkpt>
      <trkpt lat="23.11631639488041400909423828125" lon="113.2837674580514430999755859375">
        <ele>8</ele>
        <time>2020-09-20T01:42:32.000Z</time>
        <extensions>
          <ns3:TrackPointExtension>
            <ns3:hr>161</ns3:hr>
            <ns3:cad>85</ns3:cad>
          </ns3:TrackPointExtension>
        </extensions>
      </trkpt>
      <trkpt lat="23.11635998077690601348876953125" lon="113.2837580703198909759521484375">
        <ele>9</ele>
        <time>2020-09-20T01:42:33.000Z</time>
        <extensions>
          <ns3:TrackPointExtension>
            <ns3:hr>164</ns3:hr>
            <ns3:cad>85</ns3:cad>
          </ns3:TrackPointExtension>
        </extensions>
      </trkpt>
      <trkpt lat="23.11640021391212940216064453125" lon="113.2837409712374210357666015625">
        <ele>10</ele>
        <time>2020-09-20T01:42:34.000Z</time>
        <extensions>
          <ns3:TrackPointExtension>
            <ns3:hr>167</ns3:hr>
            <ns3:cad>85</ns3:cad>
          </ns3:TrackPointExtension>
        </extensions>
      </trkpt>
      <trkpt lat="23.1164757348597049713134765625" lon="113.28368020243942737579345703125">
        <ele>12.19999980926513671875</ele>
        <time>2020-09-20T01:42:36.000Z</time>
        <extensions>
          <ns3:TrackPointExtension>
            <ns3:hr>169</ns3:hr>
            <ns3:cad>85</ns3:cad>
          </ns3:TrackPointExtension>
        </extensions>
      </trkpt>
      <trkpt lat="23.11650867573916912078857421875" lon="113.28359370119869709014892578125">
        <ele>14.6000003814697265625</ele>
        <time>2020-09-20T01:42:38.000Z</time>
        <extensions>
          <ns3:TrackPointExtension>
            <ns3:hr>171</ns3:hr>
            <ns3:cad>86</ns3:cad>
          </ns3:TrackPointExtension>
        </extensions>
      </trkpt>
      <trkpt lat="23.11648537404835224151611328125" lon="113.28349881805479526519775390625">
        <ele>15.3999996185302734375</ele>
        <time>2020-09-20T01:42:40.000Z</time>
        <extensions>
          <ns3:TrackPointExtension>
            <ns3:hr>172</ns3:hr>
            <ns3:cad>85</ns3:cad>
          </ns3:TrackPointExtension>
        </extensions>
      </trkpt>
      <trkpt lat="23.1164287962019443511962890625" lon="113.2834181003272533416748046875">
        <ele>15</ele>
        <time>2020-09-20T01:42:42.000Z</time>
        <extensions>
          <ns3:TrackPointExtension>
            <ns3:hr>178</ns3:hr>
            <ns3:cad>86</ns3:cad>
          </ns3:TrackPointExtension>
        </extensions>
      </trkpt>
      <trkpt lat="23.11639702878892421722412109375" lon="113.28338809311389923095703125">
        <ele>14.80000019073486328125</ele>
        <time>2020-09-20T01:42:43.000Z</time>
        <extensions>
          <ns3:TrackPointExtension>
            <ns3:hr>181</ns3:hr>
            <ns3:cad>86</ns3:cad>
          </ns3:TrackPointExtension>
        </extensions>
      </trkpt>
      <trkpt lat="23.11635863967239856719970703125" lon="113.28336688689887523651123046875">
        <ele>14.3999996185302734375</ele>
        <time>2020-09-20T01:42:44.000Z</time>
        <extensions>
          <ns3:TrackPointExtension>
            <ns3:hr>179</ns3:hr>
            <ns3:cad>86</ns3:cad>
          </ns3:TrackPointExtension>
        </extensions>
      </trkpt>
      <trkpt lat="23.116319663822650909423828125" lon="113.283354900777339935302734375">
        <ele>14.19999980926513671875</ele>
        <time>2020-09-20T01:42:45.000Z</time>
        <extensions>
          <ns3:TrackPointExtension>
            <ns3:hr>166</ns3:hr>
            <ns3:cad>86</ns3:cad>
          </ns3:TrackPointExtension>
        </extensions>
      </trkpt>
      <trkpt lat="23.1162782572209835052490234375" lon="113.28334475867450237274169921875">
        <ele>13.80000019073486328125</ele>
        <time>2020-09-20T01:42:46.000Z</time>
        <extensions>
          <ns3:TrackPointExtension>
            <ns3:hr>161</ns3:hr>
            <ns3:cad>86</ns3:cad>
          </ns3:TrackPointExtension>
        </extensions>
      </trkpt>
      <trkpt lat="23.11616468243300914764404296875" lon="113.28332313336431980133056640625">
        <ele>13.80000019073486328125</ele>
        <time>2020-09-20T01:42:49.000Z</time>
        <extensions>
          <ns3:TrackPointExtension>
            <ns3:hr>164</ns3:hr>
            <ns3:cad>84</ns3:cad>
          </ns3:TrackPointExtension>
        </extensions>
      </trkpt>
      <trkpt lat="23.116093687713146209716796875" lon="113.28331441618502140045166015625">
        <ele>13.80000019073486328125</ele>
        <time>2020-09-20T01:42:51.000Z</time>
        <extensions>
          <ns3:TrackPointExtension>
            <ns3:hr>168</ns3:hr>
            <ns3:cad>83</ns3:cad>
          </ns3:TrackPointExtension>
        </extensions>
      </trkpt>
      <trkpt lat="23.116055466234683990478515625" lon="113.28331206925213336944580078125">
        <ele>13.80000019073486328125</ele>
        <time>2020-09-20T01:42:52.000Z</time>
        <extensions>
          <ns3:TrackPointExtension>
            <ns3:hr>173</ns3:hr>
            <ns3:cad>83</ns3:cad>
          </ns3:TrackPointExtension>
        </extensions>
      </trkpt>
      <trkpt lat="23.11602227389812469482421875" lon="113.2833111472427845001220703125">
        <ele>13.80000019073486328125</ele>
        <time>2020-09-20T01:42:53.000Z</time>
        <extensions>
          <ns3:TrackPointExtension>
            <ns3:hr>179</ns3:hr>
            <ns3:cad>82</ns3:cad>
          </ns3:TrackPointExtension>
        </extensions>
      </trkpt>
      <trkpt lat="23.1159905903041362762451171875" lon="113.28330821357667446136474609375">
        <ele>13.6000003814697265625</ele>
        <time>2020-09-20T01:42:54.000Z</time>
        <extensions>
          <ns3:TrackPointExtension>
            <ns3:hr>182</ns3:hr>
            <ns3:cad>82</ns3:cad>
          </ns3:TrackPointExtension>
        </extensions>
      </trkpt>
      <trkpt lat="23.115928731858730316162109375" lon="113.2833094708621501922607421875">
        <ele>13.6000003814697265625</ele>
        <time>2020-09-20T01:42:56.000Z</time>
        <extensions>
          <ns3:TrackPointExtension>
            <ns3:hr>186</ns3:hr>
            <ns3:cad>82</ns3:cad>
          </ns3:TrackPointExtension>
        </extensions>
      </trkpt>
      <trkpt lat="23.11586880125105381011962890625" lon="113.2833282463252544403076171875">
        <ele>13.3999996185302734375</ele>
        <time>2020-09-20T01:42:58.000Z</time>
        <extensions>
          <ns3:TrackPointExtension>
            <ns3:hr>191</ns3:hr>
            <ns3:cad>82</ns3:cad>
          </ns3:TrackPointExtension>
        </extensions>
      </trkpt>
      <trkpt lat="23.1157924421131610870361328125" lon="113.28338717110455036163330078125">
        <ele>13.3999996185302734375</ele>
        <time>2020-09-20T01:43:01.000Z</time>
        <extensions>
          <ns3:TrackPointExtension>
            <ns3:hr>188</ns3:hr>
            <ns3:cad>83</ns3:cad>
          </ns3:TrackPointExtension>
        </extensions>
      </trkpt>
      <trkpt lat="23.11574525199830532073974609375" lon="113.2835854031145572662353515625">
        <ele>14.3999996185302734375</ele>
        <time>2020-09-20T01:43:07.000Z</time>
        <extensions>
          <ns3:TrackPointExtension>
            <ns3:hr>188</ns3:hr>
            <ns3:cad>83</ns3:cad>
          </ns3:TrackPointExtension>
        </extensions>
      </trkpt>
      <trkpt lat="23.1158477626740932464599609375" lon="113.28370870091021060943603515625">
        <ele>11.19999980926513671875</ele>
        <time>2020-09-20T01:43:12.000Z</time>
        <extensions>
          <ns3:TrackPointExtension>
            <ns3:hr>185</ns3:hr>
            <ns3:cad>83</ns3:cad>
          </ns3:TrackPointExtension>
        </extensions>
      </trkpt>
      <trkpt lat="23.11587651260197162628173828125" lon="113.28371473588049411773681640625">
        <ele>10.6000003814697265625</ele>
        <time>2020-09-20T01:43:13.000Z</time>
        <extensions>
          <ns3:TrackPointExtension>
            <ns3:hr>182</ns3:hr>
            <ns3:cad>81</ns3:cad>
          </ns3:TrackPointExtension>
        </extensions>
      </trkpt>
      <trkpt lat="23.1159687973558902740478515625" lon="113.28372747637331485748291015625">
        <ele>9</ele>
        <time>2020-09-20T01:43:16.000Z</time>
        <extensions>
          <ns3:TrackPointExtension>
            <ns3:hr>185</ns3:hr>
            <ns3:cad>80</ns3:cad>
          </ns3:TrackPointExtension>
        </extensions>
      </trkpt>
      <trkpt lat="23.116144649684429168701171875" lon="113.2837543822824954986572265625">
        <ele>7.599999904632568359375</ele>
        <time>2020-09-20T01:43:22.000Z</time>
        <extensions>
          <ns3:TrackPointExtension>
            <ns3:hr>188</ns3:hr>
            <ns3:cad>83</ns3:cad>
          </ns3:TrackPointExtension>
        </extensions>
      </trkpt>
      <trkpt lat="23.11617172323167324066162109375" lon="113.2837604172527790069580078125">
        <ele>7.400000095367431640625</ele>
        <time>2020-09-20T01:43:23.000Z</time>
        <extensions>
          <ns3:TrackPointExtension>
            <ns3:hr>191</ns3:hr>
            <ns3:cad>82</ns3:cad>
          </ns3:TrackPointExtension>
        </extensions>
      </trkpt>
      <trkpt lat="23.11620005406439304351806640625" lon="113.28376586548984050750732421875">
        <ele>7.19999980926513671875</ele>
        <time>2020-09-20T01:43:24.000Z</time>
        <extensions>
          <ns3:TrackPointExtension>
            <ns3:hr>194</ns3:hr>
            <ns3:cad>82</ns3:cad>
          </ns3:TrackPointExtension>
        </extensions>
      </trkpt>
      <trkpt lat="23.11625403352081775665283203125" lon="113.28377223573625087738037109375">
        <ele>7.19999980926513671875</ele>
        <time>2020-09-20T01:43:26.000Z</time>
        <extensions>
          <ns3:TrackPointExtension>
            <ns3:hr>190</ns3:hr>
            <ns3:cad>82</ns3:cad>
          </ns3:TrackPointExtension>
        </extensions>
      </trkpt>
      <trkpt lat="23.11633701436221599578857421875" lon="113.28376402147114276885986328125">
        <ele>8.3999996185302734375</ele>
        <time>2020-09-20T01:43:29.000Z</time>
        <extensions>
          <ns3:TrackPointExtension>
            <ns3:hr>196</ns3:hr>
            <ns3:cad>82</ns3:cad>
          </ns3:TrackPointExtension>
        </extensions>
      </trkpt>
      <trkpt lat="23.11636584810912609100341796875" lon="113.28375413082540035247802734375">
        <ele>9</ele>
        <time>2020-09-20T01:43:30.000Z</time>
        <extensions>
          <ns3:TrackPointExtension>
            <ns3:hr>199</ns3:hr>
            <ns3:cad>82</ns3:cad>
          </ns3:TrackPointExtension>
        </extensions>
      </trkpt>
      <trkpt lat="23.1164780817925930023193359375" lon="113.2836393825709819793701171875">
        <ele>13.19999980926513671875</ele>
        <time>2020-09-20T01:43:36.000Z</time>
        <extensions>
          <ns3:TrackPointExtension>
            <ns3:hr>196</ns3:hr>
            <ns3:cad>82</ns3:cad>
          </ns3:TrackPointExtension>
        </extensions>
      </trkpt>
      <trkpt lat="23.11649031937122344970703125" lon="113.283535949885845184326171875">
        <ele>15.19999980926513671875</ele>
        <time>2020-09-20T01:43:40.000Z</time>
        <extensions>
          <ns3:TrackPointExtension>
            <ns3:hr>192</ns3:hr>
            <ns3:cad>83</ns3:cad>
          </ns3:TrackPointExtension>
        </extensions>
      </trkpt>
      <trkpt lat="23.11648520641028881072998046875" lon="113.28351222909986972808837890625">
        <ele>15.3999996185302734375</ele>
        <time>2020-09-20T01:43:41.000Z</time>
        <extensions>
          <ns3:TrackPointExtension>
            <ns3:hr>189</ns3:hr>
            <ns3:cad>83</ns3:cad>
          </ns3:TrackPointExtension>
        </extensions>
      </trkpt>
      <trkpt lat="23.11646349728107452392578125" lon="113.28346629627048969268798828125">
        <ele>15.19999980926513671875</ele>
        <time>2020-09-20T01:43:43.000Z</time>
        <extensions>
          <ns3:TrackPointExtension>
            <ns3:hr>186</ns3:hr>
            <ns3:cad>83</ns3:cad>
          </ns3:TrackPointExtension>
        </extensions>
      </trkpt>
      <trkpt lat="23.1163000501692295074462890625" lon="113.28336127102375030517578125">
        <ele>13.80000019073486328125</ele>
        <time>2020-09-20T01:43:49.000Z</time>
        <extensions>
          <ns3:TrackPointExtension>
            <ns3:hr>188</ns3:hr>
            <ns3:cad>83</ns3:cad>
          </ns3:TrackPointExtension>
        </extensions>
      </trkpt>
      <trkpt lat="23.116113804280757904052734375" lon="113.2833379693329334259033203125">
        <ele>13.80000019073486328125</ele>
        <time>2020-09-20T01:43:54.000Z</time>
        <extensions>
          <ns3:TrackPointExtension>
            <ns3:hr>187</ns3:hr>
            <ns3:cad>82</ns3:cad>
          </ns3:TrackPointExtension>
        </extensions>
      </trkpt>
      <trkpt lat="23.11593233607709407806396484375" lon="113.28332480974495410919189453125">
        <ele>13.3999996185302734375</ele>
        <time>2020-09-20T01:44:00.000Z</time>
        <extensions>
          <ns3:TrackPointExtension>
            <ns3:hr>186</ns3:hr>
            <ns3:cad>82</ns3:cad>
          </ns3:TrackPointExtension>
        </extensions>
      </trkpt>
      <trkpt lat="23.1158504448831081390380859375" lon="113.28339387662708759307861328125">
        <ele>12.6000003814697265625</ele>
        <time>2020-09-20T01:44:10.000Z</time>
        <extensions>
          <ns3:TrackPointExtension>
            <ns3:hr>183</ns3:hr>
            <ns3:cad>61</ns3:cad>
          </ns3:TrackPointExtension>
        </extensions>
      </trkpt>
      <trkpt lat="23.11582781374454498291015625" lon="113.2834419049322605133056640625">
        <ele>13.19999980926513671875</ele>
        <time>2020-09-20T01:44:15.000Z</time>
        <extensions>
          <ns3:TrackPointExtension>
            <ns3:hr>183</ns3:hr>
            <ns3:cad>60</ns3:cad>
          </ns3:TrackPointExtension>
        </extensions>
      </trkpt>
    </trkseg>
  </trk>
</gpx>
