<gpx xmlns:ns3="http://www.garmin.com/xmlschemas/TrackPointExtension/v1" xmlns="http://www.topografix.com/GPX/1/1" xmlns:xsi="http://www.w3.org/2001/XMLSchema-instance" xmlns:ns2="http://www.garmin.com/xmlschemas/GpxExtensions/v3" creator="Garmin Connect" version="1.1" xsi:schemaLocation="http://www.topografix.com/GPX/1/1 http://www.topografix.com/GPX/11.xsd">
  <extensions>
<distance>3006.46</distance>
<average_hr>162.0</average_hr>
<average_speed>2.5360000133514404</average_speed>
<start_time>2019-02-28T03:30:21+00:00</start_time>
<end_time>2019-02-28T03:50:06.451000+00:00</end_time>
<moving_time>1155.871</moving_time>
<elapsed_time>1596.846</elapsed_time>
</extensions>
<metadata>
    <link href="connect.garmin.com">
      <text>Garmin Connect</text>
    </link>
    <time>2019-02-28T03:30:21.000Z</time>
  </metadata>
  <trk>
    <name>广州市 跑步</name>
    <type>running</type>
    <trkseg>
      <trkpt lat="23.1745274551212787628173828125" lon="113.25461863540112972259521484375">
        <ele>5.19999980926513671875</ele>
        <time>2019-03-03T12:56:40.000Z</time>
        <extensions>
          <ns3:TrackPointExtension>
            <ns3:hr>144</ns3:hr>
            <ns3:cad>0</ns3:cad>
          </ns3:TrackPointExtension>
        </extensions>
      </trkpt>
      <trkpt lat="23.1745274551212787628173828125" lon="113.25461863540112972259521484375">
        <ele>5.19999980926513671875</ele>
        <time>2019-03-03T12:56:41.000Z</time>
        <extensions>
          <ns3:TrackPointExtension>
            <ns3:hr>144</ns3:hr>
            <ns3:cad>0</ns3:cad>
          </ns3:TrackPointExtension>
        </extensions>
      </trkpt>
      <trkpt lat="23.17449979484081268310546875" lon="113.254617713391780853271484375">
        <ele>5.599999904632568359375</ele>
        <time>2019-03-03T12:56:42.000Z</time>
        <extensions>
          <ns3:TrackPointExtension>
            <ns3:hr>140</ns3:hr>
            <ns3:cad>0</ns3:cad>
          </ns3:TrackPointExtension>
        </extensions>
      </trkpt>
      <trkpt lat="23.17443273961544036865234375" lon="113.254627101123332977294921875">
        <ele>6.19999980926513671875</ele>
        <time>2019-03-03T12:56:47.000Z</time>
        <extensions>
          <ns3:TrackPointExtension>
            <ns3:hr>145</ns3:hr>
            <ns3:cad>82</ns3:cad>
          </ns3:TrackPointExtension>
        </extensions>
      </trkpt>
      <trkpt lat="23.1744134612381458282470703125" lon="113.2546296156942844390869140625">
        <ele>6.400000095367431640625</ele>
        <time>2019-03-03T12:56:48.000Z</time>
        <extensions>
          <ns3:TrackPointExtension>
            <ns3:hr>150</ns3:hr>
            <ns3:cad>82</ns3:cad>
          </ns3:TrackPointExtension>
        </extensions>
      </trkpt>
      <trkpt lat="23.17438714206218719482421875" lon="113.25463657267391681671142578125">
        <ele>6.80000019073486328125</ele>
        <time>2019-03-03T12:56:49.000Z</time>
        <extensions>
          <ns3:TrackPointExtension>
            <ns3:hr>154</ns3:hr>
            <ns3:cad>82</ns3:cad>
          </ns3:TrackPointExtension>
        </extensions>
      </trkpt>
      <trkpt lat="23.1743477471172809600830078125" lon="113.25465400703251361846923828125">
        <ele>7</ele>
        <time>2019-03-03T12:56:50.000Z</time>
        <extensions>
          <ns3:TrackPointExtension>
            <ns3:hr>154</ns3:hr>
            <ns3:cad>82</ns3:cad>
          </ns3:TrackPointExtension>
        </extensions>
      </trkpt>
      <trkpt lat="23.17421573214232921600341796875" lon="113.25474235229194164276123046875">
        <ele>9</ele>
        <time>2019-03-03T12:56:56.000Z</time>
        <extensions>
          <ns3:TrackPointExtension>
            <ns3:hr>154</ns3:hr>
            <ns3:cad>77</ns3:cad>
          </ns3:TrackPointExtension>
        </extensions>
      </trkpt>
      <trkpt lat="23.17418421618640422821044921875" lon="113.25495131313800811767578125">
        <ele>7.599999904632568359375</ele>
        <time>2019-03-03T12:57:03.000Z</time>
        <extensions>
          <ns3:TrackPointExtension>
            <ns3:hr>158</ns3:hr>
            <ns3:cad>79</ns3:cad>
          </ns3:TrackPointExtension>
        </extensions>
      </trkpt>
      <trkpt lat="23.17416460253298282623291015625" lon="113.25514040887355804443359375">
        <ele>7.19999980926513671875</ele>
        <time>2019-03-03T12:57:09.000Z</time>
        <extensions>
          <ns3:TrackPointExtension>
            <ns3:hr>154</ns3:hr>
            <ns3:cad>78</ns3:cad>
          </ns3:TrackPointExtension>
        </extensions>
      </trkpt>
      <trkpt lat="23.1741556338965892791748046875" lon="113.25516186654567718505859375">
        <ele>7.19999980926513671875</ele>
        <time>2019-03-03T12:57:11.000Z</time>
        <extensions>
          <ns3:TrackPointExtension>
            <ns3:hr>160</ns3:hr>
            <ns3:cad>78</ns3:cad>
          </ns3:TrackPointExtension>
        </extensions>
      </trkpt>
      <trkpt lat="23.174142725765705108642578125" lon="113.25516765005886554718017578125">
        <ele>7.19999980926513671875</ele>
        <time>2019-03-03T12:57:12.000Z</time>
        <extensions>
          <ns3:TrackPointExtension>
            <ns3:hr>163</ns3:hr>
            <ns3:cad>78</ns3:cad>
          </ns3:TrackPointExtension>
        </extensions>
      </trkpt>
      <trkpt lat="23.17398481070995330810546875" lon="113.25519212521612644195556640625">
        <ele>8.19999980926513671875</ele>
        <time>2019-03-03T12:57:22.000Z</time>
        <extensions>
          <ns3:TrackPointExtension>
            <ns3:hr>160</ns3:hr>
            <ns3:cad>107</ns3:cad>
          </ns3:TrackPointExtension>
        </extensions>
      </trkpt>
      <trkpt lat="23.1739521212875843048095703125" lon="113.25518474914133548736572265625">
        <ele>8.6000003814697265625</ele>
        <time>2019-03-03T12:57:24.000Z</time>
        <extensions>
          <ns3:TrackPointExtension>
            <ns3:hr>164</ns3:hr>
            <ns3:cad>107</ns3:cad>
          </ns3:TrackPointExtension>
        </extensions>
      </trkpt>
      <trkpt lat="23.17390845157206058502197265625" lon="113.2551891915500164031982421875">
        <ele>9</ele>
        <time>2019-03-03T12:57:26.000Z</time>
        <extensions>
          <ns3:TrackPointExtension>
            <ns3:hr>167</ns3:hr>
            <ns3:cad>107</ns3:cad>
          </ns3:TrackPointExtension>
        </extensions>
      </trkpt>
      <trkpt lat="23.17380635999143123626708984375" lon="113.25524660758674144744873046875">
        <ele>10.19999980926513671875</ele>
        <time>2019-03-03T12:57:30.000Z</time>
        <extensions>
          <ns3:TrackPointExtension>
            <ns3:hr>164</ns3:hr>
            <ns3:cad>82</ns3:cad>
          </ns3:TrackPointExtension>
        </extensions>
      </trkpt>
      <trkpt lat="23.173621036112308502197265625" lon="113.25529865920543670654296875">
        <ele>11.19999980926513671875</ele>
        <time>2019-03-03T12:57:37.000Z</time>
        <extensions>
          <ns3:TrackPointExtension>
            <ns3:hr>165</ns3:hr>
            <ns3:cad>82</ns3:cad>
          </ns3:TrackPointExtension>
        </extensions>
      </trkpt>
      <trkpt lat="23.17344040609896183013916015625" lon="113.255325816571712493896484375">
        <ele>10.19999980926513671875</ele>
        <time>2019-03-03T12:57:44.000Z</time>
        <extensions>
          <ns3:TrackPointExtension>
            <ns3:hr>165</ns3:hr>
            <ns3:cad>82</ns3:cad>
          </ns3:TrackPointExtension>
        </extensions>
      </trkpt>
      <trkpt lat="23.17324527539312839508056640625" lon="113.25537384487688541412353515625">
        <ele>6.19999980926513671875</ele>
        <time>2019-03-03T12:57:52.000Z</time>
        <extensions>
          <ns3:TrackPointExtension>
            <ns3:hr>168</ns3:hr>
            <ns3:cad>81</ns3:cad>
          </ns3:TrackPointExtension>
        </extensions>
      </trkpt>
      <trkpt lat="23.17304729484021663665771484375" lon="113.25544123537838459014892578125">
        <ele>3.400000095367431640625</ele>
        <time>2019-03-03T12:57:58.000Z</time>
        <extensions>
          <ns3:TrackPointExtension>
            <ns3:hr>167</ns3:hr>
            <ns3:cad>81</ns3:cad>
          </ns3:TrackPointExtension>
        </extensions>
      </trkpt>
      <trkpt lat="23.1728564389050006866455078125" lon="113.2553802989423274993896484375">
        <ele>4.400000095367431640625</ele>
        <time>2019-03-03T12:58:07.000Z</time>
        <extensions>
          <ns3:TrackPointExtension>
            <ns3:hr>166</ns3:hr>
            <ns3:cad>82</ns3:cad>
          </ns3:TrackPointExtension>
        </extensions>
      </trkpt>
      <trkpt lat="23.17265502177178859710693359375" lon="113.25539144687354564666748046875">
        <ele>6.80000019073486328125</ele>
        <time>2019-03-03T12:58:14.000Z</time>
        <extensions>
          <ns3:TrackPointExtension>
            <ns3:hr>166</ns3:hr>
            <ns3:cad>82</ns3:cad>
          </ns3:TrackPointExtension>
        </extensions>
      </trkpt>
      <trkpt lat="23.172465004026889801025390625" lon="113.25541005469858646392822265625">
        <ele>7.80000019073486328125</ele>
        <time>2019-03-03T12:58:20.000Z</time>
        <extensions>
          <ns3:TrackPointExtension>
            <ns3:hr>165</ns3:hr>
            <ns3:cad>82</ns3:cad>
          </ns3:TrackPointExtension>
        </extensions>
      </trkpt>
      <trkpt lat="23.17226962186396121978759765625" lon="113.2554500363767147064208984375">
        <ele>6.599999904632568359375</ele>
        <time>2019-03-03T12:58:25.000Z</time>
        <extensions>
          <ns3:TrackPointExtension>
            <ns3:hr>167</ns3:hr>
            <ns3:cad>83</ns3:cad>
          </ns3:TrackPointExtension>
        </extensions>
      </trkpt>
      <trkpt lat="23.17208874039351940155029296875" lon="113.2554929517209529876708984375">
        <ele>4.599999904632568359375</ele>
        <time>2019-03-03T12:58:30.000Z</time>
        <extensions>
          <ns3:TrackPointExtension>
            <ns3:hr>166</ns3:hr>
            <ns3:cad>81</ns3:cad>
          </ns3:TrackPointExtension>
        </extensions>
      </trkpt>
      <trkpt lat="23.17189830355346202850341796875" lon="113.25551457703113555908203125">
        <ele>3.2000000476837158203125</ele>
        <time>2019-03-03T12:58:36.000Z</time>
        <extensions>
          <ns3:TrackPointExtension>
            <ns3:hr>164</ns3:hr>
            <ns3:cad>83</ns3:cad>
          </ns3:TrackPointExtension>
        </extensions>
      </trkpt>
      <trkpt lat="23.1717002391815185546875" lon="113.25555615127086639404296875">
        <ele>3.400000095367431640625</ele>
        <time>2019-03-03T12:58:43.000Z</time>
        <extensions>
          <ns3:TrackPointExtension>
            <ns3:hr>166</ns3:hr>
            <ns3:cad>82</ns3:cad>
          </ns3:TrackPointExtension>
        </extensions>
      </trkpt>
      <trkpt lat="23.17152447067201137542724609375" lon="113.2555965520441532135009765625">
        <ele>5</ele>
        <time>2019-03-03T12:58:52.000Z</time>
        <extensions>
          <ns3:TrackPointExtension>
            <ns3:hr>163</ns3:hr>
            <ns3:cad>80</ns3:cad>
          </ns3:TrackPointExtension>
        </extensions>
      </trkpt>
      <trkpt lat="23.171492703258991241455078125" lon="113.2557826302945613861083984375">
        <ele>1.7999999523162841796875</ele>
        <time>2019-03-03T12:59:04.000Z</time>
        <extensions>
          <ns3:TrackPointExtension>
            <ns3:hr>162</ns3:hr>
            <ns3:cad>82</ns3:cad>
          </ns3:TrackPointExtension>
        </extensions>
      </trkpt>
      <trkpt lat="23.1714694015681743621826171875" lon="113.255998380482196807861328125">
        <ele>-5</ele>
        <time>2019-03-03T12:59:11.000Z</time>
        <extensions>
          <ns3:TrackPointExtension>
            <ns3:hr>164</ns3:hr>
            <ns3:cad>83</ns3:cad>
          </ns3:TrackPointExtension>
        </extensions>
      </trkpt>
      <trkpt lat="23.1715621054172515869140625" lon="113.2561702094972133636474609375">
        <ele>-12.3999996185302734375</ele>
        <time>2019-03-03T12:59:20.000Z</time>
        <extensions>
          <ns3:TrackPointExtension>
            <ns3:hr>164</ns3:hr>
            <ns3:cad>81</ns3:cad>
          </ns3:TrackPointExtension>
        </extensions>
      </trkpt>
      <trkpt lat="23.17172102630138397216796875" lon="113.25625981204211711883544921875">
        <ele>-22.6000003814697265625</ele>
        <time>2019-03-03T12:59:28.000Z</time>
        <extensions>
          <ns3:TrackPointExtension>
            <ns3:hr>162</ns3:hr>
            <ns3:cad>82</ns3:cad>
          </ns3:TrackPointExtension>
        </extensions>
      </trkpt>
      <trkpt lat="23.17186980508267879486083984375" lon="113.256326615810394287109375">
        <ele>-30.3999996185302734375</ele>
        <time>2019-03-03T12:59:33.000Z</time>
        <extensions>
          <ns3:TrackPointExtension>
            <ns3:hr>165</ns3:hr>
            <ns3:cad>83</ns3:cad>
          </ns3:TrackPointExtension>
        </extensions>
      </trkpt>
      <trkpt lat="23.172035850584506988525390625" lon="113.256442286074161529541015625">
        <ele>-27</ele>
        <time>2019-03-03T12:59:39.000Z</time>
        <extensions>
          <ns3:TrackPointExtension>
            <ns3:hr>167</ns3:hr>
            <ns3:cad>82</ns3:cad>
          </ns3:TrackPointExtension>
        </extensions>
      </trkpt>
      <trkpt lat="23.172215558588504791259765625" lon="113.25652283616364002227783203125">
        <ele>-21.200000762939453125</ele>
        <time>2019-03-03T12:59:46.000Z</time>
        <extensions>
          <ns3:TrackPointExtension>
            <ns3:hr>166</ns3:hr>
            <ns3:cad>81</ns3:cad>
          </ns3:TrackPointExtension>
        </extensions>
      </trkpt>
      <trkpt lat="23.172373473644256591796875" lon="113.25664957053959369659423828125">
        <ele>-16.3999996185302734375</ele>
        <time>2019-03-03T12:59:53.000Z</time>
        <extensions>
          <ns3:TrackPointExtension>
            <ns3:hr>167</ns3:hr>
            <ns3:cad>82</ns3:cad>
          </ns3:TrackPointExtension>
        </extensions>
      </trkpt>
      <trkpt lat="23.1725127808749675750732421875" lon="113.25664152391254901885986328125">
        <ele>-9.80000019073486328125</ele>
        <time>2019-03-03T12:59:58.000Z</time>
        <extensions>
          <ns3:TrackPointExtension>
            <ns3:hr>170</ns3:hr>
            <ns3:cad>82</ns3:cad>
          </ns3:TrackPointExtension>
        </extensions>
      </trkpt>
      <trkpt lat="23.17268989048898220062255859375" lon="113.25670740567147731781005859375">
        <ele>-2.7999999523162841796875</ele>
        <time>2019-03-03T13:00:05.000Z</time>
        <extensions>
          <ns3:TrackPointExtension>
            <ns3:hr>172</ns3:hr>
            <ns3:cad>82</ns3:cad>
          </ns3:TrackPointExtension>
        </extensions>
      </trkpt>
      <trkpt lat="23.17280103452503681182861328125" lon="113.25675417669117450714111328125">
        <ele>-3.400000095367431640625</ele>
        <time>2019-03-03T13:00:10.000Z</time>
        <extensions>
          <ns3:TrackPointExtension>
            <ns3:hr>175</ns3:hr>
            <ns3:cad>84</ns3:cad>
          </ns3:TrackPointExtension>
        </extensions>
      </trkpt>
      <trkpt lat="23.17283908836543560028076171875" lon="113.2567787356674671173095703125">
        <ele>-4</ele>
        <time>2019-03-03T13:00:12.000Z</time>
        <extensions>
          <ns3:TrackPointExtension>
            <ns3:hr>176</ns3:hr>
            <ns3:cad>84</ns3:cad>
          </ns3:TrackPointExtension>
        </extensions>
      </trkpt>
      <trkpt lat="23.1737331859767436981201171875" lon="113.25700194574892520904541015625">
        <ele>1.7999999523162841796875</ele>
        <time>2019-03-03T13:01:06.000Z</time>
        <extensions>
          <ns3:TrackPointExtension>
            <ns3:hr>152</ns3:hr>
            <ns3:cad>57</ns3:cad>
          </ns3:TrackPointExtension>
        </extensions>
      </trkpt>
      <trkpt lat="23.17391767166554927825927734375" lon="113.2570908777415752410888671875">
        <ele>3.599999904632568359375</ele>
        <time>2019-03-03T13:01:14.000Z</time>
        <extensions>
          <ns3:TrackPointExtension>
            <ns3:hr>151</ns3:hr>
            <ns3:cad>82</ns3:cad>
          </ns3:TrackPointExtension>
        </extensions>
      </trkpt>
      <trkpt lat="23.1739950366318225860595703125" lon="113.2571257464587688446044921875">
        <ele>3.400000095367431640625</ele>
        <time>2019-03-03T13:01:17.000Z</time>
        <extensions>
          <ns3:TrackPointExtension>
            <ns3:hr>155</ns3:hr>
            <ns3:cad>82</ns3:cad>
          </ns3:TrackPointExtension>
        </extensions>
      </trkpt>
      <trkpt lat="23.17401892505586147308349609375" lon="113.25714158825576305389404296875">
        <ele>3.400000095367431640625</ele>
        <time>2019-03-03T13:01:18.000Z</time>
        <extensions>
          <ns3:TrackPointExtension>
            <ns3:hr>151</ns3:hr>
            <ns3:cad>82</ns3:cad>
          </ns3:TrackPointExtension>
        </extensions>
      </trkpt>
      <trkpt lat="23.17404113709926605224609375" lon="113.2571518979966640472412109375">
        <ele>3.2000000476837158203125</ele>
        <time>2019-03-03T13:01:19.000Z</time>
        <extensions>
          <ns3:TrackPointExtension>
            <ns3:hr>148</ns3:hr>
            <ns3:cad>82</ns3:cad>
          </ns3:TrackPointExtension>
        </extensions>
      </trkpt>
      <trkpt lat="23.1741093657910823822021484375" lon="113.25718827545642852783203125">
        <ele>2.7999999523162841796875</ele>
        <time>2019-03-03T13:01:22.000Z</time>
        <extensions>
          <ns3:TrackPointExtension>
            <ns3:hr>149</ns3:hr>
            <ns3:cad>82</ns3:cad>
          </ns3:TrackPointExtension>
        </extensions>
      </trkpt>
      <trkpt lat="23.1741318292915821075439453125" lon="113.25720143504440784454345703125">
        <ele>2.599999904632568359375</ele>
        <time>2019-03-03T13:01:23.000Z</time>
        <extensions>
          <ns3:TrackPointExtension>
            <ns3:hr>153</ns3:hr>
            <ns3:cad>81</ns3:cad>
          </ns3:TrackPointExtension>
        </extensions>
      </trkpt>
      <trkpt lat="23.17415504716336727142333984375" lon="113.25721241533756256103515625">
        <ele>2.599999904632568359375</ele>
        <time>2019-03-03T13:01:24.000Z</time>
        <extensions>
          <ns3:TrackPointExtension>
            <ns3:hr>156</ns3:hr>
            <ns3:cad>81</ns3:cad>
          </ns3:TrackPointExtension>
        </extensions>
      </trkpt>
      <trkpt lat="23.17417784593999385833740234375" lon="113.25722314417362213134765625">
        <ele>2.599999904632568359375</ele>
        <time>2019-03-03T13:01:25.000Z</time>
        <extensions>
          <ns3:TrackPointExtension>
            <ns3:hr>159</ns3:hr>
            <ns3:cad>81</ns3:cad>
          </ns3:TrackPointExtension>
        </extensions>
      </trkpt>
      <trkpt lat="23.174200393259525299072265625" lon="113.2572330348193645477294921875">
        <ele>2.400000095367431640625</ele>
        <time>2019-03-03T13:01:26.000Z</time>
        <extensions>
          <ns3:TrackPointExtension>
            <ns3:hr>164</ns3:hr>
            <ns3:cad>81</ns3:cad>
          </ns3:TrackPointExtension>
        </extensions>
      </trkpt>
      <trkpt lat="23.1742468290030956268310546875" lon="113.2572560012340545654296875">
        <ele>2.2000000476837158203125</ele>
        <time>2019-03-03T13:01:28.000Z</time>
        <extensions>
          <ns3:TrackPointExtension>
            <ns3:hr>168</ns3:hr>
            <ns3:cad>81</ns3:cad>
          </ns3:TrackPointExtension>
        </extensions>
      </trkpt>
      <trkpt lat="23.1743658520281314849853515625" lon="113.257311321794986724853515625">
        <ele>1.7999999523162841796875</ele>
        <time>2019-03-03T13:01:33.000Z</time>
        <extensions>
          <ns3:TrackPointExtension>
            <ns3:hr>165</ns3:hr>
            <ns3:cad>81</ns3:cad>
          </ns3:TrackPointExtension>
        </extensions>
      </trkpt>
      <trkpt lat="23.17443273961544036865234375" lon="113.25733403675258159637451171875">
        <ele>1.7999999523162841796875</ele>
        <time>2019-03-03T13:01:36.000Z</time>
        <extensions>
          <ns3:TrackPointExtension>
            <ns3:hr>168</ns3:hr>
            <ns3:cad>82</ns3:cad>
          </ns3:TrackPointExtension>
        </extensions>
      </trkpt>
      <trkpt lat="23.17445411346852779388427734375" lon="113.25734124518930912017822265625">
        <ele>1.60000002384185791015625</ele>
        <time>2019-03-03T13:01:37.000Z</time>
        <extensions>
          <ns3:TrackPointExtension>
            <ns3:hr>172</ns3:hr>
            <ns3:cad>81</ns3:cad>
          </ns3:TrackPointExtension>
        </extensions>
      </trkpt>
      <trkpt lat="23.1745391897857189178466796875" lon="113.2573772035539150238037109375">
        <ele>1.39999997615814208984375</ele>
        <time>2019-03-03T13:01:41.000Z</time>
        <extensions>
          <ns3:TrackPointExtension>
            <ns3:hr>169</ns3:hr>
            <ns3:cad>81</ns3:cad>
          </ns3:TrackPointExtension>
        </extensions>
      </trkpt>
      <trkpt lat="23.17460842430591583251953125" lon="113.257410228252410888671875">
        <ele>1.2000000476837158203125</ele>
        <time>2019-03-03T13:01:44.000Z</time>
        <extensions>
          <ns3:TrackPointExtension>
            <ns3:hr>166</ns3:hr>
            <ns3:cad>82</ns3:cad>
          </ns3:TrackPointExtension>
        </extensions>
      </trkpt>
      <trkpt lat="23.17465712316334247589111328125" lon="113.2574244774878025054931640625">
        <ele>1</ele>
        <time>2019-03-03T13:01:45.000Z</time>
        <extensions>
          <ns3:TrackPointExtension>
            <ns3:hr>171</ns3:hr>
            <ns3:cad>82</ns3:cad>
          </ns3:TrackPointExtension>
        </extensions>
      </trkpt>
      <trkpt lat="23.17482425831258296966552734375" lon="113.25746647082269191741943359375">
        <ele>0.800000011920928955078125</ele>
        <time>2019-03-03T13:01:53.000Z</time>
        <extensions>
          <ns3:TrackPointExtension>
            <ns3:hr>174</ns3:hr>
            <ns3:cad>82</ns3:cad>
          </ns3:TrackPointExtension>
        </extensions>
      </trkpt>
      <trkpt lat="23.17497798241674900054931640625" lon="113.25749270617961883544921875">
        <ele>1.7999999523162841796875</ele>
        <time>2019-03-03T13:01:59.000Z</time>
        <extensions>
          <ns3:TrackPointExtension>
            <ns3:hr>169</ns3:hr>
            <ns3:cad>80</ns3:cad>
          </ns3:TrackPointExtension>
        </extensions>
      </trkpt>
      <trkpt lat="23.17500631324946880340576171875" lon="113.2575022615492343902587890625">
        <ele>2.2000000476837158203125</ele>
        <time>2019-03-03T13:02:00.000Z</time>
        <extensions>
          <ns3:TrackPointExtension>
            <ns3:hr>169</ns3:hr>
            <ns3:cad>79</ns3:cad>
          </ns3:TrackPointExtension>
        </extensions>
      </trkpt>
      <trkpt lat="23.17512718029320240020751953125" lon="113.25758985243737697601318359375">
        <ele>3.599999904632568359375</ele>
        <time>2019-03-03T13:02:05.000Z</time>
        <extensions>
          <ns3:TrackPointExtension>
            <ns3:hr>166</ns3:hr>
            <ns3:cad>80</ns3:cad>
          </ns3:TrackPointExtension>
        </extensions>
      </trkpt>
      <trkpt lat="23.17524385638535022735595703125" lon="113.2576410658657550811767578125">
        <ele>5.599999904632568359375</ele>
        <time>2019-03-03T13:02:09.000Z</time>
        <extensions>
          <ns3:TrackPointExtension>
            <ns3:hr>171</ns3:hr>
            <ns3:cad>81</ns3:cad>
          </ns3:TrackPointExtension>
        </extensions>
      </trkpt>
      <trkpt lat="23.17529867403209209442138671875" lon="113.25766436755657196044921875">
        <ele>7</ele>
        <time>2019-03-03T13:02:10.000Z</time>
        <extensions>
          <ns3:TrackPointExtension>
            <ns3:hr>171</ns3:hr>
            <ns3:cad>80</ns3:cad>
          </ns3:TrackPointExtension>
        </extensions>
      </trkpt>
      <trkpt lat="23.175480477511882781982421875" lon="113.2577332668006420135498046875">
        <ele>11.3999996185302734375</ele>
        <time>2019-03-03T13:02:17.000Z</time>
        <extensions>
          <ns3:TrackPointExtension>
            <ns3:hr>168</ns3:hr>
            <ns3:cad>80</ns3:cad>
          </ns3:TrackPointExtension>
        </extensions>
      </trkpt>
      <trkpt lat="23.17568340338766574859619140625" lon="113.25780862011015415191650390625">
        <ele>14.3999996185302734375</ele>
        <time>2019-03-03T13:02:23.000Z</time>
        <extensions>
          <ns3:TrackPointExtension>
            <ns3:hr>168</ns3:hr>
            <ns3:cad>81</ns3:cad>
          </ns3:TrackPointExtension>
        </extensions>
      </trkpt>
      <trkpt lat="23.1758536398410797119140625" lon="113.25788958929479122161865234375">
        <ele>19.200000762939453125</ele>
        <time>2019-03-03T13:02:29.000Z</time>
        <extensions>
          <ns3:TrackPointExtension>
            <ns3:hr>168</ns3:hr>
            <ns3:cad>81</ns3:cad>
          </ns3:TrackPointExtension>
        </extensions>
      </trkpt>
      <trkpt lat="23.1760315038263797760009765625" lon="113.2579951174557209014892578125">
        <ele>25</ele>
        <time>2019-03-03T13:02:36.000Z</time>
        <extensions>
          <ns3:TrackPointExtension>
            <ns3:hr>169</ns3:hr>
            <ns3:cad>83</ns3:cad>
          </ns3:TrackPointExtension>
        </extensions>
      </trkpt>
      <trkpt lat="23.176212050020694732666015625" lon="113.25808547437191009521484375">
        <ele>25</ele>
        <time>2019-03-03T13:02:44.000Z</time>
        <extensions>
          <ns3:TrackPointExtension>
            <ns3:hr>170</ns3:hr>
            <ns3:cad>83</ns3:cad>
          </ns3:TrackPointExtension>
        </extensions>
      </trkpt>
      <trkpt lat="23.176375664770603179931640625" lon="113.25818412937223911285400390625">
        <ele>23.3999996185302734375</ele>
        <time>2019-03-03T13:02:52.000Z</time>
        <extensions>
          <ns3:TrackPointExtension>
            <ns3:hr>172</ns3:hr>
            <ns3:cad>84</ns3:cad>
          </ns3:TrackPointExtension>
        </extensions>
      </trkpt>
      <trkpt lat="23.176545985043048858642578125" lon="113.2582650147378444671630859375">
        <ele>18.200000762939453125</ele>
        <time>2019-03-03T13:03:00.000Z</time>
        <extensions>
          <ns3:TrackPointExtension>
            <ns3:hr>174</ns3:hr>
            <ns3:cad>83</ns3:cad>
          </ns3:TrackPointExtension>
        </extensions>
      </trkpt>
      <trkpt lat="23.17661865614354610443115234375" lon="113.25829158537089824676513671875">
        <ele>16.6000003814697265625</ele>
        <time>2019-03-03T13:03:03.000Z</time>
        <extensions>
          <ns3:TrackPointExtension>
            <ns3:hr>177</ns3:hr>
            <ns3:cad>82</ns3:cad>
          </ns3:TrackPointExtension>
        </extensions>
      </trkpt>
      <trkpt lat="23.176786713302135467529296875" lon="113.25839501805603504180908203125">
        <ele>15.19999980926513671875</ele>
        <time>2019-03-03T13:03:11.000Z</time>
        <extensions>
          <ns3:TrackPointExtension>
            <ns3:hr>177</ns3:hr>
            <ns3:cad>82</ns3:cad>
          </ns3:TrackPointExtension>
        </extensions>
      </trkpt>
      <trkpt lat="23.176943957805633544921875" lon="113.258510269224643707275390625">
        <ele>16.200000762939453125</ele>
        <time>2019-03-03T13:03:19.000Z</time>
        <extensions>
          <ns3:TrackPointExtension>
            <ns3:hr>177</ns3:hr>
            <ns3:cad>81</ns3:cad>
          </ns3:TrackPointExtension>
        </extensions>
      </trkpt>
      <trkpt lat="23.17709642462432384490966796875" lon="113.2586033083498477935791015625">
        <ele>16.3999996185302734375</ele>
        <time>2019-03-03T13:03:26.000Z</time>
        <extensions>
          <ns3:TrackPointExtension>
            <ns3:hr>182</ns3:hr>
            <ns3:cad>82</ns3:cad>
          </ns3:TrackPointExtension>
        </extensions>
      </trkpt>
      <trkpt lat="23.17711905576288700103759765625" lon="113.25861479155719280242919921875">
        <ele>16.3999996185302734375</ele>
        <time>2019-03-03T13:03:27.000Z</time>
        <extensions>
          <ns3:TrackPointExtension>
            <ns3:hr>181</ns3:hr>
            <ns3:cad>82</ns3:cad>
          </ns3:TrackPointExtension>
        </extensions>
      </trkpt>
      <trkpt lat="23.1772026233375072479248046875" lon="113.25866608880460262298583984375">
        <ele>15.6000003814697265625</ele>
        <time>2019-03-03T13:03:31.000Z</time>
        <extensions>
          <ns3:TrackPointExtension>
            <ns3:hr>184</ns3:hr>
            <ns3:cad>82</ns3:cad>
          </ns3:TrackPointExtension>
        </extensions>
      </trkpt>
      <trkpt lat="23.17724361084401607513427734375" lon="113.25868628919124603271484375">
        <ele>15.3999996185302734375</ele>
        <time>2019-03-03T13:03:33.000Z</time>
        <extensions>
          <ns3:TrackPointExtension>
            <ns3:hr>181</ns3:hr>
            <ns3:cad>81</ns3:cad>
          </ns3:TrackPointExtension>
        </extensions>
      </trkpt>
      <trkpt lat="23.17733824253082275390625" lon="113.25874018482863903045654296875">
        <ele>14.3999996185302734375</ele>
        <time>2019-03-03T13:03:38.000Z</time>
        <extensions>
          <ns3:TrackPointExtension>
            <ns3:hr>184</ns3:hr>
            <ns3:cad>81</ns3:cad>
          </ns3:TrackPointExtension>
        </extensions>
      </trkpt>
      <trkpt lat="23.1775040365755558013916015625" lon="113.25883523561060428619384765625">
        <ele>11.6000003814697265625</ele>
        <time>2019-03-03T13:03:45.000Z</time>
        <extensions>
          <ns3:TrackPointExtension>
            <ns3:hr>183</ns3:hr>
            <ns3:cad>81</ns3:cad>
          </ns3:TrackPointExtension>
        </extensions>
      </trkpt>
      <trkpt lat="23.1775834970176219940185546875" lon="113.2588765583932399749755859375">
        <ele>10</ele>
        <time>2019-03-03T13:03:49.000Z</time>
        <extensions>
          <ns3:TrackPointExtension>
            <ns3:hr>186</ns3:hr>
            <ns3:cad>82</ns3:cad>
          </ns3:TrackPointExtension>
        </extensions>
      </trkpt>
      <trkpt lat="23.17841850221157073974609375" lon="113.2593536563217639923095703125">
        <ele>16.3999996185302734375</ele>
        <time>2019-03-03T13:05:25.000Z</time>
        <extensions>
          <ns3:TrackPointExtension>
            <ns3:hr>138</ns3:hr>
            <ns3:cad>0</ns3:cad>
          </ns3:TrackPointExtension>
        </extensions>
      </trkpt>
      <trkpt lat="23.17842713557183742523193359375" lon="113.259360529482364654541015625">
        <ele>16.6000003814697265625</ele>
        <time>2019-03-03T13:05:26.000Z</time>
        <extensions>
          <ns3:TrackPointExtension>
            <ns3:hr>139</ns3:hr>
            <ns3:cad>0</ns3:cad>
          </ns3:TrackPointExtension>
        </extensions>
      </trkpt>
      <trkpt lat="23.17854397930204868316650390625" lon="113.25948013924062252044677734375">
        <ele>15.3999996185302734375</ele>
        <time>2019-03-03T13:05:40.000Z</time>
        <extensions>
          <ns3:TrackPointExtension>
            <ns3:hr>142</ns3:hr>
            <ns3:cad>59</ns3:cad>
          </ns3:TrackPointExtension>
        </extensions>
      </trkpt>
      <trkpt lat="23.17866300232708454132080078125" lon="113.25954585336148738861083984375">
        <ele>17.3999996185302734375</ele>
        <time>2019-03-03T13:05:51.000Z</time>
        <extensions>
          <ns3:TrackPointExtension>
            <ns3:hr>139</ns3:hr>
            <ns3:cad>57</ns3:cad>
          </ns3:TrackPointExtension>
        </extensions>
      </trkpt>
      <trkpt lat="23.178817816078662872314453125" lon="113.25961492024362087249755859375">
        <ele>18.3999996185302734375</ele>
        <time>2019-03-03T13:05:59.000Z</time>
        <extensions>
          <ns3:TrackPointExtension>
            <ns3:hr>142</ns3:hr>
            <ns3:cad>80</ns3:cad>
          </ns3:TrackPointExtension>
        </extensions>
      </trkpt>
      <trkpt lat="23.17886031232774257659912109375" lon="113.2596349529922008514404296875">
        <ele>17.6000003814697265625</ele>
        <time>2019-03-03T13:06:00.000Z</time>
        <extensions>
          <ns3:TrackPointExtension>
            <ns3:hr>148</ns3:hr>
            <ns3:cad>80</ns3:cad>
          </ns3:TrackPointExtension>
        </extensions>
      </trkpt>
      <trkpt lat="23.17886031232774257659912109375" lon="113.2596349529922008514404296875">
        <ele>17.6000003814697265625</ele>
        <time>2019-03-03T13:06:01.000Z</time>
        <extensions>
          <ns3:TrackPointExtension>
            <ns3:hr>148</ns3:hr>
            <ns3:cad>80</ns3:cad>
          </ns3:TrackPointExtension>
        </extensions>
      </trkpt>
      <trkpt lat="23.1789006292819976806640625" lon="113.2596530579030513763427734375">
        <ele>17</ele>
        <time>2019-03-03T13:06:03.000Z</time>
        <extensions>
          <ns3:TrackPointExtension>
            <ns3:hr>145</ns3:hr>
            <ns3:cad>80</ns3:cad>
          </ns3:TrackPointExtension>
        </extensions>
      </trkpt>
      <trkpt lat="23.178942538797855377197265625" lon="113.2596714980900287628173828125">
        <ele>16.200000762939453125</ele>
        <time>2019-03-03T13:06:05.000Z</time>
        <extensions>
          <ns3:TrackPointExtension>
            <ns3:hr>150</ns3:hr>
            <ns3:cad>79</ns3:cad>
          </ns3:TrackPointExtension>
        </extensions>
      </trkpt>
      <trkpt lat="23.17896592430770397186279296875" lon="113.2596795447170734405517578125">
        <ele>15.80000019073486328125</ele>
        <time>2019-03-03T13:06:06.000Z</time>
        <extensions>
          <ns3:TrackPointExtension>
            <ns3:hr>154</ns3:hr>
            <ns3:cad>79</ns3:cad>
          </ns3:TrackPointExtension>
        </extensions>
      </trkpt>
      <trkpt lat="23.17900448106229305267333984375" lon="113.25970125384628772735595703125">
        <ele>15.19999980926513671875</ele>
        <time>2019-03-03T13:06:07.000Z</time>
        <extensions>
          <ns3:TrackPointExtension>
            <ns3:hr>159</ns3:hr>
            <ns3:cad>79</ns3:cad>
          </ns3:TrackPointExtension>
        </extensions>
      </trkpt>
      <trkpt lat="23.17900448106229305267333984375" lon="113.25970125384628772735595703125">
        <ele>15.19999980926513671875</ele>
        <time>2019-03-03T13:06:08.000Z</time>
        <extensions>
          <ns3:TrackPointExtension>
            <ns3:hr>159</ns3:hr>
            <ns3:cad>79</ns3:cad>
          </ns3:TrackPointExtension>
        </extensions>
      </trkpt>
      <trkpt lat="23.179044462740421295166015625" lon="113.25972287915647029876708984375">
        <ele>14.3999996185302734375</ele>
        <time>2019-03-03T13:06:10.000Z</time>
        <extensions>
          <ns3:TrackPointExtension>
            <ns3:hr>156</ns3:hr>
            <ns3:cad>79</ns3:cad>
          </ns3:TrackPointExtension>
        </extensions>
      </trkpt>
      <trkpt lat="23.17906449548900127410888671875" lon="113.2597335241734981536865234375">
        <ele>14</ele>
        <time>2019-03-03T13:06:11.000Z</time>
        <extensions>
          <ns3:TrackPointExtension>
            <ns3:hr>150</ns3:hr>
            <ns3:cad>79</ns3:cad>
          </ns3:TrackPointExtension>
        </extensions>
      </trkpt>
      <trkpt lat="23.17908461205661296844482421875" lon="113.25974400155246257781982421875">
        <ele>13.6000003814697265625</ele>
        <time>2019-03-03T13:06:12.000Z</time>
        <extensions>
          <ns3:TrackPointExtension>
            <ns3:hr>147</ns3:hr>
            <ns3:cad>80</ns3:cad>
          </ns3:TrackPointExtension>
        </extensions>
      </trkpt>
      <trkpt lat="23.1791039742529392242431640625" lon="113.2597546465694904327392578125">
        <ele>13.19999980926513671875</ele>
        <time>2019-03-03T13:06:13.000Z</time>
        <extensions>
          <ns3:TrackPointExtension>
            <ns3:hr>147</ns3:hr>
            <ns3:cad>80</ns3:cad>
          </ns3:TrackPointExtension>
        </extensions>
      </trkpt>
      <trkpt lat="23.1791448779404163360595703125" lon="113.25977467931807041168212890625">
        <ele>12.6000003814697265625</ele>
        <time>2019-03-03T13:06:15.000Z</time>
        <extensions>
          <ns3:TrackPointExtension>
            <ns3:hr>150</ns3:hr>
            <ns3:cad>80</ns3:cad>
          </ns3:TrackPointExtension>
        </extensions>
      </trkpt>
      <trkpt lat="23.17932383157312870025634765625" lon="113.25987517833709716796875">
        <ele>9</ele>
        <time>2019-03-03T13:06:23.000Z</time>
        <extensions>
          <ns3:TrackPointExtension>
            <ns3:hr>151</ns3:hr>
            <ns3:cad>81</ns3:cad>
          </ns3:TrackPointExtension>
        </extensions>
      </trkpt>
      <trkpt lat="23.179415948688983917236328125" lon="113.259889595210552215576171875">
        <ele>10.19999980926513671875</ele>
        <time>2019-03-03T13:06:28.000Z</time>
        <extensions>
          <ns3:TrackPointExtension>
            <ns3:hr>154</ns3:hr>
            <ns3:cad>81</ns3:cad>
          </ns3:TrackPointExtension>
        </extensions>
      </trkpt>
      <trkpt lat="23.1794342212378978729248046875" lon="113.25990024022758007049560546875">
        <ele>10.80000019073486328125</ele>
        <time>2019-03-03T13:06:29.000Z</time>
        <extensions>
          <ns3:TrackPointExtension>
            <ns3:hr>159</ns3:hr>
            <ns3:cad>81</ns3:cad>
          </ns3:TrackPointExtension>
        </extensions>
      </trkpt>
      <trkpt lat="23.17944922484457492828369140625" lon="113.25992270372807979583740234375">
        <ele>11.19999980926513671875</ele>
        <time>2019-03-03T13:06:30.000Z</time>
        <extensions>
          <ns3:TrackPointExtension>
            <ns3:hr>163</ns3:hr>
            <ns3:cad>78</ns3:cad>
          </ns3:TrackPointExtension>
        </extensions>
      </trkpt>
      <trkpt lat="23.179465234279632568359375" lon="113.25994416140019893646240234375">
        <ele>11.80000019073486328125</ele>
        <time>2019-03-03T13:06:31.000Z</time>
        <extensions>
          <ns3:TrackPointExtension>
            <ns3:hr>159</ns3:hr>
            <ns3:cad>78</ns3:cad>
          </ns3:TrackPointExtension>
        </extensions>
      </trkpt>
      <trkpt lat="23.1795041263103485107421875" lon="113.2599811255931854248046875">
        <ele>14.19999980926513671875</ele>
        <time>2019-03-03T13:06:33.000Z</time>
        <extensions>
          <ns3:TrackPointExtension>
            <ns3:hr>155</ns3:hr>
            <ns3:cad>79</ns3:cad>
          </ns3:TrackPointExtension>
        </extensions>
      </trkpt>
      <trkpt lat="23.179596327245235443115234375" lon="113.26003904454410076141357421875">
        <ele>18.799999237060546875</ele>
        <time>2019-03-03T13:06:37.000Z</time>
        <extensions>
          <ns3:TrackPointExtension>
            <ns3:hr>158</ns3:hr>
            <ns3:cad>81</ns3:cad>
          </ns3:TrackPointExtension>
        </extensions>
      </trkpt>
      <trkpt lat="23.17976186983287334442138671875" lon="113.2601221092045307159423828125">
        <ele>19.6000003814697265625</ele>
        <time>2019-03-03T13:06:43.000Z</time>
        <extensions>
          <ns3:TrackPointExtension>
            <ns3:hr>161</ns3:hr>
            <ns3:cad>81</ns3:cad>
          </ns3:TrackPointExtension>
        </extensions>
      </trkpt>
      <trkpt lat="23.1798261590301990509033203125" lon="113.260156810283660888671875">
        <ele>19.200000762939453125</ele>
        <time>2019-03-03T13:06:46.000Z</time>
        <extensions>
          <ns3:TrackPointExtension>
            <ns3:hr>165</ns3:hr>
            <ns3:cad>80</ns3:cad>
          </ns3:TrackPointExtension>
        </extensions>
      </trkpt>
      <trkpt lat="23.17987033165991306304931640625" lon="113.2601767592132091522216796875">
        <ele>18.799999237060546875</ele>
        <time>2019-03-03T13:06:48.000Z</time>
        <extensions>
          <ns3:TrackPointExtension>
            <ns3:hr>161</ns3:hr>
            <ns3:cad>80</ns3:cad>
          </ns3:TrackPointExtension>
        </extensions>
      </trkpt>
      <trkpt lat="23.1799374707043170928955078125" lon="113.26019042171537876129150390625">
        <ele>19.200000762939453125</ele>
        <time>2019-03-03T13:06:51.000Z</time>
        <extensions>
          <ns3:TrackPointExtension>
            <ns3:hr>164</ns3:hr>
            <ns3:cad>81</ns3:cad>
          </ns3:TrackPointExtension>
        </extensions>
      </trkpt>
      <trkpt lat="23.18005708046257495880126953125" lon="113.2601905055344104766845703125">
        <ele>21.799999237060546875</ele>
        <time>2019-03-03T13:06:56.000Z</time>
        <extensions>
          <ns3:TrackPointExtension>
            <ns3:hr>168</ns3:hr>
            <ns3:cad>80</ns3:cad>
          </ns3:TrackPointExtension>
        </extensions>
      </trkpt>
      <trkpt lat="23.18014089949429035186767578125" lon="113.26030475087463855743408203125">
        <ele>23.200000762939453125</ele>
        <time>2019-03-03T13:07:02.000Z</time>
        <extensions>
          <ns3:TrackPointExtension>
            <ns3:hr>166</ns3:hr>
            <ns3:cad>79</ns3:cad>
          </ns3:TrackPointExtension>
        </extensions>
      </trkpt>
      <trkpt lat="23.18015112541615962982177734375" lon="113.2603792659938335418701171875">
        <ele>23</ele>
        <time>2019-03-03T13:07:30.000Z</time>
        <extensions>
          <ns3:TrackPointExtension>
            <ns3:hr>167</ns3:hr>
            <ns3:cad>0</ns3:cad>
          </ns3:TrackPointExtension>
        </extensions>
      </trkpt>
      <trkpt lat="23.180346675217151641845703125" lon="113.2604721374809741973876953125">
        <ele>28.200000762939453125</ele>
        <time>2019-03-03T13:07:38.000Z</time>
        <extensions>
          <ns3:TrackPointExtension>
            <ns3:hr>164</ns3:hr>
            <ns3:cad>76</ns3:cad>
          </ns3:TrackPointExtension>
        </extensions>
      </trkpt>
      <trkpt lat="23.18052965216338634490966796875" lon="113.2605579681694507598876953125">
        <ele>32.200000762939453125</ele>
        <time>2019-03-03T13:07:44.000Z</time>
        <extensions>
          <ns3:TrackPointExtension>
            <ns3:hr>165</ns3:hr>
            <ns3:cad>77</ns3:cad>
          </ns3:TrackPointExtension>
        </extensions>
      </trkpt>
      <trkpt lat="23.180677928030490875244140625" lon="113.26061035506427288055419921875">
        <ele>32</ele>
        <time>2019-03-03T13:07:48.000Z</time>
        <extensions>
          <ns3:TrackPointExtension>
            <ns3:hr>168</ns3:hr>
            <ns3:cad>123</ns3:cad>
          </ns3:TrackPointExtension>
        </extensions>
      </trkpt>
      <trkpt lat="23.18085570819675922393798828125" lon="113.26060138642787933349609375">
        <ele>46.200000762939453125</ele>
        <time>2019-03-03T13:07:54.000Z</time>
        <extensions>
          <ns3:TrackPointExtension>
            <ns3:hr>167</ns3:hr>
            <ns3:cad>123</ns3:cad>
          </ns3:TrackPointExtension>
        </extensions>
      </trkpt>
      <trkpt lat="23.18088001571595668792724609375" lon="113.26062208972871303558349609375">
        <ele>50</ele>
        <time>2019-03-03T13:07:55.000Z</time>
        <extensions>
          <ns3:TrackPointExtension>
            <ns3:hr>167</ns3:hr>
            <ns3:cad>123</ns3:cad>
          </ns3:TrackPointExtension>
        </extensions>
      </trkpt>
      <trkpt lat="23.18100012838840484619140625" lon="113.2607799209654331207275390625">
        <ele>69.1999969482421875</ele>
        <time>2019-03-03T13:08:01.000Z</time>
        <extensions>
          <ns3:TrackPointExtension>
            <ns3:hr>167</ns3:hr>
            <ns3:cad>78</ns3:cad>
          </ns3:TrackPointExtension>
        </extensions>
      </trkpt>
      <trkpt lat="23.18117774091660976409912109375" lon="113.2608707807958126068115234375">
        <ele>70.40000152587890625</ele>
        <time>2019-03-03T13:08:08.000Z</time>
        <extensions>
          <ns3:TrackPointExtension>
            <ns3:hr>168</ns3:hr>
            <ns3:cad>80</ns3:cad>
          </ns3:TrackPointExtension>
        </extensions>
      </trkpt>
      <trkpt lat="23.18130414001643657684326171875" lon="113.260935656726360321044921875">
        <ele>68.40000152587890625</ele>
        <time>2019-03-03T13:08:13.000Z</time>
        <extensions>
          <ns3:TrackPointExtension>
            <ns3:hr>171</ns3:hr>
            <ns3:cad>80</ns3:cad>
          </ns3:TrackPointExtension>
        </extensions>
      </trkpt>
      <trkpt lat="23.18148686550557613372802734375" lon="113.26103582046926021575927734375">
        <ele>53.799999237060546875</ele>
        <time>2019-03-03T13:08:21.000Z</time>
        <extensions>
          <ns3:TrackPointExtension>
            <ns3:hr>171</ns3:hr>
            <ns3:cad>80</ns3:cad>
          </ns3:TrackPointExtension>
        </extensions>
      </trkpt>
      <trkpt lat="23.18164779804646968841552734375" lon="113.261149562895298004150390625">
        <ele>40.799999237060546875</ele>
        <time>2019-03-03T13:08:29.000Z</time>
        <extensions>
          <ns3:TrackPointExtension>
            <ns3:hr>172</ns3:hr>
            <ns3:cad>81</ns3:cad>
          </ns3:TrackPointExtension>
        </extensions>
      </trkpt>
      <trkpt lat="23.18182088434696197509765625" lon="113.26124888844788074493408203125">
        <ele>31.3999996185302734375</ele>
        <time>2019-03-03T13:08:37.000Z</time>
        <extensions>
          <ns3:TrackPointExtension>
            <ns3:hr>173</ns3:hr>
            <ns3:cad>81</ns3:cad>
          </ns3:TrackPointExtension>
        </extensions>
      </trkpt>
      <trkpt lat="23.18198709748685359954833984375" lon="113.2613267563283443450927734375">
        <ele>23.799999237060546875</ele>
        <time>2019-03-03T13:08:44.000Z</time>
        <extensions>
          <ns3:TrackPointExtension>
            <ns3:hr>171</ns3:hr>
            <ns3:cad>81</ns3:cad>
          </ns3:TrackPointExtension>
        </extensions>
      </trkpt>
      <trkpt lat="23.1821600161492824554443359375" lon="113.26142373494803905487060546875">
        <ele>23</ele>
        <time>2019-03-03T13:08:52.000Z</time>
        <extensions>
          <ns3:TrackPointExtension>
            <ns3:hr>171</ns3:hr>
            <ns3:cad>81</ns3:cad>
          </ns3:TrackPointExtension>
        </extensions>
      </trkpt>
      <trkpt lat="23.1823269836604595184326171875" lon="113.26153689064085483551025390625">
        <ele>9.6000003814697265625</ele>
        <time>2019-03-03T13:08:59.000Z</time>
        <extensions>
          <ns3:TrackPointExtension>
            <ns3:hr>174</ns3:hr>
            <ns3:cad>81</ns3:cad>
          </ns3:TrackPointExtension>
        </extensions>
      </trkpt>
      <trkpt lat="23.18249948322772979736328125" lon="113.26163931749761104583740234375">
        <ele>0.800000011920928955078125</ele>
        <time>2019-03-03T13:09:07.000Z</time>
        <extensions>
          <ns3:TrackPointExtension>
            <ns3:hr>175</ns3:hr>
            <ns3:cad>82</ns3:cad>
          </ns3:TrackPointExtension>
        </extensions>
      </trkpt>
      <trkpt lat="23.1826716475188732147216796875" lon="113.261714838445186614990234375">
        <ele>-3.599999904632568359375</ele>
        <time>2019-03-03T13:09:15.000Z</time>
        <extensions>
          <ns3:TrackPointExtension>
            <ns3:hr>173</ns3:hr>
            <ns3:cad>82</ns3:cad>
          </ns3:TrackPointExtension>
        </extensions>
      </trkpt>
      <trkpt lat="23.18284817039966583251953125" lon="113.261793963611125946044921875">
        <ele>5.400000095367431640625</ele>
        <time>2019-03-03T13:09:23.000Z</time>
        <extensions>
          <ns3:TrackPointExtension>
            <ns3:hr>172</ns3:hr>
            <ns3:cad>81</ns3:cad>
          </ns3:TrackPointExtension>
        </extensions>
      </trkpt>
      <trkpt lat="23.1829784251749515533447265625" lon="113.26184199191629886627197265625">
        <ele>14</ele>
        <time>2019-03-03T13:09:29.000Z</time>
        <extensions>
          <ns3:TrackPointExtension>
            <ns3:hr>169</ns3:hr>
            <ns3:cad>81</ns3:cad>
          </ns3:TrackPointExtension>
        </extensions>
      </trkpt>
      <trkpt lat="23.18300147540867328643798828125" lon="113.261849619448184967041015625">
        <ele>14.6000003814697265625</ele>
        <time>2019-03-03T13:09:30.000Z</time>
        <extensions>
          <ns3:TrackPointExtension>
            <ns3:hr>169</ns3:hr>
            <ns3:cad>81</ns3:cad>
          </ns3:TrackPointExtension>
        </extensions>
      </trkpt>
      <trkpt lat="23.1831199117004871368408203125" lon="113.2618854939937591552734375">
        <ele>16.6000003814697265625</ele>
        <time>2019-03-03T13:09:35.000Z</time>
        <extensions>
          <ns3:TrackPointExtension>
            <ns3:hr>172</ns3:hr>
            <ns3:cad>80</ns3:cad>
          </ns3:TrackPointExtension>
        </extensions>
      </trkpt>
      <trkpt lat="23.18331009708344936370849609375" lon="113.2619667984545230865478515625">
        <ele>15.6000003814697265625</ele>
        <time>2019-03-03T13:09:43.000Z</time>
        <extensions>
          <ns3:TrackPointExtension>
            <ns3:hr>172</ns3:hr>
            <ns3:cad>82</ns3:cad>
          </ns3:TrackPointExtension>
        </extensions>
      </trkpt>
      <trkpt lat="23.18347580730915069580078125" lon="113.26205019839107990264892578125">
        <ele>11</ele>
        <time>2019-03-03T13:09:50.000Z</time>
        <extensions>
          <ns3:TrackPointExtension>
            <ns3:hr>173</ns3:hr>
            <ns3:cad>81</ns3:cad>
          </ns3:TrackPointExtension>
        </extensions>
      </trkpt>
      <trkpt lat="23.183625675737857818603515625" lon="113.262150697410106658935546875">
        <ele>9</ele>
        <time>2019-03-03T13:09:57.000Z</time>
        <extensions>
          <ns3:TrackPointExtension>
            <ns3:hr>170</ns3:hr>
            <ns3:cad>81</ns3:cad>
          </ns3:TrackPointExtension>
        </extensions>
      </trkpt>
      <trkpt lat="23.18379775620996952056884765625" lon="113.26225387863814830780029296875">
        <ele>6</ele>
        <time>2019-03-03T13:10:05.000Z</time>
        <extensions>
          <ns3:TrackPointExtension>
            <ns3:hr>172</ns3:hr>
            <ns3:cad>82</ns3:cad>
          </ns3:TrackPointExtension>
        </extensions>
      </trkpt>
      <trkpt lat="23.18391208536922931671142578125" lon="113.26232914812862873077392578125">
        <ele>6.400000095367431640625</ele>
        <time>2019-03-03T13:10:12.000Z</time>
        <extensions>
          <ns3:TrackPointExtension>
            <ns3:hr>172</ns3:hr>
            <ns3:cad>83</ns3:cad>
          </ns3:TrackPointExtension>
        </extensions>
      </trkpt>
      <trkpt lat="23.18485471419990062713623046875" lon="113.2629193179309368133544921875">
        <ele>-4.19999980926513671875</ele>
        <time>2019-03-03T13:12:00.000Z</time>
        <extensions>
          <ns3:TrackPointExtension>
            <ns3:hr>142</ns3:hr>
            <ns3:cad>61</ns3:cad>
          </ns3:TrackPointExtension>
        </extensions>
      </trkpt>
      <trkpt lat="23.18486762233078479766845703125" lon="113.2629233412444591522216796875">
        <ele>-4.400000095367431640625</ele>
        <time>2019-03-03T13:12:01.000Z</time>
        <extensions>
          <ns3:TrackPointExtension>
            <ns3:hr>142</ns3:hr>
            <ns3:cad>61</ns3:cad>
          </ns3:TrackPointExtension>
        </extensions>
      </trkpt>
      <trkpt lat="23.18504867143929004669189453125" lon="113.262999951839447021484375">
        <ele>-4.599999904632568359375</ele>
        <time>2019-03-03T13:12:11.000Z</time>
        <extensions>
          <ns3:TrackPointExtension>
            <ns3:hr>142</ns3:hr>
            <ns3:cad>78</ns3:cad>
          </ns3:TrackPointExtension>
        </extensions>
      </trkpt>
      <trkpt lat="23.18507079966366291046142578125" lon="113.263002298772335052490234375">
        <ele>-4.400000095367431640625</ele>
        <time>2019-03-03T13:12:12.000Z</time>
        <extensions>
          <ns3:TrackPointExtension>
            <ns3:hr>146</ns3:hr>
            <ns3:cad>78</ns3:cad>
          </ns3:TrackPointExtension>
        </extensions>
      </trkpt>
      <trkpt lat="23.18516015075147151947021484375" lon="113.262989223003387451171875">
        <ele>-1.60000002384185791015625</ele>
        <time>2019-03-03T13:12:16.000Z</time>
        <extensions>
          <ns3:TrackPointExtension>
            <ns3:hr>149</ns3:hr>
            <ns3:cad>80</ns3:cad>
          </ns3:TrackPointExtension>
        </extensions>
      </trkpt>
      <trkpt lat="23.18522335030138492584228515625" lon="113.26295527629554271697998046875">
        <ele>0.60000002384185791015625</ele>
        <time>2019-03-03T13:12:19.000Z</time>
        <extensions>
          <ns3:TrackPointExtension>
            <ns3:hr>144</ns3:hr>
            <ns3:cad>79</ns3:cad>
          </ns3:TrackPointExtension>
        </extensions>
      </trkpt>
      <trkpt lat="23.185296021401882171630859375" lon="113.26289727352559566497802734375">
        <ele>4</ele>
        <time>2019-03-03T13:12:23.000Z</time>
        <extensions>
          <ns3:TrackPointExtension>
            <ns3:hr>150</ns3:hr>
            <ns3:cad>80</ns3:cad>
          </ns3:TrackPointExtension>
        </extensions>
      </trkpt>
      <trkpt lat="23.185349665582180023193359375" lon="113.26283373869955539703369140625">
        <ele>6.599999904632568359375</ele>
        <time>2019-03-03T13:12:27.000Z</time>
        <extensions>
          <ns3:TrackPointExtension>
            <ns3:hr>153</ns3:hr>
            <ns3:cad>80</ns3:cad>
          </ns3:TrackPointExtension>
        </extensions>
      </trkpt>
      <trkpt lat="23.185379505157470703125" lon="113.262776993215084075927734375">
        <ele>7.80000019073486328125</ele>
        <time>2019-03-03T13:12:30.000Z</time>
        <extensions>
          <ns3:TrackPointExtension>
            <ns3:hr>156</ns3:hr>
            <ns3:cad>82</ns3:cad>
          </ns3:TrackPointExtension>
        </extensions>
      </trkpt>
      <trkpt lat="23.1854289583861827850341796875" lon="113.26270834542810916900634765625">
        <ele>9.3999996185302734375</ele>
        <time>2019-03-03T13:12:34.000Z</time>
        <extensions>
          <ns3:TrackPointExtension>
            <ns3:hr>153</ns3:hr>
            <ns3:cad>79</ns3:cad>
          </ns3:TrackPointExtension>
        </extensions>
      </trkpt>
      <trkpt lat="23.18544848822057247161865234375" lon="113.26267280615866184234619140625">
        <ele>10</ele>
        <time>2019-03-03T13:12:36.000Z</time>
        <extensions>
          <ns3:TrackPointExtension>
            <ns3:hr>156</ns3:hr>
            <ns3:cad>81</ns3:cad>
          </ns3:TrackPointExtension>
        </extensions>
      </trkpt>
      <trkpt lat="23.18547137081623077392578125" lon="113.26263441704213619232177734375">
        <ele>10</ele>
        <time>2019-03-03T13:12:38.000Z</time>
        <extensions>
          <ns3:TrackPointExtension>
            <ns3:hr>161</ns3:hr>
            <ns3:cad>82</ns3:cad>
          </ns3:TrackPointExtension>
        </extensions>
      </trkpt>
      <trkpt lat="23.18549358285963535308837890625" lon="113.26259854249656200408935546875">
        <ele>9.19999980926513671875</ele>
        <time>2019-03-03T13:12:40.000Z</time>
        <extensions>
          <ns3:TrackPointExtension>
            <ns3:hr>164</ns3:hr>
            <ns3:cad>79</ns3:cad>
          </ns3:TrackPointExtension>
        </extensions>
      </trkpt>
      <trkpt lat="23.18553616292774677276611328125" lon="113.26249510981142520904541015625">
        <ele>8.19999980926513671875</ele>
        <time>2019-03-03T13:12:46.000Z</time>
        <extensions>
          <ns3:TrackPointExtension>
            <ns3:hr>168</ns3:hr>
            <ns3:cad>80</ns3:cad>
          </ns3:TrackPointExtension>
        </extensions>
      </trkpt>
      <trkpt lat="23.18556935526430606842041015625" lon="113.26242771930992603302001953125">
        <ele>8.6000003814697265625</ele>
        <time>2019-03-03T13:12:50.000Z</time>
        <extensions>
          <ns3:TrackPointExtension>
            <ns3:hr>172</ns3:hr>
            <ns3:cad>80</ns3:cad>
          </ns3:TrackPointExtension>
        </extensions>
      </trkpt>
      <trkpt lat="23.18566046655178070068359375" lon="113.26222839765250682830810546875">
        <ele>9.3999996185302734375</ele>
        <time>2019-03-03T13:13:00.000Z</time>
        <extensions>
          <ns3:TrackPointExtension>
            <ns3:hr>170</ns3:hr>
            <ns3:cad>80</ns3:cad>
          </ns3:TrackPointExtension>
        </extensions>
      </trkpt>
      <trkpt lat="23.18575459532439708709716796875" lon="113.2620727457106113433837890625">
        <ele>11.19999980926513671875</ele>
        <time>2019-03-03T13:13:06.000Z</time>
        <extensions>
          <ns3:TrackPointExtension>
            <ns3:hr>173</ns3:hr>
            <ns3:cad>79</ns3:cad>
          </ns3:TrackPointExtension>
        </extensions>
      </trkpt>
      <trkpt lat="23.1858507357537746429443359375" lon="113.2618908584117889404296875">
        <ele>11.19999980926513671875</ele>
        <time>2019-03-03T13:13:14.000Z</time>
        <extensions>
          <ns3:TrackPointExtension>
            <ns3:hr>173</ns3:hr>
            <ns3:cad>81</ns3:cad>
          </ns3:TrackPointExtension>
        </extensions>
      </trkpt>
      <trkpt lat="23.18593665026128292083740234375" lon="113.26170654036104679107666015625">
        <ele>10.6000003814697265625</ele>
        <time>2019-03-03T13:13:24.000Z</time>
        <extensions>
          <ns3:TrackPointExtension>
            <ns3:hr>172</ns3:hr>
            <ns3:cad>81</ns3:cad>
          </ns3:TrackPointExtension>
        </extensions>
      </trkpt>
      <trkpt lat="23.1860156916081905364990234375" lon="113.26151995919644832611083984375">
        <ele>9.3999996185302734375</ele>
        <time>2019-03-03T13:13:31.000Z</time>
        <extensions>
          <ns3:TrackPointExtension>
            <ns3:hr>171</ns3:hr>
            <ns3:cad>83</ns3:cad>
          </ns3:TrackPointExtension>
        </extensions>
      </trkpt>
      <trkpt lat="23.18609322421252727508544921875" lon="113.26133673079311847686767578125">
        <ele>8</ele>
        <time>2019-03-03T13:13:38.000Z</time>
        <extensions>
          <ns3:TrackPointExtension>
            <ns3:hr>171</ns3:hr>
            <ns3:cad>83</ns3:cad>
          </ns3:TrackPointExtension>
        </extensions>
      </trkpt>
      <trkpt lat="23.18619363941252231597900390625" lon="113.26114981435239315032958984375">
        <ele>7.80000019073486328125</ele>
        <time>2019-03-03T13:13:44.000Z</time>
        <extensions>
          <ns3:TrackPointExtension>
            <ns3:hr>173</ns3:hr>
            <ns3:cad>82</ns3:cad>
          </ns3:TrackPointExtension>
        </extensions>
      </trkpt>
      <trkpt lat="23.1862520612776279449462890625" lon="113.26096038334071636199951171875">
        <ele>8.80000019073486328125</ele>
        <time>2019-03-03T13:13:49.000Z</time>
        <extensions>
          <ns3:TrackPointExtension>
            <ns3:hr>171</ns3:hr>
            <ns3:cad>82</ns3:cad>
          </ns3:TrackPointExtension>
        </extensions>
      </trkpt>
      <trkpt lat="23.1862257421016693115234375" lon="113.2607675157487392425537109375">
        <ele>10</ele>
        <time>2019-03-03T13:13:56.000Z</time>
        <extensions>
          <ns3:TrackPointExtension>
            <ns3:hr>169</ns3:hr>
            <ns3:cad>82</ns3:cad>
          </ns3:TrackPointExtension>
        </extensions>
      </trkpt>
      <trkpt lat="23.18612490780651569366455078125" lon="113.2605978660285472869873046875">
        <ele>8.3999996185302734375</ele>
        <time>2019-03-03T13:14:04.000Z</time>
        <extensions>
          <ns3:TrackPointExtension>
            <ns3:hr>168</ns3:hr>
            <ns3:cad>82</ns3:cad>
          </ns3:TrackPointExtension>
        </extensions>
      </trkpt>
      <trkpt lat="23.18598593585193157196044921875" lon="113.26046199537813663482666015625">
        <ele>7</ele>
        <time>2019-03-03T13:14:12.000Z</time>
        <extensions>
          <ns3:TrackPointExtension>
            <ns3:hr>170</ns3:hr>
            <ns3:cad>81</ns3:cad>
          </ns3:TrackPointExtension>
        </extensions>
      </trkpt>
      <trkpt lat="23.18587127141654491424560546875" lon="113.26029486022889614105224609375">
        <ele>7</ele>
        <time>2019-03-03T13:14:21.000Z</time>
        <extensions>
          <ns3:TrackPointExtension>
            <ns3:hr>172</ns3:hr>
            <ns3:cad>79</ns3:cad>
          </ns3:TrackPointExtension>
        </extensions>
      </trkpt>
      <trkpt lat="23.18575032055377960205078125" lon="113.26012269593775272369384765625">
        <ele>7.400000095367431640625</ele>
        <time>2019-03-03T13:14:31.000Z</time>
        <extensions>
          <ns3:TrackPointExtension>
            <ns3:hr>173</ns3:hr>
            <ns3:cad>81</ns3:cad>
          </ns3:TrackPointExtension>
        </extensions>
      </trkpt>
      <trkpt lat="23.1856415234506130218505859375" lon="113.25996394269168376922607421875">
        <ele>7.80000019073486328125</ele>
        <time>2019-03-03T13:14:40.000Z</time>
        <extensions>
          <ns3:TrackPointExtension>
            <ns3:hr>174</ns3:hr>
            <ns3:cad>81</ns3:cad>
          </ns3:TrackPointExtension>
        </extensions>
      </trkpt>
      <trkpt lat="23.18552828393876552581787109375" lon="113.259788341820240020751953125">
        <ele>9</ele>
        <time>2019-03-03T13:14:49.000Z</time>
        <extensions>
          <ns3:TrackPointExtension>
            <ns3:hr>174</ns3:hr>
            <ns3:cad>82</ns3:cad>
          </ns3:TrackPointExtension>
        </extensions>
      </trkpt>
      <trkpt lat="23.18543289788067340850830078125" lon="113.25959530659019947052001953125">
        <ele>10</ele>
        <time>2019-03-03T13:14:57.000Z</time>
        <extensions>
          <ns3:TrackPointExtension>
            <ns3:hr>174</ns3:hr>
            <ns3:cad>82</ns3:cad>
          </ns3:TrackPointExtension>
        </extensions>
      </trkpt>
      <trkpt lat="23.18535125814378261566162109375" lon="113.25941274873912334442138671875">
        <ele>10</ele>
        <time>2019-03-03T13:15:04.000Z</time>
        <extensions>
          <ns3:TrackPointExtension>
            <ns3:hr>173</ns3:hr>
            <ns3:cad>82</ns3:cad>
          </ns3:TrackPointExtension>
        </extensions>
      </trkpt>
      <trkpt lat="23.1852495856583118438720703125" lon="113.2592074759304523468017578125">
        <ele>13</ele>
        <time>2019-03-03T13:15:13.000Z</time>
        <extensions>
          <ns3:TrackPointExtension>
            <ns3:hr>171</ns3:hr>
            <ns3:cad>81</ns3:cad>
          </ns3:TrackPointExtension>
        </extensions>
      </trkpt>
      <trkpt lat="23.1851493380963802337646484375" lon="113.2590237446129322052001953125">
        <ele>16.799999237060546875</ele>
        <time>2019-03-03T13:15:20.000Z</time>
        <extensions>
          <ns3:TrackPointExtension>
            <ns3:hr>171</ns3:hr>
            <ns3:cad>80</ns3:cad>
          </ns3:TrackPointExtension>
        </extensions>
      </trkpt>
      <trkpt lat="23.18511807359755039215087890625" lon="113.25881629250943660736083984375">
        <ele>22.200000762939453125</ele>
        <time>2019-03-03T13:15:27.000Z</time>
        <extensions>
          <ns3:TrackPointExtension>
            <ns3:hr>172</ns3:hr>
            <ns3:cad>81</ns3:cad>
          </ns3:TrackPointExtension>
        </extensions>
      </trkpt>
      <trkpt lat="23.1850926764309406280517578125" lon="113.258707411587238311767578125">
        <ele>21.799999237060546875</ele>
        <time>2019-03-03T13:15:31.000Z</time>
        <extensions>
          <ns3:TrackPointExtension>
            <ns3:hr>175</ns3:hr>
            <ns3:cad>82</ns3:cad>
          </ns3:TrackPointExtension>
        </extensions>
      </trkpt>
      <trkpt lat="23.185057975351810455322265625" lon="113.25856584124267101287841796875">
        <ele>22</ele>
        <time>2019-03-03T13:15:37.000Z</time>
        <extensions>
          <ns3:TrackPointExtension>
            <ns3:hr>172</ns3:hr>
            <ns3:cad>81</ns3:cad>
          </ns3:TrackPointExtension>
        </extensions>
      </trkpt>
      <trkpt lat="23.185057975351810455322265625" lon="113.2584120333194732666015625">
        <ele>20.799999237060546875</ele>
        <time>2019-03-03T13:15:44.000Z</time>
        <extensions>
          <ns3:TrackPointExtension>
            <ns3:hr>175</ns3:hr>
            <ns3:cad>80</ns3:cad>
          </ns3:TrackPointExtension>
        </extensions>
      </trkpt>
      <trkpt lat="23.185025788843631744384765625" lon="113.25827398337423801422119140625">
        <ele>18.6000003814697265625</ele>
        <time>2019-03-03T13:15:51.000Z</time>
        <extensions>
          <ns3:TrackPointExtension>
            <ns3:hr>180</ns3:hr>
            <ns3:cad>81</ns3:cad>
          </ns3:TrackPointExtension>
        </extensions>
      </trkpt>
      <trkpt lat="23.1849907524883747100830078125" lon="113.25807742774486541748046875">
        <ele>18.3999996185302734375</ele>
        <time>2019-03-03T13:15:59.000Z</time>
        <extensions>
          <ns3:TrackPointExtension>
            <ns3:hr>180</ns3:hr>
            <ns3:cad>82</ns3:cad>
          </ns3:TrackPointExtension>
        </extensions>
      </trkpt>
      <trkpt lat="23.18495345301926136016845703125" lon="113.257945664227008819580078125">
        <ele>17.6000003814697265625</ele>
        <time>2019-03-03T13:16:05.000Z</time>
        <extensions>
          <ns3:TrackPointExtension>
            <ns3:hr>184</ns3:hr>
            <ns3:cad>81</ns3:cad>
          </ns3:TrackPointExtension>
        </extensions>
      </trkpt>
      <trkpt lat="23.1849495135247707366943359375" lon="113.2579243741929531097412109375">
        <ele>17.6000003814697265625</ele>
        <time>2019-03-03T13:16:06.000Z</time>
        <extensions>
          <ns3:TrackPointExtension>
            <ns3:hr>187</ns3:hr>
            <ns3:cad>81</ns3:cad>
          </ns3:TrackPointExtension>
        </extensions>
      </trkpt>
      <trkpt lat="23.18493836559355258941650390625" lon="113.25787953101098537445068359375">
        <ele>17.6000003814697265625</ele>
        <time>2019-03-03T13:16:07.000Z</time>
        <extensions>
          <ns3:TrackPointExtension>
            <ns3:hr>187</ns3:hr>
            <ns3:cad>82</ns3:cad>
          </ns3:TrackPointExtension>
        </extensions>
      </trkpt>
      <trkpt lat="23.18494322709739208221435546875" lon="113.2576926983892917633056640625">
        <ele>17.799999237060546875</ele>
        <time>2019-03-03T13:16:16.000Z</time>
        <extensions>
          <ns3:TrackPointExtension>
            <ns3:hr>183</ns3:hr>
            <ns3:cad>80</ns3:cad>
          </ns3:TrackPointExtension>
        </extensions>
      </trkpt>
      <trkpt lat="23.1849072687327861785888671875" lon="113.2574868388473987579345703125">
        <ele>18</ele>
        <time>2019-03-03T13:16:24.000Z</time>
        <extensions>
          <ns3:TrackPointExtension>
            <ns3:hr>185</ns3:hr>
            <ns3:cad>79</ns3:cad>
          </ns3:TrackPointExtension>
        </extensions>
      </trkpt>
      <trkpt lat="23.18484750576317310333251953125" lon="113.2572742737829685211181640625">
        <ele>17.6000003814697265625</ele>
        <time>2019-03-03T13:16:32.000Z</time>
        <extensions>
          <ns3:TrackPointExtension>
            <ns3:hr>186</ns3:hr>
            <ns3:cad>80</ns3:cad>
          </ns3:TrackPointExtension>
        </extensions>
      </trkpt>
      <trkpt lat="23.18480039946734905242919921875" lon="113.2572209648787975311279296875">
        <ele>17.6000003814697265625</ele>
        <time>2019-03-03T13:16:35.000Z</time>
        <extensions>
          <ns3:TrackPointExtension>
            <ns3:hr>183</ns3:hr>
            <ns3:cad>80</ns3:cad>
          </ns3:TrackPointExtension>
        </extensions>
      </trkpt>
      <trkpt lat="23.18468749523162841796875" lon="113.257057853043079376220703125">
        <ele>16.799999237060546875</ele>
        <time>2019-03-03T13:16:43.000Z</time>
        <extensions>
          <ns3:TrackPointExtension>
            <ns3:hr>183</ns3:hr>
            <ns3:cad>80</ns3:cad>
          </ns3:TrackPointExtension>
        </extensions>
      </trkpt>
      <trkpt lat="23.18455330096185207366943359375" lon="113.256922066211700439453125">
        <ele>15.3999996185302734375</ele>
        <time>2019-03-03T13:16:57.000Z</time>
        <extensions>
          <ns3:TrackPointExtension>
            <ns3:hr>181</ns3:hr>
            <ns3:cad>0</ns3:cad>
          </ns3:TrackPointExtension>
        </extensions>
      </trkpt>
      <trkpt lat="23.1845243833959102630615234375" lon="113.256911337375640869140625">
        <ele>15.3999996185302734375</ele>
        <time>2019-03-03T13:16:59.000Z</time>
        <extensions>
          <ns3:TrackPointExtension>
            <ns3:hr>176</ns3:hr>
            <ns3:cad>0</ns3:cad>
          </ns3:TrackPointExtension>
        </extensions>
      </trkpt>
      <trkpt lat="23.1845052726566791534423828125" lon="113.2569017820060253143310546875">
        <ele>15.19999980926513671875</ele>
        <time>2019-03-03T13:17:01.000Z</time>
        <extensions>
          <ns3:TrackPointExtension>
            <ns3:hr>173</ns3:hr>
            <ns3:cad>0</ns3:cad>
          </ns3:TrackPointExtension>
        </extensions>
      </trkpt>
      <trkpt lat="23.1845005787909030914306640625" lon="113.25689884833991527557373046875">
        <ele>15.19999980926513671875</ele>
        <time>2019-03-03T13:17:02.000Z</time>
        <extensions>
          <ns3:TrackPointExtension>
            <ns3:hr>176</ns3:hr>
            <ns3:cad>0</ns3:cad>
          </ns3:TrackPointExtension>
        </extensions>
      </trkpt>
      <trkpt lat="23.18448389880359172821044921875" lon="113.25688778422772884368896484375">
        <ele>15.19999980926513671875</ele>
        <time>2019-03-03T13:17:05.000Z</time>
        <extensions>
          <ns3:TrackPointExtension>
            <ns3:hr>179</ns3:hr>
            <ns3:cad>0</ns3:cad>
          </ns3:TrackPointExtension>
        </extensions>
      </trkpt>
      <trkpt lat="23.18447099067270755767822265625" lon="113.2568877004086971282958984375">
        <ele>15.19999980926513671875</ele>
        <time>2019-03-03T13:17:06.000Z</time>
        <extensions>
          <ns3:TrackPointExtension>
            <ns3:hr>182</ns3:hr>
            <ns3:cad>0</ns3:cad>
          </ns3:TrackPointExtension>
        </extensions>
      </trkpt>
      <trkpt lat="23.18446612916886806488037109375" lon="113.2568796537816524505615234375">
        <ele>15</ele>
        <time>2019-03-03T13:17:07.000Z</time>
        <extensions>
          <ns3:TrackPointExtension>
            <ns3:hr>186</ns3:hr>
            <ns3:cad>0</ns3:cad>
          </ns3:TrackPointExtension>
        </extensions>
      </trkpt>
      <trkpt lat="23.18446151912212371826171875" lon="113.25687034986913204193115234375">
        <ele>15</ele>
        <time>2019-03-03T13:17:08.000Z</time>
        <extensions>
          <ns3:TrackPointExtension>
            <ns3:hr>186</ns3:hr>
            <ns3:cad>114</ns3:cad>
          </ns3:TrackPointExtension>
        </extensions>
      </trkpt>
      <trkpt lat="23.18443712778389453887939453125" lon="113.2568427734076976776123046875">
        <ele>15</ele>
        <time>2019-03-03T13:17:12.000Z</time>
        <extensions>
          <ns3:TrackPointExtension>
            <ns3:hr>183</ns3:hr>
            <ns3:cad>114</ns3:cad>
          </ns3:TrackPointExtension>
        </extensions>
      </trkpt>
      <trkpt lat="23.1844031810760498046875" lon="113.256782926619052886962890625">
        <ele>15</ele>
        <time>2019-03-03T13:17:20.000Z</time>
        <extensions>
          <ns3:TrackPointExtension>
            <ns3:hr>180</ns3:hr>
            <ns3:cad>58</ns3:cad>
          </ns3:TrackPointExtension>
        </extensions>
      </trkpt>
      <trkpt lat="23.1843919493257999420166015625" lon="113.25677060522139072418212890625">
        <ele>15</ele>
        <time>2019-03-03T13:17:21.000Z</time>
        <extensions>
          <ns3:TrackPointExtension>
            <ns3:hr>177</ns3:hr>
            <ns3:cad>57</ns3:cad>
          </ns3:TrackPointExtension>
        </extensions>
      </trkpt>
      <trkpt lat="23.1843684799969196319580078125" lon="113.256744034588336944580078125">
        <ele>15</ele>
        <time>2019-03-03T13:17:25.000Z</time>
        <extensions>
          <ns3:TrackPointExtension>
            <ns3:hr>174</ns3:hr>
            <ns3:cad>55</ns3:cad>
          </ns3:TrackPointExtension>
        </extensions>
      </trkpt>
      <trkpt lat="23.18432866595685482025146484375" lon="113.2567250914871692657470703125">
        <ele>14.6000003814697265625</ele>
        <time>2019-03-03T13:17:28.000Z</time>
        <extensions>
          <ns3:TrackPointExtension>
            <ns3:hr>171</ns3:hr>
            <ns3:cad>55</ns3:cad>
          </ns3:TrackPointExtension>
        </extensions>
      </trkpt>
      <trkpt lat="23.18429647944867610931396484375" lon="113.25669969432055950164794921875">
        <ele>14.3999996185302734375</ele>
        <time>2019-03-03T13:17:32.000Z</time>
        <extensions>
          <ns3:TrackPointExtension>
            <ns3:hr>166</ns3:hr>
            <ns3:cad>56</ns3:cad>
          </ns3:TrackPointExtension>
        </extensions>
      </trkpt>
      <trkpt lat="23.18428591825067996978759765625" lon="113.2566873729228973388671875">
        <ele>14.19999980926513671875</ele>
        <time>2019-03-03T13:17:33.000Z</time>
        <extensions>
          <ns3:TrackPointExtension>
            <ns3:hr>162</ns3:hr>
            <ns3:cad>56</ns3:cad>
          </ns3:TrackPointExtension>
        </extensions>
      </trkpt>
      <trkpt lat="23.18428206257522106170654296875" lon="113.25664085336029529571533203125">
        <ele>14.19999980926513671875</ele>
        <time>2019-03-03T13:17:34.000Z</time>
        <extensions>
          <ns3:TrackPointExtension>
            <ns3:hr>159</ns3:hr>
            <ns3:cad>56</ns3:cad>
          </ns3:TrackPointExtension>
        </extensions>
      </trkpt>
      <trkpt lat="23.18426965735852718353271484375" lon="113.25663381256163120269775390625">
        <ele>14</ele>
        <time>2019-03-03T13:17:35.000Z</time>
        <extensions>
          <ns3:TrackPointExtension>
            <ns3:hr>159</ns3:hr>
            <ns3:cad>56</ns3:cad>
          </ns3:TrackPointExtension>
        </extensions>
      </trkpt>
      <trkpt lat="23.18421148695051670074462890625" lon="113.25652954168617725372314453125">
        <ele>12.6000003814697265625</ele>
        <time>2019-03-03T13:17:45.000Z</time>
        <extensions>
          <ns3:TrackPointExtension>
            <ns3:hr>156</ns3:hr>
            <ns3:cad>56</ns3:cad>
          </ns3:TrackPointExtension>
        </extensions>
      </trkpt>
      <trkpt lat="23.18419455550611019134521484375" lon="113.25648193247616291046142578125">
        <ele>12</ele>
        <time>2019-03-03T13:17:49.000Z</time>
        <extensions>
          <ns3:TrackPointExtension>
            <ns3:hr>153</ns3:hr>
            <ns3:cad>55</ns3:cad>
          </ns3:TrackPointExtension>
        </extensions>
      </trkpt>
      <trkpt lat="23.18416086025536060333251953125" lon="113.25642711482942104339599609375">
        <ele>11</ele>
        <time>2019-03-03T13:17:52.000Z</time>
        <extensions>
          <ns3:TrackPointExtension>
            <ns3:hr>150</ns3:hr>
            <ns3:cad>55</ns3:cad>
          </ns3:TrackPointExtension>
        </extensions>
      </trkpt>
      <trkpt lat="23.1841539032757282257080078125" lon="113.25640582479536533355712890625">
        <ele>10.80000019073486328125</ele>
        <time>2019-03-03T13:17:53.000Z</time>
        <extensions>
          <ns3:TrackPointExtension>
            <ns3:hr>149</ns3:hr>
            <ns3:cad>57</ns3:cad>
          </ns3:TrackPointExtension>
        </extensions>
      </trkpt>
      <trkpt lat="23.18414124660193920135498046875" lon="113.25638688169419765472412109375">
        <ele>10.3999996185302734375</ele>
        <time>2019-03-03T13:17:55.000Z</time>
        <extensions>
          <ns3:TrackPointExtension>
            <ns3:hr>146</ns3:hr>
            <ns3:cad>57</ns3:cad>
          </ns3:TrackPointExtension>
        </extensions>
      </trkpt>
      <trkpt lat="23.18411576561629772186279296875" lon="113.25635167770087718963623046875">
        <ele>9.80000019073486328125</ele>
        <time>2019-03-03T13:17:58.000Z</time>
        <extensions>
          <ns3:TrackPointExtension>
            <ns3:hr>149</ns3:hr>
            <ns3:cad>57</ns3:cad>
          </ns3:TrackPointExtension>
        </extensions>
      </trkpt>
      <trkpt lat="23.18410419858992099761962890625" lon="113.25634614564478397369384765625">
        <ele>9.6000003814697265625</ele>
        <time>2019-03-03T13:17:59.000Z</time>
        <extensions>
          <ns3:TrackPointExtension>
            <ns3:hr>149</ns3:hr>
            <ns3:cad>56</ns3:cad>
          </ns3:TrackPointExtension>
        </extensions>
      </trkpt>
      <trkpt lat="23.18404602818191051483154296875" lon="113.2563204132020473480224609375">
        <ele>8.80000019073486328125</ele>
        <time>2019-03-03T13:18:04.000Z</time>
        <extensions>
          <ns3:TrackPointExtension>
            <ns3:hr>146</ns3:hr>
            <ns3:cad>59</ns3:cad>
          </ns3:TrackPointExtension>
        </extensions>
      </trkpt>
      <trkpt lat="23.18400797434151172637939453125" lon="113.25625478290021419525146484375">
        <ele>8</ele>
        <time>2019-03-03T13:18:09.000Z</time>
        <extensions>
          <ns3:TrackPointExtension>
            <ns3:hr>143</ns3:hr>
            <ns3:cad>59</ns3:cad>
          </ns3:TrackPointExtension>
        </extensions>
      </trkpt>
      <trkpt lat="23.18397746421396732330322265625" lon="113.25621195137500762939453125">
        <ele>7.599999904632568359375</ele>
        <time>2019-03-03T13:18:12.000Z</time>
        <extensions>
          <ns3:TrackPointExtension>
            <ns3:hr>140</ns3:hr>
            <ns3:cad>59</ns3:cad>
          </ns3:TrackPointExtension>
        </extensions>
      </trkpt>
      <trkpt lat="23.18396924994885921478271484375" lon="113.25601288117468357086181640625">
        <ele>7.400000095367431640625</ele>
        <time>2019-03-03T13:18:23.000Z</time>
        <extensions>
          <ns3:TrackPointExtension>
            <ns3:hr>138</ns3:hr>
            <ns3:cad>58</ns3:cad>
          </ns3:TrackPointExtension>
        </extensions>
      </trkpt>
      <trkpt lat="23.18397209979593753814697265625" lon="113.2559770904481410980224609375">
        <ele>8</ele>
        <time>2019-03-03T13:18:26.000Z</time>
        <extensions>
          <ns3:TrackPointExtension>
            <ns3:hr>141</ns3:hr>
            <ns3:cad>55</ns3:cad>
          </ns3:TrackPointExtension>
        </extensions>
      </trkpt>
      <trkpt lat="23.1839646399021148681640625" lon="113.25596745125949382781982421875">
        <ele>8.19999980926513671875</ele>
        <time>2019-03-03T13:18:27.000Z</time>
        <extensions>
          <ns3:TrackPointExtension>
            <ns3:hr>142</ns3:hr>
            <ns3:cad>55</ns3:cad>
          </ns3:TrackPointExtension>
        </extensions>
      </trkpt>
      <trkpt lat="23.1839386560022830963134765625" lon="113.255913555622100830078125">
        <ele>8.80000019073486328125</ele>
        <time>2019-03-03T13:18:31.000Z</time>
        <extensions>
          <ns3:TrackPointExtension>
            <ns3:hr>139</ns3:hr>
            <ns3:cad>60</ns3:cad>
          </ns3:TrackPointExtension>
        </extensions>
      </trkpt>
      <trkpt lat="23.183934129774570465087890625" lon="113.25588195584714412689208984375">
        <ele>9.19999980926513671875</ele>
        <time>2019-03-03T13:18:32.000Z</time>
        <extensions>
          <ns3:TrackPointExtension>
            <ns3:hr>141</ns3:hr>
            <ns3:cad>60</ns3:cad>
          </ns3:TrackPointExtension>
        </extensions>
      </trkpt>
      <trkpt lat="23.18393739871680736541748046875" lon="113.255864940583705902099609375">
        <ele>9.19999980926513671875</ele>
        <time>2019-03-03T13:18:34.000Z</time>
        <extensions>
          <ns3:TrackPointExtension>
            <ns3:hr>141</ns3:hr>
            <ns3:cad>60</ns3:cad>
          </ns3:TrackPointExtension>
        </extensions>
      </trkpt>
      <trkpt lat="23.1839534081518650054931640625" lon="113.2558238692581653594970703125">
        <ele>9.19999980926513671875</ele>
        <time>2019-03-03T13:18:36.000Z</time>
        <extensions>
          <ns3:TrackPointExtension>
            <ns3:hr>143</ns3:hr>
            <ns3:cad>54</ns3:cad>
          </ns3:TrackPointExtension>
        </extensions>
      </trkpt>
      <trkpt lat="23.18396505899727344512939453125" lon="113.255789838731288909912109375">
        <ele>9.3999996185302734375</ele>
        <time>2019-03-03T13:18:38.000Z</time>
        <extensions>
          <ns3:TrackPointExtension>
            <ns3:hr>142</ns3:hr>
            <ns3:cad>54</ns3:cad>
          </ns3:TrackPointExtension>
        </extensions>
      </trkpt>
      <trkpt lat="23.1839725188910961151123046875" lon="113.25577341020107269287109375">
        <ele>9.3999996185302734375</ele>
        <time>2019-03-03T13:18:39.000Z</time>
        <extensions>
          <ns3:TrackPointExtension>
            <ns3:hr>141</ns3:hr>
            <ns3:cad>54</ns3:cad>
          </ns3:TrackPointExtension>
        </extensions>
      </trkpt>
    </trkseg>
  </trk>
</gpx>
