<gpx xmlns:ns3="http://www.garmin.com/xmlschemas/TrackPointExtension/v1" xmlns="http://www.topografix.com/GPX/1/1" xmlns:xsi="http://www.w3.org/2001/XMLSchema-instance" xmlns:ns2="http://www.garmin.com/xmlschemas/GpxExtensions/v3" creator="Garmin Connect" version="1.1" xsi:schemaLocation="http://www.topografix.com/GPX/1/1 http://www.topografix.com/GPX/11.xsd">
  <extensions>
<distance>317.64</distance>
<average_hr>74.0</average_hr>
<average_speed>1.496999979019165</average_speed>
<start_time>2022-04-05T00:25:24+00:00</start_time>
<end_time>2022-04-05T00:28:56.118000+00:00</end_time>
<moving_time>202.0</moving_time>
<elapsed_time>212.118</elapsed_time>
</extensions>
<metadata>
    <link href="connect.garmin.com">
      <text>Garmin Connect</text>
    </link>
    <time>2022-04-05T00:25:24.000Z</time>
  </metadata>
  <trk>
    <name>跑步</name>
    <type>running</type>
    <trkseg>
      <trkpt lat="23.175986744463443756103515625" lon="113.25014236383140087127685546875">
        <ele>13.19999980926513671875</ele>
        <time>2022-04-05T00:25:36.000Z</time>
        <extensions>
          <ns3:TrackPointExtension>
            <ns3:hr>75</ns3:hr>
            <ns3:cad>59</ns3:cad>
          </ns3:TrackPointExtension>
        </extensions>
      </trkpt>
      <trkpt lat="23.1759148277342319488525390625" lon="113.25013917870819568634033203125">
        <ele>14.19999980926513671875</ele>
        <time>2022-04-05T00:25:46.000Z</time>
        <extensions>
          <ns3:TrackPointExtension>
            <ns3:hr>78</ns3:hr>
            <ns3:cad>0</ns3:cad>
          </ns3:TrackPointExtension>
        </extensions>
      </trkpt>
      <trkpt lat="23.17592807114124298095703125" lon="113.25012442655861377716064453125">
        <ele>14</ele>
        <time>2022-04-05T00:26:02.000Z</time>
        <extensions>
          <ns3:TrackPointExtension>
            <ns3:hr>77</ns3:hr>
            <ns3:cad>61</ns3:cad>
          </ns3:TrackPointExtension>
        </extensions>
      </trkpt>
      <trkpt lat="23.17595447413623332977294921875" lon="113.25011369772255420684814453125">
        <ele>13.6000003814697265625</ele>
        <time>2022-04-05T00:26:05.000Z</time>
        <extensions>
          <ns3:TrackPointExtension>
            <ns3:hr>76</ns3:hr>
            <ns3:cad>61</ns3:cad>
          </ns3:TrackPointExtension>
        </extensions>
      </trkpt>
      <trkpt lat="23.17597207613289356231689453125" lon="113.25006835162639617919921875">
        <ele>13.19999980926513671875</ele>
        <time>2022-04-05T00:26:07.000Z</time>
        <extensions>
          <ns3:TrackPointExtension>
            <ns3:hr>76</ns3:hr>
            <ns3:cad>61</ns3:cad>
          </ns3:TrackPointExtension>
        </extensions>
      </trkpt>
      <trkpt lat="23.17598515190184116363525390625" lon="113.25004245154559612274169921875">
        <ele>13</ele>
        <time>2022-04-05T00:26:10.000Z</time>
        <extensions>
          <ns3:TrackPointExtension>
            <ns3:hr>76</ns3:hr>
            <ns3:cad>61</ns3:cad>
          </ns3:TrackPointExtension>
        </extensions>
      </trkpt>
      <trkpt lat="23.1759946234524250030517578125" lon="113.2499642483890056610107421875">
        <ele>12.6000003814697265625</ele>
        <time>2022-04-05T00:26:15.000Z</time>
        <extensions>
          <ns3:TrackPointExtension>
            <ns3:hr>76</ns3:hr>
            <ns3:cad>61</ns3:cad>
          </ns3:TrackPointExtension>
        </extensions>
      </trkpt>
      <trkpt lat="23.1758346967399120330810546875" lon="113.249847404658794403076171875">
        <ele>13.80000019073486328125</ele>
        <time>2022-04-05T00:26:30.000Z</time>
        <extensions>
          <ns3:TrackPointExtension>
            <ns3:hr>76</ns3:hr>
            <ns3:cad>0</ns3:cad>
          </ns3:TrackPointExtension>
        </extensions>
      </trkpt>
      <trkpt lat="23.17566362209618091583251953125" lon="113.24976065196096897125244140625">
        <ele>14.19999980926513671875</ele>
        <time>2022-04-05T00:26:37.000Z</time>
        <extensions>
          <ns3:TrackPointExtension>
            <ns3:hr>75</ns3:hr>
            <ns3:cad>0</ns3:cad>
          </ns3:TrackPointExtension>
        </extensions>
      </trkpt>
      <trkpt lat="23.17542993463575839996337890625" lon="113.249624110758304595947265625">
        <ele>13</ele>
        <time>2022-04-05T00:26:52.000Z</time>
        <extensions>
          <ns3:TrackPointExtension>
            <ns3:hr>73</ns3:hr>
            <ns3:cad>0</ns3:cad>
          </ns3:TrackPointExtension>
        </extensions>
      </trkpt>
      <trkpt lat="23.1753814034163951873779296875" lon="113.24957909993827342987060546875">
        <ele>13.19999980926513671875</ele>
        <time>2022-04-05T00:26:56.000Z</time>
        <extensions>
          <ns3:TrackPointExtension>
            <ns3:hr>73</ns3:hr>
            <ns3:cad>61</ns3:cad>
          </ns3:TrackPointExtension>
        </extensions>
      </trkpt>
      <trkpt lat="23.175360448658466339111328125" lon="113.2495682872831821441650390625">
        <ele>13.19999980926513671875</ele>
        <time>2022-04-05T00:26:58.000Z</time>
        <extensions>
          <ns3:TrackPointExtension>
            <ns3:hr>73</ns3:hr>
            <ns3:cad>61</ns3:cad>
          </ns3:TrackPointExtension>
        </extensions>
      </trkpt>
      <trkpt lat="23.1753133423626422882080078125" lon="113.2495572231709957122802734375">
        <ele>13.19999980926513671875</ele>
        <time>2022-04-05T00:27:01.000Z</time>
        <extensions>
          <ns3:TrackPointExtension>
            <ns3:hr>73</ns3:hr>
            <ns3:cad>61</ns3:cad>
          </ns3:TrackPointExtension>
        </extensions>
      </trkpt>
      <trkpt lat="23.17522323690354824066162109375" lon="113.249532245099544525146484375">
        <ele>13</ele>
        <time>2022-04-05T00:27:08.000Z</time>
        <extensions>
          <ns3:TrackPointExtension>
            <ns3:hr>73</ns3:hr>
            <ns3:cad>61</ns3:cad>
          </ns3:TrackPointExtension>
        </extensions>
      </trkpt>
      <trkpt lat="23.17519641481339931488037109375" lon="113.24953459203243255615234375">
        <ele>12.80000019073486328125</ele>
        <time>2022-04-05T00:27:10.000Z</time>
        <extensions>
          <ns3:TrackPointExtension>
            <ns3:hr>73</ns3:hr>
            <ns3:cad>61</ns3:cad>
          </ns3:TrackPointExtension>
        </extensions>
      </trkpt>
      <trkpt lat="23.17512533627450466156005859375" lon="113.24955546297132968902587890625">
        <ele>11.80000019073486328125</ele>
        <time>2022-04-05T00:27:17.000Z</time>
        <extensions>
          <ns3:TrackPointExtension>
            <ns3:hr>73</ns3:hr>
            <ns3:cad>61</ns3:cad>
          </ns3:TrackPointExtension>
        </extensions>
      </trkpt>
      <trkpt lat="23.1750695966184139251708984375" lon="113.24954397976398468017578125">
        <ele>11.19999980926513671875</ele>
        <time>2022-04-05T00:27:25.000Z</time>
        <extensions>
          <ns3:TrackPointExtension>
            <ns3:hr>73</ns3:hr>
            <ns3:cad>61</ns3:cad>
          </ns3:TrackPointExtension>
        </extensions>
      </trkpt>
      <trkpt lat="23.175025843083858489990234375" lon="113.24967264197766780853271484375">
        <ele>10.3999996185302734375</ele>
        <time>2022-04-05T00:27:29.000Z</time>
        <extensions>
          <ns3:TrackPointExtension>
            <ns3:hr>73</ns3:hr>
            <ns3:cad>61</ns3:cad>
          </ns3:TrackPointExtension>
        </extensions>
      </trkpt>
      <trkpt lat="23.175000362098217010498046875" lon="113.2497372664511203765869140625">
        <ele>10.19999980926513671875</ele>
        <time>2022-04-05T00:27:31.000Z</time>
        <extensions>
          <ns3:TrackPointExtension>
            <ns3:hr>74</ns3:hr>
            <ns3:cad>61</ns3:cad>
          </ns3:TrackPointExtension>
        </extensions>
      </trkpt>
      <trkpt lat="23.1749604642391204833984375" lon="113.249780349433422088623046875">
        <ele>9.19999980926513671875</ele>
        <time>2022-04-05T00:27:34.000Z</time>
        <extensions>
          <ns3:TrackPointExtension>
            <ns3:hr>74</ns3:hr>
            <ns3:cad>61</ns3:cad>
          </ns3:TrackPointExtension>
        </extensions>
      </trkpt>
      <trkpt lat="23.1749643199145793914794921875" lon="113.24986509047448635101318359375">
        <ele>8.6000003814697265625</ele>
        <time>2022-04-05T00:27:37.000Z</time>
        <extensions>
          <ns3:TrackPointExtension>
            <ns3:hr>75</ns3:hr>
            <ns3:cad>61</ns3:cad>
          </ns3:TrackPointExtension>
        </extensions>
      </trkpt>
      <trkpt lat="23.174980916082859039306640625" lon="113.2500752247869968414306640625">
        <ele>9.3999996185302734375</ele>
        <time>2022-04-05T00:27:47.000Z</time>
        <extensions>
          <ns3:TrackPointExtension>
            <ns3:hr>75</ns3:hr>
            <ns3:cad>61</ns3:cad>
          </ns3:TrackPointExtension>
        </extensions>
      </trkpt>
      <trkpt lat="23.1750638969242572784423828125" lon="113.2502706907689571380615234375">
        <ele>12.19999980926513671875</ele>
        <time>2022-04-05T00:27:59.000Z</time>
        <extensions>
          <ns3:TrackPointExtension>
            <ns3:hr>74</ns3:hr>
            <ns3:cad>61</ns3:cad>
          </ns3:TrackPointExtension>
        </extensions>
      </trkpt>
      <trkpt lat="23.175231702625751495361328125" lon="113.2503897137939929962158203125">
        <ele>16</ele>
        <time>2022-04-05T00:28:07.000Z</time>
        <extensions>
          <ns3:TrackPointExtension>
            <ns3:hr>74</ns3:hr>
            <ns3:cad>61</ns3:cad>
          </ns3:TrackPointExtension>
        </extensions>
      </trkpt>
      <trkpt lat="23.17540076561272144317626953125" lon="113.25052575208246707916259765625">
        <ele>19.6000003814697265625</ele>
        <time>2022-04-05T00:28:14.000Z</time>
        <extensions>
          <ns3:TrackPointExtension>
            <ns3:hr>74</ns3:hr>
            <ns3:cad>61</ns3:cad>
          </ns3:TrackPointExtension>
        </extensions>
      </trkpt>
      <trkpt lat="23.17556999623775482177734375" lon="113.2506123371422290802001953125">
        <ele>19.799999237060546875</ele>
        <time>2022-04-05T00:28:24.000Z</time>
        <extensions>
          <ns3:TrackPointExtension>
            <ns3:hr>73</ns3:hr>
            <ns3:cad>61</ns3:cad>
          </ns3:TrackPointExtension>
        </extensions>
      </trkpt>
      <trkpt lat="23.1756046973168849945068359375" lon="113.25063169933855533599853515625">
        <ele>19.3999996185302734375</ele>
        <time>2022-04-05T00:28:25.000Z</time>
        <extensions>
          <ns3:TrackPointExtension>
            <ns3:hr>73</ns3:hr>
            <ns3:cad>61</ns3:cad>
          </ns3:TrackPointExtension>
        </extensions>
      </trkpt>
      <trkpt lat="23.1756251491606235504150390625" lon="113.250637985765933990478515625">
        <ele>19.200000762939453125</ele>
        <time>2022-04-05T00:28:27.000Z</time>
        <extensions>
          <ns3:TrackPointExtension>
            <ns3:hr>72</ns3:hr>
            <ns3:cad>61</ns3:cad>
          </ns3:TrackPointExtension>
        </extensions>
      </trkpt>
      <trkpt lat="23.175719864666461944580078125" lon="113.250637985765933990478515625">
        <ele>17.799999237060546875</ele>
        <time>2022-04-05T00:28:31.000Z</time>
        <extensions>
          <ns3:TrackPointExtension>
            <ns3:hr>72</ns3:hr>
            <ns3:cad>61</ns3:cad>
          </ns3:TrackPointExtension>
        </extensions>
      </trkpt>
      <trkpt lat="23.17574442364275455474853515625" lon="113.25062750838696956634521484375">
        <ele>17.3999996185302734375</ele>
        <time>2022-04-05T00:28:34.000Z</time>
        <extensions>
          <ns3:TrackPointExtension>
            <ns3:hr>72</ns3:hr>
            <ns3:cad>61</ns3:cad>
          </ns3:TrackPointExtension>
        </extensions>
      </trkpt>
      <trkpt lat="23.17591021768748760223388671875" lon="113.25054486282169818878173828125">
        <ele>14.6000003814697265625</ele>
        <time>2022-04-05T00:28:51.000Z</time>
        <extensions>
          <ns3:TrackPointExtension>
            <ns3:hr>72</ns3:hr>
            <ns3:cad>61</ns3:cad>
          </ns3:TrackPointExtension>
        </extensions>
      </trkpt>
      <trkpt lat="23.175986744463443756103515625" lon="113.25053933076560497283935546875">
        <ele>13.19999980926513671875</ele>
        <time>2022-04-05T00:28:57.000Z</time>
        <extensions>
          <ns3:TrackPointExtension>
            <ns3:hr>73</ns3:hr>
            <ns3:cad>0</ns3:cad>
          </ns3:TrackPointExtension>
        </extensions>
      </trkpt>
    </trkseg>
  </trk>
</gpx>
