<gpx xmlns:ns3="http://www.garmin.com/xmlschemas/TrackPointExtension/v1" xmlns="http://www.topografix.com/GPX/1/1" xmlns:xsi="http://www.w3.org/2001/XMLSchema-instance" xmlns:ns2="http://www.garmin.com/xmlschemas/GpxExtensions/v3" creator="Garmin Connect" version="1.1" xsi:schemaLocation="http://www.topografix.com/GPX/1/1 http://www.topografix.com/GPX/11.xsd">
  <extensions>
<distance>347.23</distance>
<average_hr>169.0</average_hr>
<average_speed>2.2039999961853027</average_speed>
<start_time>2020-05-24T05:40:09+00:00</start_time>
<end_time>2020-05-24T05:42:46.553000+00:00</end_time>
<moving_time>152.0</moving_time>
<elapsed_time>157.553</elapsed_time>
</extensions>
<metadata>
    <link href="connect.garmin.com">
      <text>Garmin Connect</text>
    </link>
    <time>2020-05-24T05:40:09.000Z</time>
  </metadata>
  <trk>
    <name>广州市 跑步</name>
    <type>running</type>
    <trkseg>
      <trkpt lat="23.110095597803592681884765625" lon="113.29503634013235569000244140625">
        <ele>3.2000000476837158203125</ele>
        <time>2020-05-24T05:40:09.000Z</time>
        <extensions>
          <ns3:TrackPointExtension>
            <ns3:hr>172</ns3:hr>
            <ns3:cad>61</ns3:cad>
          </ns3:TrackPointExtension>
        </extensions>
      </trkpt>
      <trkpt lat="23.11009685508906841278076171875" lon="113.29501370899379253387451171875">
        <ele>3</ele>
        <time>2020-05-24T05:40:10.000Z</time>
        <extensions>
          <ns3:TrackPointExtension>
            <ns3:hr>172</ns3:hr>
            <ns3:cad>61</ns3:cad>
          </ns3:TrackPointExtension>
        </extensions>
      </trkpt>
      <trkpt lat="23.11012015677988529205322265625" lon="113.29491295851767063140869140625">
        <ele>2.400000095367431640625</ele>
        <time>2020-05-24T05:40:18.000Z</time>
        <extensions>
          <ns3:TrackPointExtension>
            <ns3:hr>168</ns3:hr>
            <ns3:cad>82</ns3:cad>
          </ns3:TrackPointExtension>
        </extensions>
      </trkpt>
      <trkpt lat="23.11012585647404193878173828125" lon="113.29488898627460002899169921875">
        <ele>2.599999904632568359375</ele>
        <time>2020-05-24T05:40:19.000Z</time>
        <extensions>
          <ns3:TrackPointExtension>
            <ns3:hr>168</ns3:hr>
            <ns3:cad>79</ns3:cad>
          </ns3:TrackPointExtension>
        </extensions>
      </trkpt>
      <trkpt lat="23.110155276954174041748046875" lon="113.294675834476947784423828125">
        <ele>4.599999904632568359375</ele>
        <time>2020-05-24T05:40:29.000Z</time>
        <extensions>
          <ns3:TrackPointExtension>
            <ns3:hr>167</ns3:hr>
            <ns3:cad>81</ns3:cad>
          </ns3:TrackPointExtension>
        </extensions>
      </trkpt>
      <trkpt lat="23.11016508378088474273681640625" lon="113.29461523331701755523681640625">
        <ele>4.599999904632568359375</ele>
        <time>2020-05-24T05:40:32.000Z</time>
        <extensions>
          <ns3:TrackPointExtension>
            <ns3:hr>172</ns3:hr>
            <ns3:cad>80</ns3:cad>
          </ns3:TrackPointExtension>
        </extensions>
      </trkpt>
      <trkpt lat="23.11020548455417156219482421875" lon="113.294424712657928466796875">
        <ele>4.400000095367431640625</ele>
        <time>2020-05-24T05:40:41.000Z</time>
        <extensions>
          <ns3:TrackPointExtension>
            <ns3:hr>170</ns3:hr>
            <ns3:cad>82</ns3:cad>
          </ns3:TrackPointExtension>
        </extensions>
      </trkpt>
      <trkpt lat="23.11023264192044734954833984375" lon="113.2943350262939929962158203125">
        <ele>5.19999980926513671875</ele>
        <time>2020-05-24T05:40:45.000Z</time>
        <extensions>
          <ns3:TrackPointExtension>
            <ns3:hr>167</ns3:hr>
            <ns3:cad>82</ns3:cad>
          </ns3:TrackPointExtension>
        </extensions>
      </trkpt>
      <trkpt lat="23.1102600507438182830810546875" lon="113.29418004490435123443603515625">
        <ele>4.400000095367431640625</ele>
        <time>2020-05-24T05:40:51.000Z</time>
        <extensions>
          <ns3:TrackPointExtension>
            <ns3:hr>164</ns3:hr>
            <ns3:cad>82</ns3:cad>
          </ns3:TrackPointExtension>
        </extensions>
      </trkpt>
      <trkpt lat="23.1103016249835491180419921875" lon="113.2939853332936763763427734375">
        <ele>3.400000095367431640625</ele>
        <time>2020-05-24T05:41:01.000Z</time>
        <extensions>
          <ns3:TrackPointExtension>
            <ns3:hr>164</ns3:hr>
            <ns3:cad>82</ns3:cad>
          </ns3:TrackPointExtension>
        </extensions>
      </trkpt>
      <trkpt lat="23.11032601632177829742431640625" lon="113.293883912265300750732421875">
        <ele>2.7999999523162841796875</ele>
        <time>2020-05-24T05:41:06.000Z</time>
        <extensions>
          <ns3:TrackPointExtension>
            <ns3:hr>167</ns3:hr>
            <ns3:cad>82</ns3:cad>
          </ns3:TrackPointExtension>
        </extensions>
      </trkpt>
      <trkpt lat="23.1103675067424774169921875" lon="113.29371862113475799560546875">
        <ele>2.7999999523162841796875</ele>
        <time>2020-05-24T05:41:13.000Z</time>
        <extensions>
          <ns3:TrackPointExtension>
            <ns3:hr>172</ns3:hr>
            <ns3:cad>82</ns3:cad>
          </ns3:TrackPointExtension>
        </extensions>
      </trkpt>
      <trkpt lat="23.11037630774080753326416015625" lon="113.29367025755345821380615234375">
        <ele>2.599999904632568359375</ele>
        <time>2020-05-24T05:41:16.000Z</time>
        <extensions>
          <ns3:TrackPointExtension>
            <ns3:hr>169</ns3:hr>
            <ns3:cad>82</ns3:cad>
          </ns3:TrackPointExtension>
        </extensions>
      </trkpt>
      <trkpt lat="23.11041436158120632171630859375" lon="113.29346775077283382415771484375">
        <ele>2.7999999523162841796875</ele>
        <time>2020-05-24T05:41:24.000Z</time>
        <extensions>
          <ns3:TrackPointExtension>
            <ns3:hr>170</ns3:hr>
            <ns3:cad>83</ns3:cad>
          </ns3:TrackPointExtension>
        </extensions>
      </trkpt>
      <trkpt lat="23.110419474542140960693359375" lon="113.2934428565204143524169921875">
        <ele>3</ele>
        <time>2020-05-24T05:41:25.000Z</time>
        <extensions>
          <ns3:TrackPointExtension>
            <ns3:hr>173</ns3:hr>
            <ns3:cad>83</ns3:cad>
          </ns3:TrackPointExtension>
        </extensions>
      </trkpt>
      <trkpt lat="23.11047538183629512786865234375" lon="113.29324194230139255523681640625">
        <ele>3.2000000476837158203125</ele>
        <time>2020-05-24T05:41:34.000Z</time>
        <extensions>
          <ns3:TrackPointExtension>
            <ns3:hr>172</ns3:hr>
            <ns3:cad>83</ns3:cad>
          </ns3:TrackPointExtension>
        </extensions>
      </trkpt>
      <trkpt lat="23.11054444871842861175537109375" lon="113.29304731450974941253662109375">
        <ele>0.4000000059604644775390625</ele>
        <time>2020-05-24T05:41:44.000Z</time>
        <extensions>
          <ns3:TrackPointExtension>
            <ns3:hr>172</ns3:hr>
            <ns3:cad>82</ns3:cad>
          </ns3:TrackPointExtension>
        </extensions>
      </trkpt>
      <trkpt lat="23.110562302172183990478515625" lon="113.29298260621726512908935546875">
        <ele>0.4000000059604644775390625</ele>
        <time>2020-05-24T05:41:47.000Z</time>
        <extensions>
          <ns3:TrackPointExtension>
            <ns3:hr>175</ns3:hr>
            <ns3:cad>83</ns3:cad>
          </ns3:TrackPointExtension>
        </extensions>
      </trkpt>
      <trkpt lat="23.11057093553245067596435546875" lon="113.2929010502994060516357421875">
        <ele>0.4000000059604644775390625</ele>
        <time>2020-05-24T05:41:51.000Z</time>
        <extensions>
          <ns3:TrackPointExtension>
            <ns3:hr>171</ns3:hr>
            <ns3:cad>81</ns3:cad>
          </ns3:TrackPointExtension>
        </extensions>
      </trkpt>
      <trkpt lat="23.1105980090796947479248046875" lon="113.29269628040492534637451171875">
        <ele>0.60000002384185791015625</ele>
        <time>2020-05-24T05:42:00.000Z</time>
        <extensions>
          <ns3:TrackPointExtension>
            <ns3:hr>169</ns3:hr>
            <ns3:cad>82</ns3:cad>
          </ns3:TrackPointExtension>
        </extensions>
      </trkpt>
      <trkpt lat="23.11061385087668895721435546875" lon="113.29265185631811618804931640625">
        <ele>0.60000002384185791015625</ele>
        <time>2020-05-24T05:42:02.000Z</time>
        <extensions>
          <ns3:TrackPointExtension>
            <ns3:hr>172</ns3:hr>
            <ns3:cad>81</ns3:cad>
          </ns3:TrackPointExtension>
        </extensions>
      </trkpt>
      <trkpt lat="23.1106288544833660125732421875" lon="113.29256099648773670196533203125">
        <ele>0.60000002384185791015625</ele>
        <time>2020-05-24T05:42:06.000Z</time>
        <extensions>
          <ns3:TrackPointExtension>
            <ns3:hr>169</ns3:hr>
            <ns3:cad>82</ns3:cad>
          </ns3:TrackPointExtension>
        </extensions>
      </trkpt>
      <trkpt lat="23.11065089888870716094970703125" lon="113.292467705905437469482421875">
        <ele>0.800000011920928955078125</ele>
        <time>2020-05-24T05:42:10.000Z</time>
        <extensions>
          <ns3:TrackPointExtension>
            <ns3:hr>172</ns3:hr>
            <ns3:cad>82</ns3:cad>
          </ns3:TrackPointExtension>
        </extensions>
      </trkpt>
      <trkpt lat="23.1106640584766864776611328125" lon="113.29237659461796283721923828125">
        <ele>5</ele>
        <time>2020-05-24T05:42:14.000Z</time>
        <extensions>
          <ns3:TrackPointExtension>
            <ns3:hr>168</ns3:hr>
            <ns3:cad>81</ns3:cad>
          </ns3:TrackPointExtension>
        </extensions>
      </trkpt>
      <trkpt lat="23.1107321195304393768310546875" lon="113.29218079335987567901611328125">
        <ele>10.19999980926513671875</ele>
        <time>2020-05-24T05:42:22.000Z</time>
        <extensions>
          <ns3:TrackPointExtension>
            <ns3:hr>168</ns3:hr>
            <ns3:cad>82</ns3:cad>
          </ns3:TrackPointExtension>
        </extensions>
      </trkpt>
      <trkpt lat="23.110747374594211578369140625" lon="113.29205171205103397369384765625">
        <ele>14</ele>
        <time>2020-05-24T05:42:27.000Z</time>
        <extensions>
          <ns3:TrackPointExtension>
            <ns3:hr>171</ns3:hr>
            <ns3:cad>82</ns3:cad>
          </ns3:TrackPointExtension>
        </extensions>
      </trkpt>
      <trkpt lat="23.11079858802258968353271484375" lon="113.291851468384265899658203125">
        <ele>17</ele>
        <time>2020-05-24T05:42:36.000Z</time>
        <extensions>
          <ns3:TrackPointExtension>
            <ns3:hr>171</ns3:hr>
            <ns3:cad>81</ns3:cad>
          </ns3:TrackPointExtension>
        </extensions>
      </trkpt>
      <trkpt lat="23.11079942621290683746337890625" lon="113.2918378897011280059814453125">
        <ele>16.799999237060546875</ele>
        <time>2020-05-24T05:42:37.000Z</time>
        <extensions>
          <ns3:TrackPointExtension>
            <ns3:hr>166</ns3:hr>
            <ns3:cad>81</ns3:cad>
          </ns3:TrackPointExtension>
        </extensions>
      </trkpt>
      <trkpt lat="23.11079523526132106781005859375" lon="113.29181551001965999603271484375">
        <ele>16.799999237060546875</ele>
        <time>2020-05-24T05:42:38.000Z</time>
        <extensions>
          <ns3:TrackPointExtension>
            <ns3:hr>166</ns3:hr>
            <ns3:cad>81</ns3:cad>
          </ns3:TrackPointExtension>
        </extensions>
      </trkpt>
      <trkpt lat="23.11079037375748157501220703125" lon="113.2918001711368560791015625">
        <ele>16.799999237060546875</ele>
        <time>2020-05-24T05:42:41.000Z</time>
        <extensions>
          <ns3:TrackPointExtension>
            <ns3:hr>169</ns3:hr>
            <ns3:cad>0</ns3:cad>
          </ns3:TrackPointExtension>
        </extensions>
      </trkpt>
      <trkpt lat="23.11078819446265697479248046875" lon="113.29176421277225017547607421875">
        <ele>16.3999996185302734375</ele>
        <time>2020-05-24T05:42:47.000Z</time>
        <extensions>
          <ns3:TrackPointExtension>
            <ns3:hr>167</ns3:hr>
            <ns3:cad>0</ns3:cad>
          </ns3:TrackPointExtension>
        </extensions>
      </trkpt>
    </trkseg>
  </trk>
</gpx>
