<gpx xmlns:ns3="http://www.garmin.com/xmlschemas/TrackPointExtension/v1" xmlns="http://www.topografix.com/GPX/1/1" xmlns:xsi="http://www.w3.org/2001/XMLSchema-instance" xmlns:ns2="http://www.garmin.com/xmlschemas/GpxExtensions/v3" creator="Garmin Connect" version="1.1" xsi:schemaLocation="http://www.topografix.com/GPX/1/1 http://www.topografix.com/GPX/11.xsd">
  <extensions>
<distance>2828.77</distance>
<average_hr>167.0</average_hr>
<average_speed>2.5510001182556152</average_speed>
<start_time>2018-05-26T12:32:08+00:00</start_time>
<end_time>2018-05-26T12:50:36.885000+00:00</end_time>
<moving_time>1098.0</moving_time>
<elapsed_time>2377.736</elapsed_time>
</extensions>
<metadata>
    <link href="connect.garmin.com">
      <text>Garmin Connect</text>
    </link>
    <time>2018-05-26T12:32:08.000Z</time>
  </metadata>
  <trk>
    <name>广州市 跑步</name>
    <type>running</type>
    <trkseg>
      <trkpt lat="23.17524611949920654296875" lon="113.25455308891832828521728515625">
        <ele>8.6000003814697265625</ele>
        <time>2018-05-26T12:37:24.000Z</time>
        <extensions>
          <ns3:TrackPointExtension>
            <ns3:hr>99</ns3:hr>
            <ns3:cad>0</ns3:cad>
          </ns3:TrackPointExtension>
        </extensions>
      </trkpt>
      <trkpt lat="23.17522927187383174896240234375" lon="113.25455292128026485443115234375">
        <ele>8.3999996185302734375</ele>
        <time>2018-05-26T12:37:25.000Z</time>
        <extensions>
          <ns3:TrackPointExtension>
            <ns3:hr>99</ns3:hr>
            <ns3:cad>0</ns3:cad>
          </ns3:TrackPointExtension>
        </extensions>
      </trkpt>
      <trkpt lat="23.17513681948184967041015625" lon="113.25456968508660793304443359375">
        <ele>6.599999904632568359375</ele>
        <time>2018-05-26T12:37:29.000Z</time>
        <extensions>
          <ns3:TrackPointExtension>
            <ns3:hr>99</ns3:hr>
            <ns3:cad>0</ns3:cad>
          </ns3:TrackPointExtension>
        </extensions>
      </trkpt>
      <trkpt lat="23.17505224607884883880615234375" lon="113.254586197435855865478515625">
        <ele>5.599999904632568359375</ele>
        <time>2018-05-26T12:37:32.000Z</time>
        <extensions>
          <ns3:TrackPointExtension>
            <ns3:hr>96</ns3:hr>
            <ns3:cad>83</ns3:cad>
          </ns3:TrackPointExtension>
        </extensions>
      </trkpt>
      <trkpt lat="23.17499826662242412567138671875" lon="113.2546006143093109130859375">
        <ele>5.19999980926513671875</ele>
        <time>2018-05-26T12:37:34.000Z</time>
        <extensions>
          <ns3:TrackPointExtension>
            <ns3:hr>102</ns3:hr>
            <ns3:cad>82</ns3:cad>
          </ns3:TrackPointExtension>
        </extensions>
      </trkpt>
      <trkpt lat="23.174966834485530853271484375" lon="113.25460220687091350555419921875">
        <ele>5</ele>
        <time>2018-05-26T12:37:35.000Z</time>
        <extensions>
          <ns3:TrackPointExtension>
            <ns3:hr>114</ns3:hr>
            <ns3:cad>83</ns3:cad>
          </ns3:TrackPointExtension>
        </extensions>
      </trkpt>
      <trkpt lat="23.1749381683766841888427734375" lon="113.25460405088961124420166015625">
        <ele>4.80000019073486328125</ele>
        <time>2018-05-26T12:37:36.000Z</time>
        <extensions>
          <ns3:TrackPointExtension>
            <ns3:hr>124</ns3:hr>
            <ns3:cad>83</ns3:cad>
          </ns3:TrackPointExtension>
        </extensions>
      </trkpt>
      <trkpt lat="23.174906484782695770263671875" lon="113.254604972898960113525390625">
        <ele>4.599999904632568359375</ele>
        <time>2018-05-26T12:37:37.000Z</time>
        <extensions>
          <ns3:TrackPointExtension>
            <ns3:hr>127</ns3:hr>
            <ns3:cad>83</ns3:cad>
          </ns3:TrackPointExtension>
        </extensions>
      </trkpt>
      <trkpt lat="23.17487622611224651336669921875" lon="113.25460690073668956756591796875">
        <ele>4.80000019073486328125</ele>
        <time>2018-05-26T12:37:38.000Z</time>
        <extensions>
          <ns3:TrackPointExtension>
            <ns3:hr>131</ns3:hr>
            <ns3:cad>82</ns3:cad>
          </ns3:TrackPointExtension>
        </extensions>
      </trkpt>
      <trkpt lat="23.174846805632114410400390625" lon="113.25461159460246562957763671875">
        <ele>4.80000019073486328125</ele>
        <time>2018-05-26T12:37:39.000Z</time>
        <extensions>
          <ns3:TrackPointExtension>
            <ns3:hr>135</ns3:hr>
            <ns3:cad>82</ns3:cad>
          </ns3:TrackPointExtension>
        </extensions>
      </trkpt>
      <trkpt lat="23.17481889389455318450927734375" lon="113.25461511500179767608642578125">
        <ele>4.599999904632568359375</ele>
        <time>2018-05-26T12:37:40.000Z</time>
        <extensions>
          <ns3:TrackPointExtension>
            <ns3:hr>135</ns3:hr>
            <ns3:cad>82</ns3:cad>
          </ns3:TrackPointExtension>
        </extensions>
      </trkpt>
      <trkpt lat="23.17479743622243404388427734375" lon="113.25461662374436855316162109375">
        <ele>4.599999904632568359375</ele>
        <time>2018-05-26T12:37:41.000Z</time>
        <extensions>
          <ns3:TrackPointExtension>
            <ns3:hr>141</ns3:hr>
            <ns3:cad>84</ns3:cad>
          </ns3:TrackPointExtension>
        </extensions>
      </trkpt>
      <trkpt lat="23.17477698437869548797607421875" lon="113.254621736705303192138671875">
        <ele>4.599999904632568359375</ele>
        <time>2018-05-26T12:37:42.000Z</time>
        <extensions>
          <ns3:TrackPointExtension>
            <ns3:hr>146</ns3:hr>
            <ns3:cad>84</ns3:cad>
          </ns3:TrackPointExtension>
        </extensions>
      </trkpt>
      <trkpt lat="23.1747619807720184326171875" lon="113.25462517328560352325439453125">
        <ele>4.400000095367431640625</ele>
        <time>2018-05-26T12:37:43.000Z</time>
        <extensions>
          <ns3:TrackPointExtension>
            <ns3:hr>151</ns3:hr>
            <ns3:cad>83</ns3:cad>
          </ns3:TrackPointExtension>
        </extensions>
      </trkpt>
      <trkpt lat="23.174743540585041046142578125" lon="113.2546219043433666229248046875">
        <ele>4.400000095367431640625</ele>
        <time>2018-05-26T12:37:44.000Z</time>
        <extensions>
          <ns3:TrackPointExtension>
            <ns3:hr>154</ns3:hr>
            <ns3:cad>83</ns3:cad>
          </ns3:TrackPointExtension>
        </extensions>
      </trkpt>
      <trkpt lat="23.17472049035131931304931640625" lon="113.25461846776306629180908203125">
        <ele>4.400000095367431640625</ele>
        <time>2018-05-26T12:37:45.000Z</time>
        <extensions>
          <ns3:TrackPointExtension>
            <ns3:hr>154</ns3:hr>
            <ns3:cad>82</ns3:cad>
          </ns3:TrackPointExtension>
        </extensions>
      </trkpt>
      <trkpt lat="23.17460297606885433197021484375" lon="113.25461603701114654541015625">
        <ele>4.400000095367431640625</ele>
        <time>2018-05-26T12:37:49.000Z</time>
        <extensions>
          <ns3:TrackPointExtension>
            <ns3:hr>151</ns3:hr>
            <ns3:cad>80</ns3:cad>
          </ns3:TrackPointExtension>
        </extensions>
      </trkpt>
      <trkpt lat="23.17456793971359729766845703125" lon="113.25463254936039447784423828125">
        <ele>4.80000019073486328125</ele>
        <time>2018-05-26T12:37:50.000Z</time>
        <extensions>
          <ns3:TrackPointExtension>
            <ns3:hr>154</ns3:hr>
            <ns3:cad>80</ns3:cad>
          </ns3:TrackPointExtension>
        </extensions>
      </trkpt>
      <trkpt lat="23.1745339930057525634765625" lon="113.25463942252099514007568359375">
        <ele>5.19999980926513671875</ele>
        <time>2018-05-26T12:37:51.000Z</time>
        <extensions>
          <ns3:TrackPointExtension>
            <ns3:hr>157</ns3:hr>
            <ns3:cad>80</ns3:cad>
          </ns3:TrackPointExtension>
        </extensions>
      </trkpt>
      <trkpt lat="23.17449979484081268310546875" lon="113.2546470500528812408447265625">
        <ele>5.400000095367431640625</ele>
        <time>2018-05-26T12:37:52.000Z</time>
        <extensions>
          <ns3:TrackPointExtension>
            <ns3:hr>160</ns3:hr>
            <ns3:cad>80</ns3:cad>
          </ns3:TrackPointExtension>
        </extensions>
      </trkpt>
      <trkpt lat="23.1744476594030857086181640625" lon="113.2546658255159854888916015625">
        <ele>6</ele>
        <time>2018-05-26T12:37:54.000Z</time>
        <extensions>
          <ns3:TrackPointExtension>
            <ns3:hr>163</ns3:hr>
            <ns3:cad>80</ns3:cad>
          </ns3:TrackPointExtension>
        </extensions>
      </trkpt>
      <trkpt lat="23.17443584091961383819580078125" lon="113.2546782307326793670654296875">
        <ele>6.19999980926513671875</ele>
        <time>2018-05-26T12:37:55.000Z</time>
        <extensions>
          <ns3:TrackPointExtension>
            <ns3:hr>160</ns3:hr>
            <ns3:cad>82</ns3:cad>
          </ns3:TrackPointExtension>
        </extensions>
      </trkpt>
      <trkpt lat="23.17443047650158405303955078125" lon="113.2546960003674030303955078125">
        <ele>6.400000095367431640625</ele>
        <time>2018-05-26T12:37:56.000Z</time>
        <extensions>
          <ns3:TrackPointExtension>
            <ns3:hr>163</ns3:hr>
            <ns3:cad>83</ns3:cad>
          </ns3:TrackPointExtension>
        </extensions>
      </trkpt>
      <trkpt lat="23.17443449981510639190673828125" lon="113.25477587990462779998779296875">
        <ele>6.400000095367431640625</ele>
        <time>2018-05-26T12:38:00.000Z</time>
        <extensions>
          <ns3:TrackPointExtension>
            <ns3:hr>166</ns3:hr>
            <ns3:cad>83</ns3:cad>
          </ns3:TrackPointExtension>
        </extensions>
      </trkpt>
      <trkpt lat="23.17447959445416927337646484375" lon="113.25495206750929355621337890625">
        <ele>6.19999980926513671875</ele>
        <time>2018-05-26T12:38:07.000Z</time>
        <extensions>
          <ns3:TrackPointExtension>
            <ns3:hr>170</ns3:hr>
            <ns3:cad>84</ns3:cad>
          </ns3:TrackPointExtension>
        </extensions>
      </trkpt>
      <trkpt lat="23.17445880733430385589599609375" lon="113.2550061307847499847412109375">
        <ele>6.599999904632568359375</ele>
        <time>2018-05-26T12:38:11.000Z</time>
        <extensions>
          <ns3:TrackPointExtension>
            <ns3:hr>169</ns3:hr>
            <ns3:cad>84</ns3:cad>
          </ns3:TrackPointExtension>
        </extensions>
      </trkpt>
      <trkpt lat="23.1744278781116008758544921875" lon="113.25500965118408203125">
        <ele>6.80000019073486328125</ele>
        <time>2018-05-26T12:38:13.000Z</time>
        <extensions>
          <ns3:TrackPointExtension>
            <ns3:hr>165</ns3:hr>
            <ns3:cad>82</ns3:cad>
          </ns3:TrackPointExtension>
        </extensions>
      </trkpt>
      <trkpt lat="23.17440181039273738861083984375" lon="113.255003951489925384521484375">
        <ele>6.80000019073486328125</ele>
        <time>2018-05-26T12:38:15.000Z</time>
        <extensions>
          <ns3:TrackPointExtension>
            <ns3:hr>160</ns3:hr>
            <ns3:cad>80</ns3:cad>
          </ns3:TrackPointExtension>
        </extensions>
      </trkpt>
      <trkpt lat="23.174391500651836395263671875" lon="113.2550084777176380157470703125">
        <ele>6.80000019073486328125</ele>
        <time>2018-05-26T12:38:16.000Z</time>
        <extensions>
          <ns3:TrackPointExtension>
            <ns3:hr>163</ns3:hr>
            <ns3:cad>80</ns3:cad>
          </ns3:TrackPointExtension>
        </extensions>
      </trkpt>
      <trkpt lat="23.17432989366352558135986328125" lon="113.2550597749650478363037109375">
        <ele>7</ele>
        <time>2018-05-26T12:38:21.000Z</time>
        <extensions>
          <ns3:TrackPointExtension>
            <ns3:hr>167</ns3:hr>
            <ns3:cad>105</ns3:cad>
          </ns3:TrackPointExtension>
        </extensions>
      </trkpt>
      <trkpt lat="23.17430290393531322479248046875" lon="113.25507058762013912200927734375">
        <ele>7.19999980926513671875</ele>
        <time>2018-05-26T12:38:23.000Z</time>
        <extensions>
          <ns3:TrackPointExtension>
            <ns3:hr>170</ns3:hr>
            <ns3:cad>105</ns3:cad>
          </ns3:TrackPointExtension>
        </extensions>
      </trkpt>
      <trkpt lat="23.1741048395633697509765625" lon="113.25510562397539615631103515625">
        <ele>7.400000095367431640625</ele>
        <time>2018-05-26T12:38:32.000Z</time>
        <extensions>
          <ns3:TrackPointExtension>
            <ns3:hr>169</ns3:hr>
            <ns3:cad>85</ns3:cad>
          </ns3:TrackPointExtension>
        </extensions>
      </trkpt>
      <trkpt lat="23.173918426036834716796875" lon="113.255099840462207794189453125">
        <ele>9.3999996185302734375</ele>
        <time>2018-05-26T12:38:38.000Z</time>
        <extensions>
          <ns3:TrackPointExtension>
            <ns3:hr>168</ns3:hr>
            <ns3:cad>83</ns3:cad>
          </ns3:TrackPointExtension>
        </extensions>
      </trkpt>
      <trkpt lat="23.1738706491887569427490234375" lon="113.2550886087119579315185546875">
        <ele>10</ele>
        <time>2018-05-26T12:38:42.000Z</time>
        <extensions>
          <ns3:TrackPointExtension>
            <ns3:hr>163</ns3:hr>
            <ns3:cad>84</ns3:cad>
          </ns3:TrackPointExtension>
        </extensions>
      </trkpt>
      <trkpt lat="23.1737750954926013946533203125" lon="113.25510260649025440216064453125">
        <ele>11.19999980926513671875</ele>
        <time>2018-05-26T12:38:45.000Z</time>
        <extensions>
          <ns3:TrackPointExtension>
            <ns3:hr>166</ns3:hr>
            <ns3:cad>85</ns3:cad>
          </ns3:TrackPointExtension>
        </extensions>
      </trkpt>
      <trkpt lat="23.17374265752732753753662109375" lon="113.2551057077944278717041015625">
        <ele>11.80000019073486328125</ele>
        <time>2018-05-26T12:38:46.000Z</time>
        <extensions>
          <ns3:TrackPointExtension>
            <ns3:hr>169</ns3:hr>
            <ns3:cad>85</ns3:cad>
          </ns3:TrackPointExtension>
        </extensions>
      </trkpt>
      <trkpt lat="23.1736778654158115386962890625" lon="113.25511802919209003448486328125">
        <ele>12.3999996185302734375</ele>
        <time>2018-05-26T12:38:48.000Z</time>
        <extensions>
          <ns3:TrackPointExtension>
            <ns3:hr>166</ns3:hr>
            <ns3:cad>85</ns3:cad>
          </ns3:TrackPointExtension>
        </extensions>
      </trkpt>
      <trkpt lat="23.17348835058510303497314453125" lon="113.25515289790928363800048828125">
        <ele>12.19999980926513671875</ele>
        <time>2018-05-26T12:38:55.000Z</time>
        <extensions>
          <ns3:TrackPointExtension>
            <ns3:hr>166</ns3:hr>
            <ns3:cad>84</ns3:cad>
          </ns3:TrackPointExtension>
        </extensions>
      </trkpt>
      <trkpt lat="23.17330864258110523223876953125" lon="113.2552148401737213134765625">
        <ele>8.80000019073486328125</ele>
        <time>2018-05-26T12:39:03.000Z</time>
        <extensions>
          <ns3:TrackPointExtension>
            <ns3:hr>168</ns3:hr>
            <ns3:cad>84</ns3:cad>
          </ns3:TrackPointExtension>
        </extensions>
      </trkpt>
      <trkpt lat="23.17312440834939479827880859375" lon="113.255243338644504547119140625">
        <ele>6.400000095367431640625</ele>
        <time>2018-05-26T12:39:10.000Z</time>
        <extensions>
          <ns3:TrackPointExtension>
            <ns3:hr>170</ns3:hr>
            <ns3:cad>85</ns3:cad>
          </ns3:TrackPointExtension>
        </extensions>
      </trkpt>
      <trkpt lat="23.1729385815560817718505859375" lon="113.255275189876556396484375">
        <ele>4.599999904632568359375</ele>
        <time>2018-05-26T12:39:18.000Z</time>
        <extensions>
          <ns3:TrackPointExtension>
            <ns3:hr>169</ns3:hr>
            <ns3:cad>85</ns3:cad>
          </ns3:TrackPointExtension>
        </extensions>
      </trkpt>
      <trkpt lat="23.17275661043822765350341796875" lon="113.25528549961745738983154296875">
        <ele>6.400000095367431640625</ele>
        <time>2018-05-26T12:39:25.000Z</time>
        <extensions>
          <ns3:TrackPointExtension>
            <ns3:hr>168</ns3:hr>
            <ns3:cad>84</ns3:cad>
          </ns3:TrackPointExtension>
        </extensions>
      </trkpt>
      <trkpt lat="23.1725932471454143524169921875" lon="113.25527762062847614288330078125">
        <ele>7.80000019073486328125</ele>
        <time>2018-05-26T12:39:31.000Z</time>
        <extensions>
          <ns3:TrackPointExtension>
            <ns3:hr>171</ns3:hr>
            <ns3:cad>84</ns3:cad>
          </ns3:TrackPointExtension>
        </extensions>
      </trkpt>
      <trkpt lat="23.1724038161337375640869140625" lon="113.25529329478740692138671875">
        <ele>8.6000003814697265625</ele>
        <time>2018-05-26T12:39:38.000Z</time>
        <extensions>
          <ns3:TrackPointExtension>
            <ns3:hr>172</ns3:hr>
            <ns3:cad>85</ns3:cad>
          </ns3:TrackPointExtension>
        </extensions>
      </trkpt>
      <trkpt lat="23.17222503013908863067626953125" lon="113.25532657094299793243408203125">
        <ele>6.599999904632568359375</ele>
        <time>2018-05-26T12:39:43.000Z</time>
        <extensions>
          <ns3:TrackPointExtension>
            <ns3:hr>172</ns3:hr>
            <ns3:cad>86</ns3:cad>
          </ns3:TrackPointExtension>
        </extensions>
      </trkpt>
      <trkpt lat="23.1720366887748241424560546875" lon="113.25535573996603488922119140625">
        <ele>4.80000019073486328125</ele>
        <time>2018-05-26T12:39:49.000Z</time>
        <extensions>
          <ns3:TrackPointExtension>
            <ns3:hr>170</ns3:hr>
            <ns3:cad>83</ns3:cad>
          </ns3:TrackPointExtension>
        </extensions>
      </trkpt>
      <trkpt lat="23.17193568684160709381103515625" lon="113.255476020276546478271484375">
        <ele>3.599999904632568359375</ele>
        <time>2018-05-26T12:39:55.000Z</time>
        <extensions>
          <ns3:TrackPointExtension>
            <ns3:hr>167</ns3:hr>
            <ns3:cad>81</ns3:cad>
          </ns3:TrackPointExtension>
        </extensions>
      </trkpt>
      <trkpt lat="23.17190635018050670623779296875" lon="113.2556656189262866973876953125">
        <ele>0.800000011920928955078125</ele>
        <time>2018-05-26T12:40:04.000Z</time>
        <extensions>
          <ns3:TrackPointExtension>
            <ns3:hr>168</ns3:hr>
            <ns3:cad>83</ns3:cad>
          </ns3:TrackPointExtension>
        </extensions>
      </trkpt>
      <trkpt lat="23.17196485586464405059814453125" lon="113.255875669419765472412109375">
        <ele>-2.400000095367431640625</ele>
        <time>2018-05-26T12:40:13.000Z</time>
        <extensions>
          <ns3:TrackPointExtension>
            <ns3:hr>170</ns3:hr>
            <ns3:cad>84</ns3:cad>
          </ns3:TrackPointExtension>
        </extensions>
      </trkpt>
      <trkpt lat="23.17208136431872844696044921875" lon="113.2560441456735134124755859375">
        <ele>-4.19999980926513671875</ele>
        <time>2018-05-26T12:40:21.000Z</time>
        <extensions>
          <ns3:TrackPointExtension>
            <ns3:hr>171</ns3:hr>
            <ns3:cad>84</ns3:cad>
          </ns3:TrackPointExtension>
        </extensions>
      </trkpt>
      <trkpt lat="23.172226287424564361572265625" lon="113.256198205053806304931640625">
        <ele>-6.80000019073486328125</ele>
        <time>2018-05-26T12:40:29.000Z</time>
        <extensions>
          <ns3:TrackPointExtension>
            <ns3:hr>171</ns3:hr>
            <ns3:cad>84</ns3:cad>
          </ns3:TrackPointExtension>
        </extensions>
      </trkpt>
      <trkpt lat="23.1723769940435886383056640625" lon="113.25632820837199687957763671875">
        <ele>-6</ele>
        <time>2018-05-26T12:40:38.000Z</time>
        <extensions>
          <ns3:TrackPointExtension>
            <ns3:hr>172</ns3:hr>
            <ns3:cad>84</ns3:cad>
          </ns3:TrackPointExtension>
        </extensions>
      </trkpt>
      <trkpt lat="23.1724579632282257080078125" lon="113.256374560296535491943359375">
        <ele>-3.400000095367431640625</ele>
        <time>2018-05-26T12:40:42.000Z</time>
        <extensions>
          <ns3:TrackPointExtension>
            <ns3:hr>175</ns3:hr>
            <ns3:cad>84</ns3:cad>
          </ns3:TrackPointExtension>
        </extensions>
      </trkpt>
      <trkpt lat="23.17259810864925384521484375" lon="113.25646298937499523162841796875">
        <ele>-0.60000002384185791015625</ele>
        <time>2018-05-26T12:40:48.000Z</time>
        <extensions>
          <ns3:TrackPointExtension>
            <ns3:hr>173</ns3:hr>
            <ns3:cad>84</ns3:cad>
          </ns3:TrackPointExtension>
        </extensions>
      </trkpt>
      <trkpt lat="23.17277940921485424041748046875" lon="113.25655468739569187164306640625">
        <ele>-0.4000000059604644775390625</ele>
        <time>2018-05-26T12:40:55.000Z</time>
        <extensions>
          <ns3:TrackPointExtension>
            <ns3:hr>171</ns3:hr>
            <ns3:cad>85</ns3:cad>
          </ns3:TrackPointExtension>
        </extensions>
      </trkpt>
      <trkpt lat="23.17294947803020477294921875" lon="113.25662559829652309417724609375">
        <ele>-3.2000000476837158203125</ele>
        <time>2018-05-26T12:41:01.000Z</time>
        <extensions>
          <ns3:TrackPointExtension>
            <ns3:hr>172</ns3:hr>
            <ns3:cad>84</ns3:cad>
          </ns3:TrackPointExtension>
        </extensions>
      </trkpt>
      <trkpt lat="23.173123486340045928955078125" lon="113.25672819279134273529052734375">
        <ele>-9.19999980926513671875</ele>
        <time>2018-05-26T12:41:09.000Z</time>
        <extensions>
          <ns3:TrackPointExtension>
            <ns3:hr>171</ns3:hr>
            <ns3:cad>85</ns3:cad>
          </ns3:TrackPointExtension>
        </extensions>
      </trkpt>
      <trkpt lat="23.1732912920415401458740234375" lon="113.256815783679485321044921875">
        <ele>-13</ele>
        <time>2018-05-26T12:41:17.000Z</time>
        <extensions>
          <ns3:TrackPointExtension>
            <ns3:hr>170</ns3:hr>
            <ns3:cad>84</ns3:cad>
          </ns3:TrackPointExtension>
        </extensions>
      </trkpt>
      <trkpt lat="23.17338223569095134735107421875" lon="113.256874792277812957763671875">
        <ele>-9</ele>
        <time>2018-05-26T12:41:21.000Z</time>
        <extensions>
          <ns3:TrackPointExtension>
            <ns3:hr>173</ns3:hr>
            <ns3:cad>84</ns3:cad>
          </ns3:TrackPointExtension>
        </extensions>
      </trkpt>
      <trkpt lat="23.17340235225856304168701171875" lon="113.25688644312322139739990234375">
        <ele>-8.19999980926513671875</ele>
        <time>2018-05-26T12:41:22.000Z</time>
        <extensions>
          <ns3:TrackPointExtension>
            <ns3:hr>179</ns3:hr>
            <ns3:cad>84</ns3:cad>
          </ns3:TrackPointExtension>
        </extensions>
      </trkpt>
      <trkpt lat="23.17344560287892818450927734375" lon="113.25691142119467258453369140625">
        <ele>-6.400000095367431640625</ele>
        <time>2018-05-26T12:41:24.000Z</time>
        <extensions>
          <ns3:TrackPointExtension>
            <ns3:hr>182</ns3:hr>
            <ns3:cad>84</ns3:cad>
          </ns3:TrackPointExtension>
        </extensions>
      </trkpt>
      <trkpt lat="23.17355624400079250335693359375" lon="113.2569765485823154449462890625">
        <ele>-2.2000000476837158203125</ele>
        <time>2018-05-26T12:41:29.000Z</time>
        <extensions>
          <ns3:TrackPointExtension>
            <ns3:hr>179</ns3:hr>
            <ns3:cad>85</ns3:cad>
          </ns3:TrackPointExtension>
        </extensions>
      </trkpt>
      <trkpt lat="23.17373544909060001373291015625" lon="113.25707386247813701629638671875">
        <ele>2.400000095367431640625</ele>
        <time>2018-05-26T12:41:37.000Z</time>
        <extensions>
          <ns3:TrackPointExtension>
            <ns3:hr>177</ns3:hr>
            <ns3:cad>83</ns3:cad>
          </ns3:TrackPointExtension>
        </extensions>
      </trkpt>
      <trkpt lat="23.1739018298685550689697265625" lon="113.25715064071118831634521484375">
        <ele>4.19999980926513671875</ele>
        <time>2018-05-26T12:41:44.000Z</time>
        <extensions>
          <ns3:TrackPointExtension>
            <ns3:hr>178</ns3:hr>
            <ns3:cad>85</ns3:cad>
          </ns3:TrackPointExtension>
        </extensions>
      </trkpt>
      <trkpt lat="23.17408539354801177978515625" lon="113.2572159357368946075439453125">
        <ele>3.400000095367431640625</ele>
        <time>2018-05-26T12:41:51.000Z</time>
        <extensions>
          <ns3:TrackPointExtension>
            <ns3:hr>173</ns3:hr>
            <ns3:cad>83</ns3:cad>
          </ns3:TrackPointExtension>
        </extensions>
      </trkpt>
      <trkpt lat="23.17410978488624095916748046875" lon="113.257226161658763885498046875">
        <ele>3</ele>
        <time>2018-05-26T12:41:52.000Z</time>
        <extensions>
          <ns3:TrackPointExtension>
            <ns3:hr>173</ns3:hr>
            <ns3:cad>83</ns3:cad>
          </ns3:TrackPointExtension>
        </extensions>
      </trkpt>
      <trkpt lat="23.1741358526051044464111328125" lon="113.25723663903772830963134765625">
        <ele>2.7999999523162841796875</ele>
        <time>2018-05-26T12:41:53.000Z</time>
        <extensions>
          <ns3:TrackPointExtension>
            <ns3:hr>176</ns3:hr>
            <ns3:cad>84</ns3:cad>
          </ns3:TrackPointExtension>
        </extensions>
      </trkpt>
      <trkpt lat="23.17418572492897510528564453125" lon="113.2572605274617671966552734375">
        <ele>2.2000000476837158203125</ele>
        <time>2018-05-26T12:41:55.000Z</time>
        <extensions>
          <ns3:TrackPointExtension>
            <ns3:hr>179</ns3:hr>
            <ns3:cad>84</ns3:cad>
          </ns3:TrackPointExtension>
        </extensions>
      </trkpt>
      <trkpt lat="23.17437398247420787811279296875" lon="113.25731425546109676361083984375">
        <ele>1.7999999523162841796875</ele>
        <time>2018-05-26T12:42:02.000Z</time>
        <extensions>
          <ns3:TrackPointExtension>
            <ns3:hr>177</ns3:hr>
            <ns3:cad>83</ns3:cad>
          </ns3:TrackPointExtension>
        </extensions>
      </trkpt>
      <trkpt lat="23.17442310042679309844970703125" lon="113.257340155541896820068359375">
        <ele>1.60000002384185791015625</ele>
        <time>2018-05-26T12:42:04.000Z</time>
        <extensions>
          <ns3:TrackPointExtension>
            <ns3:hr>173</ns3:hr>
            <ns3:cad>83</ns3:cad>
          </ns3:TrackPointExtension>
        </extensions>
      </trkpt>
      <trkpt lat="23.1744433008134365081787109375" lon="113.2573503814637660980224609375">
        <ele>1.60000002384185791015625</ele>
        <time>2018-05-26T12:42:05.000Z</time>
        <extensions>
          <ns3:TrackPointExtension>
            <ns3:hr>176</ns3:hr>
            <ns3:cad>81</ns3:cad>
          </ns3:TrackPointExtension>
        </extensions>
      </trkpt>
      <trkpt lat="23.17445713095366954803466796875" lon="113.2573574222624301910400390625">
        <ele>1.60000002384185791015625</ele>
        <time>2018-05-26T12:42:06.000Z</time>
        <extensions>
          <ns3:TrackPointExtension>
            <ns3:hr>179</ns3:hr>
            <ns3:cad>81</ns3:cad>
          </ns3:TrackPointExtension>
        </extensions>
      </trkpt>
      <trkpt lat="23.1744677759706974029541015625" lon="113.25736521743237972259521484375">
        <ele>1.39999997615814208984375</ele>
        <time>2018-05-26T12:42:07.000Z</time>
        <extensions>
          <ns3:TrackPointExtension>
            <ns3:hr>184</ns3:hr>
            <ns3:cad>82</ns3:cad>
          </ns3:TrackPointExtension>
        </extensions>
      </trkpt>
      <trkpt lat="23.17447791807353496551513671875" lon="113.2573748566210269927978515625">
        <ele>1.39999997615814208984375</ele>
        <time>2018-05-26T12:42:08.000Z</time>
        <extensions>
          <ns3:TrackPointExtension>
            <ns3:hr>184</ns3:hr>
            <ns3:cad>82</ns3:cad>
          </ns3:TrackPointExtension>
        </extensions>
      </trkpt>
      <trkpt lat="23.17453055642545223236083984375" lon="113.257397152483463287353515625">
        <ele>1.2000000476837158203125</ele>
        <time>2018-05-26T12:42:14.000Z</time>
        <extensions>
          <ns3:TrackPointExtension>
            <ns3:hr>183</ns3:hr>
            <ns3:cad>0</ns3:cad>
          </ns3:TrackPointExtension>
        </extensions>
      </trkpt>
      <trkpt lat="23.17542591132223606109619140625" lon="113.2578056864440441131591796875">
        <ele>10.3999996185302734375</ele>
        <time>2018-05-26T12:43:48.000Z</time>
        <extensions>
          <ns3:TrackPointExtension>
            <ns3:hr>146</ns3:hr>
            <ns3:cad>0</ns3:cad>
          </ns3:TrackPointExtension>
        </extensions>
      </trkpt>
      <trkpt lat="23.1754380650818347930908203125" lon="113.2578083686530590057373046875">
        <ele>10.6000003814697265625</ele>
        <time>2018-05-26T12:43:49.000Z</time>
        <extensions>
          <ns3:TrackPointExtension>
            <ns3:hr>147</ns3:hr>
            <ns3:cad>0</ns3:cad>
          </ns3:TrackPointExtension>
        </extensions>
      </trkpt>
      <trkpt lat="23.17560679279267787933349609375" lon="113.25788171030580997467041015625">
        <ele>14.19999980926513671875</ele>
        <time>2018-05-26T12:43:58.000Z</time>
        <extensions>
          <ns3:TrackPointExtension>
            <ns3:hr>149</ns3:hr>
            <ns3:cad>82</ns3:cad>
          </ns3:TrackPointExtension>
        </extensions>
      </trkpt>
      <trkpt lat="23.175742328166961669921875" lon="113.257959075272083282470703125">
        <ele>16.6000003814697265625</ele>
        <time>2018-05-26T12:44:05.000Z</time>
        <extensions>
          <ns3:TrackPointExtension>
            <ns3:hr>152</ns3:hr>
            <ns3:cad>82</ns3:cad>
          </ns3:TrackPointExtension>
        </extensions>
      </trkpt>
      <trkpt lat="23.1758799590170383453369140625" lon="113.25802302919328212738037109375">
        <ele>21.3999996185302734375</ele>
        <time>2018-05-26T12:44:11.000Z</time>
        <extensions>
          <ns3:TrackPointExtension>
            <ns3:hr>155</ns3:hr>
            <ns3:cad>84</ns3:cad>
          </ns3:TrackPointExtension>
        </extensions>
      </trkpt>
      <trkpt lat="23.175955899059772491455078125" lon="113.25805873610079288482666015625">
        <ele>23.799999237060546875</ele>
        <time>2018-05-26T12:44:14.000Z</time>
        <extensions>
          <ns3:TrackPointExtension>
            <ns3:hr>158</ns3:hr>
            <ns3:cad>85</ns3:cad>
          </ns3:TrackPointExtension>
        </extensions>
      </trkpt>
      <trkpt lat="23.1759788654744625091552734375" lon="113.258069716393947601318359375">
        <ele>24.6000003814697265625</ele>
        <time>2018-05-26T12:44:15.000Z</time>
        <extensions>
          <ns3:TrackPointExtension>
            <ns3:hr>162</ns3:hr>
            <ns3:cad>84</ns3:cad>
          </ns3:TrackPointExtension>
        </extensions>
      </trkpt>
      <trkpt lat="23.1760177575051784515380859375" lon="113.2580903358757495880126953125">
        <ele>26</ele>
        <time>2018-05-26T12:44:17.000Z</time>
        <extensions>
          <ns3:TrackPointExtension>
            <ns3:hr>168</ns3:hr>
            <ns3:cad>83</ns3:cad>
          </ns3:TrackPointExtension>
        </extensions>
      </trkpt>
      <trkpt lat="23.176065199077129364013671875" lon="113.25811254791915416717529296875">
        <ele>26.3999996185302734375</ele>
        <time>2018-05-26T12:44:19.000Z</time>
        <extensions>
          <ns3:TrackPointExtension>
            <ns3:hr>173</ns3:hr>
            <ns3:cad>83</ns3:cad>
          </ns3:TrackPointExtension>
        </extensions>
      </trkpt>
      <trkpt lat="23.17608523182570934295654296875" lon="113.258126713335514068603515625">
        <ele>26.799999237060546875</ele>
        <time>2018-05-26T12:44:20.000Z</time>
        <extensions>
          <ns3:TrackPointExtension>
            <ns3:hr>173</ns3:hr>
            <ns3:cad>83</ns3:cad>
          </ns3:TrackPointExtension>
        </extensions>
      </trkpt>
      <trkpt lat="23.1762487627565860748291015625" lon="113.25821883045136928558349609375">
        <ele>28.3999996185302734375</ele>
        <time>2018-05-26T12:44:27.000Z</time>
        <extensions>
          <ns3:TrackPointExtension>
            <ns3:hr>168</ns3:hr>
            <ns3:cad>82</ns3:cad>
          </ns3:TrackPointExtension>
        </extensions>
      </trkpt>
      <trkpt lat="23.17627265118062496185302734375" lon="113.25823022983968257904052734375">
        <ele>28.3999996185302734375</ele>
        <time>2018-05-26T12:44:28.000Z</time>
        <extensions>
          <ns3:TrackPointExtension>
            <ns3:hr>168</ns3:hr>
            <ns3:cad>83</ns3:cad>
          </ns3:TrackPointExtension>
        </extensions>
      </trkpt>
      <trkpt lat="23.17634456790983676910400390625" lon="113.2582640089094638824462890625">
        <ele>27</ele>
        <time>2018-05-26T12:44:31.000Z</time>
        <extensions>
          <ns3:TrackPointExtension>
            <ns3:hr>165</ns3:hr>
            <ns3:cad>82</ns3:cad>
          </ns3:TrackPointExtension>
        </extensions>
      </trkpt>
      <trkpt lat="23.17636887542903423309326171875" lon="113.2582752406597137451171875">
        <ele>26.200000762939453125</ele>
        <time>2018-05-26T12:44:32.000Z</time>
        <extensions>
          <ns3:TrackPointExtension>
            <ns3:hr>169</ns3:hr>
            <ns3:cad>82</ns3:cad>
          </ns3:TrackPointExtension>
        </extensions>
      </trkpt>
      <trkpt lat="23.17641765810549259185791015625" lon="113.25830197893083095550537109375">
        <ele>25</ele>
        <time>2018-05-26T12:44:34.000Z</time>
        <extensions>
          <ns3:TrackPointExtension>
            <ns3:hr>166</ns3:hr>
            <ns3:cad>82</ns3:cad>
          </ns3:TrackPointExtension>
        </extensions>
      </trkpt>
      <trkpt lat="23.176488317549228668212890625" lon="113.2583377696573734283447265625">
        <ele>22.799999237060546875</ele>
        <time>2018-05-26T12:44:37.000Z</time>
        <extensions>
          <ns3:TrackPointExtension>
            <ns3:hr>163</ns3:hr>
            <ns3:cad>82</ns3:cad>
          </ns3:TrackPointExtension>
        </extensions>
      </trkpt>
      <trkpt lat="23.176538608968257904052734375" lon="113.25835947878658771514892578125">
        <ele>21.3999996185302734375</ele>
        <time>2018-05-26T12:44:39.000Z</time>
        <extensions>
          <ns3:TrackPointExtension>
            <ns3:hr>167</ns3:hr>
            <ns3:cad>83</ns3:cad>
          </ns3:TrackPointExtension>
        </extensions>
      </trkpt>
      <trkpt lat="23.17656165920197963714599609375" lon="113.25837322510778903961181640625">
        <ele>20.799999237060546875</ele>
        <time>2018-05-26T12:44:40.000Z</time>
        <extensions>
          <ns3:TrackPointExtension>
            <ns3:hr>174</ns3:hr>
            <ns3:cad>83</ns3:cad>
          </ns3:TrackPointExtension>
        </extensions>
      </trkpt>
      <trkpt lat="23.17658345215022563934326171875" lon="113.25838495977222919464111328125">
        <ele>20.200000762939453125</ele>
        <time>2018-05-26T12:44:41.000Z</time>
        <extensions>
          <ns3:TrackPointExtension>
            <ns3:hr>174</ns3:hr>
            <ns3:cad>83</ns3:cad>
          </ns3:TrackPointExtension>
        </extensions>
      </trkpt>
      <trkpt lat="23.17669694311916828155517578125" lon="113.25844430364668369293212890625">
        <ele>19.200000762939453125</ele>
        <time>2018-05-26T12:44:46.000Z</time>
        <extensions>
          <ns3:TrackPointExtension>
            <ns3:hr>171</ns3:hr>
            <ns3:cad>83</ns3:cad>
          </ns3:TrackPointExtension>
        </extensions>
      </trkpt>
      <trkpt lat="23.17679014988243579864501953125" lon="113.25848856009542942047119140625">
        <ele>18</ele>
        <time>2018-05-26T12:44:50.000Z</time>
        <extensions>
          <ns3:TrackPointExtension>
            <ns3:hr>168</ns3:hr>
            <ns3:cad>84</ns3:cad>
          </ns3:TrackPointExtension>
        </extensions>
      </trkpt>
      <trkpt lat="23.17684865556657314300537109375" lon="113.25851873494684696197509765625">
        <ele>17.3999996185302734375</ele>
        <time>2018-05-26T12:44:53.000Z</time>
        <extensions>
          <ns3:TrackPointExtension>
            <ns3:hr>174</ns3:hr>
            <ns3:cad>83</ns3:cad>
          </ns3:TrackPointExtension>
        </extensions>
      </trkpt>
      <trkpt lat="23.1770252622663974761962890625" lon="113.25862250290811061859130859375">
        <ele>17</ele>
        <time>2018-05-26T12:45:02.000Z</time>
        <extensions>
          <ns3:TrackPointExtension>
            <ns3:hr>177</ns3:hr>
            <ns3:cad>84</ns3:cad>
          </ns3:TrackPointExtension>
        </extensions>
      </trkpt>
      <trkpt lat="23.17710195668041706085205078125" lon="113.2586760632693767547607421875">
        <ele>16.6000003814697265625</ele>
        <time>2018-05-26T12:45:06.000Z</time>
        <extensions>
          <ns3:TrackPointExtension>
            <ns3:hr>173</ns3:hr>
            <ns3:cad>83</ns3:cad>
          </ns3:TrackPointExtension>
        </extensions>
      </trkpt>
      <trkpt lat="23.177274204790592193603515625" lon="113.258787877857685089111328125">
        <ele>15.3999996185302734375</ele>
        <time>2018-05-26T12:45:14.000Z</time>
        <extensions>
          <ns3:TrackPointExtension>
            <ns3:hr>175</ns3:hr>
            <ns3:cad>82</ns3:cad>
          </ns3:TrackPointExtension>
        </extensions>
      </trkpt>
      <trkpt lat="23.17743622697889804840087890625" lon="113.25888871215283870697021484375">
        <ele>13.80000019073486328125</ele>
        <time>2018-05-26T12:45:21.000Z</time>
        <extensions>
          <ns3:TrackPointExtension>
            <ns3:hr>174</ns3:hr>
            <ns3:cad>82</ns3:cad>
          </ns3:TrackPointExtension>
        </extensions>
      </trkpt>
      <trkpt lat="23.17762054502964019775390625" lon="113.25897990725934505462646484375">
        <ele>10.80000019073486328125</ele>
        <time>2018-05-26T12:45:29.000Z</time>
        <extensions>
          <ns3:TrackPointExtension>
            <ns3:hr>176</ns3:hr>
            <ns3:cad>83</ns3:cad>
          </ns3:TrackPointExtension>
        </extensions>
      </trkpt>
      <trkpt lat="23.17778876982629299163818359375" lon="113.25906774960458278656005859375">
        <ele>9.80000019073486328125</ele>
        <time>2018-05-26T12:45:36.000Z</time>
        <extensions>
          <ns3:TrackPointExtension>
            <ns3:hr>176</ns3:hr>
            <ns3:cad>84</ns3:cad>
          </ns3:TrackPointExtension>
        </extensions>
      </trkpt>
      <trkpt lat="23.17796059884130954742431640625" lon="113.259165398776531219482421875">
        <ele>9.19999980926513671875</ele>
        <time>2018-05-26T12:45:44.000Z</time>
        <extensions>
          <ns3:TrackPointExtension>
            <ns3:hr>177</ns3:hr>
            <ns3:cad>84</ns3:cad>
          </ns3:TrackPointExtension>
        </extensions>
      </trkpt>
      <trkpt lat="23.1781494431197643280029296875" lon="113.2592601142823696136474609375">
        <ele>10.80000019073486328125</ele>
        <time>2018-05-26T12:45:52.000Z</time>
        <extensions>
          <ns3:TrackPointExtension>
            <ns3:hr>178</ns3:hr>
            <ns3:cad>82</ns3:cad>
          </ns3:TrackPointExtension>
        </extensions>
      </trkpt>
      <trkpt lat="23.1783211044967174530029296875" lon="113.2593358866870403289794921875">
        <ele>13.80000019073486328125</ele>
        <time>2018-05-26T12:45:59.000Z</time>
        <extensions>
          <ns3:TrackPointExtension>
            <ns3:hr>177</ns3:hr>
            <ns3:cad>84</ns3:cad>
          </ns3:TrackPointExtension>
        </extensions>
      </trkpt>
      <trkpt lat="23.17846083082258701324462890625" lon="113.25944510288536548614501953125">
        <ele>14.6000003814697265625</ele>
        <time>2018-05-26T12:46:06.000Z</time>
        <extensions>
          <ns3:TrackPointExtension>
            <ns3:hr>174</ns3:hr>
            <ns3:cad>84</ns3:cad>
          </ns3:TrackPointExtension>
        </extensions>
      </trkpt>
      <trkpt lat="23.1785735674202442169189453125" lon="113.2595243118703365325927734375">
        <ele>14.80000019073486328125</ele>
        <time>2018-05-26T12:46:12.000Z</time>
        <extensions>
          <ns3:TrackPointExtension>
            <ns3:hr>177</ns3:hr>
            <ns3:cad>85</ns3:cad>
          </ns3:TrackPointExtension>
        </extensions>
      </trkpt>
      <trkpt lat="23.178750090301036834716796875" lon="113.2596389763057231903076171875">
        <ele>16.799999237060546875</ele>
        <time>2018-05-26T12:46:20.000Z</time>
        <extensions>
          <ns3:TrackPointExtension>
            <ns3:hr>177</ns3:hr>
            <ns3:cad>84</ns3:cad>
          </ns3:TrackPointExtension>
        </extensions>
      </trkpt>
      <trkpt lat="23.1788592226803302764892578125" lon="113.25969622470438480377197265625">
        <ele>16.799999237060546875</ele>
        <time>2018-05-26T12:46:24.000Z</time>
        <extensions>
          <ns3:TrackPointExtension>
            <ns3:hr>180</ns3:hr>
            <ns3:cad>84</ns3:cad>
          </ns3:TrackPointExtension>
        </extensions>
      </trkpt>
      <trkpt lat="23.1788863800466060638427734375" lon="113.25971215032041072845458984375">
        <ele>16.200000762939453125</ele>
        <time>2018-05-26T12:46:25.000Z</time>
        <extensions>
          <ns3:TrackPointExtension>
            <ns3:hr>183</ns3:hr>
            <ns3:cad>84</ns3:cad>
          </ns3:TrackPointExtension>
        </extensions>
      </trkpt>
      <trkpt lat="23.178912363946437835693359375" lon="113.259730003774166107177734375">
        <ele>15.80000019073486328125</ele>
        <time>2018-05-26T12:46:26.000Z</time>
        <extensions>
          <ns3:TrackPointExtension>
            <ns3:hr>183</ns3:hr>
            <ns3:cad>84</ns3:cad>
          </ns3:TrackPointExtension>
        </extensions>
      </trkpt>
      <trkpt lat="23.17906030453741550445556640625" lon="113.2598421536386013031005859375">
        <ele>12.3999996185302734375</ele>
        <time>2018-05-26T12:46:33.000Z</time>
        <extensions>
          <ns3:TrackPointExtension>
            <ns3:hr>183</ns3:hr>
            <ns3:cad>85</ns3:cad>
          </ns3:TrackPointExtension>
        </extensions>
      </trkpt>
      <trkpt lat="23.17924772389233112335205078125" lon="113.25989303179085254669189453125">
        <ele>9.80000019073486328125</ele>
        <time>2018-05-26T12:46:41.000Z</time>
        <extensions>
          <ns3:TrackPointExtension>
            <ns3:hr>183</ns3:hr>
            <ns3:cad>84</ns3:cad>
          </ns3:TrackPointExtension>
        </extensions>
      </trkpt>
      <trkpt lat="23.1794124282896518707275390625" lon="113.26000769622623920440673828125">
        <ele>12</ele>
        <time>2018-05-26T12:46:49.000Z</time>
        <extensions>
          <ns3:TrackPointExtension>
            <ns3:hr>184</ns3:hr>
            <ns3:cad>84</ns3:cad>
          </ns3:TrackPointExtension>
        </extensions>
      </trkpt>
      <trkpt lat="23.1795740313827991485595703125" lon="113.260103501379489898681640625">
        <ele>20</ele>
        <time>2018-05-26T12:46:56.000Z</time>
        <extensions>
          <ns3:TrackPointExtension>
            <ns3:hr>184</ns3:hr>
            <ns3:cad>84</ns3:cad>
          </ns3:TrackPointExtension>
        </extensions>
      </trkpt>
      <trkpt lat="23.17974477075040340423583984375" lon="113.26020232401788234710693359375">
        <ele>22.3999996185302734375</ele>
        <time>2018-05-26T12:47:04.000Z</time>
        <extensions>
          <ns3:TrackPointExtension>
            <ns3:hr>184</ns3:hr>
            <ns3:cad>84</ns3:cad>
          </ns3:TrackPointExtension>
        </extensions>
      </trkpt>
      <trkpt lat="23.17992699332535266876220703125" lon="113.2602488435804843902587890625">
        <ele>23</ele>
        <time>2018-05-26T12:47:11.000Z</time>
        <extensions>
          <ns3:TrackPointExtension>
            <ns3:hr>184</ns3:hr>
            <ns3:cad>83</ns3:cad>
          </ns3:TrackPointExtension>
        </extensions>
      </trkpt>
      <trkpt lat="23.18009949289262294769287109375" lon="113.26036443002521991729736328125">
        <ele>22</ele>
        <time>2018-05-26T12:47:18.000Z</time>
        <extensions>
          <ns3:TrackPointExtension>
            <ns3:hr>183</ns3:hr>
            <ns3:cad>83</ns3:cad>
          </ns3:TrackPointExtension>
        </extensions>
      </trkpt>
      <trkpt lat="23.180266208946704864501953125" lon="113.26045545749366283416748046875">
        <ele>25.799999237060546875</ele>
        <time>2018-05-26T12:47:25.000Z</time>
        <extensions>
          <ns3:TrackPointExtension>
            <ns3:hr>183</ns3:hr>
            <ns3:cad>81</ns3:cad>
          </ns3:TrackPointExtension>
        </extensions>
      </trkpt>
      <trkpt lat="23.18045237101614475250244140625" lon="113.2605497539043426513671875">
        <ele>30</ele>
        <time>2018-05-26T12:47:33.000Z</time>
        <extensions>
          <ns3:TrackPointExtension>
            <ns3:hr>186</ns3:hr>
            <ns3:cad>83</ns3:cad>
          </ns3:TrackPointExtension>
        </extensions>
      </trkpt>
      <trkpt lat="23.18051288835704326629638671875" lon="113.26057531870901584625244140625">
        <ele>31.3999996185302734375</ele>
        <time>2018-05-26T12:47:35.000Z</time>
        <extensions>
          <ns3:TrackPointExtension>
            <ns3:hr>183</ns3:hr>
            <ns3:cad>85</ns3:cad>
          </ns3:TrackPointExtension>
        </extensions>
      </trkpt>
      <trkpt lat="23.18067868240177631378173828125" lon="113.26063315384089946746826171875">
        <ele>32.40000152587890625</ele>
        <time>2018-05-26T12:47:42.000Z</time>
        <extensions>
          <ns3:TrackPointExtension>
            <ns3:hr>186</ns3:hr>
            <ns3:cad>83</ns3:cad>
          </ns3:TrackPointExtension>
        </extensions>
      </trkpt>
      <trkpt lat="23.180767111480236053466796875" lon="113.2607088424265384674072265625">
        <ele>36</ele>
        <time>2018-05-26T12:47:47.000Z</time>
        <extensions>
          <ns3:TrackPointExtension>
            <ns3:hr>186</ns3:hr>
            <ns3:cad>82</ns3:cad>
          </ns3:TrackPointExtension>
        </extensions>
      </trkpt>
      <trkpt lat="23.1850578077137470245361328125" lon="113.2631741277873516082763671875">
        <ele>-12.6000003814697265625</ele>
        <time>2018-05-26T12:54:57.000Z</time>
        <extensions>
          <ns3:TrackPointExtension>
            <ns3:hr>135</ns3:hr>
            <ns3:cad>0</ns3:cad>
          </ns3:TrackPointExtension>
        </extensions>
      </trkpt>
      <trkpt lat="23.1851543672382831573486328125" lon="113.26316557824611663818359375">
        <ele>-12</ele>
        <time>2018-05-26T12:54:58.000Z</time>
        <extensions>
          <ns3:TrackPointExtension>
            <ns3:hr>135</ns3:hr>
            <ns3:cad>0</ns3:cad>
          </ns3:TrackPointExtension>
        </extensions>
      </trkpt>
      <trkpt lat="23.18513181991875171661376953125" lon="113.263208828866481781005859375">
        <ele>-14.80000019073486328125</ele>
        <time>2018-05-26T12:54:59.000Z</time>
        <extensions>
          <ns3:TrackPointExtension>
            <ns3:hr>135</ns3:hr>
            <ns3:cad>0</ns3:cad>
          </ns3:TrackPointExtension>
        </extensions>
      </trkpt>
      <trkpt lat="23.18510751239955425262451171875" lon="113.26323933899402618408203125">
        <ele>-14.6000003814697265625</ele>
        <time>2018-05-26T12:55:02.000Z</time>
        <extensions>
          <ns3:TrackPointExtension>
            <ns3:hr>137</ns3:hr>
            <ns3:cad>82</ns3:cad>
          </ns3:TrackPointExtension>
        </extensions>
      </trkpt>
      <trkpt lat="23.185089491307735443115234375" lon="113.26326121576130390167236328125">
        <ele>-14.3999996185302734375</ele>
        <time>2018-05-26T12:55:03.000Z</time>
        <extensions>
          <ns3:TrackPointExtension>
            <ns3:hr>143</ns3:hr>
            <ns3:cad>84</ns3:cad>
          </ns3:TrackPointExtension>
        </extensions>
      </trkpt>
      <trkpt lat="23.185079433023929595947265625" lon="113.26328116469085216522216796875">
        <ele>-13.6000003814697265625</ele>
        <time>2018-05-26T12:55:04.000Z</time>
        <extensions>
          <ns3:TrackPointExtension>
            <ns3:hr>148</ns3:hr>
            <ns3:cad>84</ns3:cad>
          </ns3:TrackPointExtension>
        </extensions>
      </trkpt>
      <trkpt lat="23.18505168892443180084228515625" lon="113.26332307420670986175537109375">
        <ele>-11.3999996185302734375</ele>
        <time>2018-05-26T12:55:05.000Z</time>
        <extensions>
          <ns3:TrackPointExtension>
            <ns3:hr>151</ns3:hr>
            <ns3:cad>82</ns3:cad>
          </ns3:TrackPointExtension>
        </extensions>
      </trkpt>
      <trkpt lat="23.18498983047902584075927734375" lon="113.26345751993358135223388671875">
        <ele>-2.400000095367431640625</ele>
        <time>2018-05-26T12:55:13.000Z</time>
        <extensions>
          <ns3:TrackPointExtension>
            <ns3:hr>161</ns3:hr>
            <ns3:cad>84</ns3:cad>
          </ns3:TrackPointExtension>
        </extensions>
      </trkpt>
      <trkpt lat="23.18497859872877597808837890625" lon="113.26347596012055873870849609375">
        <ele>-0.800000011920928955078125</ele>
        <time>2018-05-26T12:55:14.000Z</time>
        <extensions>
          <ns3:TrackPointExtension>
            <ns3:hr>164</ns3:hr>
            <ns3:cad>84</ns3:cad>
          </ns3:TrackPointExtension>
        </extensions>
      </trkpt>
      <trkpt lat="23.184929229319095611572265625" lon="113.26357419602572917938232421875">
        <ele>5.599999904632568359375</ele>
        <time>2018-05-26T12:55:19.000Z</time>
        <extensions>
          <ns3:TrackPointExtension>
            <ns3:hr>160</ns3:hr>
            <ns3:cad>82</ns3:cad>
          </ns3:TrackPointExtension>
        </extensions>
      </trkpt>
      <trkpt lat="23.184910453855991363525390625" lon="113.26361476443707942962646484375">
        <ele>5.400000095367431640625</ele>
        <time>2018-05-26T12:55:21.000Z</time>
        <extensions>
          <ns3:TrackPointExtension>
            <ns3:hr>156</ns3:hr>
            <ns3:cad>82</ns3:cad>
          </ns3:TrackPointExtension>
        </extensions>
      </trkpt>
      <trkpt lat="23.1848791055381298065185546875" lon="113.2636683247983455657958984375">
        <ele>6.19999980926513671875</ele>
        <time>2018-05-26T12:55:24.000Z</time>
        <extensions>
          <ns3:TrackPointExtension>
            <ns3:hr>165</ns3:hr>
            <ns3:cad>83</ns3:cad>
          </ns3:TrackPointExtension>
        </extensions>
      </trkpt>
      <trkpt lat="23.18486980162560939788818359375" lon="113.26368718408048152923583984375">
        <ele>6.400000095367431640625</ele>
        <time>2018-05-26T12:55:25.000Z</time>
        <extensions>
          <ns3:TrackPointExtension>
            <ns3:hr>169</ns3:hr>
            <ns3:cad>83</ns3:cad>
          </ns3:TrackPointExtension>
        </extensions>
      </trkpt>
      <trkpt lat="23.18485203199088573455810546875" lon="113.26372079551219940185546875">
        <ele>6.80000019073486328125</ele>
        <time>2018-05-26T12:55:27.000Z</time>
        <extensions>
          <ns3:TrackPointExtension>
            <ns3:hr>173</ns3:hr>
            <ns3:cad>82</ns3:cad>
          </ns3:TrackPointExtension>
        </extensions>
      </trkpt>
      <trkpt lat="23.18482286296784877777099609375" lon="113.26378248631954193115234375">
        <ele>6.80000019073486328125</ele>
        <time>2018-05-26T12:55:31.000Z</time>
        <extensions>
          <ns3:TrackPointExtension>
            <ns3:hr>170</ns3:hr>
            <ns3:cad>83</ns3:cad>
          </ns3:TrackPointExtension>
        </extensions>
      </trkpt>
      <trkpt lat="23.18482068367302417755126953125" lon="113.26380218379199504852294921875">
        <ele>6.400000095367431640625</ele>
        <time>2018-05-26T12:55:33.000Z</time>
        <extensions>
          <ns3:TrackPointExtension>
            <ns3:hr>175</ns3:hr>
            <ns3:cad>84</ns3:cad>
          </ns3:TrackPointExtension>
        </extensions>
      </trkpt>
      <trkpt lat="23.1848137266933917999267578125" lon="113.2638081349432468414306640625">
        <ele>6.599999904632568359375</ele>
        <time>2018-05-26T12:55:34.000Z</time>
        <extensions>
          <ns3:TrackPointExtension>
            <ns3:hr>174</ns3:hr>
            <ns3:cad>84</ns3:cad>
          </ns3:TrackPointExtension>
        </extensions>
      </trkpt>
      <trkpt lat="23.1847835518419742584228515625" lon="113.26381676830351352691650390625">
        <ele>7.400000095367431640625</ele>
        <time>2018-05-26T12:55:36.000Z</time>
        <extensions>
          <ns3:TrackPointExtension>
            <ns3:hr>171</ns3:hr>
            <ns3:cad>77</ns3:cad>
          </ns3:TrackPointExtension>
        </extensions>
      </trkpt>
      <trkpt lat="23.184690177440643310546875" lon="113.2638678140938282012939453125">
        <ele>10.6000003814697265625</ele>
        <time>2018-05-26T12:55:41.000Z</time>
        <extensions>
          <ns3:TrackPointExtension>
            <ns3:hr>170</ns3:hr>
            <ns3:cad>82</ns3:cad>
          </ns3:TrackPointExtension>
        </extensions>
      </trkpt>
      <trkpt lat="23.18463494069874286651611328125" lon="113.26396797783672809600830078125">
        <ele>8.80000019073486328125</ele>
        <time>2018-05-26T12:55:46.000Z</time>
        <extensions>
          <ns3:TrackPointExtension>
            <ns3:hr>168</ns3:hr>
            <ns3:cad>83</ns3:cad>
          </ns3:TrackPointExtension>
        </extensions>
      </trkpt>
      <trkpt lat="23.184614069759845733642578125" lon="113.2640334405004978179931640625">
        <ele>7.599999904632568359375</ele>
        <time>2018-05-26T12:55:49.000Z</time>
        <extensions>
          <ns3:TrackPointExtension>
            <ns3:hr>173</ns3:hr>
            <ns3:cad>83</ns3:cad>
          </ns3:TrackPointExtension>
        </extensions>
      </trkpt>
      <trkpt lat="23.18454600870609283447265625" lon="113.264190852642059326171875">
        <ele>5</ele>
        <time>2018-05-26T12:55:57.000Z</time>
        <extensions>
          <ns3:TrackPointExtension>
            <ns3:hr>167</ns3:hr>
            <ns3:cad>83</ns3:cad>
          </ns3:TrackPointExtension>
        </extensions>
      </trkpt>
      <trkpt lat="23.1845163367688655853271484375" lon="113.26426528394222259521484375">
        <ele>3.7999999523162841796875</ele>
        <time>2018-05-26T12:56:01.000Z</time>
        <extensions>
          <ns3:TrackPointExtension>
            <ns3:hr>171</ns3:hr>
            <ns3:cad>83</ns3:cad>
          </ns3:TrackPointExtension>
        </extensions>
      </trkpt>
      <trkpt lat="23.18449504673480987548828125" lon="113.2642979733645915985107421875">
        <ele>3.400000095367431640625</ele>
        <time>2018-05-26T12:56:03.000Z</time>
        <extensions>
          <ns3:TrackPointExtension>
            <ns3:hr>175</ns3:hr>
            <ns3:cad>84</ns3:cad>
          </ns3:TrackPointExtension>
        </extensions>
      </trkpt>
      <trkpt lat="23.18441885523498058319091796875" lon="113.26448095031082630157470703125">
        <ele>2.2000000476837158203125</ele>
        <time>2018-05-26T12:56:13.000Z</time>
        <extensions>
          <ns3:TrackPointExtension>
            <ns3:hr>175</ns3:hr>
            <ns3:cad>83</ns3:cad>
          </ns3:TrackPointExtension>
        </extensions>
      </trkpt>
      <trkpt lat="23.18438499234616756439208984375" lon="113.26457449235022068023681640625">
        <ele>2</ele>
        <time>2018-05-26T12:56:18.000Z</time>
        <extensions>
          <ns3:TrackPointExtension>
            <ns3:hr>172</ns3:hr>
            <ns3:cad>84</ns3:cad>
          </ns3:TrackPointExtension>
        </extensions>
      </trkpt>
      <trkpt lat="23.18430192768573760986328125" lon="113.26475101523101329803466796875">
        <ele>1.60000002384185791015625</ele>
        <time>2018-05-26T12:56:27.000Z</time>
        <extensions>
          <ns3:TrackPointExtension>
            <ns3:hr>173</ns3:hr>
            <ns3:cad>83</ns3:cad>
          </ns3:TrackPointExtension>
        </extensions>
      </trkpt>
      <trkpt lat="23.18425306119024753570556640625" lon="113.2649477384984493255615234375">
        <ele>1.39999997615814208984375</ele>
        <time>2018-05-26T12:56:35.000Z</time>
        <extensions>
          <ns3:TrackPointExtension>
            <ns3:hr>171</ns3:hr>
            <ns3:cad>82</ns3:cad>
          </ns3:TrackPointExtension>
        </extensions>
      </trkpt>
      <trkpt lat="23.18414191715419292449951171875" lon="113.26511663384735584259033203125">
        <ele>-2.2000000476837158203125</ele>
        <time>2018-05-26T12:56:43.000Z</time>
        <extensions>
          <ns3:TrackPointExtension>
            <ns3:hr>172</ns3:hr>
            <ns3:cad>82</ns3:cad>
          </ns3:TrackPointExtension>
        </extensions>
      </trkpt>
      <trkpt lat="23.184109143912792205810546875" lon="113.26532165519893169403076171875">
        <ele>-9.80000019073486328125</ele>
        <time>2018-05-26T12:56:52.000Z</time>
        <extensions>
          <ns3:TrackPointExtension>
            <ns3:hr>173</ns3:hr>
            <ns3:cad>81</ns3:cad>
          </ns3:TrackPointExtension>
        </extensions>
      </trkpt>
      <trkpt lat="23.18408877588808536529541015625" lon="113.26548895798623561859130859375">
        <ele>-18.799999237060546875</ele>
        <time>2018-05-26T12:57:00.000Z</time>
        <extensions>
          <ns3:TrackPointExtension>
            <ns3:hr>170</ns3:hr>
            <ns3:cad>80</ns3:cad>
          </ns3:TrackPointExtension>
        </extensions>
      </trkpt>
      <trkpt lat="23.18401434458792209625244140625" lon="113.2656853459775447845458984375">
        <ele>-5.19999980926513671875</ele>
        <time>2018-05-26T12:57:09.000Z</time>
        <extensions>
          <ns3:TrackPointExtension>
            <ns3:hr>171</ns3:hr>
            <ns3:cad>82</ns3:cad>
          </ns3:TrackPointExtension>
        </extensions>
      </trkpt>
      <trkpt lat="23.183918707072734832763671875" lon="113.265863545238971710205078125">
        <ele>0.20000000298023223876953125</ele>
        <time>2018-05-26T12:57:17.000Z</time>
        <extensions>
          <ns3:TrackPointExtension>
            <ns3:hr>171</ns3:hr>
            <ns3:cad>83</ns3:cad>
          </ns3:TrackPointExtension>
        </extensions>
      </trkpt>
      <trkpt lat="23.1838729418814182281494140625" lon="113.26599941588938236236572265625">
        <ele>5</ele>
        <time>2018-05-26T12:57:23.000Z</time>
        <extensions>
          <ns3:TrackPointExtension>
            <ns3:hr>176</ns3:hr>
            <ns3:cad>82</ns3:cad>
          </ns3:TrackPointExtension>
        </extensions>
      </trkpt>
      <trkpt lat="23.18378627300262451171875" lon="113.26620049774646759033203125">
        <ele>11</ele>
        <time>2018-05-26T12:57:31.000Z</time>
        <extensions>
          <ns3:TrackPointExtension>
            <ns3:hr>175</ns3:hr>
            <ns3:cad>82</ns3:cad>
          </ns3:TrackPointExtension>
        </extensions>
      </trkpt>
      <trkpt lat="23.18368443287909030914306640625" lon="113.26639420352876186370849609375">
        <ele>13.6000003814697265625</ele>
        <time>2018-05-26T12:57:39.000Z</time>
        <extensions>
          <ns3:TrackPointExtension>
            <ns3:hr>175</ns3:hr>
            <ns3:cad>82</ns3:cad>
          </ns3:TrackPointExtension>
        </extensions>
      </trkpt>
      <trkpt lat="23.183588124811649322509765625" lon="113.26658447273075580596923828125">
        <ele>15</ele>
        <time>2018-05-26T12:57:47.000Z</time>
        <extensions>
          <ns3:TrackPointExtension>
            <ns3:hr>177</ns3:hr>
            <ns3:cad>82</ns3:cad>
          </ns3:TrackPointExtension>
        </extensions>
      </trkpt>
      <trkpt lat="23.18350573070347309112548828125" lon="113.26673065312206745147705078125">
        <ele>13.3999996185302734375</ele>
        <time>2018-05-26T12:57:53.000Z</time>
        <extensions>
          <ns3:TrackPointExtension>
            <ns3:hr>181</ns3:hr>
            <ns3:cad>81</ns3:cad>
          </ns3:TrackPointExtension>
        </extensions>
      </trkpt>
      <trkpt lat="23.1834129430353641510009765625" lon="113.26690332032740116119384765625">
        <ele>11</ele>
        <time>2018-05-26T12:58:00.000Z</time>
        <extensions>
          <ns3:TrackPointExtension>
            <ns3:hr>180</ns3:hr>
            <ns3:cad>81</ns3:cad>
          </ns3:TrackPointExtension>
        </extensions>
      </trkpt>
      <trkpt lat="23.1833750568330287933349609375" lon="113.26698445715010166168212890625">
        <ele>9.19999980926513671875</ele>
        <time>2018-05-26T12:58:03.000Z</time>
        <extensions>
          <ns3:TrackPointExtension>
            <ns3:hr>183</ns3:hr>
            <ns3:cad>81</ns3:cad>
          </ns3:TrackPointExtension>
        </extensions>
      </trkpt>
      <trkpt lat="23.1832795031368732452392578125" lon="113.2671488262712955474853515625">
        <ele>7</ele>
        <time>2018-05-26T12:58:09.000Z</time>
        <extensions>
          <ns3:TrackPointExtension>
            <ns3:hr>183</ns3:hr>
            <ns3:cad>81</ns3:cad>
          </ns3:TrackPointExtension>
        </extensions>
      </trkpt>
      <trkpt lat="23.18310926668345928192138671875" lon="113.26724379323422908782958984375">
        <ele>6.599999904632568359375</ele>
        <time>2018-05-26T12:58:17.000Z</time>
        <extensions>
          <ns3:TrackPointExtension>
            <ns3:hr>184</ns3:hr>
            <ns3:cad>82</ns3:cad>
          </ns3:TrackPointExtension>
        </extensions>
      </trkpt>
      <trkpt lat="23.1829137168824672698974609375" lon="113.26720297336578369140625">
        <ele>6.80000019073486328125</ele>
        <time>2018-05-26T12:58:25.000Z</time>
        <extensions>
          <ns3:TrackPointExtension>
            <ns3:hr>186</ns3:hr>
            <ns3:cad>83</ns3:cad>
          </ns3:TrackPointExtension>
        </extensions>
      </trkpt>
      <trkpt lat="23.1827350147068500518798828125" lon="113.2670914940536022186279296875">
        <ele>6.80000019073486328125</ele>
        <time>2018-05-26T12:58:33.000Z</time>
        <extensions>
          <ns3:TrackPointExtension>
            <ns3:hr>185</ns3:hr>
            <ns3:cad>84</ns3:cad>
          </ns3:TrackPointExtension>
        </extensions>
      </trkpt>
      <trkpt lat="23.18255254067480564117431640625" lon="113.26698881573975086212158203125">
        <ele>5.80000019073486328125</ele>
        <time>2018-05-26T12:58:41.000Z</time>
        <extensions>
          <ns3:TrackPointExtension>
            <ns3:hr>183</ns3:hr>
            <ns3:cad>85</ns3:cad>
          </ns3:TrackPointExtension>
        </extensions>
      </trkpt>
      <trkpt lat="23.1823990680277347564697265625" lon="113.26687029562890529632568359375">
        <ele>5.19999980926513671875</ele>
        <time>2018-05-26T12:58:49.000Z</time>
        <extensions>
          <ns3:TrackPointExtension>
            <ns3:hr>183</ns3:hr>
            <ns3:cad>85</ns3:cad>
          </ns3:TrackPointExtension>
        </extensions>
      </trkpt>
      <trkpt lat="23.1822478584945201873779296875" lon="113.26675169169902801513671875">
        <ele>7.80000019073486328125</ele>
        <time>2018-05-26T12:58:58.000Z</time>
        <extensions>
          <ns3:TrackPointExtension>
            <ns3:hr>185</ns3:hr>
            <ns3:cad>83</ns3:cad>
          </ns3:TrackPointExtension>
        </extensions>
      </trkpt>
      <trkpt lat="23.1820617802441120147705078125" lon="113.26665722765028476715087890625">
        <ele>10.3999996185302734375</ele>
        <time>2018-05-26T12:59:05.000Z</time>
        <extensions>
          <ns3:TrackPointExtension>
            <ns3:hr>185</ns3:hr>
            <ns3:cad>83</ns3:cad>
          </ns3:TrackPointExtension>
        </extensions>
      </trkpt>
      <trkpt lat="23.18187343887984752655029296875" lon="113.26660391874611377716064453125">
        <ele>11.80000019073486328125</ele>
        <time>2018-05-26T12:59:12.000Z</time>
        <extensions>
          <ns3:TrackPointExtension>
            <ns3:hr>185</ns3:hr>
            <ns3:cad>84</ns3:cad>
          </ns3:TrackPointExtension>
        </extensions>
      </trkpt>
      <trkpt lat="23.1817184574902057647705078125" lon="113.26649914495646953582763671875">
        <ele>11.6000003814697265625</ele>
        <time>2018-05-26T12:59:19.000Z</time>
        <extensions>
          <ns3:TrackPointExtension>
            <ns3:hr>185</ns3:hr>
            <ns3:cad>83</ns3:cad>
          </ns3:TrackPointExtension>
        </extensions>
      </trkpt>
      <trkpt lat="23.1815498135983943939208984375" lon="113.2664001546800136566162109375">
        <ele>11.19999980926513671875</ele>
        <time>2018-05-26T12:59:27.000Z</time>
        <extensions>
          <ns3:TrackPointExtension>
            <ns3:hr>184</ns3:hr>
            <ns3:cad>82</ns3:cad>
          </ns3:TrackPointExtension>
        </extensions>
      </trkpt>
      <trkpt lat="23.1813784874975681304931640625" lon="113.26630367897450923919677734375">
        <ele>10</ele>
        <time>2018-05-26T12:59:34.000Z</time>
        <extensions>
          <ns3:TrackPointExtension>
            <ns3:hr>185</ns3:hr>
            <ns3:cad>83</ns3:cad>
          </ns3:TrackPointExtension>
        </extensions>
      </trkpt>
      <trkpt lat="23.18120053969323635101318359375" lon="113.266201503574848175048828125">
        <ele>9.80000019073486328125</ele>
        <time>2018-05-26T12:59:42.000Z</time>
        <extensions>
          <ns3:TrackPointExtension>
            <ns3:hr>184</ns3:hr>
            <ns3:cad>83</ns3:cad>
          </ns3:TrackPointExtension>
        </extensions>
      </trkpt>
      <trkpt lat="23.1811344064772129058837890625" lon="113.26617979444563388824462890625">
        <ele>10</ele>
        <time>2018-05-26T12:59:45.000Z</time>
        <extensions>
          <ns3:TrackPointExtension>
            <ns3:hr>187</ns3:hr>
            <ns3:cad>82</ns3:cad>
          </ns3:TrackPointExtension>
        </extensions>
      </trkpt>
      <trkpt lat="23.1809795089066028594970703125" lon="113.2660729251801967620849609375">
        <ele>10.6000003814697265625</ele>
        <time>2018-05-26T12:59:53.000Z</time>
        <extensions>
          <ns3:TrackPointExtension>
            <ns3:hr>185</ns3:hr>
            <ns3:cad>82</ns3:cad>
          </ns3:TrackPointExtension>
        </extensions>
      </trkpt>
      <trkpt lat="23.180820085108280181884765625" lon="113.26594292186200618743896484375">
        <ele>12.19999980926513671875</ele>
        <time>2018-05-26T13:00:02.000Z</time>
        <extensions>
          <ns3:TrackPointExtension>
            <ns3:hr>185</ns3:hr>
            <ns3:cad>82</ns3:cad>
          </ns3:TrackPointExtension>
        </extensions>
      </trkpt>
      <trkpt lat="23.180643729865550994873046875" lon="113.2658352144062519073486328125">
        <ele>13</ele>
        <time>2018-05-26T13:00:10.000Z</time>
        <extensions>
          <ns3:TrackPointExtension>
            <ns3:hr>185</ns3:hr>
            <ns3:cad>82</ns3:cad>
          </ns3:TrackPointExtension>
        </extensions>
      </trkpt>
      <trkpt lat="23.18047315813601016998291015625" lon="113.265735469758510589599609375">
        <ele>13.19999980926513671875</ele>
        <time>2018-05-26T13:00:17.000Z</time>
        <extensions>
          <ns3:TrackPointExtension>
            <ns3:hr>186</ns3:hr>
            <ns3:cad>82</ns3:cad>
          </ns3:TrackPointExtension>
        </extensions>
      </trkpt>
      <trkpt lat="23.1803059391677379608154296875" lon="113.265617787837982177734375">
        <ele>13.6000003814697265625</ele>
        <time>2018-05-26T13:00:24.000Z</time>
        <extensions>
          <ns3:TrackPointExtension>
            <ns3:hr>186</ns3:hr>
            <ns3:cad>82</ns3:cad>
          </ns3:TrackPointExtension>
        </extensions>
      </trkpt>
      <trkpt lat="23.18014542572200298309326171875" lon="113.26551117002964019775390625">
        <ele>14</ele>
        <time>2018-05-26T13:00:31.000Z</time>
        <extensions>
          <ns3:TrackPointExtension>
            <ns3:hr>187</ns3:hr>
            <ns3:cad>83</ns3:cad>
          </ns3:TrackPointExtension>
        </extensions>
      </trkpt>
      <trkpt lat="23.18011944182217121124267578125" lon="113.2654915563762187957763671875">
        <ele>14.19999980926513671875</ele>
        <time>2018-05-26T13:00:33.000Z</time>
        <extensions>
          <ns3:TrackPointExtension>
            <ns3:hr>188</ns3:hr>
            <ns3:cad>83</ns3:cad>
          </ns3:TrackPointExtension>
        </extensions>
      </trkpt>
      <trkpt lat="23.17903398536145687103271484375" lon="113.26467792503535747528076171875">
        <ele>17.799999237060546875</ele>
        <time>2018-05-26T13:02:43.000Z</time>
        <extensions>
          <ns3:TrackPointExtension>
            <ns3:hr>146</ns3:hr>
            <ns3:cad>0</ns3:cad>
          </ns3:TrackPointExtension>
        </extensions>
      </trkpt>
      <trkpt lat="23.179012946784496307373046875" lon="113.2646523602306842803955078125">
        <ele>18</ele>
        <time>2018-05-26T13:02:44.000Z</time>
        <extensions>
          <ns3:TrackPointExtension>
            <ns3:hr>146</ns3:hr>
            <ns3:cad>0</ns3:cad>
          </ns3:TrackPointExtension>
        </extensions>
      </trkpt>
      <trkpt lat="23.17890322767198085784912109375" lon="113.26449058949947357177734375">
        <ele>14.3999996185302734375</ele>
        <time>2018-05-26T13:02:59.000Z</time>
        <extensions>
          <ns3:TrackPointExtension>
            <ns3:hr>145</ns3:hr>
            <ns3:cad>58</ns3:cad>
          </ns3:TrackPointExtension>
        </extensions>
      </trkpt>
      <trkpt lat="23.1788746453821659088134765625" lon="113.26444557867944240570068359375">
        <ele>13.6000003814697265625</ele>
        <time>2018-05-26T13:03:04.000Z</time>
        <extensions>
          <ns3:TrackPointExtension>
            <ns3:hr>142</ns3:hr>
            <ns3:cad>0</ns3:cad>
          </ns3:TrackPointExtension>
        </extensions>
      </trkpt>
      <trkpt lat="23.1788722984492778778076171875" lon="113.26444205828011035919189453125">
        <ele>13.3999996185302734375</ele>
        <time>2018-05-26T13:03:05.000Z</time>
        <extensions>
          <ns3:TrackPointExtension>
            <ns3:hr>139</ns3:hr>
            <ns3:cad>0</ns3:cad>
          </ns3:TrackPointExtension>
        </extensions>
      </trkpt>
      <trkpt lat="23.17887154407799243927001953125" lon="113.26443552039563655853271484375">
        <ele>13.3999996185302734375</ele>
        <time>2018-05-26T13:03:06.000Z</time>
        <extensions>
          <ns3:TrackPointExtension>
            <ns3:hr>139</ns3:hr>
            <ns3:cad>0</ns3:cad>
          </ns3:TrackPointExtension>
        </extensions>
      </trkpt>
      <trkpt lat="23.17887120880186557769775390625" lon="113.26443267054855823516845703125">
        <ele>13.3999996185302734375</ele>
        <time>2018-05-26T13:03:10.000Z</time>
        <extensions>
          <ns3:TrackPointExtension>
            <ns3:hr>140</ns3:hr>
            <ns3:cad>0</ns3:cad>
          </ns3:TrackPointExtension>
        </extensions>
      </trkpt>
      <trkpt lat="23.17521686665713787078857421875" lon="113.26233954168856143951416015625">
        <ele>4.80000019073486328125</ele>
        <time>2018-05-26T13:11:13.000Z</time>
        <extensions>
          <ns3:TrackPointExtension>
            <ns3:hr>124</ns3:hr>
            <ns3:cad>0</ns3:cad>
          </ns3:TrackPointExtension>
        </extensions>
      </trkpt>
      <trkpt lat="23.175098598003387451171875" lon="113.26230525970458984375">
        <ele>6.400000095367431640625</ele>
        <time>2018-05-26T13:11:26.000Z</time>
        <extensions>
          <ns3:TrackPointExtension>
            <ns3:hr>124</ns3:hr>
            <ns3:cad>0</ns3:cad>
          </ns3:TrackPointExtension>
        </extensions>
      </trkpt>
      <trkpt lat="23.175071775913238525390625" lon="113.2622742466628551483154296875">
        <ele>6.400000095367431640625</ele>
        <time>2018-05-26T13:11:29.000Z</time>
        <extensions>
          <ns3:TrackPointExtension>
            <ns3:hr>124</ns3:hr>
            <ns3:cad>0</ns3:cad>
          </ns3:TrackPointExtension>
        </extensions>
      </trkpt>
      <trkpt lat="23.1750434450805187225341796875" lon="113.2622501067817211151123046875">
        <ele>6.599999904632568359375</ele>
        <time>2018-05-26T13:11:32.000Z</time>
        <extensions>
          <ns3:TrackPointExtension>
            <ns3:hr>124</ns3:hr>
            <ns3:cad>62</ns3:cad>
          </ns3:TrackPointExtension>
        </extensions>
      </trkpt>
      <trkpt lat="23.1749797426164150238037109375" lon="113.26220794580876827239990234375">
        <ele>7.19999980926513671875</ele>
        <time>2018-05-26T13:11:39.000Z</time>
        <extensions>
          <ns3:TrackPointExtension>
            <ns3:hr>125</ns3:hr>
            <ns3:cad>0</ns3:cad>
          </ns3:TrackPointExtension>
        </extensions>
      </trkpt>
      <trkpt lat="23.17496054805815219879150390625" lon="113.262189924716949462890625">
        <ele>7.400000095367431640625</ele>
        <time>2018-05-26T13:11:41.000Z</time>
        <extensions>
          <ns3:TrackPointExtension>
            <ns3:hr>125</ns3:hr>
            <ns3:cad>0</ns3:cad>
          </ns3:TrackPointExtension>
        </extensions>
      </trkpt>
      <trkpt lat="23.1749321334064006805419921875" lon="113.2621538825333118438720703125">
        <ele>7.400000095367431640625</ele>
        <time>2018-05-26T13:11:45.000Z</time>
        <extensions>
          <ns3:TrackPointExtension>
            <ns3:hr>125</ns3:hr>
            <ns3:cad>61</ns3:cad>
          </ns3:TrackPointExtension>
        </extensions>
      </trkpt>
    </trkseg>
  </trk>
</gpx>
