<gpx xmlns:ns3="http://www.garmin.com/xmlschemas/TrackPointExtension/v1" xmlns="http://www.topografix.com/GPX/1/1" xmlns:xsi="http://www.w3.org/2001/XMLSchema-instance" xmlns:ns2="http://www.garmin.com/xmlschemas/GpxExtensions/v3" creator="Garmin Connect" version="1.1" xsi:schemaLocation="http://www.topografix.com/GPX/1/1 http://www.topografix.com/GPX/11.xsd">
  <extensions>
<distance>2270.96</distance>
<average_hr>131.0</average_hr>
<average_speed>1.3519999980926514</average_speed>
<start_time>2018-05-15T13:33:25+00:00</start_time>
<end_time>2018-05-15T14:01:25.036000+00:00</end_time>
<moving_time>1669.0</moving_time>
<elapsed_time>2626.154</elapsed_time>
</extensions>
<metadata>
    <link href="connect.garmin.com">
      <text>Garmin Connect</text>
    </link>
    <time>2018-05-15T13:33:25.000Z</time>
  </metadata>
  <trk>
    <name>广州市 跑步</name>
    <type>running</type>
    <trkseg>
      <trkpt lat="23.1744319014251232147216796875" lon="113.25501325540244579315185546875">
        <ele>6.80000019073486328125</ele>
        <time>2018-05-15T13:33:25.000Z</time>
        <extensions>
          <ns3:TrackPointExtension>
            <ns3:hr>145</ns3:hr>
            <ns3:cad>61</ns3:cad>
          </ns3:TrackPointExtension>
        </extensions>
      </trkpt>
      <trkpt lat="23.17442460916936397552490234375" lon="113.25502163730561733245849609375">
        <ele>6.80000019073486328125</ele>
        <time>2018-05-15T13:33:26.000Z</time>
        <extensions>
          <ns3:TrackPointExtension>
            <ns3:hr>144</ns3:hr>
            <ns3:cad>64</ns3:cad>
          </ns3:TrackPointExtension>
        </extensions>
      </trkpt>
      <trkpt lat="23.17441840656101703643798828125" lon="113.2550265826284885406494140625">
        <ele>6.80000019073486328125</ele>
        <time>2018-05-15T13:33:27.000Z</time>
        <extensions>
          <ns3:TrackPointExtension>
            <ns3:hr>144</ns3:hr>
            <ns3:cad>64</ns3:cad>
          </ns3:TrackPointExtension>
        </extensions>
      </trkpt>
      <trkpt lat="23.17437549121677875518798828125" lon="113.25503706000745296478271484375">
        <ele>7</ele>
        <time>2018-05-15T13:33:32.000Z</time>
        <extensions>
          <ns3:TrackPointExtension>
            <ns3:hr>140</ns3:hr>
            <ns3:cad>64</ns3:cad>
          </ns3:TrackPointExtension>
        </extensions>
      </trkpt>
      <trkpt lat="23.1743437238037586212158203125" lon="113.25504343025386333465576171875">
        <ele>7</ele>
        <time>2018-05-15T13:33:35.000Z</time>
        <extensions>
          <ns3:TrackPointExtension>
            <ns3:hr>137</ns3:hr>
            <ns3:cad>64</ns3:cad>
          </ns3:TrackPointExtension>
        </extensions>
      </trkpt>
      <trkpt lat="23.17417097277939319610595703125" lon="113.25510025955736637115478515625">
        <ele>7.400000095367431640625</ele>
        <time>2018-05-15T13:33:54.000Z</time>
        <extensions>
          <ns3:TrackPointExtension>
            <ns3:hr>134</ns3:hr>
            <ns3:cad>61</ns3:cad>
          </ns3:TrackPointExtension>
        </extensions>
      </trkpt>
      <trkpt lat="23.17412956617772579193115234375" lon="113.2551261596381664276123046875">
        <ele>7.400000095367431640625</ele>
        <time>2018-05-15T13:33:58.000Z</time>
        <extensions>
          <ns3:TrackPointExtension>
            <ns3:hr>131</ns3:hr>
            <ns3:cad>61</ns3:cad>
          </ns3:TrackPointExtension>
        </extensions>
      </trkpt>
      <trkpt lat="23.17397014237940311431884765625" lon="113.25513278134167194366455078125">
        <ele>8.6000003814697265625</ele>
        <time>2018-05-15T13:34:16.000Z</time>
        <extensions>
          <ns3:TrackPointExtension>
            <ns3:hr>130</ns3:hr>
            <ns3:cad>61</ns3:cad>
          </ns3:TrackPointExtension>
        </extensions>
      </trkpt>
      <trkpt lat="23.17388498224318027496337890625" lon="113.2551362179219722747802734375">
        <ele>9.6000003814697265625</ele>
        <time>2018-05-15T13:34:22.000Z</time>
        <extensions>
          <ns3:TrackPointExtension>
            <ns3:hr>127</ns3:hr>
            <ns3:cad>61</ns3:cad>
          </ns3:TrackPointExtension>
        </extensions>
      </trkpt>
      <trkpt lat="23.1737144105136394500732421875" lon="113.2552223838865756988525390625">
        <ele>10.3999996185302734375</ele>
        <time>2018-05-15T13:34:38.000Z</time>
        <extensions>
          <ns3:TrackPointExtension>
            <ns3:hr>125</ns3:hr>
            <ns3:cad>61</ns3:cad>
          </ns3:TrackPointExtension>
        </extensions>
      </trkpt>
      <trkpt lat="23.1735308468341827392578125" lon="113.2552579231560230255126953125">
        <ele>11</ele>
        <time>2018-05-15T13:34:53.000Z</time>
        <extensions>
          <ns3:TrackPointExtension>
            <ns3:hr>125</ns3:hr>
            <ns3:cad>61</ns3:cad>
          </ns3:TrackPointExtension>
        </extensions>
      </trkpt>
      <trkpt lat="23.17334367893636226654052734375" lon="113.25525197200477123260498046875">
        <ele>9</ele>
        <time>2018-05-15T13:35:07.000Z</time>
        <extensions>
          <ns3:TrackPointExtension>
            <ns3:hr>127</ns3:hr>
            <ns3:cad>61</ns3:cad>
          </ns3:TrackPointExtension>
        </extensions>
      </trkpt>
      <trkpt lat="23.173163048923015594482421875" lon="113.2552421651780605316162109375">
        <ele>6.80000019073486328125</ele>
        <time>2018-05-15T13:35:16.000Z</time>
        <extensions>
          <ns3:TrackPointExtension>
            <ns3:hr>127</ns3:hr>
            <ns3:cad>82</ns3:cad>
          </ns3:TrackPointExtension>
        </extensions>
      </trkpt>
      <trkpt lat="23.1731380708515644073486328125" lon="113.2552443444728851318359375">
        <ele>6.400000095367431640625</ele>
        <time>2018-05-15T13:35:17.000Z</time>
        <extensions>
          <ns3:TrackPointExtension>
            <ns3:hr>131</ns3:hr>
            <ns3:cad>83</ns3:cad>
          </ns3:TrackPointExtension>
        </extensions>
      </trkpt>
      <trkpt lat="23.1731164455413818359375" lon="113.255246020853519439697265625">
        <ele>6.19999980926513671875</ele>
        <time>2018-05-15T13:35:18.000Z</time>
        <extensions>
          <ns3:TrackPointExtension>
            <ns3:hr>134</ns3:hr>
            <ns3:cad>83</ns3:cad>
          </ns3:TrackPointExtension>
        </extensions>
      </trkpt>
      <trkpt lat="23.17309699952602386474609375" lon="113.25524895451962947845458984375">
        <ele>6</ele>
        <time>2018-05-15T13:35:19.000Z</time>
        <extensions>
          <ns3:TrackPointExtension>
            <ns3:hr>134</ns3:hr>
            <ns3:cad>83</ns3:cad>
          </ns3:TrackPointExtension>
        </extensions>
      </trkpt>
      <trkpt lat="23.17307780496776103973388671875" lon="113.2552518881857395172119140625">
        <ele>5.80000019073486328125</ele>
        <time>2018-05-15T13:35:20.000Z</time>
        <extensions>
          <ns3:TrackPointExtension>
            <ns3:hr>138</ns3:hr>
            <ns3:cad>83</ns3:cad>
          </ns3:TrackPointExtension>
        </extensions>
      </trkpt>
      <trkpt lat="23.17295526154339313507080078125" lon="113.2552564144134521484375">
        <ele>4.599999904632568359375</ele>
        <time>2018-05-15T13:35:26.000Z</time>
        <extensions>
          <ns3:TrackPointExtension>
            <ns3:hr>141</ns3:hr>
            <ns3:cad>82</ns3:cad>
          </ns3:TrackPointExtension>
        </extensions>
      </trkpt>
      <trkpt lat="23.1727709434926509857177734375" lon="113.25528667308390140533447265625">
        <ele>6.19999980926513671875</ele>
        <time>2018-05-15T13:35:34.000Z</time>
        <extensions>
          <ns3:TrackPointExtension>
            <ns3:hr>143</ns3:hr>
            <ns3:cad>84</ns3:cad>
          </ns3:TrackPointExtension>
        </extensions>
      </trkpt>
      <trkpt lat="23.17268318496644496917724609375" lon="113.25528315268456935882568359375">
        <ele>7.400000095367431640625</ele>
        <time>2018-05-15T13:35:37.000Z</time>
        <extensions>
          <ns3:TrackPointExtension>
            <ns3:hr>147</ns3:hr>
            <ns3:cad>84</ns3:cad>
          </ns3:TrackPointExtension>
        </extensions>
      </trkpt>
      <trkpt lat="23.1724819354712963104248046875" lon="113.2552696578204631805419921875">
        <ele>8.3999996185302734375</ele>
        <time>2018-05-15T13:35:46.000Z</time>
        <extensions>
          <ns3:TrackPointExtension>
            <ns3:hr>147</ns3:hr>
            <ns3:cad>84</ns3:cad>
          </ns3:TrackPointExtension>
        </extensions>
      </trkpt>
      <trkpt lat="23.17243575118482112884521484375" lon="113.2552740164101123809814453125">
        <ele>8.6000003814697265625</ele>
        <time>2018-05-15T13:35:48.000Z</time>
        <extensions>
          <ns3:TrackPointExtension>
            <ns3:hr>151</ns3:hr>
            <ns3:cad>84</ns3:cad>
          </ns3:TrackPointExtension>
        </extensions>
      </trkpt>
      <trkpt lat="23.17223559133708477020263671875" lon="113.25530176050961017608642578125">
        <ele>6.80000019073486328125</ele>
        <time>2018-05-15T13:35:56.000Z</time>
        <extensions>
          <ns3:TrackPointExtension>
            <ns3:hr>151</ns3:hr>
            <ns3:cad>84</ns3:cad>
          </ns3:TrackPointExtension>
        </extensions>
      </trkpt>
      <trkpt lat="23.17212897352874279022216796875" lon="113.2553155906498432159423828125">
        <ele>5.599999904632568359375</ele>
        <time>2018-05-15T13:36:00.000Z</time>
        <extensions>
          <ns3:TrackPointExtension>
            <ns3:hr>155</ns3:hr>
            <ns3:cad>83</ns3:cad>
          </ns3:TrackPointExtension>
        </extensions>
      </trkpt>
      <trkpt lat="23.1719548813998699188232421875" lon="113.25534719042479991912841796875">
        <ele>4.19999980926513671875</ele>
        <time>2018-05-15T13:36:07.000Z</time>
        <extensions>
          <ns3:TrackPointExtension>
            <ns3:hr>157</ns3:hr>
            <ns3:cad>85</ns3:cad>
          </ns3:TrackPointExtension>
        </extensions>
      </trkpt>
      <trkpt lat="23.171911798417568206787109375" lon="113.2554025948047637939453125">
        <ele>3.7999999523162841796875</ele>
        <time>2018-05-15T13:36:10.000Z</time>
        <extensions>
          <ns3:TrackPointExtension>
            <ns3:hr>160</ns3:hr>
            <ns3:cad>84</ns3:cad>
          </ns3:TrackPointExtension>
        </extensions>
      </trkpt>
      <trkpt lat="23.17190115340054035186767578125" lon="113.25542262755334377288818359375">
        <ele>3.599999904632568359375</ele>
        <time>2018-05-15T13:36:11.000Z</time>
        <extensions>
          <ns3:TrackPointExtension>
            <ns3:hr>163</ns3:hr>
            <ns3:cad>83</ns3:cad>
          </ns3:TrackPointExtension>
        </extensions>
      </trkpt>
      <trkpt lat="23.17189411260187625885009765625" lon="113.25544215738773345947265625">
        <ele>3.400000095367431640625</ele>
        <time>2018-05-15T13:36:12.000Z</time>
        <extensions>
          <ns3:TrackPointExtension>
            <ns3:hr>163</ns3:hr>
            <ns3:cad>83</ns3:cad>
          </ns3:TrackPointExtension>
        </extensions>
      </trkpt>
      <trkpt lat="23.171884976327419281005859375" lon="113.25546227395534515380859375">
        <ele>3.400000095367431640625</ele>
        <time>2018-05-15T13:36:13.000Z</time>
        <extensions>
          <ns3:TrackPointExtension>
            <ns3:hr>159</ns3:hr>
            <ns3:cad>83</ns3:cad>
          </ns3:TrackPointExtension>
        </extensions>
      </trkpt>
      <trkpt lat="23.171875588595867156982421875" lon="113.255505524575710296630859375">
        <ele>3</ele>
        <time>2018-05-15T13:36:15.000Z</time>
        <extensions>
          <ns3:TrackPointExtension>
            <ns3:hr>155</ns3:hr>
            <ns3:cad>83</ns3:cad>
          </ns3:TrackPointExtension>
        </extensions>
      </trkpt>
      <trkpt lat="23.1718724034726619720458984375" lon="113.25552740134298801422119140625">
        <ele>2.599999904632568359375</ele>
        <time>2018-05-15T13:36:16.000Z</time>
        <extensions>
          <ns3:TrackPointExtension>
            <ns3:hr>151</ns3:hr>
            <ns3:cad>83</ns3:cad>
          </ns3:TrackPointExtension>
        </extensions>
      </trkpt>
      <trkpt lat="23.171870894730091094970703125" lon="113.25554751791059970855712890625">
        <ele>2.2000000476837158203125</ele>
        <time>2018-05-15T13:36:17.000Z</time>
        <extensions>
          <ns3:TrackPointExtension>
            <ns3:hr>151</ns3:hr>
            <ns3:cad>83</ns3:cad>
          </ns3:TrackPointExtension>
        </extensions>
      </trkpt>
      <trkpt lat="23.17186628468334674835205078125" lon="113.2555630244314670562744140625">
        <ele>1.7999999523162841796875</ele>
        <time>2018-05-15T13:36:18.000Z</time>
        <extensions>
          <ns3:TrackPointExtension>
            <ns3:hr>156</ns3:hr>
            <ns3:cad>83</ns3:cad>
          </ns3:TrackPointExtension>
        </extensions>
      </trkpt>
      <trkpt lat="23.1718640215694904327392578125" lon="113.25557551346719264984130859375">
        <ele>1.60000002384185791015625</ele>
        <time>2018-05-15T13:36:19.000Z</time>
        <extensions>
          <ns3:TrackPointExtension>
            <ns3:hr>156</ns3:hr>
            <ns3:cad>83</ns3:cad>
          </ns3:TrackPointExtension>
        </extensions>
      </trkpt>
      <trkpt lat="23.171862848103046417236328125" lon="113.2555831409990787506103515625">
        <ele>1.39999997615814208984375</ele>
        <time>2018-05-15T13:36:20.000Z</time>
        <extensions>
          <ns3:TrackPointExtension>
            <ns3:hr>158</ns3:hr>
            <ns3:cad>83</ns3:cad>
          </ns3:TrackPointExtension>
        </extensions>
      </trkpt>
      <trkpt lat="23.17186041735112667083740234375" lon="113.255604766309261322021484375">
        <ele>1</ele>
        <time>2018-05-15T13:36:22.000Z</time>
        <extensions>
          <ns3:TrackPointExtension>
            <ns3:hr>157</ns3:hr>
            <ns3:cad>83</ns3:cad>
          </ns3:TrackPointExtension>
        </extensions>
      </trkpt>
      <trkpt lat="23.1718663685023784637451171875" lon="113.255645669996738433837890625">
        <ele>0.4000000059604644775390625</ele>
        <time>2018-05-15T13:36:26.000Z</time>
        <extensions>
          <ns3:TrackPointExtension>
            <ns3:hr>157</ns3:hr>
            <ns3:cad>83</ns3:cad>
          </ns3:TrackPointExtension>
        </extensions>
      </trkpt>
      <trkpt lat="23.1718623451888561248779296875" lon="113.25567282736301422119140625">
        <ele>-0.20000000298023223876953125</ele>
        <time>2018-05-15T13:36:28.000Z</time>
        <extensions>
          <ns3:TrackPointExtension>
            <ns3:hr>156</ns3:hr>
            <ns3:cad>83</ns3:cad>
          </ns3:TrackPointExtension>
        </extensions>
      </trkpt>
      <trkpt lat="23.17191406153142452239990234375" lon="113.25586452148854732513427734375">
        <ele>-3.400000095367431640625</ele>
        <time>2018-05-15T13:36:42.000Z</time>
        <extensions>
          <ns3:TrackPointExtension>
            <ns3:hr>155</ns3:hr>
            <ns3:cad>61</ns3:cad>
          </ns3:TrackPointExtension>
        </extensions>
      </trkpt>
      <trkpt lat="23.17194155417382717132568359375" lon="113.25590894557535648345947265625">
        <ele>-4</ele>
        <time>2018-05-15T13:36:47.000Z</time>
        <extensions>
          <ns3:TrackPointExtension>
            <ns3:hr>152</ns3:hr>
            <ns3:cad>61</ns3:cad>
          </ns3:TrackPointExtension>
        </extensions>
      </trkpt>
      <trkpt lat="23.17198530770838260650634765625" lon="113.2559512741863727569580078125">
        <ele>-4</ele>
        <time>2018-05-15T13:36:52.000Z</time>
        <extensions>
          <ns3:TrackPointExtension>
            <ns3:hr>149</ns3:hr>
            <ns3:cad>61</ns3:cad>
          </ns3:TrackPointExtension>
        </extensions>
      </trkpt>
      <trkpt lat="23.17204557359218597412109375" lon="113.25603987090289592742919921875">
        <ele>-5</ele>
        <time>2018-05-15T13:37:00.000Z</time>
        <extensions>
          <ns3:TrackPointExtension>
            <ns3:hr>145</ns3:hr>
            <ns3:cad>61</ns3:cad>
          </ns3:TrackPointExtension>
        </extensions>
      </trkpt>
      <trkpt lat="23.1720889918506145477294921875" lon="113.2560806907713413238525390625">
        <ele>-6.19999980926513671875</ele>
        <time>2018-05-15T13:37:05.000Z</time>
        <extensions>
          <ns3:TrackPointExtension>
            <ns3:hr>142</ns3:hr>
            <ns3:cad>61</ns3:cad>
          </ns3:TrackPointExtension>
        </extensions>
      </trkpt>
      <trkpt lat="23.17211489193141460418701171875" lon="113.25610323809087276458740234375">
        <ele>-6.80000019073486328125</ele>
        <time>2018-05-15T13:37:08.000Z</time>
        <extensions>
          <ns3:TrackPointExtension>
            <ns3:hr>139</ns3:hr>
            <ns3:cad>61</ns3:cad>
          </ns3:TrackPointExtension>
        </extensions>
      </trkpt>
      <trkpt lat="23.172163255512714385986328125" lon="113.256144225597381591796875">
        <ele>-7</ele>
        <time>2018-05-15T13:37:13.000Z</time>
        <extensions>
          <ns3:TrackPointExtension>
            <ns3:hr>136</ns3:hr>
            <ns3:cad>61</ns3:cad>
          </ns3:TrackPointExtension>
        </extensions>
      </trkpt>
      <trkpt lat="23.1723142974078655242919921875" lon="113.2562677748501300811767578125">
        <ele>-6</ele>
        <time>2018-05-15T13:37:28.000Z</time>
        <extensions>
          <ns3:TrackPointExtension>
            <ns3:hr>135</ns3:hr>
            <ns3:cad>61</ns3:cad>
          </ns3:TrackPointExtension>
        </extensions>
      </trkpt>
      <trkpt lat="23.17247363738715648651123046875" lon="113.2563762366771697998046875">
        <ele>-3</ele>
        <time>2018-05-15T13:37:42.000Z</time>
        <extensions>
          <ns3:TrackPointExtension>
            <ns3:hr>133</ns3:hr>
            <ns3:cad>61</ns3:cad>
          </ns3:TrackPointExtension>
        </extensions>
      </trkpt>
      <trkpt lat="23.17263104952871799468994140625" lon="113.256495930254459381103515625">
        <ele>-0.20000000298023223876953125</ele>
        <time>2018-05-15T13:37:50.000Z</time>
        <extensions>
          <ns3:TrackPointExtension>
            <ns3:hr>132</ns3:hr>
            <ns3:cad>81</ns3:cad>
          </ns3:TrackPointExtension>
        </extensions>
      </trkpt>
      <trkpt lat="23.17265703342854976654052734375" lon="113.25650976039469242095947265625">
        <ele>0.4000000059604644775390625</ele>
        <time>2018-05-15T13:37:51.000Z</time>
        <extensions>
          <ns3:TrackPointExtension>
            <ns3:hr>135</ns3:hr>
            <ns3:cad>82</ns3:cad>
          </ns3:TrackPointExtension>
        </extensions>
      </trkpt>
      <trkpt lat="23.17270833067595958709716796875" lon="113.2565400190651416778564453125">
        <ele>0.60000002384185791015625</ele>
        <time>2018-05-15T13:37:53.000Z</time>
        <extensions>
          <ns3:TrackPointExtension>
            <ns3:hr>140</ns3:hr>
            <ns3:cad>82</ns3:cad>
          </ns3:TrackPointExtension>
        </extensions>
      </trkpt>
      <trkpt lat="23.17277505062520503997802734375" lon="113.25657463632524013519287109375">
        <ele>-0.60000002384185791015625</ele>
        <time>2018-05-15T13:37:56.000Z</time>
        <extensions>
          <ns3:TrackPointExtension>
            <ns3:hr>143</ns3:hr>
            <ns3:cad>82</ns3:cad>
          </ns3:TrackPointExtension>
        </extensions>
      </trkpt>
      <trkpt lat="23.17283674143254756927490234375" lon="113.2566164620220661163330078125">
        <ele>-1.7999999523162841796875</ele>
        <time>2018-05-15T13:37:59.000Z</time>
        <extensions>
          <ns3:TrackPointExtension>
            <ns3:hr>146</ns3:hr>
            <ns3:cad>81</ns3:cad>
          </ns3:TrackPointExtension>
        </extensions>
      </trkpt>
      <trkpt lat="23.17301745526492595672607421875" lon="113.25670975260436534881591796875">
        <ele>-5.400000095367431640625</ele>
        <time>2018-05-15T13:38:07.000Z</time>
        <extensions>
          <ns3:TrackPointExtension>
            <ns3:hr>149</ns3:hr>
            <ns3:cad>82</ns3:cad>
          </ns3:TrackPointExtension>
        </extensions>
      </trkpt>
      <trkpt lat="23.173172771930694580078125" lon="113.256814777851104736328125">
        <ele>-9.80000019073486328125</ele>
        <time>2018-05-15T13:38:15.000Z</time>
        <extensions>
          <ns3:TrackPointExtension>
            <ns3:hr>153</ns3:hr>
            <ns3:cad>81</ns3:cad>
          </ns3:TrackPointExtension>
        </extensions>
      </trkpt>
      <trkpt lat="23.17319146357476711273193359375" lon="113.25682458467781543731689453125">
        <ele>-10.3999996185302734375</ele>
        <time>2018-05-15T13:38:16.000Z</time>
        <extensions>
          <ns3:TrackPointExtension>
            <ns3:hr>156</ns3:hr>
            <ns3:cad>81</ns3:cad>
          </ns3:TrackPointExtension>
        </extensions>
      </trkpt>
      <trkpt lat="23.173365890979766845703125" lon="113.25693371705710887908935546875">
        <ele>-7.19999980926513671875</ele>
        <time>2018-05-15T13:38:24.000Z</time>
        <extensions>
          <ns3:TrackPointExtension>
            <ns3:hr>161</ns3:hr>
            <ns3:cad>83</ns3:cad>
          </ns3:TrackPointExtension>
        </extensions>
      </trkpt>
      <trkpt lat="23.17341475747525691986083984375" lon="113.25695693492889404296875">
        <ele>-5.400000095367431640625</ele>
        <time>2018-05-15T13:38:26.000Z</time>
        <extensions>
          <ns3:TrackPointExtension>
            <ns3:hr>157</ns3:hr>
            <ns3:cad>83</ns3:cad>
          </ns3:TrackPointExtension>
        </extensions>
      </trkpt>
      <trkpt lat="23.173591531813144683837890625" lon="113.25703136622905731201171875">
        <ele>-0.20000000298023223876953125</ele>
        <time>2018-05-15T13:38:34.000Z</time>
        <extensions>
          <ns3:TrackPointExtension>
            <ns3:hr>156</ns3:hr>
            <ns3:cad>82</ns3:cad>
          </ns3:TrackPointExtension>
        </extensions>
      </trkpt>
      <trkpt lat="23.173613660037517547607421875" lon="113.25704402290284633636474609375">
        <ele>0.4000000059604644775390625</ele>
        <time>2018-05-15T13:38:35.000Z</time>
        <extensions>
          <ns3:TrackPointExtension>
            <ns3:hr>159</ns3:hr>
            <ns3:cad>82</ns3:cad>
          </ns3:TrackPointExtension>
        </extensions>
      </trkpt>
      <trkpt lat="23.17365624010562896728515625" lon="113.25707084499299526214599609375">
        <ele>1.39999997615814208984375</ele>
        <time>2018-05-15T13:38:37.000Z</time>
        <extensions>
          <ns3:TrackPointExtension>
            <ns3:hr>166</ns3:hr>
            <ns3:cad>82</ns3:cad>
          </ns3:TrackPointExtension>
        </extensions>
      </trkpt>
      <trkpt lat="23.17382278852164745330810546875" lon="113.25710378587245941162109375">
        <ele>4.400000095367431640625</ele>
        <time>2018-05-15T13:38:45.000Z</time>
        <extensions>
          <ns3:TrackPointExtension>
            <ns3:hr>163</ns3:hr>
            <ns3:cad>84</ns3:cad>
          </ns3:TrackPointExtension>
        </extensions>
      </trkpt>
      <trkpt lat="23.17385162226855754852294921875" lon="113.25711560435593128204345703125">
        <ele>4.400000095367431640625</ele>
        <time>2018-05-15T13:38:48.000Z</time>
        <extensions>
          <ns3:TrackPointExtension>
            <ns3:hr>160</ns3:hr>
            <ns3:cad>84</ns3:cad>
          </ns3:TrackPointExtension>
        </extensions>
      </trkpt>
      <trkpt lat="23.1740309111773967742919921875" lon="113.2571755349636077880859375">
        <ele>3.400000095367431640625</ele>
        <time>2018-05-15T13:39:05.000Z</time>
        <extensions>
          <ns3:TrackPointExtension>
            <ns3:hr>162</ns3:hr>
            <ns3:cad>61</ns3:cad>
          </ns3:TrackPointExtension>
        </extensions>
      </trkpt>
      <trkpt lat="23.174117915332317352294921875" lon="113.25721333734691143035888671875">
        <ele>2.7999999523162841796875</ele>
        <time>2018-05-15T13:39:12.000Z</time>
        <extensions>
          <ns3:TrackPointExtension>
            <ns3:hr>159</ns3:hr>
            <ns3:cad>59</ns3:cad>
          </ns3:TrackPointExtension>
        </extensions>
      </trkpt>
      <trkpt lat="23.17416988313198089599609375" lon="113.25723119080066680908203125">
        <ele>2.400000095367431640625</ele>
        <time>2018-05-15T13:39:17.000Z</time>
        <extensions>
          <ns3:TrackPointExtension>
            <ns3:hr>156</ns3:hr>
            <ns3:cad>61</ns3:cad>
          </ns3:TrackPointExtension>
        </extensions>
      </trkpt>
      <trkpt lat="23.17420500330626964569091796875" lon="113.25724451802670955657958984375">
        <ele>2.400000095367431640625</ele>
        <time>2018-05-15T13:39:22.000Z</time>
        <extensions>
          <ns3:TrackPointExtension>
            <ns3:hr>153</ns3:hr>
            <ns3:cad>61</ns3:cad>
          </ns3:TrackPointExtension>
        </extensions>
      </trkpt>
      <trkpt lat="23.17422511987388134002685546875" lon="113.2572444342076778411865234375">
        <ele>2.400000095367431640625</ele>
        <time>2018-05-15T13:39:24.000Z</time>
        <extensions>
          <ns3:TrackPointExtension>
            <ns3:hr>152</ns3:hr>
            <ns3:cad>61</ns3:cad>
          </ns3:TrackPointExtension>
        </extensions>
      </trkpt>
      <trkpt lat="23.1742629222571849822998046875" lon="113.2572451047599315643310546875">
        <ele>2.400000095367431640625</ele>
        <time>2018-05-15T13:39:27.000Z</time>
        <extensions>
          <ns3:TrackPointExtension>
            <ns3:hr>149</ns3:hr>
            <ns3:cad>57</ns3:cad>
          </ns3:TrackPointExtension>
        </extensions>
      </trkpt>
      <trkpt lat="23.1742749921977519989013671875" lon="113.25724602676928043365478515625">
        <ele>2.400000095367431640625</ele>
        <time>2018-05-15T13:39:28.000Z</time>
        <extensions>
          <ns3:TrackPointExtension>
            <ns3:hr>141</ns3:hr>
            <ns3:cad>57</ns3:cad>
          </ns3:TrackPointExtension>
        </extensions>
      </trkpt>
      <trkpt lat="23.17428513430058956146240234375" lon="113.25724720023572444915771484375">
        <ele>2.400000095367431640625</ele>
        <time>2018-05-15T13:39:29.000Z</time>
        <extensions>
          <ns3:TrackPointExtension>
            <ns3:hr>141</ns3:hr>
            <ns3:cad>57</ns3:cad>
          </ns3:TrackPointExtension>
        </extensions>
      </trkpt>
      <trkpt lat="23.17429334856569766998291015625" lon="113.25725088827311992645263671875">
        <ele>2.400000095367431640625</ele>
        <time>2018-05-15T13:39:30.000Z</time>
        <extensions>
          <ns3:TrackPointExtension>
            <ns3:hr>141</ns3:hr>
            <ns3:cad>57</ns3:cad>
          </ns3:TrackPointExtension>
        </extensions>
      </trkpt>
      <trkpt lat="23.17434900440275669097900390625" lon="113.25727234594523906707763671875">
        <ele>2.2000000476837158203125</ele>
        <time>2018-05-15T13:39:35.000Z</time>
        <extensions>
          <ns3:TrackPointExtension>
            <ns3:hr>138</ns3:hr>
            <ns3:cad>61</ns3:cad>
          </ns3:TrackPointExtension>
        </extensions>
      </trkpt>
      <trkpt lat="23.17445461638271808624267578125" lon="113.25732707977294921875">
        <ele>1.7999999523162841796875</ele>
        <time>2018-05-15T13:39:43.000Z</time>
        <extensions>
          <ns3:TrackPointExtension>
            <ns3:hr>135</ns3:hr>
            <ns3:cad>61</ns3:cad>
          </ns3:TrackPointExtension>
        </extensions>
      </trkpt>
      <trkpt lat="23.174525611102581024169921875" lon="113.2573785446584224700927734375">
        <ele>1.39999997615814208984375</ele>
        <time>2018-05-15T13:39:50.000Z</time>
        <extensions>
          <ns3:TrackPointExtension>
            <ns3:hr>135</ns3:hr>
            <ns3:cad>61</ns3:cad>
          </ns3:TrackPointExtension>
        </extensions>
      </trkpt>
      <trkpt lat="23.174677155911922454833984375" lon="113.257440738379955291748046875">
        <ele>1</ele>
        <time>2018-05-15T13:40:03.000Z</time>
        <extensions>
          <ns3:TrackPointExtension>
            <ns3:hr>132</ns3:hr>
            <ns3:cad>58</ns3:cad>
          </ns3:TrackPointExtension>
        </extensions>
      </trkpt>
      <trkpt lat="23.1748486496508121490478515625" lon="113.257522545754909515380859375">
        <ele>0.4000000059604644775390625</ele>
        <time>2018-05-15T13:40:18.000Z</time>
        <extensions>
          <ns3:TrackPointExtension>
            <ns3:hr>131</ns3:hr>
            <ns3:cad>57</ns3:cad>
          </ns3:TrackPointExtension>
        </extensions>
      </trkpt>
      <trkpt lat="23.17502324469387531280517578125" lon="113.2575659640133380889892578125">
        <ele>2</ele>
        <time>2018-05-15T13:40:33.000Z</time>
        <extensions>
          <ns3:TrackPointExtension>
            <ns3:hr>129</ns3:hr>
            <ns3:cad>60</ns3:cad>
          </ns3:TrackPointExtension>
        </extensions>
      </trkpt>
      <trkpt lat="23.175035230815410614013671875" lon="113.2575689814984798431396484375">
        <ele>2.2000000476837158203125</ele>
        <time>2018-05-15T13:40:34.000Z</time>
        <extensions>
          <ns3:TrackPointExtension>
            <ns3:hr>126</ns3:hr>
            <ns3:cad>60</ns3:cad>
          </ns3:TrackPointExtension>
        </extensions>
      </trkpt>
      <trkpt lat="23.1751964986324310302734375" lon="113.25767283327877521514892578125">
        <ele>4.400000095367431640625</ele>
        <time>2018-05-15T13:40:49.000Z</time>
        <extensions>
          <ns3:TrackPointExtension>
            <ns3:hr>127</ns3:hr>
            <ns3:cad>60</ns3:cad>
          </ns3:TrackPointExtension>
        </extensions>
      </trkpt>
      <trkpt lat="23.175364471971988677978515625" lon="113.25775531120598316192626953125">
        <ele>8.6000003814697265625</ele>
        <time>2018-05-15T13:41:02.000Z</time>
        <extensions>
          <ns3:TrackPointExtension>
            <ns3:hr>129</ns3:hr>
            <ns3:cad>64</ns3:cad>
          </ns3:TrackPointExtension>
        </extensions>
      </trkpt>
      <trkpt lat="23.1754870153963565826416015625" lon="113.2577758468687534332275390625">
        <ele>11.6000003814697265625</ele>
        <time>2018-05-15T13:41:09.000Z</time>
        <extensions>
          <ns3:TrackPointExtension>
            <ns3:hr>126</ns3:hr>
            <ns3:cad>64</ns3:cad>
          </ns3:TrackPointExtension>
        </extensions>
      </trkpt>
      <trkpt lat="23.17565825767815113067626953125" lon="113.25784139335155487060546875">
        <ele>14.3999996185302734375</ele>
        <time>2018-05-15T13:41:22.000Z</time>
        <extensions>
          <ns3:TrackPointExtension>
            <ns3:hr>131</ns3:hr>
            <ns3:cad>61</ns3:cad>
          </ns3:TrackPointExtension>
        </extensions>
      </trkpt>
      <trkpt lat="23.17567803896963596343994140625" lon="113.25785991735756397247314453125">
        <ele>15</ele>
        <time>2018-05-15T13:41:24.000Z</time>
        <extensions>
          <ns3:TrackPointExtension>
            <ns3:hr>135</ns3:hr>
            <ns3:cad>61</ns3:cad>
          </ns3:TrackPointExtension>
        </extensions>
      </trkpt>
      <trkpt lat="23.175844252109527587890625" lon="113.257951028645038604736328125">
        <ele>19.6000003814697265625</ele>
        <time>2018-05-15T13:41:39.000Z</time>
        <extensions>
          <ns3:TrackPointExtension>
            <ns3:hr>134</ns3:hr>
            <ns3:cad>61</ns3:cad>
          </ns3:TrackPointExtension>
        </extensions>
      </trkpt>
      <trkpt lat="23.17592279054224491119384765625" lon="113.25800509192049503326416015625">
        <ele>22.3999996185302734375</ele>
        <time>2018-05-15T13:41:47.000Z</time>
        <extensions>
          <ns3:TrackPointExtension>
            <ns3:hr>129</ns3:hr>
            <ns3:cad>61</ns3:cad>
          </ns3:TrackPointExtension>
        </extensions>
      </trkpt>
      <trkpt lat="23.17598297260701656341552734375" lon="113.25804264284670352935791015625">
        <ele>24.3999996185302734375</ele>
        <time>2018-05-15T13:41:52.000Z</time>
        <extensions>
          <ns3:TrackPointExtension>
            <ns3:hr>134</ns3:hr>
            <ns3:cad>61</ns3:cad>
          </ns3:TrackPointExtension>
        </extensions>
      </trkpt>
      <trkpt lat="23.1760791130363941192626953125" lon="113.25811422429978847503662109375">
        <ele>26.6000003814697265625</ele>
        <time>2018-05-15T13:41:59.000Z</time>
        <extensions>
          <ns3:TrackPointExtension>
            <ns3:hr>131</ns3:hr>
            <ns3:cad>63</ns3:cad>
          </ns3:TrackPointExtension>
        </extensions>
      </trkpt>
      <trkpt lat="23.17621171474456787109375" lon="113.2582036592066287994384765625">
        <ele>28</ele>
        <time>2018-05-15T13:42:09.000Z</time>
        <extensions>
          <ns3:TrackPointExtension>
            <ns3:hr>139</ns3:hr>
            <ns3:cad>77</ns3:cad>
          </ns3:TrackPointExtension>
        </extensions>
      </trkpt>
      <trkpt lat="23.1762226112186908721923828125" lon="113.25820743106305599212646484375">
        <ele>28</ele>
        <time>2018-05-15T13:42:10.000Z</time>
        <extensions>
          <ns3:TrackPointExtension>
            <ns3:hr>139</ns3:hr>
            <ns3:cad>77</ns3:cad>
          </ns3:TrackPointExtension>
        </extensions>
      </trkpt>
      <trkpt lat="23.17623543553054332733154296875" lon="113.25820944271981716156005859375">
        <ele>28.200000762939453125</ele>
        <time>2018-05-15T13:42:11.000Z</time>
        <extensions>
          <ns3:TrackPointExtension>
            <ns3:hr>134</ns3:hr>
            <ns3:cad>77</ns3:cad>
          </ns3:TrackPointExtension>
        </extensions>
      </trkpt>
      <trkpt lat="23.17629561759531497955322265625" lon="113.25821598060429096221923828125">
        <ele>27.6000003814697265625</ele>
        <time>2018-05-15T13:42:15.000Z</time>
        <extensions>
          <ns3:TrackPointExtension>
            <ns3:hr>138</ns3:hr>
            <ns3:cad>61</ns3:cad>
          </ns3:TrackPointExtension>
        </extensions>
      </trkpt>
      <trkpt lat="23.176309280097484588623046875" lon="113.2582180760800838470458984375">
        <ele>27.200000762939453125</ele>
        <time>2018-05-15T13:42:16.000Z</time>
        <extensions>
          <ns3:TrackPointExtension>
            <ns3:hr>141</ns3:hr>
            <ns3:cad>61</ns3:cad>
          </ns3:TrackPointExtension>
        </extensions>
      </trkpt>
      <trkpt lat="23.17635982297360897064208984375" lon="113.25822620652616024017333984375">
        <ele>25.200000762939453125</ele>
        <time>2018-05-15T13:42:20.000Z</time>
        <extensions>
          <ns3:TrackPointExtension>
            <ns3:hr>145</ns3:hr>
            <ns3:cad>61</ns3:cad>
          </ns3:TrackPointExtension>
        </extensions>
      </trkpt>
      <trkpt lat="23.17637038417160511016845703125" lon="113.25822972692549228668212890625">
        <ele>24.799999237060546875</ele>
        <time>2018-05-15T13:42:21.000Z</time>
        <extensions>
          <ns3:TrackPointExtension>
            <ns3:hr>149</ns3:hr>
            <ns3:cad>61</ns3:cad>
          </ns3:TrackPointExtension>
        </extensions>
      </trkpt>
      <trkpt lat="23.1763818673789501190185546875" lon="113.2582328282296657562255859375">
        <ele>24.3999996185302734375</ele>
        <time>2018-05-15T13:42:22.000Z</time>
        <extensions>
          <ns3:TrackPointExtension>
            <ns3:hr>148</ns3:hr>
            <ns3:cad>61</ns3:cad>
          </ns3:TrackPointExtension>
        </extensions>
      </trkpt>
      <trkpt lat="23.1763927638530731201171875" lon="113.25823626480996608734130859375">
        <ele>24</ele>
        <time>2018-05-15T13:42:23.000Z</time>
        <extensions>
          <ns3:TrackPointExtension>
            <ns3:hr>151</ns3:hr>
            <ns3:cad>61</ns3:cad>
          </ns3:TrackPointExtension>
        </extensions>
      </trkpt>
      <trkpt lat="23.176402486860752105712890625" lon="113.2582391984760761260986328125">
        <ele>23.799999237060546875</ele>
        <time>2018-05-15T13:42:24.000Z</time>
        <extensions>
          <ns3:TrackPointExtension>
            <ns3:hr>156</ns3:hr>
            <ns3:cad>61</ns3:cad>
          </ns3:TrackPointExtension>
        </extensions>
      </trkpt>
      <trkpt lat="23.17641397006809711456298828125" lon="113.25824498198926448822021484375">
        <ele>23.3999996185302734375</ele>
        <time>2018-05-15T13:42:25.000Z</time>
        <extensions>
          <ns3:TrackPointExtension>
            <ns3:hr>156</ns3:hr>
            <ns3:cad>61</ns3:cad>
          </ns3:TrackPointExtension>
        </extensions>
      </trkpt>
      <trkpt lat="23.1764257885515689849853515625" lon="113.25825043022632598876953125">
        <ele>23</ele>
        <time>2018-05-15T13:42:26.000Z</time>
        <extensions>
          <ns3:TrackPointExtension>
            <ns3:hr>161</ns3:hr>
            <ns3:cad>61</ns3:cad>
          </ns3:TrackPointExtension>
        </extensions>
      </trkpt>
      <trkpt lat="23.1764365173876285552978515625" lon="113.25825671665370464324951171875">
        <ele>22.799999237060546875</ele>
        <time>2018-05-15T13:42:27.000Z</time>
        <extensions>
          <ns3:TrackPointExtension>
            <ns3:hr>161</ns3:hr>
            <ns3:cad>61</ns3:cad>
          </ns3:TrackPointExtension>
        </extensions>
      </trkpt>
      <trkpt lat="23.17644699476659297943115234375" lon="113.2582650147378444671630859375">
        <ele>22.6000003814697265625</ele>
        <time>2018-05-15T13:42:28.000Z</time>
        <extensions>
          <ns3:TrackPointExtension>
            <ns3:hr>152</ns3:hr>
            <ns3:cad>61</ns3:cad>
          </ns3:TrackPointExtension>
        </extensions>
      </trkpt>
      <trkpt lat="23.176457472145557403564453125" lon="113.258272893726825714111328125">
        <ele>22.3999996185302734375</ele>
        <time>2018-05-15T13:42:29.000Z</time>
        <extensions>
          <ns3:TrackPointExtension>
            <ns3:hr>152</ns3:hr>
            <ns3:cad>61</ns3:cad>
          </ns3:TrackPointExtension>
        </extensions>
      </trkpt>
      <trkpt lat="23.1764670275151729583740234375" lon="113.25827867724001407623291015625">
        <ele>22.200000762939453125</ele>
        <time>2018-05-15T13:42:30.000Z</time>
        <extensions>
          <ns3:TrackPointExtension>
            <ns3:hr>148</ns3:hr>
            <ns3:cad>61</ns3:cad>
          </ns3:TrackPointExtension>
        </extensions>
      </trkpt>
      <trkpt lat="23.17658722400665283203125" lon="113.2583431340754032135009765625">
        <ele>19</ele>
        <time>2018-05-15T13:42:40.000Z</time>
        <extensions>
          <ns3:TrackPointExtension>
            <ns3:hr>145</ns3:hr>
            <ns3:cad>61</ns3:cad>
          </ns3:TrackPointExtension>
        </extensions>
      </trkpt>
      <trkpt lat="23.1766152195632457733154296875" lon="113.2583552040159702301025390625">
        <ele>18.6000003814697265625</ele>
        <time>2018-05-15T13:42:43.000Z</time>
        <extensions>
          <ns3:TrackPointExtension>
            <ns3:hr>145</ns3:hr>
            <ns3:cad>61</ns3:cad>
          </ns3:TrackPointExtension>
        </extensions>
      </trkpt>
      <trkpt lat="23.176663331687450408935546875" lon="113.25838043354451656341552734375">
        <ele>18.200000762939453125</ele>
        <time>2018-05-15T13:42:49.000Z</time>
        <extensions>
          <ns3:TrackPointExtension>
            <ns3:hr>145</ns3:hr>
            <ns3:cad>0</ns3:cad>
          </ns3:TrackPointExtension>
        </extensions>
      </trkpt>
      <trkpt lat="23.1766770780086517333984375" lon="113.2583907432854175567626953125">
        <ele>18</ele>
        <time>2018-05-15T13:42:52.000Z</time>
        <extensions>
          <ns3:TrackPointExtension>
            <ns3:hr>144</ns3:hr>
            <ns3:cad>0</ns3:cad>
          </ns3:TrackPointExtension>
        </extensions>
      </trkpt>
      <trkpt lat="23.176685459911823272705078125" lon="113.25840239413082599639892578125">
        <ele>18.200000762939453125</ele>
        <time>2018-05-15T13:42:56.000Z</time>
        <extensions>
          <ns3:TrackPointExtension>
            <ns3:hr>143</ns3:hr>
            <ns3:cad>0</ns3:cad>
          </ns3:TrackPointExtension>
        </extensions>
      </trkpt>
      <trkpt lat="23.1780575774610042572021484375" lon="113.2597425766289234161376953125">
        <ele>-0.20000000298023223876953125</ele>
        <time>2018-05-15T13:46:57.000Z</time>
        <extensions>
          <ns3:TrackPointExtension>
            <ns3:hr>115</ns3:hr>
            <ns3:cad>59</ns3:cad>
          </ns3:TrackPointExtension>
        </extensions>
      </trkpt>
      <trkpt lat="23.178057409822940826416015625" lon="113.25975171290338039398193359375">
        <ele>-0.4000000059604644775390625</ele>
        <time>2018-05-15T13:46:58.000Z</time>
        <extensions>
          <ns3:TrackPointExtension>
            <ns3:hr>115</ns3:hr>
            <ns3:cad>59</ns3:cad>
          </ns3:TrackPointExtension>
        </extensions>
      </trkpt>
      <trkpt lat="23.178103007376194000244140625" lon="113.25985095463693141937255859375">
        <ele>-2.7999999523162841796875</ele>
        <time>2018-05-15T13:47:10.000Z</time>
        <extensions>
          <ns3:TrackPointExtension>
            <ns3:hr>117</ns3:hr>
            <ns3:cad>61</ns3:cad>
          </ns3:TrackPointExtension>
        </extensions>
      </trkpt>
      <trkpt lat="23.17815338261425495147705078125" lon="113.259888254106044769287109375">
        <ele>-4.400000095367431640625</ele>
        <time>2018-05-15T13:47:16.000Z</time>
        <extensions>
          <ns3:TrackPointExtension>
            <ns3:hr>117</ns3:hr>
            <ns3:cad>58</ns3:cad>
          </ns3:TrackPointExtension>
        </extensions>
      </trkpt>
      <trkpt lat="23.17832864820957183837890625" lon="113.25995765626430511474609375">
        <ele>-5.19999980926513671875</ele>
        <time>2018-05-15T13:47:33.000Z</time>
        <extensions>
          <ns3:TrackPointExtension>
            <ns3:hr>118</ns3:hr>
            <ns3:cad>57</ns3:cad>
          </ns3:TrackPointExtension>
        </extensions>
      </trkpt>
      <trkpt lat="23.17849704064428806304931640625" lon="113.26005362905561923980712890625">
        <ele>-0.4000000059604644775390625</ele>
        <time>2018-05-15T13:47:49.000Z</time>
        <extensions>
          <ns3:TrackPointExtension>
            <ns3:hr>120</ns3:hr>
            <ns3:cad>58</ns3:cad>
          </ns3:TrackPointExtension>
        </extensions>
      </trkpt>
      <trkpt lat="23.1785879842936992645263671875" lon="113.26009704731404781341552734375">
        <ele>3.599999904632568359375</ele>
        <time>2018-05-15T13:47:57.000Z</time>
        <extensions>
          <ns3:TrackPointExtension>
            <ns3:hr>117</ns3:hr>
            <ns3:cad>58</ns3:cad>
          </ns3:TrackPointExtension>
        </extensions>
      </trkpt>
      <trkpt lat="23.17870927043259143829345703125" lon="113.260162174701690673828125">
        <ele>9.6000003814697265625</ele>
        <time>2018-05-15T13:48:09.000Z</time>
        <extensions>
          <ns3:TrackPointExtension>
            <ns3:hr>120</ns3:hr>
            <ns3:cad>61</ns3:cad>
          </ns3:TrackPointExtension>
        </extensions>
      </trkpt>
      <trkpt lat="23.1788598932325839996337890625" lon="113.26026015914976596832275390625">
        <ele>13.80000019073486328125</ele>
        <time>2018-05-15T13:48:25.000Z</time>
        <extensions>
          <ns3:TrackPointExtension>
            <ns3:hr>124</ns3:hr>
            <ns3:cad>61</ns3:cad>
          </ns3:TrackPointExtension>
        </extensions>
      </trkpt>
      <trkpt lat="23.17888277582824230194091796875" lon="113.26027105562388896942138671875">
        <ele>13.80000019073486328125</ele>
        <time>2018-05-15T13:48:27.000Z</time>
        <extensions>
          <ns3:TrackPointExtension>
            <ns3:hr>129</ns3:hr>
            <ns3:cad>61</ns3:cad>
          </ns3:TrackPointExtension>
        </extensions>
      </trkpt>
      <trkpt lat="23.1788925826549530029296875" lon="113.26027692295610904693603515625">
        <ele>13.80000019073486328125</ele>
        <time>2018-05-15T13:48:28.000Z</time>
        <extensions>
          <ns3:TrackPointExtension>
            <ns3:hr>137</ns3:hr>
            <ns3:cad>61</ns3:cad>
          </ns3:TrackPointExtension>
        </extensions>
      </trkpt>
      <trkpt lat="23.17890272475779056549072265625" lon="113.260283209383487701416015625">
        <ele>13.80000019073486328125</ele>
        <time>2018-05-15T13:48:29.000Z</time>
        <extensions>
          <ns3:TrackPointExtension>
            <ns3:hr>137</ns3:hr>
            <ns3:cad>61</ns3:cad>
          </ns3:TrackPointExtension>
        </extensions>
      </trkpt>
      <trkpt lat="23.17893256433308124542236328125" lon="113.26029804535210132598876953125">
        <ele>13.80000019073486328125</ele>
        <time>2018-05-15T13:48:32.000Z</time>
        <extensions>
          <ns3:TrackPointExtension>
            <ns3:hr>134</ns3:hr>
            <ns3:cad>61</ns3:cad>
          </ns3:TrackPointExtension>
        </extensions>
      </trkpt>
      <trkpt lat="23.1789782457053661346435546875" lon="113.26032218523323535919189453125">
        <ele>13.6000003814697265625</ele>
        <time>2018-05-15T13:48:37.000Z</time>
        <extensions>
          <ns3:TrackPointExtension>
            <ns3:hr>131</ns3:hr>
            <ns3:cad>61</ns3:cad>
          </ns3:TrackPointExtension>
        </extensions>
      </trkpt>
      <trkpt lat="23.17914948798716068267822265625" lon="113.260414637625217437744140625">
        <ele>13.3999996185302734375</ele>
        <time>2018-05-15T13:48:54.000Z</time>
        <extensions>
          <ns3:TrackPointExtension>
            <ns3:hr>129</ns3:hr>
            <ns3:cad>61</ns3:cad>
          </ns3:TrackPointExtension>
        </extensions>
      </trkpt>
      <trkpt lat="23.17924596369266510009765625" lon="113.26047942973673343658447265625">
        <ele>12.80000019073486328125</ele>
        <time>2018-05-15T13:49:03.000Z</time>
        <extensions>
          <ns3:TrackPointExtension>
            <ns3:hr>126</ns3:hr>
            <ns3:cad>61</ns3:cad>
          </ns3:TrackPointExtension>
        </extensions>
      </trkpt>
      <trkpt lat="23.17941033281385898590087890625" lon="113.26056844554841518402099609375">
        <ele>14</ele>
        <time>2018-05-15T13:49:18.000Z</time>
        <extensions>
          <ns3:TrackPointExtension>
            <ns3:hr>125</ns3:hr>
            <ns3:cad>60</ns3:cad>
          </ns3:TrackPointExtension>
        </extensions>
      </trkpt>
      <trkpt lat="23.17957528866827487945556640625" lon="113.2606515102088451385498046875">
        <ele>21.3999996185302734375</ele>
        <time>2018-05-15T13:49:34.000Z</time>
        <extensions>
          <ns3:TrackPointExtension>
            <ns3:hr>125</ns3:hr>
            <ns3:cad>61</ns3:cad>
          </ns3:TrackPointExtension>
        </extensions>
      </trkpt>
      <trkpt lat="23.1797121651470661163330078125" lon="113.26078067533671855926513671875">
        <ele>26.6000003814697265625</ele>
        <time>2018-05-15T13:49:49.000Z</time>
        <extensions>
          <ns3:TrackPointExtension>
            <ns3:hr>125</ns3:hr>
            <ns3:cad>61</ns3:cad>
          </ns3:TrackPointExtension>
        </extensions>
      </trkpt>
      <trkpt lat="23.17990176379680633544921875" lon="113.2607940025627613067626953125">
        <ele>40</ele>
        <time>2018-05-15T13:50:06.000Z</time>
        <extensions>
          <ns3:TrackPointExtension>
            <ns3:hr>123</ns3:hr>
            <ns3:cad>61</ns3:cad>
          </ns3:TrackPointExtension>
        </extensions>
      </trkpt>
      <trkpt lat="23.18006898276507854461669921875" lon="113.2608942501246929168701171875">
        <ele>29.200000762939453125</ele>
        <time>2018-05-15T13:50:21.000Z</time>
        <extensions>
          <ns3:TrackPointExtension>
            <ns3:hr>124</ns3:hr>
            <ns3:cad>61</ns3:cad>
          </ns3:TrackPointExtension>
        </extensions>
      </trkpt>
      <trkpt lat="23.18022069521248340606689453125" lon="113.2609923183917999267578125">
        <ele>21</ele>
        <time>2018-05-15T13:50:39.000Z</time>
        <extensions>
          <ns3:TrackPointExtension>
            <ns3:hr>123</ns3:hr>
            <ns3:cad>61</ns3:cad>
          </ns3:TrackPointExtension>
        </extensions>
      </trkpt>
      <trkpt lat="23.180221281945705413818359375" lon="113.26099106110632419586181640625">
        <ele>21</ele>
        <time>2018-05-15T13:50:41.000Z</time>
        <extensions>
          <ns3:TrackPointExtension>
            <ns3:hr>123</ns3:hr>
            <ns3:cad>0</ns3:cad>
          </ns3:TrackPointExtension>
        </extensions>
      </trkpt>
      <trkpt lat="23.180221617221832275390625" lon="113.2609951682388782501220703125">
        <ele>21</ele>
        <time>2018-05-15T13:50:44.000Z</time>
        <extensions>
          <ns3:TrackPointExtension>
            <ns3:hr>121</ns3:hr>
            <ns3:cad>61</ns3:cad>
          </ns3:TrackPointExtension>
        </extensions>
      </trkpt>
      <trkpt lat="23.18037374876439571380615234375" lon="113.2610996067523956298828125">
        <ele>30.799999237060546875</ele>
        <time>2018-05-15T13:51:23.000Z</time>
        <extensions>
          <ns3:TrackPointExtension>
            <ns3:hr>141</ns3:hr>
            <ns3:cad>61</ns3:cad>
          </ns3:TrackPointExtension>
        </extensions>
      </trkpt>
      <trkpt lat="23.18037877790629863739013671875" lon="113.26111159287393093109130859375">
        <ele>30.3999996185302734375</ele>
        <time>2018-05-15T13:51:24.000Z</time>
        <extensions>
          <ns3:TrackPointExtension>
            <ns3:hr>144</ns3:hr>
            <ns3:cad>61</ns3:cad>
          </ns3:TrackPointExtension>
        </extensions>
      </trkpt>
      <trkpt lat="23.18038581870496273040771484375" lon="113.261124081909656524658203125">
        <ele>30.200000762939453125</ele>
        <time>2018-05-15T13:51:25.000Z</time>
        <extensions>
          <ns3:TrackPointExtension>
            <ns3:hr>144</ns3:hr>
            <ns3:cad>61</ns3:cad>
          </ns3:TrackPointExtension>
        </extensions>
      </trkpt>
      <trkpt lat="23.18042923696339130401611328125" lon="113.26119490899145603179931640625">
        <ele>29.799999237060546875</ele>
        <time>2018-05-15T13:51:31.000Z</time>
        <extensions>
          <ns3:TrackPointExtension>
            <ns3:hr>139</ns3:hr>
            <ns3:cad>61</ns3:cad>
          </ns3:TrackPointExtension>
        </extensions>
      </trkpt>
      <trkpt lat="23.18043812178075313568115234375" lon="113.26120429672300815582275390625">
        <ele>30</ele>
        <time>2018-05-15T13:51:32.000Z</time>
        <extensions>
          <ns3:TrackPointExtension>
            <ns3:hr>139</ns3:hr>
            <ns3:cad>61</ns3:cad>
          </ns3:TrackPointExtension>
        </extensions>
      </trkpt>
      <trkpt lat="23.18047550506889820098876953125" lon="113.26123279519379138946533203125">
        <ele>31.6000003814697265625</ele>
        <time>2018-05-15T13:51:36.000Z</time>
        <extensions>
          <ns3:TrackPointExtension>
            <ns3:hr>142</ns3:hr>
            <ns3:cad>59</ns3:cad>
          </ns3:TrackPointExtension>
        </extensions>
      </trkpt>
      <trkpt lat="23.18056871183216571807861328125" lon="113.2612576894462108612060546875">
        <ele>38</ele>
        <time>2018-05-15T13:51:45.000Z</time>
        <extensions>
          <ns3:TrackPointExtension>
            <ns3:hr>144</ns3:hr>
            <ns3:cad>61</ns3:cad>
          </ns3:TrackPointExtension>
        </extensions>
      </trkpt>
      <trkpt lat="23.1806147284805774688720703125" lon="113.26126699335873126983642578125">
        <ele>41.40000152587890625</ele>
        <time>2018-05-15T13:51:50.000Z</time>
        <extensions>
          <ns3:TrackPointExtension>
            <ns3:hr>141</ns3:hr>
            <ns3:cad>61</ns3:cad>
          </ns3:TrackPointExtension>
        </extensions>
      </trkpt>
      <trkpt lat="23.18067281506955623626708984375" lon="113.26129264198243618011474609375">
        <ele>44.799999237060546875</ele>
        <time>2018-05-15T13:51:56.000Z</time>
        <extensions>
          <ns3:TrackPointExtension>
            <ns3:hr>138</ns3:hr>
            <ns3:cad>61</ns3:cad>
          </ns3:TrackPointExtension>
        </extensions>
      </trkpt>
      <trkpt lat="23.18084699101746082305908203125" lon="113.26138618402183055877685546875">
        <ele>53.40000152587890625</ele>
        <time>2018-05-15T13:52:14.000Z</time>
        <extensions>
          <ns3:TrackPointExtension>
            <ns3:hr>137</ns3:hr>
            <ns3:cad>61</ns3:cad>
          </ns3:TrackPointExtension>
        </extensions>
      </trkpt>
      <trkpt lat="23.18101546727120876312255859375" lon="113.26147310435771942138671875">
        <ele>62.40000152587890625</ele>
        <time>2018-05-15T13:52:29.000Z</time>
        <extensions>
          <ns3:TrackPointExtension>
            <ns3:hr>136</ns3:hr>
            <ns3:cad>56</ns3:cad>
          </ns3:TrackPointExtension>
        </extensions>
      </trkpt>
      <trkpt lat="23.1810857914388179779052734375" lon="113.2615151815116405487060546875">
        <ele>61.40000152587890625</ele>
        <time>2018-05-15T13:52:36.000Z</time>
        <extensions>
          <ns3:TrackPointExtension>
            <ns3:hr>133</ns3:hr>
            <ns3:cad>61</ns3:cad>
          </ns3:TrackPointExtension>
        </extensions>
      </trkpt>
      <trkpt lat="23.1812554411590099334716796875" lon="113.261612243950366973876953125">
        <ele>58.799999237060546875</ele>
        <time>2018-05-15T13:52:54.000Z</time>
        <extensions>
          <ns3:TrackPointExtension>
            <ns3:hr>131</ns3:hr>
            <ns3:cad>61</ns3:cad>
          </ns3:TrackPointExtension>
        </extensions>
      </trkpt>
      <trkpt lat="23.18133129738271236419677734375" lon="113.2616694085299968719482421875">
        <ele>57.799999237060546875</ele>
        <time>2018-05-15T13:53:02.000Z</time>
        <extensions>
          <ns3:TrackPointExtension>
            <ns3:hr>128</ns3:hr>
            <ns3:cad>56</ns3:cad>
          </ns3:TrackPointExtension>
        </extensions>
      </trkpt>
      <trkpt lat="23.1814120151102542877197265625" lon="113.26173059642314910888671875">
        <ele>57.799999237060546875</ele>
        <time>2018-05-15T13:53:12.000Z</time>
        <extensions>
          <ns3:TrackPointExtension>
            <ns3:hr>125</ns3:hr>
            <ns3:cad>56</ns3:cad>
          </ns3:TrackPointExtension>
        </extensions>
      </trkpt>
      <trkpt lat="23.1815618835389614105224609375" lon="113.26182338409125804901123046875">
        <ele>53.200000762939453125</ele>
        <time>2018-05-15T13:53:32.000Z</time>
        <extensions>
          <ns3:TrackPointExtension>
            <ns3:hr>124</ns3:hr>
            <ns3:cad>61</ns3:cad>
          </ns3:TrackPointExtension>
        </extensions>
      </trkpt>
      <trkpt lat="23.18154721520841121673583984375" lon="113.2618129067122936248779296875">
        <ele>53.799999237060546875</ele>
        <time>2018-05-15T13:53:36.000Z</time>
        <extensions>
          <ns3:TrackPointExtension>
            <ns3:hr>124</ns3:hr>
            <ns3:cad>63</ns3:cad>
          </ns3:TrackPointExtension>
        </extensions>
      </trkpt>
      <trkpt lat="23.18154218606650829315185546875" lon="113.26181114651262760162353515625">
        <ele>54</ele>
        <time>2018-05-15T13:53:37.000Z</time>
        <extensions>
          <ns3:TrackPointExtension>
            <ns3:hr>124</ns3:hr>
            <ns3:cad>61</ns3:cad>
          </ns3:TrackPointExtension>
        </extensions>
      </trkpt>
      <trkpt lat="23.18150631152093410491943359375" lon="113.26179019175469875335693359375">
        <ele>56</ele>
        <time>2018-05-15T13:53:41.000Z</time>
        <extensions>
          <ns3:TrackPointExtension>
            <ns3:hr>123</ns3:hr>
            <ns3:cad>61</ns3:cad>
          </ns3:TrackPointExtension>
        </extensions>
      </trkpt>
      <trkpt lat="23.181485943496227264404296875" lon="113.26178063638508319854736328125">
        <ele>57.200000762939453125</ele>
        <time>2018-05-15T13:53:43.000Z</time>
        <extensions>
          <ns3:TrackPointExtension>
            <ns3:hr>123</ns3:hr>
            <ns3:cad>61</ns3:cad>
          </ns3:TrackPointExtension>
        </extensions>
      </trkpt>
      <trkpt lat="23.18131537176668643951416015625" lon="113.26169312931597232818603515625">
        <ele>55.40000152587890625</ele>
        <time>2018-05-15T13:54:01.000Z</time>
        <extensions>
          <ns3:TrackPointExtension>
            <ns3:hr>122</ns3:hr>
            <ns3:cad>0</ns3:cad>
          </ns3:TrackPointExtension>
        </extensions>
      </trkpt>
      <trkpt lat="23.18114572204649448394775390625" lon="113.26161249540746212005615234375">
        <ele>55.200000762939453125</ele>
        <time>2018-05-15T13:54:19.000Z</time>
        <extensions>
          <ns3:TrackPointExtension>
            <ns3:hr>122</ns3:hr>
            <ns3:cad>0</ns3:cad>
          </ns3:TrackPointExtension>
        </extensions>
      </trkpt>
      <trkpt lat="23.1810301356017589569091796875" lon="113.26155365444719791412353515625">
        <ele>56.200000762939453125</ele>
        <time>2018-05-15T13:54:31.000Z</time>
        <extensions>
          <ns3:TrackPointExtension>
            <ns3:hr>119</ns3:hr>
            <ns3:cad>0</ns3:cad>
          </ns3:TrackPointExtension>
        </extensions>
      </trkpt>
      <trkpt lat="23.1810184009373188018798828125" lon="113.26154829002916812896728515625">
        <ele>56.200000762939453125</ele>
        <time>2018-05-15T13:54:32.000Z</time>
        <extensions>
          <ns3:TrackPointExtension>
            <ns3:hr>125</ns3:hr>
            <ns3:cad>0</ns3:cad>
          </ns3:TrackPointExtension>
        </extensions>
      </trkpt>
      <trkpt lat="23.18098864518105983734130859375" lon="113.26153404079377651214599609375">
        <ele>54.40000152587890625</ele>
        <time>2018-05-15T13:54:35.000Z</time>
        <extensions>
          <ns3:TrackPointExtension>
            <ns3:hr>132</ns3:hr>
            <ns3:cad>0</ns3:cad>
          </ns3:TrackPointExtension>
        </extensions>
      </trkpt>
      <trkpt lat="23.18097070790827274322509765625" lon="113.261523060500621795654296875">
        <ele>53.59999847412109375</ele>
        <time>2018-05-15T13:54:37.000Z</time>
        <extensions>
          <ns3:TrackPointExtension>
            <ns3:hr>136</ns3:hr>
            <ns3:cad>0</ns3:cad>
          </ns3:TrackPointExtension>
        </extensions>
      </trkpt>
      <trkpt lat="23.1809419579803943634033203125" lon="113.26150570996105670928955078125">
        <ele>52.40000152587890625</ele>
        <time>2018-05-15T13:54:40.000Z</time>
        <extensions>
          <ns3:TrackPointExtension>
            <ns3:hr>140</ns3:hr>
            <ns3:cad>0</ns3:cad>
          </ns3:TrackPointExtension>
        </extensions>
      </trkpt>
      <trkpt lat="23.18078949116170406341552734375" lon="113.2614176161587238311767578125">
        <ele>47</ele>
        <time>2018-05-15T13:54:58.000Z</time>
        <extensions>
          <ns3:TrackPointExtension>
            <ns3:hr>137</ns3:hr>
            <ns3:cad>0</ns3:cad>
          </ns3:TrackPointExtension>
        </extensions>
      </trkpt>
      <trkpt lat="23.18072780035436153411865234375" lon="113.2613874413073062896728515625">
        <ele>44.200000762939453125</ele>
        <time>2018-05-15T13:55:06.000Z</time>
        <extensions>
          <ns3:TrackPointExtension>
            <ns3:hr>134</ns3:hr>
            <ns3:cad>55</ns3:cad>
          </ns3:TrackPointExtension>
        </extensions>
      </trkpt>
      <trkpt lat="23.18056938238441944122314453125" lon="113.2613059692084789276123046875">
        <ele>35</ele>
        <time>2018-05-15T13:55:23.000Z</time>
        <extensions>
          <ns3:TrackPointExtension>
            <ns3:hr>131</ns3:hr>
            <ns3:cad>55</ns3:cad>
          </ns3:TrackPointExtension>
        </extensions>
      </trkpt>
      <trkpt lat="23.1804896704852581024169921875" lon="113.26127034611999988555908203125">
        <ele>30.3999996185302734375</ele>
        <time>2018-05-15T13:55:32.000Z</time>
        <extensions>
          <ns3:TrackPointExtension>
            <ns3:hr>128</ns3:hr>
            <ns3:cad>58</ns3:cad>
          </ns3:TrackPointExtension>
        </extensions>
      </trkpt>
      <trkpt lat="23.1803555600345134735107421875" lon="113.26113204471766948699951171875">
        <ele>27</ele>
        <time>2018-05-15T13:55:50.000Z</time>
        <extensions>
          <ns3:TrackPointExtension>
            <ns3:hr>128</ns3:hr>
            <ns3:cad>56</ns3:cad>
          </ns3:TrackPointExtension>
        </extensions>
      </trkpt>
      <trkpt lat="23.180201165378093719482421875" lon="113.26102291233837604522705078125">
        <ele>18.6000003814697265625</ele>
        <time>2018-05-15T13:56:06.000Z</time>
        <extensions>
          <ns3:TrackPointExtension>
            <ns3:hr>128</ns3:hr>
            <ns3:cad>57</ns3:cad>
          </ns3:TrackPointExtension>
        </extensions>
      </trkpt>
      <trkpt lat="23.1800404004752635955810546875" lon="113.2609214074909687042236328125">
        <ele>28.3999996185302734375</ele>
        <time>2018-05-15T13:56:23.000Z</time>
        <extensions>
          <ns3:TrackPointExtension>
            <ns3:hr>126</ns3:hr>
            <ns3:cad>58</ns3:cad>
          </ns3:TrackPointExtension>
        </extensions>
      </trkpt>
      <trkpt lat="23.180025480687618255615234375" lon="113.260913193225860595703125">
        <ele>29</ele>
        <time>2018-05-15T13:56:26.000Z</time>
        <extensions>
          <ns3:TrackPointExtension>
            <ns3:hr>125</ns3:hr>
            <ns3:cad>58</ns3:cad>
          </ns3:TrackPointExtension>
        </extensions>
      </trkpt>
      <trkpt lat="23.18001450039446353912353515625" lon="113.2609056495130062103271484375">
        <ele>29.6000003814697265625</ele>
        <time>2018-05-15T13:56:28.000Z</time>
        <extensions>
          <ns3:TrackPointExtension>
            <ns3:hr>125</ns3:hr>
            <ns3:cad>0</ns3:cad>
          </ns3:TrackPointExtension>
        </extensions>
      </trkpt>
      <trkpt lat="23.17984677851200103759765625" lon="113.2608261890709400177001953125">
        <ele>31.6000003814697265625</ele>
        <time>2018-05-15T13:56:45.000Z</time>
        <extensions>
          <ns3:TrackPointExtension>
            <ns3:hr>125</ns3:hr>
            <ns3:cad>57</ns3:cad>
          </ns3:TrackPointExtension>
        </extensions>
      </trkpt>
      <trkpt lat="23.179705627262592315673828125" lon="113.2608064077794551849365234375">
        <ele>22.799999237060546875</ele>
        <time>2018-05-15T13:56:58.000Z</time>
        <extensions>
          <ns3:TrackPointExtension>
            <ns3:hr>128</ns3:hr>
            <ns3:cad>57</ns3:cad>
          </ns3:TrackPointExtension>
        </extensions>
      </trkpt>
      <trkpt lat="23.1796605326235294342041015625" lon="113.26076910831034183502197265625">
        <ele>23.799999237060546875</ele>
        <time>2018-05-15T13:57:03.000Z</time>
        <extensions>
          <ns3:TrackPointExtension>
            <ns3:hr>131</ns3:hr>
            <ns3:cad>57</ns3:cad>
          </ns3:TrackPointExtension>
        </extensions>
      </trkpt>
      <trkpt lat="23.17952013574540615081787109375" lon="113.26064505614340305328369140625">
        <ele>18.6000003814697265625</ele>
        <time>2018-05-15T13:57:18.000Z</time>
        <extensions>
          <ns3:TrackPointExtension>
            <ns3:hr>131</ns3:hr>
            <ns3:cad>58</ns3:cad>
          </ns3:TrackPointExtension>
        </extensions>
      </trkpt>
      <trkpt lat="23.17937311716377735137939453125" lon="113.2605271227657794952392578125">
        <ele>13</ele>
        <time>2018-05-15T13:57:36.000Z</time>
        <extensions>
          <ns3:TrackPointExtension>
            <ns3:hr>129</ns3:hr>
            <ns3:cad>57</ns3:cad>
          </ns3:TrackPointExtension>
        </extensions>
      </trkpt>
      <trkpt lat="23.1793061457574367523193359375" lon="113.26050809584558010101318359375">
        <ele>12.19999980926513671875</ele>
        <time>2018-05-15T13:57:44.000Z</time>
        <extensions>
          <ns3:TrackPointExtension>
            <ns3:hr>131</ns3:hr>
            <ns3:cad>57</ns3:cad>
          </ns3:TrackPointExtension>
        </extensions>
      </trkpt>
      <trkpt lat="23.17914546467363834381103515625" lon="113.260408937931060791015625">
        <ele>13.3999996185302734375</ele>
        <time>2018-05-15T13:58:00.000Z</time>
        <extensions>
          <ns3:TrackPointExtension>
            <ns3:hr>131</ns3:hr>
            <ns3:cad>58</ns3:cad>
          </ns3:TrackPointExtension>
        </extensions>
      </trkpt>
      <trkpt lat="23.1790924072265625" lon="113.26037582941353321075439453125">
        <ele>13.6000003814697265625</ele>
        <time>2018-05-15T13:58:06.000Z</time>
        <extensions>
          <ns3:TrackPointExtension>
            <ns3:hr>132</ns3:hr>
            <ns3:cad>55</ns3:cad>
          </ns3:TrackPointExtension>
        </extensions>
      </trkpt>
      <trkpt lat="23.17892678081989288330078125" lon="113.26030810363590717315673828125">
        <ele>13.6000003814697265625</ele>
        <time>2018-05-15T13:58:21.000Z</time>
        <extensions>
          <ns3:TrackPointExtension>
            <ns3:hr>128</ns3:hr>
            <ns3:cad>58</ns3:cad>
          </ns3:TrackPointExtension>
        </extensions>
      </trkpt>
      <trkpt lat="23.1788749806582927703857421875" lon="113.26027818024158477783203125">
        <ele>13.6000003814697265625</ele>
        <time>2018-05-15T13:58:26.000Z</time>
        <extensions>
          <ns3:TrackPointExtension>
            <ns3:hr>125</ns3:hr>
            <ns3:cad>59</ns3:cad>
          </ns3:TrackPointExtension>
        </extensions>
      </trkpt>
      <trkpt lat="23.178770542144775390625" lon="113.260198719799518585205078125">
        <ele>12.6000003814697265625</ele>
        <time>2018-05-15T13:58:37.000Z</time>
        <extensions>
          <ns3:TrackPointExtension>
            <ns3:hr>122</ns3:hr>
            <ns3:cad>60</ns3:cad>
          </ns3:TrackPointExtension>
        </extensions>
      </trkpt>
      <trkpt lat="23.17865721881389617919921875" lon="113.2601304911077022552490234375">
        <ele>6.80000019073486328125</ele>
        <time>2018-05-15T13:58:49.000Z</time>
        <extensions>
          <ns3:TrackPointExtension>
            <ns3:hr>125</ns3:hr>
            <ns3:cad>58</ns3:cad>
          </ns3:TrackPointExtension>
        </extensions>
      </trkpt>
      <trkpt lat="23.17849368788301944732666015625" lon="113.260039798915386199951171875">
        <ele>-0.800000011920928955078125</ele>
        <time>2018-05-15T13:59:05.000Z</time>
        <extensions>
          <ns3:TrackPointExtension>
            <ns3:hr>125</ns3:hr>
            <ns3:cad>61</ns3:cad>
          </ns3:TrackPointExtension>
        </extensions>
      </trkpt>
      <trkpt lat="23.1783529557287693023681640625" lon="113.25996126048266887664794921875">
        <ele>-4.80000019073486328125</ele>
        <time>2018-05-15T13:59:19.000Z</time>
        <extensions>
          <ns3:TrackPointExtension>
            <ns3:hr>128</ns3:hr>
            <ns3:cad>62</ns3:cad>
          </ns3:TrackPointExtension>
        </extensions>
      </trkpt>
      <trkpt lat="23.17818246781826019287109375" lon="113.25988657772541046142578125">
        <ele>-5</ele>
        <time>2018-05-15T13:59:35.000Z</time>
        <extensions>
          <ns3:TrackPointExtension>
            <ns3:hr>126</ns3:hr>
            <ns3:cad>56</ns3:cad>
          </ns3:TrackPointExtension>
        </extensions>
      </trkpt>
      <trkpt lat="23.178032934665679931640625" lon="113.2598054409027099609375">
        <ele>-0.60000002384185791015625</ele>
        <time>2018-05-15T13:59:50.000Z</time>
        <extensions>
          <ns3:TrackPointExtension>
            <ns3:hr>123</ns3:hr>
            <ns3:cad>55</ns3:cad>
          </ns3:TrackPointExtension>
        </extensions>
      </trkpt>
      <trkpt lat="23.177877031266689300537109375" lon="113.25971625745296478271484375">
        <ele>3.7999999523162841796875</ele>
        <time>2018-05-15T14:00:06.000Z</time>
        <extensions>
          <ns3:TrackPointExtension>
            <ns3:hr>124</ns3:hr>
            <ns3:cad>55</ns3:cad>
          </ns3:TrackPointExtension>
        </extensions>
      </trkpt>
      <trkpt lat="23.1777300126850605010986328125" lon="113.2596020959317684173583984375">
        <ele>8.3999996185302734375</ele>
        <time>2018-05-15T14:00:24.000Z</time>
        <extensions>
          <ns3:TrackPointExtension>
            <ns3:hr>125</ns3:hr>
            <ns3:cad>57</ns3:cad>
          </ns3:TrackPointExtension>
        </extensions>
      </trkpt>
      <trkpt lat="23.1775734387338161468505859375" lon="113.2594902813434600830078125">
        <ele>12.80000019073486328125</ele>
        <time>2018-05-15T14:00:42.000Z</time>
        <extensions>
          <ns3:TrackPointExtension>
            <ns3:hr>124</ns3:hr>
            <ns3:cad>0</ns3:cad>
          </ns3:TrackPointExtension>
        </extensions>
      </trkpt>
      <trkpt lat="23.17740462720394134521484375" lon="113.25941157527267932891845703125">
        <ele>16</ele>
        <time>2018-05-15T14:00:58.000Z</time>
        <extensions>
          <ns3:TrackPointExtension>
            <ns3:hr>126</ns3:hr>
            <ns3:cad>60</ns3:cad>
          </ns3:TrackPointExtension>
        </extensions>
      </trkpt>
      <trkpt lat="23.1772405095398426055908203125" lon="113.25931719504296779632568359375">
        <ele>16.3999996185302734375</ele>
        <time>2018-05-15T14:01:13.000Z</time>
        <extensions>
          <ns3:TrackPointExtension>
            <ns3:hr>125</ns3:hr>
            <ns3:cad>61</ns3:cad>
          </ns3:TrackPointExtension>
        </extensions>
      </trkpt>
      <trkpt lat="23.1770618073642253875732421875" lon="113.25924150645732879638671875">
        <ele>17.3999996185302734375</ele>
        <time>2018-05-15T14:01:29.000Z</time>
        <extensions>
          <ns3:TrackPointExtension>
            <ns3:hr>124</ns3:hr>
            <ns3:cad>59</ns3:cad>
          </ns3:TrackPointExtension>
        </extensions>
      </trkpt>
      <trkpt lat="23.1769981049001216888427734375" lon="113.25920806266367435455322265625">
        <ele>18.799999237060546875</ele>
        <time>2018-05-15T14:01:35.000Z</time>
        <extensions>
          <ns3:TrackPointExtension>
            <ns3:hr>121</ns3:hr>
            <ns3:cad>58</ns3:cad>
          </ns3:TrackPointExtension>
        </extensions>
      </trkpt>
      <trkpt lat="23.17685217596590518951416015625" lon="113.25908996164798736572265625">
        <ele>22.200000762939453125</ele>
        <time>2018-05-15T14:01:54.000Z</time>
        <extensions>
          <ns3:TrackPointExtension>
            <ns3:hr>122</ns3:hr>
            <ns3:cad>58</ns3:cad>
          </ns3:TrackPointExtension>
        </extensions>
      </trkpt>
      <trkpt lat="23.176716975867748260498046875" lon="113.25903388671576976776123046875">
        <ele>24.6000003814697265625</ele>
        <time>2018-05-15T14:02:06.000Z</time>
        <extensions>
          <ns3:TrackPointExtension>
            <ns3:hr>125</ns3:hr>
            <ns3:cad>59</ns3:cad>
          </ns3:TrackPointExtension>
        </extensions>
      </trkpt>
      <trkpt lat="23.1765541993081569671630859375" lon="113.25893749482929706573486328125">
        <ele>27.6000003814697265625</ele>
        <time>2018-05-15T14:02:22.000Z</time>
        <extensions>
          <ns3:TrackPointExtension>
            <ns3:hr>126</ns3:hr>
            <ns3:cad>61</ns3:cad>
          </ns3:TrackPointExtension>
        </extensions>
      </trkpt>
      <trkpt lat="23.17653818987309932708740234375" lon="113.25892240740358829498291015625">
        <ele>27.3999996185302734375</ele>
        <time>2018-05-15T14:02:24.000Z</time>
        <extensions>
          <ns3:TrackPointExtension>
            <ns3:hr>125</ns3:hr>
            <ns3:cad>61</ns3:cad>
          </ns3:TrackPointExtension>
        </extensions>
      </trkpt>
      <trkpt lat="23.1763748265802860260009765625" lon="113.25882283039391040802001953125">
        <ele>25.3999996185302734375</ele>
        <time>2018-05-15T14:02:41.000Z</time>
        <extensions>
          <ns3:TrackPointExtension>
            <ns3:hr>125</ns3:hr>
            <ns3:cad>58</ns3:cad>
          </ns3:TrackPointExtension>
        </extensions>
      </trkpt>
      <trkpt lat="23.17633585073053836822509765625" lon="113.2588044740259647369384765625">
        <ele>25</ele>
        <time>2018-05-15T14:02:45.000Z</time>
        <extensions>
          <ns3:TrackPointExtension>
            <ns3:hr>128</ns3:hr>
            <ns3:cad>56</ns3:cad>
          </ns3:TrackPointExtension>
        </extensions>
      </trkpt>
      <trkpt lat="23.1761847250163555145263671875" lon="113.2586968503892421722412109375">
        <ele>21</ele>
        <time>2018-05-15T14:03:02.000Z</time>
        <extensions>
          <ns3:TrackPointExtension>
            <ns3:hr>128</ns3:hr>
            <ns3:cad>58</ns3:cad>
          </ns3:TrackPointExtension>
        </extensions>
      </trkpt>
      <trkpt lat="23.17608674056828022003173828125" lon="113.25866977684199810028076171875">
        <ele>16.6000003814697265625</ele>
        <time>2018-05-15T14:03:11.000Z</time>
        <extensions>
          <ns3:TrackPointExtension>
            <ns3:hr>125</ns3:hr>
            <ns3:cad>55</ns3:cad>
          </ns3:TrackPointExtension>
        </extensions>
      </trkpt>
      <trkpt lat="23.17602890543639659881591796875" lon="113.25865653343498706817626953125">
        <ele>14.19999980926513671875</ele>
        <time>2018-05-15T14:03:18.000Z</time>
        <extensions>
          <ns3:TrackPointExtension>
            <ns3:hr>124</ns3:hr>
            <ns3:cad>0</ns3:cad>
          </ns3:TrackPointExtension>
        </extensions>
      </trkpt>
      <trkpt lat="23.17599822767078876495361328125" lon="113.2586680166423320770263671875">
        <ele>12.80000019073486328125</ele>
        <time>2018-05-15T14:03:20.000Z</time>
        <extensions>
          <ns3:TrackPointExtension>
            <ns3:hr>126</ns3:hr>
            <ns3:cad>0</ns3:cad>
          </ns3:TrackPointExtension>
        </extensions>
      </trkpt>
      <trkpt lat="23.17597710527479648590087890625" lon="113.258661814033985137939453125">
        <ele>12.3999996185302734375</ele>
        <time>2018-05-15T14:03:22.000Z</time>
        <extensions>
          <ns3:TrackPointExtension>
            <ns3:hr>123</ns3:hr>
            <ns3:cad>0</ns3:cad>
          </ns3:TrackPointExtension>
        </extensions>
      </trkpt>
      <trkpt lat="23.17587233148515224456787109375" lon="113.2586069963872432708740234375">
        <ele>11</ele>
        <time>2018-05-15T14:03:34.000Z</time>
        <extensions>
          <ns3:TrackPointExtension>
            <ns3:hr>126</ns3:hr>
            <ns3:cad>55</ns3:cad>
          </ns3:TrackPointExtension>
        </extensions>
      </trkpt>
      <trkpt lat="23.1756900250911712646484375" lon="113.25855460949242115020751953125">
        <ele>8.80000019073486328125</ele>
        <time>2018-05-15T14:03:50.000Z</time>
        <extensions>
          <ns3:TrackPointExtension>
            <ns3:hr>124</ns3:hr>
            <ns3:cad>58</ns3:cad>
          </ns3:TrackPointExtension>
        </extensions>
      </trkpt>
      <trkpt lat="23.17552565596997737884521484375" lon="113.25845000334084033966064453125">
        <ele>8.80000019073486328125</ele>
        <time>2018-05-15T14:04:07.000Z</time>
        <extensions>
          <ns3:TrackPointExtension>
            <ns3:hr>124</ns3:hr>
            <ns3:cad>58</ns3:cad>
          </ns3:TrackPointExtension>
        </extensions>
      </trkpt>
      <trkpt lat="23.1753643043339252471923828125" lon="113.2583384402096271514892578125">
        <ele>9.80000019073486328125</ele>
        <time>2018-05-15T14:04:25.000Z</time>
        <extensions>
          <ns3:TrackPointExtension>
            <ns3:hr>123</ns3:hr>
            <ns3:cad>56</ns3:cad>
          </ns3:TrackPointExtension>
        </extensions>
      </trkpt>
      <trkpt lat="23.17522726021707057952880859375" lon="113.2583065889775753021240234375">
        <ele>10.6000003814697265625</ele>
        <time>2018-05-15T14:04:36.000Z</time>
        <extensions>
          <ns3:TrackPointExtension>
            <ns3:hr>119</ns3:hr>
            <ns3:cad>55</ns3:cad>
          </ns3:TrackPointExtension>
        </extensions>
      </trkpt>
      <trkpt lat="23.175057359039783477783203125" lon="113.25823701918125152587890625">
        <ele>9.80000019073486328125</ele>
        <time>2018-05-15T14:04:50.000Z</time>
        <extensions>
          <ns3:TrackPointExtension>
            <ns3:hr>120</ns3:hr>
            <ns3:cad>55</ns3:cad>
          </ns3:TrackPointExtension>
        </extensions>
      </trkpt>
      <trkpt lat="23.17500547505915164947509765625" lon="113.25821287930011749267578125">
        <ele>9</ele>
        <time>2018-05-15T14:04:55.000Z</time>
        <extensions>
          <ns3:TrackPointExtension>
            <ns3:hr>116</ns3:hr>
            <ns3:cad>61</ns3:cad>
          </ns3:TrackPointExtension>
        </extensions>
      </trkpt>
      <trkpt lat="23.1748379208147525787353515625" lon="113.25813987292349338531494140625">
        <ele>5.80000019073486328125</ele>
        <time>2018-05-15T14:05:13.000Z</time>
        <extensions>
          <ns3:TrackPointExtension>
            <ns3:hr>118</ns3:hr>
            <ns3:cad>61</ns3:cad>
          </ns3:TrackPointExtension>
        </extensions>
      </trkpt>
      <trkpt lat="23.1747262738645076751708984375" lon="113.25810022652149200439453125">
        <ele>3.2000000476837158203125</ele>
        <time>2018-05-15T14:05:24.000Z</time>
        <extensions>
          <ns3:TrackPointExtension>
            <ns3:hr>121</ns3:hr>
            <ns3:cad>55</ns3:cad>
          </ns3:TrackPointExtension>
        </extensions>
      </trkpt>
      <trkpt lat="23.17471034824848175048828125" lon="113.2580901682376861572265625">
        <ele>2.599999904632568359375</ele>
        <time>2018-05-15T14:05:27.000Z</time>
        <extensions>
          <ns3:TrackPointExtension>
            <ns3:hr>122</ns3:hr>
            <ns3:cad>61</ns3:cad>
          </ns3:TrackPointExtension>
        </extensions>
      </trkpt>
      <trkpt lat="23.17468360997736454010009765625" lon="113.25806074775755405426025390625">
        <ele>1.39999997615814208984375</ele>
        <time>2018-05-15T14:05:30.000Z</time>
        <extensions>
          <ns3:TrackPointExtension>
            <ns3:hr>121</ns3:hr>
            <ns3:cad>61</ns3:cad>
          </ns3:TrackPointExtension>
        </extensions>
      </trkpt>
      <trkpt lat="23.17467355169355869293212890625" lon="113.25803409330546855926513671875">
        <ele>0.800000011920928955078125</ele>
        <time>2018-05-15T14:05:32.000Z</time>
        <extensions>
          <ns3:TrackPointExtension>
            <ns3:hr>114</ns3:hr>
            <ns3:cad>61</ns3:cad>
          </ns3:TrackPointExtension>
        </extensions>
      </trkpt>
      <trkpt lat="23.17467103712260723114013671875" lon="113.25802403502166271209716796875">
        <ele>0.4000000059604644775390625</ele>
        <time>2018-05-15T14:05:33.000Z</time>
        <extensions>
          <ns3:TrackPointExtension>
            <ns3:hr>116</ns3:hr>
            <ns3:cad>61</ns3:cad>
          </ns3:TrackPointExtension>
        </extensions>
      </trkpt>
      <trkpt lat="23.17466676235198974609375" lon="113.2579857297241687774658203125">
        <ele>-0.60000002384185791015625</ele>
        <time>2018-05-15T14:05:36.000Z</time>
        <extensions>
          <ns3:TrackPointExtension>
            <ns3:hr>120</ns3:hr>
            <ns3:cad>61</ns3:cad>
          </ns3:TrackPointExtension>
        </extensions>
      </trkpt>
      <trkpt lat="23.17466701380908489227294921875" lon="113.25797106139361858367919921875">
        <ele>-0.60000002384185791015625</ele>
        <time>2018-05-15T14:05:37.000Z</time>
        <extensions>
          <ns3:TrackPointExtension>
            <ns3:hr>123</ns3:hr>
            <ns3:cad>61</ns3:cad>
          </ns3:TrackPointExtension>
        </extensions>
      </trkpt>
      <trkpt lat="23.174669109284877777099609375" lon="113.25795748271048069000244140625">
        <ele>-0.60000002384185791015625</ele>
        <time>2018-05-15T14:05:38.000Z</time>
        <extensions>
          <ns3:TrackPointExtension>
            <ns3:hr>123</ns3:hr>
            <ns3:cad>61</ns3:cad>
          </ns3:TrackPointExtension>
        </extensions>
      </trkpt>
      <trkpt lat="23.17467271350324153900146484375" lon="113.25792990624904632568359375">
        <ele>-0.800000011920928955078125</ele>
        <time>2018-05-15T14:05:40.000Z</time>
        <extensions>
          <ns3:TrackPointExtension>
            <ns3:hr>126</ns3:hr>
            <ns3:cad>61</ns3:cad>
          </ns3:TrackPointExtension>
        </extensions>
      </trkpt>
      <trkpt lat="23.17469567991793155670166015625" lon="113.25788372196257114410400390625">
        <ele>-0.800000011920928955078125</ele>
        <time>2018-05-15T14:05:44.000Z</time>
        <extensions>
          <ns3:TrackPointExtension>
            <ns3:hr>128</ns3:hr>
            <ns3:cad>61</ns3:cad>
          </ns3:TrackPointExtension>
        </extensions>
      </trkpt>
      <trkpt lat="23.174739517271518707275390625" lon="113.2577570714056491851806640625">
        <ele>-1.60000002384185791015625</ele>
        <time>2018-05-15T14:05:55.000Z</time>
        <extensions>
          <ns3:TrackPointExtension>
            <ns3:hr>127</ns3:hr>
            <ns3:cad>0</ns3:cad>
          </ns3:TrackPointExtension>
        </extensions>
      </trkpt>
      <trkpt lat="23.1747373379766941070556640625" lon="113.25775028206408023834228515625">
        <ele>-1.60000002384185791015625</ele>
        <time>2018-05-15T14:05:59.000Z</time>
        <extensions>
          <ns3:TrackPointExtension>
            <ns3:hr>129</ns3:hr>
            <ns3:cad>0</ns3:cad>
          </ns3:TrackPointExtension>
        </extensions>
      </trkpt>
      <trkpt lat="23.1730944849550724029541015625" lon="113.25515407137572765350341796875">
        <ele>7.19999980926513671875</ele>
        <time>2018-05-15T14:17:00.000Z</time>
        <extensions>
          <ns3:TrackPointExtension>
            <ns3:hr>112</ns3:hr>
            <ns3:cad>0</ns3:cad>
          </ns3:TrackPointExtension>
        </extensions>
      </trkpt>
      <trkpt lat="23.173181824386119842529296875" lon="113.25512121431529521942138671875">
        <ele>9</ele>
        <time>2018-05-15T14:17:10.000Z</time>
        <extensions>
          <ns3:TrackPointExtension>
            <ns3:hr>110</ns3:hr>
            <ns3:cad>0</ns3:cad>
          </ns3:TrackPointExtension>
        </extensions>
      </trkpt>
      <trkpt lat="23.17318643443286418914794921875" lon="113.2551184482872486114501953125">
        <ele>9.19999980926513671875</ele>
        <time>2018-05-15T14:17:11.000Z</time>
        <extensions>
          <ns3:TrackPointExtension>
            <ns3:hr>110</ns3:hr>
            <ns3:cad>0</ns3:cad>
          </ns3:TrackPointExtension>
        </extensions>
      </trkpt>
    </trkseg>
  </trk>
</gpx>
