<gpx xmlns:ns3="http://www.garmin.com/xmlschemas/TrackPointExtension/v1" xmlns="http://www.topografix.com/GPX/1/1" xmlns:xsi="http://www.w3.org/2001/XMLSchema-instance" xmlns:ns2="http://www.garmin.com/xmlschemas/GpxExtensions/v3" creator="Garmin Connect" version="1.1" xsi:schemaLocation="http://www.topografix.com/GPX/1/1 http://www.topografix.com/GPX/11.xsd">
  <extensions>
<distance>1797.02</distance>
<average_hr>148.0</average_hr>
<average_speed>2.565000057220459</average_speed>
<start_time>2020-11-27T09:44:47+00:00</start_time>
<end_time>2020-11-27T09:56:27.592000+00:00</end_time>
<moving_time>690.0</moving_time>
<elapsed_time>3021.518</elapsed_time>
</extensions>
<metadata>
    <link href="connect.garmin.com">
      <text>Garmin Connect</text>
    </link>
    <time>2020-11-27T09:44:47.000Z</time>
  </metadata>
  <trk>
    <name>广州市 跑步</name>
    <type>running</type>
    <trkseg>
      <trkpt lat="23.17453600466251373291015625" lon="113.25081392191350460052490234375">
        <ele>7.19999980926513671875</ele>
        <time>2020-11-27T09:44:47.000Z</time>
        <extensions>
          <ns3:TrackPointExtension>
            <ns3:hr>110</ns3:hr>
            <ns3:cad>61</ns3:cad>
          </ns3:TrackPointExtension>
        </extensions>
      </trkpt>
      <trkpt lat="23.1745140440762042999267578125" lon="113.25082004070281982421875">
        <ele>7</ele>
        <time>2020-11-27T09:44:48.000Z</time>
        <extensions>
          <ns3:TrackPointExtension>
            <ns3:hr>110</ns3:hr>
            <ns3:cad>61</ns3:cad>
          </ns3:TrackPointExtension>
        </extensions>
      </trkpt>
      <trkpt lat="23.17433509044349193572998046875" lon="113.2508017681539058685302734375">
        <ele>5.599999904632568359375</ele>
        <time>2020-11-27T09:44:58.000Z</time>
        <extensions>
          <ns3:TrackPointExtension>
            <ns3:hr>111</ns3:hr>
            <ns3:cad>85</ns3:cad>
          </ns3:TrackPointExtension>
        </extensions>
      </trkpt>
      <trkpt lat="23.17419310100376605987548828125" lon="113.25071937404572963714599609375">
        <ele>5</ele>
        <time>2020-11-27T09:45:04.000Z</time>
        <extensions>
          <ns3:TrackPointExtension>
            <ns3:hr>115</ns3:hr>
            <ns3:cad>86</ns3:cad>
          </ns3:TrackPointExtension>
        </extensions>
      </trkpt>
      <trkpt lat="23.1741450726985931396484375" lon="113.25071501545608043670654296875">
        <ele>4.80000019073486328125</ele>
        <time>2020-11-27T09:45:06.000Z</time>
        <extensions>
          <ns3:TrackPointExtension>
            <ns3:hr>122</ns3:hr>
            <ns3:cad>83</ns3:cad>
          </ns3:TrackPointExtension>
        </extensions>
      </trkpt>
      <trkpt lat="23.17411615513265132904052734375" lon="113.25071350671350955963134765625">
        <ele>4.80000019073486328125</ele>
        <time>2020-11-27T09:45:07.000Z</time>
        <extensions>
          <ns3:TrackPointExtension>
            <ns3:hr>131</ns3:hr>
            <ns3:cad>82</ns3:cad>
          </ns3:TrackPointExtension>
        </extensions>
      </trkpt>
      <trkpt lat="23.17409201525151729583740234375" lon="113.25071417726576328277587890625">
        <ele>4.599999904632568359375</ele>
        <time>2020-11-27T09:45:08.000Z</time>
        <extensions>
          <ns3:TrackPointExtension>
            <ns3:hr>129</ns3:hr>
            <ns3:cad>81</ns3:cad>
          </ns3:TrackPointExtension>
        </extensions>
      </trkpt>
      <trkpt lat="23.1738867424428462982177734375" lon="113.250723145902156829833984375">
        <ele>4.599999904632568359375</ele>
        <time>2020-11-27T09:45:16.000Z</time>
        <extensions>
          <ns3:TrackPointExtension>
            <ns3:hr>131</ns3:hr>
            <ns3:cad>83</ns3:cad>
          </ns3:TrackPointExtension>
        </extensions>
      </trkpt>
      <trkpt lat="23.1737207807600498199462890625" lon="113.25073228217661380767822265625">
        <ele>4.80000019073486328125</ele>
        <time>2020-11-27T09:45:23.000Z</time>
        <extensions>
          <ns3:TrackPointExtension>
            <ns3:hr>135</ns3:hr>
            <ns3:cad>86</ns3:cad>
          </ns3:TrackPointExtension>
        </extensions>
      </trkpt>
      <trkpt lat="23.17369647324085235595703125" lon="113.250741921365261077880859375">
        <ele>5</ele>
        <time>2020-11-27T09:45:24.000Z</time>
        <extensions>
          <ns3:TrackPointExtension>
            <ns3:hr>138</ns3:hr>
            <ns3:cad>86</ns3:cad>
          </ns3:TrackPointExtension>
        </extensions>
      </trkpt>
      <trkpt lat="23.17367459647357463836669921875" lon="113.25075223110616207122802734375">
        <ele>5.19999980926513671875</ele>
        <time>2020-11-27T09:45:25.000Z</time>
        <extensions>
          <ns3:TrackPointExtension>
            <ns3:hr>138</ns3:hr>
            <ns3:cad>86</ns3:cad>
          </ns3:TrackPointExtension>
        </extensions>
      </trkpt>
      <trkpt lat="23.173603601753711700439453125" lon="113.2507709227502346038818359375">
        <ele>5.599999904632568359375</ele>
        <time>2020-11-27T09:45:28.000Z</time>
        <extensions>
          <ns3:TrackPointExtension>
            <ns3:hr>143</ns3:hr>
            <ns3:cad>86</ns3:cad>
          </ns3:TrackPointExtension>
        </extensions>
      </trkpt>
      <trkpt lat="23.17358222790062427520751953125" lon="113.25077377259731292724609375">
        <ele>5.80000019073486328125</ele>
        <time>2020-11-27T09:45:29.000Z</time>
        <extensions>
          <ns3:TrackPointExtension>
            <ns3:hr>140</ns3:hr>
            <ns3:cad>86</ns3:cad>
          </ns3:TrackPointExtension>
        </extensions>
      </trkpt>
      <trkpt lat="23.1735608540475368499755859375" lon="113.2507789693772792816162109375">
        <ele>5.80000019073486328125</ele>
        <time>2020-11-27T09:45:30.000Z</time>
        <extensions>
          <ns3:TrackPointExtension>
            <ns3:hr>143</ns3:hr>
            <ns3:cad>87</ns3:cad>
          </ns3:TrackPointExtension>
        </extensions>
      </trkpt>
      <trkpt lat="23.1734569184482097625732421875" lon="113.25079925358295440673828125">
        <ele>5.80000019073486328125</ele>
        <time>2020-11-27T09:45:34.000Z</time>
        <extensions>
          <ns3:TrackPointExtension>
            <ns3:hr>146</ns3:hr>
            <ns3:cad>87</ns3:cad>
          </ns3:TrackPointExtension>
        </extensions>
      </trkpt>
      <trkpt lat="23.17341643385589122772216796875" lon="113.2508208788931369781494140625">
        <ele>5.80000019073486328125</ele>
        <time>2020-11-27T09:45:36.000Z</time>
        <extensions>
          <ns3:TrackPointExtension>
            <ns3:hr>150</ns3:hr>
            <ns3:cad>86</ns3:cad>
          </ns3:TrackPointExtension>
        </extensions>
      </trkpt>
      <trkpt lat="23.173241503536701202392578125" lon="113.2508946396410465240478515625">
        <ele>5</ele>
        <time>2020-11-27T09:45:44.000Z</time>
        <extensions>
          <ns3:TrackPointExtension>
            <ns3:hr>152</ns3:hr>
            <ns3:cad>87</ns3:cad>
          </ns3:TrackPointExtension>
        </extensions>
      </trkpt>
      <trkpt lat="23.17315843887627124786376953125" lon="113.250918947160243988037109375">
        <ele>4.599999904632568359375</ele>
        <time>2020-11-27T09:45:48.000Z</time>
        <extensions>
          <ns3:TrackPointExtension>
            <ns3:hr>155</ns3:hr>
            <ns3:cad>86</ns3:cad>
          </ns3:TrackPointExtension>
        </extensions>
      </trkpt>
      <trkpt lat="23.17311703227460384368896484375" lon="113.25093227438628673553466796875">
        <ele>4.19999980926513671875</ele>
        <time>2020-11-27T09:45:51.000Z</time>
        <extensions>
          <ns3:TrackPointExtension>
            <ns3:hr>153</ns3:hr>
            <ns3:cad>84</ns3:cad>
          </ns3:TrackPointExtension>
        </extensions>
      </trkpt>
      <trkpt lat="23.17195412702858448028564453125" lon="113.25127157382667064666748046875">
        <ele>12.80000019073486328125</ele>
        <time>2020-11-27T09:47:44.000Z</time>
        <extensions>
          <ns3:TrackPointExtension>
            <ns3:hr>117</ns3:hr>
            <ns3:cad>114</ns3:cad>
          </ns3:TrackPointExtension>
        </extensions>
      </trkpt>
      <trkpt lat="23.1717755086719989776611328125" lon="113.251301832497119903564453125">
        <ele>18.3999996185302734375</ele>
        <time>2020-11-27T09:47:53.000Z</time>
        <extensions>
          <ns3:TrackPointExtension>
            <ns3:hr>116</ns3:hr>
            <ns3:cad>83</ns3:cad>
          </ns3:TrackPointExtension>
        </extensions>
      </trkpt>
      <trkpt lat="23.1716719083487987518310546875" lon="113.25135706923902034759521484375">
        <ele>20.799999237060546875</ele>
        <time>2020-11-27T09:47:59.000Z</time>
        <extensions>
          <ns3:TrackPointExtension>
            <ns3:hr>123</ns3:hr>
            <ns3:cad>85</ns3:cad>
          </ns3:TrackPointExtension>
        </extensions>
      </trkpt>
      <trkpt lat="23.17165506072342395782470703125" lon="113.25136528350412845611572265625">
        <ele>21.200000762939453125</ele>
        <time>2020-11-27T09:48:00.000Z</time>
        <extensions>
          <ns3:TrackPointExtension>
            <ns3:hr>122</ns3:hr>
            <ns3:cad>85</ns3:cad>
          </ns3:TrackPointExtension>
        </extensions>
      </trkpt>
      <trkpt lat="23.17163678817451000213623046875" lon="113.2513724081218242645263671875">
        <ele>21.3999996185302734375</ele>
        <time>2020-11-27T09:48:01.000Z</time>
        <extensions>
          <ns3:TrackPointExtension>
            <ns3:hr>130</ns3:hr>
            <ns3:cad>85</ns3:cad>
          </ns3:TrackPointExtension>
        </extensions>
      </trkpt>
      <trkpt lat="23.171620778739452362060546875" lon="113.2513771019876003265380859375">
        <ele>21.799999237060546875</ele>
        <time>2020-11-27T09:48:02.000Z</time>
        <extensions>
          <ns3:TrackPointExtension>
            <ns3:hr>130</ns3:hr>
            <ns3:cad>85</ns3:cad>
          </ns3:TrackPointExtension>
        </extensions>
      </trkpt>
      <trkpt lat="23.17157291807234287261962890625" lon="113.25137617997825145721435546875">
        <ele>22.200000762939453125</ele>
        <time>2020-11-27T09:48:04.000Z</time>
        <extensions>
          <ns3:TrackPointExtension>
            <ns3:hr>135</ns3:hr>
            <ns3:cad>85</ns3:cad>
          </ns3:TrackPointExtension>
        </extensions>
      </trkpt>
      <trkpt lat="23.171475939452648162841796875" lon="113.25136913917958736419677734375">
        <ele>20.200000762939453125</ele>
        <time>2020-11-27T09:48:07.000Z</time>
        <extensions>
          <ns3:TrackPointExtension>
            <ns3:hr>140</ns3:hr>
            <ns3:cad>87</ns3:cad>
          </ns3:TrackPointExtension>
        </extensions>
      </trkpt>
      <trkpt lat="23.1714442558586597442626953125" lon="113.25136578641831874847412109375">
        <ele>19.6000003814697265625</ele>
        <time>2020-11-27T09:48:08.000Z</time>
        <extensions>
          <ns3:TrackPointExtension>
            <ns3:hr>144</ns3:hr>
            <ns3:cad>87</ns3:cad>
          </ns3:TrackPointExtension>
        </extensions>
      </trkpt>
      <trkpt lat="23.17129631526768207550048828125" lon="113.25137416832149028778076171875">
        <ele>17.3999996185302734375</ele>
        <time>2020-11-27T09:48:13.000Z</time>
        <extensions>
          <ns3:TrackPointExtension>
            <ns3:hr>147</ns3:hr>
            <ns3:cad>83</ns3:cad>
          </ns3:TrackPointExtension>
        </extensions>
      </trkpt>
      <trkpt lat="23.17123328335583209991455078125" lon="113.2513831369578838348388671875">
        <ele>17.200000762939453125</ele>
        <time>2020-11-27T09:48:15.000Z</time>
        <extensions>
          <ns3:TrackPointExtension>
            <ns3:hr>150</ns3:hr>
            <ns3:cad>82</ns3:cad>
          </ns3:TrackPointExtension>
        </extensions>
      </trkpt>
      <trkpt lat="23.17117461003363132476806640625" lon="113.2513760961592197418212890625">
        <ele>16.6000003814697265625</ele>
        <time>2020-11-27T09:48:17.000Z</time>
        <extensions>
          <ns3:TrackPointExtension>
            <ns3:hr>147</ns3:hr>
            <ns3:cad>80</ns3:cad>
          </ns3:TrackPointExtension>
        </extensions>
      </trkpt>
      <trkpt lat="23.17104754038155078887939453125" lon="113.2514079473912715911865234375">
        <ele>15.3999996185302734375</ele>
        <time>2020-11-27T09:48:22.000Z</time>
        <extensions>
          <ns3:TrackPointExtension>
            <ns3:hr>150</ns3:hr>
            <ns3:cad>83</ns3:cad>
          </ns3:TrackPointExtension>
        </extensions>
      </trkpt>
      <trkpt lat="23.1709212251007556915283203125" lon="113.25143627822399139404296875">
        <ele>15.19999980926513671875</ele>
        <time>2020-11-27T09:48:27.000Z</time>
        <extensions>
          <ns3:TrackPointExtension>
            <ns3:hr>154</ns3:hr>
            <ns3:cad>83</ns3:cad>
          </ns3:TrackPointExtension>
        </extensions>
      </trkpt>
      <trkpt lat="23.17090823315083980560302734375" lon="113.25143720023334026336669921875">
        <ele>15.19999980926513671875</ele>
        <time>2020-11-27T09:48:28.000Z</time>
        <extensions>
          <ns3:TrackPointExtension>
            <ns3:hr>154</ns3:hr>
            <ns3:cad>84</ns3:cad>
          </ns3:TrackPointExtension>
        </extensions>
      </trkpt>
      <trkpt lat="23.1708950735628604888916015625" lon="113.25144055299460887908935546875">
        <ele>15.3999996185302734375</ele>
        <time>2020-11-27T09:48:29.000Z</time>
        <extensions>
          <ns3:TrackPointExtension>
            <ns3:hr>154</ns3:hr>
            <ns3:cad>84</ns3:cad>
          </ns3:TrackPointExtension>
        </extensions>
      </trkpt>
      <trkpt lat="23.170774541795253753662109375" lon="113.2515014894306659698486328125">
        <ele>14.6000003814697265625</ele>
        <time>2020-11-27T09:49:20.000Z</time>
        <extensions>
          <ns3:TrackPointExtension>
            <ns3:hr>124</ns3:hr>
            <ns3:cad>0</ns3:cad>
          </ns3:TrackPointExtension>
        </extensions>
      </trkpt>
      <trkpt lat="23.1707747094333171844482421875" lon="113.251502327620983123779296875">
        <ele>14.6000003814697265625</ele>
        <time>2020-11-27T09:49:21.000Z</time>
        <extensions>
          <ns3:TrackPointExtension>
            <ns3:hr>122</ns3:hr>
            <ns3:cad>61</ns3:cad>
          </ns3:TrackPointExtension>
        </extensions>
      </trkpt>
      <trkpt lat="23.17077881656587123870849609375" lon="113.25160031206905841827392578125">
        <ele>14.19999980926513671875</ele>
        <time>2020-11-27T09:49:29.000Z</time>
        <extensions>
          <ns3:TrackPointExtension>
            <ns3:hr>113</ns3:hr>
            <ns3:cad>85</ns3:cad>
          </ns3:TrackPointExtension>
        </extensions>
      </trkpt>
      <trkpt lat="23.1707720272243022918701171875" lon="113.25162042863667011260986328125">
        <ele>14.3999996185302734375</ele>
        <time>2020-11-27T09:49:30.000Z</time>
        <extensions>
          <ns3:TrackPointExtension>
            <ns3:hr>116</ns3:hr>
            <ns3:cad>85</ns3:cad>
          </ns3:TrackPointExtension>
        </extensions>
      </trkpt>
      <trkpt lat="23.1707623042166233062744140625" lon="113.2516439817845821380615234375">
        <ele>14.3999996185302734375</ele>
        <time>2020-11-27T09:49:31.000Z</time>
        <extensions>
          <ns3:TrackPointExtension>
            <ns3:hr>123</ns3:hr>
            <ns3:cad>84</ns3:cad>
          </ns3:TrackPointExtension>
        </extensions>
      </trkpt>
      <trkpt lat="23.17075534723699092864990234375" lon="113.2517009787261486053466796875">
        <ele>14.6000003814697265625</ele>
        <time>2020-11-27T09:49:33.000Z</time>
        <extensions>
          <ns3:TrackPointExtension>
            <ns3:hr>126</ns3:hr>
            <ns3:cad>84</ns3:cad>
          </ns3:TrackPointExtension>
        </extensions>
      </trkpt>
      <trkpt lat="23.1707498989999294281005859375" lon="113.251720257103443145751953125">
        <ele>14.6000003814697265625</ele>
        <time>2020-11-27T09:49:34.000Z</time>
        <extensions>
          <ns3:TrackPointExtension>
            <ns3:hr>130</ns3:hr>
            <ns3:cad>83</ns3:cad>
          </ns3:TrackPointExtension>
        </extensions>
      </trkpt>
      <trkpt lat="23.17074545659124851226806640625" lon="113.2517388649284839630126953125">
        <ele>14.6000003814697265625</ele>
        <time>2020-11-27T09:49:35.000Z</time>
        <extensions>
          <ns3:TrackPointExtension>
            <ns3:hr>130</ns3:hr>
            <ns3:cad>83</ns3:cad>
          </ns3:TrackPointExtension>
        </extensions>
      </trkpt>
      <trkpt lat="23.1707214005291461944580078125" lon="113.25179301202297210693359375">
        <ele>14.80000019073486328125</ele>
        <time>2020-11-27T09:49:38.000Z</time>
        <extensions>
          <ns3:TrackPointExtension>
            <ns3:hr>134</ns3:hr>
            <ns3:cad>83</ns3:cad>
          </ns3:TrackPointExtension>
        </extensions>
      </trkpt>
      <trkpt lat="23.17068745382130146026611328125" lon="113.25180080719292163848876953125">
        <ele>15.19999980926513671875</ele>
        <time>2020-11-27T09:49:40.000Z</time>
        <extensions>
          <ns3:TrackPointExtension>
            <ns3:hr>135</ns3:hr>
            <ns3:cad>83</ns3:cad>
          </ns3:TrackPointExtension>
        </extensions>
      </trkpt>
      <trkpt lat="23.170620314776897430419921875" lon="113.2517861388623714447021484375">
        <ele>15</ele>
        <time>2020-11-27T09:49:43.000Z</time>
        <extensions>
          <ns3:TrackPointExtension>
            <ns3:hr>132</ns3:hr>
            <ns3:cad>85</ns3:cad>
          </ns3:TrackPointExtension>
        </extensions>
      </trkpt>
      <trkpt lat="23.17061729729175567626953125" lon="113.251787312328815460205078125">
        <ele>15</ele>
        <time>2020-11-27T09:49:46.000Z</time>
        <extensions>
          <ns3:TrackPointExtension>
            <ns3:hr>136</ns3:hr>
            <ns3:cad>83</ns3:cad>
          </ns3:TrackPointExtension>
        </extensions>
      </trkpt>
      <trkpt lat="23.1706858612596988677978515625" lon="113.25190834701061248779296875">
        <ele>14.6000003814697265625</ele>
        <time>2020-11-27T09:49:52.000Z</time>
        <extensions>
          <ns3:TrackPointExtension>
            <ns3:hr>141</ns3:hr>
            <ns3:cad>80</ns3:cad>
          </ns3:TrackPointExtension>
        </extensions>
      </trkpt>
      <trkpt lat="23.17071117460727691650390625" lon="113.2519400306046009063720703125">
        <ele>14.80000019073486328125</ele>
        <time>2020-11-27T09:49:54.000Z</time>
        <extensions>
          <ns3:TrackPointExtension>
            <ns3:hr>138</ns3:hr>
            <ns3:cad>82</ns3:cad>
          </ns3:TrackPointExtension>
        </extensions>
      </trkpt>
      <trkpt lat="23.17073942162096500396728515625" lon="113.2519705407321453094482421875">
        <ele>15</ele>
        <time>2020-11-27T09:49:56.000Z</time>
        <extensions>
          <ns3:TrackPointExtension>
            <ns3:hr>142</ns3:hr>
            <ns3:cad>83</ns3:cad>
          </ns3:TrackPointExtension>
        </extensions>
      </trkpt>
      <trkpt lat="23.17075400613248348236083984375" lon="113.251993171870708465576171875">
        <ele>15.19999980926513671875</ele>
        <time>2020-11-27T09:49:57.000Z</time>
        <extensions>
          <ns3:TrackPointExtension>
            <ns3:hr>145</ns3:hr>
            <ns3:cad>83</ns3:cad>
          </ns3:TrackPointExtension>
        </extensions>
      </trkpt>
      <trkpt lat="23.17079507745802402496337890625" lon="113.2520530186593532562255859375">
        <ele>15.80000019073486328125</ele>
        <time>2020-11-27T09:50:00.000Z</time>
        <extensions>
          <ns3:TrackPointExtension>
            <ns3:hr>148</ns3:hr>
            <ns3:cad>83</ns3:cad>
          </ns3:TrackPointExtension>
        </extensions>
      </trkpt>
      <trkpt lat="23.17086766473948955535888671875" lon="113.2522598840296268463134765625">
        <ele>15.19999980926513671875</ele>
        <time>2020-11-27T09:50:07.000Z</time>
        <extensions>
          <ns3:TrackPointExtension>
            <ns3:hr>148</ns3:hr>
            <ns3:cad>83</ns3:cad>
          </ns3:TrackPointExtension>
        </extensions>
      </trkpt>
      <trkpt lat="23.17090018652379512786865234375" lon="113.25238041579723358154296875">
        <ele>14.19999980926513671875</ele>
        <time>2020-11-27T09:50:11.000Z</time>
        <extensions>
          <ns3:TrackPointExtension>
            <ns3:hr>154</ns3:hr>
            <ns3:cad>84</ns3:cad>
          </ns3:TrackPointExtension>
        </extensions>
      </trkpt>
      <trkpt lat="23.1709063053131103515625" lon="113.25241805054247379302978515625">
        <ele>14</ele>
        <time>2020-11-27T09:50:12.000Z</time>
        <extensions>
          <ns3:TrackPointExtension>
            <ns3:hr>154</ns3:hr>
            <ns3:cad>85</ns3:cad>
          </ns3:TrackPointExtension>
        </extensions>
      </trkpt>
      <trkpt lat="23.170914351940155029296875" lon="113.2524841837584972381591796875">
        <ele>13</ele>
        <time>2020-11-27T09:50:14.000Z</time>
        <extensions>
          <ns3:TrackPointExtension>
            <ns3:hr>151</ns3:hr>
            <ns3:cad>85</ns3:cad>
          </ns3:TrackPointExtension>
        </extensions>
      </trkpt>
      <trkpt lat="23.17093555815517902374267578125" lon="113.252667076885700225830078125">
        <ele>10.6000003814697265625</ele>
        <time>2020-11-27T09:50:20.000Z</time>
        <extensions>
          <ns3:TrackPointExtension>
            <ns3:hr>156</ns3:hr>
            <ns3:cad>84</ns3:cad>
          </ns3:TrackPointExtension>
        </extensions>
      </trkpt>
      <trkpt lat="23.17091368138790130615234375" lon="113.25270253233611583709716796875">
        <ele>9.6000003814697265625</ele>
        <time>2020-11-27T09:50:21.000Z</time>
        <extensions>
          <ns3:TrackPointExtension>
            <ns3:hr>155</ns3:hr>
            <ns3:cad>84</ns3:cad>
          </ns3:TrackPointExtension>
        </extensions>
      </trkpt>
      <trkpt lat="23.17091259174048900604248046875" lon="113.2527701742947101593017578125">
        <ele>9.6000003814697265625</ele>
        <time>2020-11-27T09:50:23.000Z</time>
        <extensions>
          <ns3:TrackPointExtension>
            <ns3:hr>151</ns3:hr>
            <ns3:cad>85</ns3:cad>
          </ns3:TrackPointExtension>
        </extensions>
      </trkpt>
      <trkpt lat="23.17091778852045536041259765625" lon="113.252855502068996429443359375">
        <ele>10</ele>
        <time>2020-11-27T09:50:26.000Z</time>
        <extensions>
          <ns3:TrackPointExtension>
            <ns3:hr>154</ns3:hr>
            <ns3:cad>84</ns3:cad>
          </ns3:TrackPointExtension>
        </extensions>
      </trkpt>
      <trkpt lat="23.17092130891978740692138671875" lon="113.2530112378299236297607421875">
        <ele>12.19999980926513671875</ele>
        <time>2020-11-27T09:50:31.000Z</time>
        <extensions>
          <ns3:TrackPointExtension>
            <ns3:hr>151</ns3:hr>
            <ns3:cad>85</ns3:cad>
          </ns3:TrackPointExtension>
        </extensions>
      </trkpt>
      <trkpt lat="23.17092784680426120758056640625" lon="113.25305289588868618011474609375">
        <ele>12.3999996185302734375</ele>
        <time>2020-11-27T09:50:33.000Z</time>
        <extensions>
          <ns3:TrackPointExtension>
            <ns3:hr>156</ns3:hr>
            <ns3:cad>86</ns3:cad>
          </ns3:TrackPointExtension>
        </extensions>
      </trkpt>
      <trkpt lat="23.16783475689589977264404296875" lon="113.255420029163360595703125">
        <ele>3</ele>
        <time>2020-11-27T10:00:02.000Z</time>
        <extensions>
          <ns3:TrackPointExtension>
            <ns3:hr>86</ns3:hr>
            <ns3:cad>84</ns3:cad>
          </ns3:TrackPointExtension>
        </extensions>
      </trkpt>
      <trkpt lat="23.16779703833162784576416015625" lon="113.25549043715000152587890625">
        <ele>2.7999999523162841796875</ele>
        <time>2020-11-27T10:00:05.000Z</time>
        <extensions>
          <ns3:TrackPointExtension>
            <ns3:hr>88</ns3:hr>
            <ns3:cad>83</ns3:cad>
          </ns3:TrackPointExtension>
        </extensions>
      </trkpt>
      <trkpt lat="23.16772528924047946929931640625" lon="113.25558154843747615814208984375">
        <ele>2.7999999523162841796875</ele>
        <time>2020-11-27T10:00:09.000Z</time>
        <extensions>
          <ns3:TrackPointExtension>
            <ns3:hr>91</ns3:hr>
            <ns3:cad>83</ns3:cad>
          </ns3:TrackPointExtension>
        </extensions>
      </trkpt>
      <trkpt lat="23.16769612021744251251220703125" lon="113.25559311546385288238525390625">
        <ele>2.7999999523162841796875</ele>
        <time>2020-11-27T10:00:10.000Z</time>
        <extensions>
          <ns3:TrackPointExtension>
            <ns3:hr>100</ns3:hr>
            <ns3:cad>83</ns3:cad>
          </ns3:TrackPointExtension>
        </extensions>
      </trkpt>
      <trkpt lat="23.16766225732862949371337890625" lon="113.2556109689176082611083984375">
        <ele>3</ele>
        <time>2020-11-27T10:00:11.000Z</time>
        <extensions>
          <ns3:TrackPointExtension>
            <ns3:hr>110</ns3:hr>
            <ns3:cad>83</ns3:cad>
          </ns3:TrackPointExtension>
        </extensions>
      </trkpt>
      <trkpt lat="23.16763199865818023681640625" lon="113.25560937635600566864013671875">
        <ele>3</ele>
        <time>2020-11-27T10:00:12.000Z</time>
        <extensions>
          <ns3:TrackPointExtension>
            <ns3:hr>117</ns3:hr>
            <ns3:cad>83</ns3:cad>
          </ns3:TrackPointExtension>
        </extensions>
      </trkpt>
      <trkpt lat="23.16760442219674587249755859375" lon="113.25561474077403545379638671875">
        <ele>3.2000000476837158203125</ele>
        <time>2020-11-27T10:00:13.000Z</time>
        <extensions>
          <ns3:TrackPointExtension>
            <ns3:hr>122</ns3:hr>
            <ns3:cad>83</ns3:cad>
          </ns3:TrackPointExtension>
        </extensions>
      </trkpt>
      <trkpt lat="23.1675795279443264007568359375" lon="113.2556170038878917694091796875">
        <ele>3.400000095367431640625</ele>
        <time>2020-11-27T10:00:14.000Z</time>
        <extensions>
          <ns3:TrackPointExtension>
            <ns3:hr>125</ns3:hr>
            <ns3:cad>82</ns3:cad>
          </ns3:TrackPointExtension>
        </extensions>
      </trkpt>
      <trkpt lat="23.16752982325851917266845703125" lon="113.25562052428722381591796875">
        <ele>3.400000095367431640625</ele>
        <time>2020-11-27T10:00:16.000Z</time>
        <extensions>
          <ns3:TrackPointExtension>
            <ns3:hr>128</ns3:hr>
            <ns3:cad>82</ns3:cad>
          </ns3:TrackPointExtension>
        </extensions>
      </trkpt>
      <trkpt lat="23.16750769503414630889892578125" lon="113.25561909936368465423583984375">
        <ele>3.400000095367431640625</ele>
        <time>2020-11-27T10:00:17.000Z</time>
        <extensions>
          <ns3:TrackPointExtension>
            <ns3:hr>132</ns3:hr>
            <ns3:cad>82</ns3:cad>
          </ns3:TrackPointExtension>
        </extensions>
      </trkpt>
      <trkpt lat="23.1674182601273059844970703125" lon="113.25561440549790859222412109375">
        <ele>3</ele>
        <time>2020-11-27T10:00:20.000Z</time>
        <extensions>
          <ns3:TrackPointExtension>
            <ns3:hr>135</ns3:hr>
            <ns3:cad>84</ns3:cad>
          </ns3:TrackPointExtension>
        </extensions>
      </trkpt>
      <trkpt lat="23.16730678081512451171875" lon="113.2556461729109287261962890625">
        <ele>3.7999999523162841796875</ele>
        <time>2020-11-27T10:00:24.000Z</time>
        <extensions>
          <ns3:TrackPointExtension>
            <ns3:hr>138</ns3:hr>
            <ns3:cad>85</ns3:cad>
          </ns3:TrackPointExtension>
        </extensions>
      </trkpt>
      <trkpt lat="23.1672606803476810455322265625" lon="113.2556842267513275146484375">
        <ele>3.7999999523162841796875</ele>
        <time>2020-11-27T10:00:26.000Z</time>
        <extensions>
          <ns3:TrackPointExtension>
            <ns3:hr>142</ns3:hr>
            <ns3:cad>85</ns3:cad>
          </ns3:TrackPointExtension>
        </extensions>
      </trkpt>
      <trkpt lat="23.1672067008912563323974609375" lon="113.2557014934718608856201171875">
        <ele>4</ele>
        <time>2020-11-27T10:00:28.000Z</time>
        <extensions>
          <ns3:TrackPointExtension>
            <ns3:hr>146</ns3:hr>
            <ns3:cad>84</ns3:cad>
          </ns3:TrackPointExtension>
        </extensions>
      </trkpt>
      <trkpt lat="23.16712246276438236236572265625" lon="113.2557598315179347991943359375">
        <ele>4</ele>
        <time>2020-11-27T10:00:32.000Z</time>
        <extensions>
          <ns3:TrackPointExtension>
            <ns3:hr>149</ns3:hr>
            <ns3:cad>84</ns3:cad>
          </ns3:TrackPointExtension>
        </extensions>
      </trkpt>
      <trkpt lat="23.167098574340343475341796875" lon="113.25577165000140666961669921875">
        <ele>4.400000095367431640625</ele>
        <time>2020-11-27T10:00:33.000Z</time>
        <extensions>
          <ns3:TrackPointExtension>
            <ns3:hr>152</ns3:hr>
            <ns3:cad>84</ns3:cad>
          </ns3:TrackPointExtension>
        </extensions>
      </trkpt>
      <trkpt lat="23.16707518883049488067626953125" lon="113.25578338466584682464599609375">
        <ele>4.599999904632568359375</ele>
        <time>2020-11-27T10:00:34.000Z</time>
        <extensions>
          <ns3:TrackPointExtension>
            <ns3:hr>155</ns3:hr>
            <ns3:cad>84</ns3:cad>
          </ns3:TrackPointExtension>
        </extensions>
      </trkpt>
      <trkpt lat="23.16704928874969482421875" lon="113.25579679571092128753662109375">
        <ele>5</ele>
        <time>2020-11-27T10:00:35.000Z</time>
        <extensions>
          <ns3:TrackPointExtension>
            <ns3:hr>152</ns3:hr>
            <ns3:cad>84</ns3:cad>
          </ns3:TrackPointExtension>
        </extensions>
      </trkpt>
      <trkpt lat="23.16691987216472625732421875" lon="113.2558654434978961944580078125">
        <ele>6.599999904632568359375</ele>
        <time>2020-11-27T10:00:40.000Z</time>
        <extensions>
          <ns3:TrackPointExtension>
            <ns3:hr>156</ns3:hr>
            <ns3:cad>84</ns3:cad>
          </ns3:TrackPointExtension>
        </extensions>
      </trkpt>
      <trkpt lat="23.16687318496406078338623046875" lon="113.2558919303119182586669921875">
        <ele>6.80000019073486328125</ele>
        <time>2020-11-27T10:00:42.000Z</time>
        <extensions>
          <ns3:TrackPointExtension>
            <ns3:hr>152</ns3:hr>
            <ns3:cad>84</ns3:cad>
          </ns3:TrackPointExtension>
        </extensions>
      </trkpt>
      <trkpt lat="23.16678031347692012786865234375" lon="113.2559200935065746307373046875">
        <ele>7.599999904632568359375</ele>
        <time>2020-11-27T10:00:46.000Z</time>
        <extensions>
          <ns3:TrackPointExtension>
            <ns3:hr>158</ns3:hr>
            <ns3:cad>84</ns3:cad>
          </ns3:TrackPointExtension>
        </extensions>
      </trkpt>
      <trkpt lat="23.16675768233835697174072265625" lon="113.255928643047809600830078125">
        <ele>7.599999904632568359375</ele>
        <time>2020-11-27T10:00:47.000Z</time>
        <extensions>
          <ns3:TrackPointExtension>
            <ns3:hr>161</ns3:hr>
            <ns3:cad>84</ns3:cad>
          </ns3:TrackPointExtension>
        </extensions>
      </trkpt>
      <trkpt lat="23.16673320718109607696533203125" lon="113.25593610294163227081298828125">
        <ele>7.80000019073486328125</ele>
        <time>2020-11-27T10:00:48.000Z</time>
        <extensions>
          <ns3:TrackPointExtension>
            <ns3:hr>161</ns3:hr>
            <ns3:cad>84</ns3:cad>
          </ns3:TrackPointExtension>
        </extensions>
      </trkpt>
      <trkpt lat="23.16667553968727588653564453125" lon="113.25598069466650485992431640625">
        <ele>8.19999980926513671875</ele>
        <time>2020-11-27T10:00:51.000Z</time>
        <extensions>
          <ns3:TrackPointExtension>
            <ns3:hr>157</ns3:hr>
            <ns3:cad>83</ns3:cad>
          </ns3:TrackPointExtension>
        </extensions>
      </trkpt>
      <trkpt lat="23.16665877588093280792236328125" lon="113.25598857365548610687255859375">
        <ele>8.3999996185302734375</ele>
        <time>2020-11-27T10:00:52.000Z</time>
        <extensions>
          <ns3:TrackPointExtension>
            <ns3:hr>157</ns3:hr>
            <ns3:cad>83</ns3:cad>
          </ns3:TrackPointExtension>
        </extensions>
      </trkpt>
      <trkpt lat="23.166625499725341796875" lon="113.255995698273181915283203125">
        <ele>8.6000003814697265625</ele>
        <time>2020-11-27T10:00:54.000Z</time>
        <extensions>
          <ns3:TrackPointExtension>
            <ns3:hr>154</ns3:hr>
            <ns3:cad>84</ns3:cad>
          </ns3:TrackPointExtension>
        </extensions>
      </trkpt>
      <trkpt lat="23.166553415358066558837890625" lon="113.25604238547384738922119140625">
        <ele>9</ele>
        <time>2020-11-27T10:00:58.000Z</time>
        <extensions>
          <ns3:TrackPointExtension>
            <ns3:hr>157</ns3:hr>
            <ns3:cad>83</ns3:cad>
          </ns3:TrackPointExtension>
        </extensions>
      </trkpt>
      <trkpt lat="23.1665153615176677703857421875" lon="113.25607172213494777679443359375">
        <ele>9.19999980926513671875</ele>
        <time>2020-11-27T10:01:00.000Z</time>
        <extensions>
          <ns3:TrackPointExtension>
            <ns3:hr>162</ns3:hr>
            <ns3:cad>83</ns3:cad>
          </ns3:TrackPointExtension>
        </extensions>
      </trkpt>
      <trkpt lat="23.16649700514972209930419921875" lon="113.25608647428452968597412109375">
        <ele>9.19999980926513671875</ele>
        <time>2020-11-27T10:01:01.000Z</time>
        <extensions>
          <ns3:TrackPointExtension>
            <ns3:hr>165</ns3:hr>
            <ns3:cad>83</ns3:cad>
          </ns3:TrackPointExtension>
        </extensions>
      </trkpt>
      <trkpt lat="23.166478984057903289794921875" lon="113.2561048306524753570556640625">
        <ele>9.19999980926513671875</ele>
        <time>2020-11-27T10:01:02.000Z</time>
        <extensions>
          <ns3:TrackPointExtension>
            <ns3:hr>162</ns3:hr>
            <ns3:cad>84</ns3:cad>
          </ns3:TrackPointExtension>
        </extensions>
      </trkpt>
      <trkpt lat="23.166460208594799041748046875" lon="113.25612033717334270477294921875">
        <ele>9.19999980926513671875</ele>
        <time>2020-11-27T10:01:03.000Z</time>
        <extensions>
          <ns3:TrackPointExtension>
            <ns3:hr>165</ns3:hr>
            <ns3:cad>84</ns3:cad>
          </ns3:TrackPointExtension>
        </extensions>
      </trkpt>
      <trkpt lat="23.1664147786796092987060546875" lon="113.25614246539771556854248046875">
        <ele>9.3999996185302734375</ele>
        <time>2020-11-27T10:01:05.000Z</time>
        <extensions>
          <ns3:TrackPointExtension>
            <ns3:hr>159</ns3:hr>
            <ns3:cad>84</ns3:cad>
          </ns3:TrackPointExtension>
        </extensions>
      </trkpt>
      <trkpt lat="23.166364990174770355224609375" lon="113.25616367161273956298828125">
        <ele>9.6000003814697265625</ele>
        <time>2020-11-27T10:01:07.000Z</time>
        <extensions>
          <ns3:TrackPointExtension>
            <ns3:hr>156</ns3:hr>
            <ns3:cad>84</ns3:cad>
          </ns3:TrackPointExtension>
        </extensions>
      </trkpt>
      <trkpt lat="23.16632031463086605072021484375" lon="113.25619049370288848876953125">
        <ele>10</ele>
        <time>2020-11-27T10:01:09.000Z</time>
        <extensions>
          <ns3:TrackPointExtension>
            <ns3:hr>161</ns3:hr>
            <ns3:cad>85</ns3:cad>
          </ns3:TrackPointExtension>
        </extensions>
      </trkpt>
      <trkpt lat="23.16627320833504199981689453125" lon="113.25623047538101673126220703125">
        <ele>10.19999980926513671875</ele>
        <time>2020-11-27T10:01:11.000Z</time>
        <extensions>
          <ns3:TrackPointExtension>
            <ns3:hr>166</ns3:hr>
            <ns3:cad>85</ns3:cad>
          </ns3:TrackPointExtension>
        </extensions>
      </trkpt>
      <trkpt lat="23.16623699851334095001220703125" lon="113.25626819394528865814208984375">
        <ele>10.3999996185302734375</ele>
        <time>2020-11-27T10:01:13.000Z</time>
        <extensions>
          <ns3:TrackPointExtension>
            <ns3:hr>158</ns3:hr>
            <ns3:cad>84</ns3:cad>
          </ns3:TrackPointExtension>
        </extensions>
      </trkpt>
      <trkpt lat="23.1662179715931415557861328125" lon="113.25628311373293399810791015625">
        <ele>10.3999996185302734375</ele>
        <time>2020-11-27T10:01:14.000Z</time>
        <extensions>
          <ns3:TrackPointExtension>
            <ns3:hr>160</ns3:hr>
            <ns3:cad>83</ns3:cad>
          </ns3:TrackPointExtension>
        </extensions>
      </trkpt>
      <trkpt lat="23.1660446338355541229248046875" lon="113.25637958943843841552734375">
        <ele>10.3999996185302734375</ele>
        <time>2020-11-27T10:01:21.000Z</time>
        <extensions>
          <ns3:TrackPointExtension>
            <ns3:hr>159</ns3:hr>
            <ns3:cad>82</ns3:cad>
          </ns3:TrackPointExtension>
        </extensions>
      </trkpt>
      <trkpt lat="23.16586685366928577423095703125" lon="113.256456367671489715576171875">
        <ele>10</ele>
        <time>2020-11-27T10:01:29.000Z</time>
        <extensions>
          <ns3:TrackPointExtension>
            <ns3:hr>157</ns3:hr>
            <ns3:cad>83</ns3:cad>
          </ns3:TrackPointExtension>
        </extensions>
      </trkpt>
      <trkpt lat="23.16567138768732547760009765625" lon="113.2565366663038730621337890625">
        <ele>8.80000019073486328125</ele>
        <time>2020-11-27T10:01:37.000Z</time>
        <extensions>
          <ns3:TrackPointExtension>
            <ns3:hr>155</ns3:hr>
            <ns3:cad>84</ns3:cad>
          </ns3:TrackPointExtension>
        </extensions>
      </trkpt>
      <trkpt lat="23.16547206602990627288818359375" lon="113.25660766102373600006103515625">
        <ele>7</ele>
        <time>2020-11-27T10:01:43.000Z</time>
        <extensions>
          <ns3:TrackPointExtension>
            <ns3:hr>156</ns3:hr>
            <ns3:cad>82</ns3:cad>
          </ns3:TrackPointExtension>
        </extensions>
      </trkpt>
      <trkpt lat="23.16527894698083400726318359375" lon="113.2566550187766551971435546875">
        <ele>7.400000095367431640625</ele>
        <time>2020-11-27T10:01:50.000Z</time>
        <extensions>
          <ns3:TrackPointExtension>
            <ns3:hr>155</ns3:hr>
            <ns3:cad>82</ns3:cad>
          </ns3:TrackPointExtension>
        </extensions>
      </trkpt>
      <trkpt lat="23.16509672440588474273681640625" lon="113.256709165871143341064453125">
        <ele>9</ele>
        <time>2020-11-27T10:01:57.000Z</time>
        <extensions>
          <ns3:TrackPointExtension>
            <ns3:hr>156</ns3:hr>
            <ns3:cad>82</ns3:cad>
          </ns3:TrackPointExtension>
        </extensions>
      </trkpt>
      <trkpt lat="23.16504190675914287567138671875" lon="113.2567163743078708648681640625">
        <ele>9.19999980926513671875</ele>
        <time>2020-11-27T10:01:59.000Z</time>
        <extensions>
          <ns3:TrackPointExtension>
            <ns3:hr>155</ns3:hr>
            <ns3:cad>82</ns3:cad>
          </ns3:TrackPointExtension>
        </extensions>
      </trkpt>
      <trkpt lat="23.164918608963489532470703125" lon="113.25673556886613368988037109375">
        <ele>9.3999996185302734375</ele>
        <time>2020-11-27T10:02:04.000Z</time>
        <extensions>
          <ns3:TrackPointExtension>
            <ns3:hr>158</ns3:hr>
            <ns3:cad>84</ns3:cad>
          </ns3:TrackPointExtension>
        </extensions>
      </trkpt>
      <trkpt lat="23.1647511385381221771240234375" lon="113.25677546672523021697998046875">
        <ele>9</ele>
        <time>2020-11-27T10:02:11.000Z</time>
        <extensions>
          <ns3:TrackPointExtension>
            <ns3:hr>155</ns3:hr>
            <ns3:cad>84</ns3:cad>
          </ns3:TrackPointExtension>
        </extensions>
      </trkpt>
      <trkpt lat="23.1646532379090785980224609375" lon="113.2568236626684665679931640625">
        <ele>8</ele>
        <time>2020-11-27T10:02:15.000Z</time>
        <extensions>
          <ns3:TrackPointExtension>
            <ns3:hr>154</ns3:hr>
            <ns3:cad>83</ns3:cad>
          </ns3:TrackPointExtension>
        </extensions>
      </trkpt>
      <trkpt lat="23.16348220221698284149169921875" lon="113.2577872462570667266845703125">
        <ele>12.6000003814697265625</ele>
        <time>2020-11-27T10:05:23.000Z</time>
        <extensions>
          <ns3:TrackPointExtension>
            <ns3:hr>115</ns3:hr>
            <ns3:cad>59</ns3:cad>
          </ns3:TrackPointExtension>
        </extensions>
      </trkpt>
      <trkpt lat="23.16347482614219188690185546875" lon="113.25779638253152370452880859375">
        <ele>12.6000003814697265625</ele>
        <time>2020-11-27T10:05:24.000Z</time>
        <extensions>
          <ns3:TrackPointExtension>
            <ns3:hr>115</ns3:hr>
            <ns3:cad>59</ns3:cad>
          </ns3:TrackPointExtension>
        </extensions>
      </trkpt>
      <trkpt lat="23.16335546784102916717529296875" lon="113.25778967700898647308349609375">
        <ele>12.6000003814697265625</ele>
        <time>2020-11-27T10:05:31.000Z</time>
        <extensions>
          <ns3:TrackPointExtension>
            <ns3:hr>115</ns3:hr>
            <ns3:cad>83</ns3:cad>
          </ns3:TrackPointExtension>
        </extensions>
      </trkpt>
      <trkpt lat="23.16325974650681018829345703125" lon="113.25776897370815277099609375">
        <ele>12.6000003814697265625</ele>
        <time>2020-11-27T10:05:35.000Z</time>
        <extensions>
          <ns3:TrackPointExtension>
            <ns3:hr>119</ns3:hr>
            <ns3:cad>82</ns3:cad>
          </ns3:TrackPointExtension>
        </extensions>
      </trkpt>
      <trkpt lat="23.16323678009212017059326171875" lon="113.2577736675739288330078125">
        <ele>13</ele>
        <time>2020-11-27T10:05:36.000Z</time>
        <extensions>
          <ns3:TrackPointExtension>
            <ns3:hr>122</ns3:hr>
            <ns3:cad>81</ns3:cad>
          </ns3:TrackPointExtension>
        </extensions>
      </trkpt>
      <trkpt lat="23.163211382925510406494140625" lon="113.25777995400130748748779296875">
        <ele>13</ele>
        <time>2020-11-27T10:05:37.000Z</time>
        <extensions>
          <ns3:TrackPointExtension>
            <ns3:hr>127</ns3:hr>
            <ns3:cad>81</ns3:cad>
          </ns3:TrackPointExtension>
        </extensions>
      </trkpt>
      <trkpt lat="23.163177855312824249267578125" lon="113.257785737514495849609375">
        <ele>13</ele>
        <time>2020-11-27T10:05:38.000Z</time>
        <extensions>
          <ns3:TrackPointExtension>
            <ns3:hr>133</ns3:hr>
            <ns3:cad>81</ns3:cad>
          </ns3:TrackPointExtension>
        </extensions>
      </trkpt>
      <trkpt lat="23.1631170026957988739013671875" lon="113.25778883881866931915283203125">
        <ele>13.19999980926513671875</ele>
        <time>2020-11-27T10:05:40.000Z</time>
        <extensions>
          <ns3:TrackPointExtension>
            <ns3:hr>137</ns3:hr>
            <ns3:cad>81</ns3:cad>
          </ns3:TrackPointExtension>
        </extensions>
      </trkpt>
      <trkpt lat="23.1630231253802776336669921875" lon="113.25778364203870296478271484375">
        <ele>13</ele>
        <time>2020-11-27T10:05:43.000Z</time>
        <extensions>
          <ns3:TrackPointExtension>
            <ns3:hr>141</ns3:hr>
            <ns3:cad>84</ns3:cad>
          </ns3:TrackPointExtension>
        </extensions>
      </trkpt>
      <trkpt lat="23.16294928081333637237548828125" lon="113.25773905031383037567138671875">
        <ele>12.3999996185302734375</ele>
        <time>2020-11-27T10:05:46.000Z</time>
        <extensions>
          <ns3:TrackPointExtension>
            <ns3:hr>145</ns3:hr>
            <ns3:cad>85</ns3:cad>
          </ns3:TrackPointExtension>
        </extensions>
      </trkpt>
      <trkpt lat="23.16291843540966510772705078125" lon="113.25766780413687229156494140625">
        <ele>10.3999996185302734375</ele>
        <time>2020-11-27T10:05:49.000Z</time>
        <extensions>
          <ns3:TrackPointExtension>
            <ns3:hr>148</ns3:hr>
            <ns3:cad>87</ns3:cad>
          </ns3:TrackPointExtension>
        </extensions>
      </trkpt>
      <trkpt lat="23.16293067298829555511474609375" lon="113.257572166621685028076171875">
        <ele>7.80000019073486328125</ele>
        <time>2020-11-27T10:05:52.000Z</time>
        <extensions>
          <ns3:TrackPointExtension>
            <ns3:hr>151</ns3:hr>
            <ns3:cad>87</ns3:cad>
          </ns3:TrackPointExtension>
        </extensions>
      </trkpt>
      <trkpt lat="23.1630742549896240234375" lon="113.2574737630784511566162109375">
        <ele>5.400000095367431640625</ele>
        <time>2020-11-27T10:05:59.000Z</time>
        <extensions>
          <ns3:TrackPointExtension>
            <ns3:hr>154</ns3:hr>
            <ns3:cad>86</ns3:cad>
          </ns3:TrackPointExtension>
        </extensions>
      </trkpt>
      <trkpt lat="23.16321280784904956817626953125" lon="113.2575981505215167999267578125">
        <ele>9</ele>
        <time>2020-11-27T10:06:11.000Z</time>
        <extensions>
          <ns3:TrackPointExtension>
            <ns3:hr>153</ns3:hr>
            <ns3:cad>59</ns3:cad>
          </ns3:TrackPointExtension>
        </extensions>
      </trkpt>
      <trkpt lat="23.1632172502577304840087890625" lon="113.257672078907489776611328125">
        <ele>11</ele>
        <time>2020-11-27T10:06:14.000Z</time>
        <extensions>
          <ns3:TrackPointExtension>
            <ns3:hr>159</ns3:hr>
            <ns3:cad>59</ns3:cad>
          </ns3:TrackPointExtension>
        </extensions>
      </trkpt>
      <trkpt lat="23.16317282617092132568359375" lon="113.2578066922724246978759765625">
        <ele>13.3999996185302734375</ele>
        <time>2020-11-27T10:06:19.000Z</time>
        <extensions>
          <ns3:TrackPointExtension>
            <ns3:hr>162</ns3:hr>
            <ns3:cad>84</ns3:cad>
          </ns3:TrackPointExtension>
        </extensions>
      </trkpt>
      <trkpt lat="23.1631133146584033966064453125" lon="113.25785790570080280303955078125">
        <ele>14.19999980926513671875</ele>
        <time>2020-11-27T10:06:22.000Z</time>
        <extensions>
          <ns3:TrackPointExtension>
            <ns3:hr>158</ns3:hr>
            <ns3:cad>84</ns3:cad>
          </ns3:TrackPointExtension>
        </extensions>
      </trkpt>
      <trkpt lat="23.16307182423770427703857421875" lon="113.2578817941248416900634765625">
        <ele>14.6000003814697265625</ele>
        <time>2020-11-27T10:06:24.000Z</time>
        <extensions>
          <ns3:TrackPointExtension>
            <ns3:hr>157</ns3:hr>
            <ns3:cad>85</ns3:cad>
          </ns3:TrackPointExtension>
        </extensions>
      </trkpt>
      <trkpt lat="23.16288876347243785858154296875" lon="113.2578710652887821197509765625">
        <ele>14</ele>
        <time>2020-11-27T10:06:32.000Z</time>
        <extensions>
          <ns3:TrackPointExtension>
            <ns3:hr>157</ns3:hr>
            <ns3:cad>85</ns3:cad>
          </ns3:TrackPointExtension>
        </extensions>
      </trkpt>
      <trkpt lat="23.162782900035381317138671875" lon="113.25785748660564422607421875">
        <ele>13</ele>
        <time>2020-11-27T10:06:37.000Z</time>
        <extensions>
          <ns3:TrackPointExtension>
            <ns3:hr>160</ns3:hr>
            <ns3:cad>86</ns3:cad>
          </ns3:TrackPointExtension>
        </extensions>
      </trkpt>
      <trkpt lat="23.16262305714190006256103515625" lon="113.2578217796981334686279296875">
        <ele>11.19999980926513671875</ele>
        <time>2020-11-27T10:06:43.000Z</time>
        <extensions>
          <ns3:TrackPointExtension>
            <ns3:hr>163</ns3:hr>
            <ns3:cad>87</ns3:cad>
          </ns3:TrackPointExtension>
        </extensions>
      </trkpt>
      <trkpt lat="23.16242474131286144256591796875" lon="113.2578227855265140533447265625">
        <ele>9</ele>
        <time>2020-11-27T10:06:51.000Z</time>
        <extensions>
          <ns3:TrackPointExtension>
            <ns3:hr>164</ns3:hr>
            <ns3:cad>85</ns3:cad>
          </ns3:TrackPointExtension>
        </extensions>
      </trkpt>
      <trkpt lat="23.16222843714058399200439453125" lon="113.25780518352985382080078125">
        <ele>9</ele>
        <time>2020-11-27T10:06:59.000Z</time>
        <extensions>
          <ns3:TrackPointExtension>
            <ns3:hr>162</ns3:hr>
            <ns3:cad>84</ns3:cad>
          </ns3:TrackPointExtension>
        </extensions>
      </trkpt>
      <trkpt lat="23.16206733696162700653076171875" lon="113.25780476443469524383544921875">
        <ele>8.6000003814697265625</ele>
        <time>2020-11-27T10:07:06.000Z</time>
        <extensions>
          <ns3:TrackPointExtension>
            <ns3:hr>159</ns3:hr>
            <ns3:cad>84</ns3:cad>
          </ns3:TrackPointExtension>
        </extensions>
      </trkpt>
      <trkpt lat="23.162033557891845703125" lon="113.25780996121466159820556640625">
        <ele>9</ele>
        <time>2020-11-27T10:07:09.000Z</time>
        <extensions>
          <ns3:TrackPointExtension>
            <ns3:hr>159</ns3:hr>
            <ns3:cad>84</ns3:cad>
          </ns3:TrackPointExtension>
        </extensions>
      </trkpt>
      <trkpt lat="23.1618687696754932403564453125" lon="113.2578931935131549835205078125">
        <ele>10</ele>
        <time>2020-11-27T10:07:20.000Z</time>
        <extensions>
          <ns3:TrackPointExtension>
            <ns3:hr>159</ns3:hr>
            <ns3:cad>105</ns3:cad>
          </ns3:TrackPointExtension>
        </extensions>
      </trkpt>
      <trkpt lat="23.16179526038467884063720703125" lon="113.2579237036406993865966796875">
        <ele>10.19999980926513671875</ele>
        <time>2020-11-27T10:07:24.000Z</time>
        <extensions>
          <ns3:TrackPointExtension>
            <ns3:hr>162</ns3:hr>
            <ns3:cad>85</ns3:cad>
          </ns3:TrackPointExtension>
        </extensions>
      </trkpt>
      <trkpt lat="23.1616340763866901397705078125" lon="113.25803048908710479736328125">
        <ele>14.3999996185302734375</ele>
        <time>2020-11-27T10:07:33.000Z</time>
        <extensions>
          <ns3:TrackPointExtension>
            <ns3:hr>163</ns3:hr>
            <ns3:cad>83</ns3:cad>
          </ns3:TrackPointExtension>
        </extensions>
      </trkpt>
      <trkpt lat="23.16149585880339145660400390625" lon="113.25816971249878406524658203125">
        <ele>16.799999237060546875</ele>
        <time>2020-11-27T10:07:40.000Z</time>
        <extensions>
          <ns3:TrackPointExtension>
            <ns3:hr>162</ns3:hr>
            <ns3:cad>84</ns3:cad>
          </ns3:TrackPointExtension>
        </extensions>
      </trkpt>
      <trkpt lat="23.16143215633928775787353515625" lon="113.258359730243682861328125">
        <ele>16.799999237060546875</ele>
        <time>2020-11-27T10:07:49.000Z</time>
        <extensions>
          <ns3:TrackPointExtension>
            <ns3:hr>160</ns3:hr>
            <ns3:cad>81</ns3:cad>
          </ns3:TrackPointExtension>
        </extensions>
      </trkpt>
      <trkpt lat="23.16136141307651996612548828125" lon="113.25840541161596775054931640625">
        <ele>17</ele>
        <time>2020-11-27T10:07:54.000Z</time>
        <extensions>
          <ns3:TrackPointExtension>
            <ns3:hr>160</ns3:hr>
            <ns3:cad>82</ns3:cad>
          </ns3:TrackPointExtension>
        </extensions>
      </trkpt>
      <trkpt lat="23.16131883300840854644775390625" lon="113.25837515294551849365234375">
        <ele>17.3999996185302734375</ele>
        <time>2020-11-27T10:07:56.000Z</time>
        <extensions>
          <ns3:TrackPointExtension>
            <ns3:hr>160</ns3:hr>
            <ns3:cad>84</ns3:cad>
          </ns3:TrackPointExtension>
        </extensions>
      </trkpt>
      <trkpt lat="23.1601648963987827301025390625" lon="113.2581453211605548858642578125">
        <ele>11.19999980926513671875</ele>
        <time>2020-11-27T10:09:25.000Z</time>
        <extensions>
          <ns3:TrackPointExtension>
            <ns3:hr>132</ns3:hr>
            <ns3:cad>61</ns3:cad>
          </ns3:TrackPointExtension>
        </extensions>
      </trkpt>
      <trkpt lat="23.1601568497717380523681640625" lon="113.258162252604961395263671875">
        <ele>11.3999996185302734375</ele>
        <time>2020-11-27T10:09:26.000Z</time>
        <extensions>
          <ns3:TrackPointExtension>
            <ns3:hr>132</ns3:hr>
            <ns3:cad>61</ns3:cad>
          </ns3:TrackPointExtension>
        </extensions>
      </trkpt>
      <trkpt lat="23.15998367965221405029296875" lon="113.258204162120819091796875">
        <ele>13.80000019073486328125</ele>
        <time>2020-11-27T10:09:36.000Z</time>
        <extensions>
          <ns3:TrackPointExtension>
            <ns3:hr>129</ns3:hr>
            <ns3:cad>84</ns3:cad>
          </ns3:TrackPointExtension>
        </extensions>
      </trkpt>
      <trkpt lat="23.15996414981782436370849609375" lon="113.25820189900696277618408203125">
        <ele>14.19999980926513671875</ele>
        <time>2020-11-27T10:09:37.000Z</time>
        <extensions>
          <ns3:TrackPointExtension>
            <ns3:hr>133</ns3:hr>
            <ns3:cad>83</ns3:cad>
          </ns3:TrackPointExtension>
        </extensions>
      </trkpt>
      <trkpt lat="23.15992198884487152099609375" lon="113.258198462426662445068359375">
        <ele>14.80000019073486328125</ele>
        <time>2020-11-27T10:09:39.000Z</time>
        <extensions>
          <ns3:TrackPointExtension>
            <ns3:hr>138</ns3:hr>
            <ns3:cad>83</ns3:cad>
          </ns3:TrackPointExtension>
        </extensions>
      </trkpt>
      <trkpt lat="23.1599006988108158111572265625" lon="113.25819334946572780609130859375">
        <ele>15</ele>
        <time>2020-11-27T10:09:40.000Z</time>
        <extensions>
          <ns3:TrackPointExtension>
            <ns3:hr>138</ns3:hr>
            <ns3:cad>83</ns3:cad>
          </ns3:TrackPointExtension>
        </extensions>
      </trkpt>
      <trkpt lat="23.15988016314804553985595703125" lon="113.25818530283868312835693359375">
        <ele>15.19999980926513671875</ele>
        <time>2020-11-27T10:09:41.000Z</time>
        <extensions>
          <ns3:TrackPointExtension>
            <ns3:hr>145</ns3:hr>
            <ns3:cad>83</ns3:cad>
          </ns3:TrackPointExtension>
        </extensions>
      </trkpt>
      <trkpt lat="23.1598624773323535919189453125" lon="113.25817574746906757354736328125">
        <ele>15.3999996185302734375</ele>
        <time>2020-11-27T10:09:42.000Z</time>
        <extensions>
          <ns3:TrackPointExtension>
            <ns3:hr>148</ns3:hr>
            <ns3:cad>83</ns3:cad>
          </ns3:TrackPointExtension>
        </extensions>
      </trkpt>
      <trkpt lat="23.1598410196602344512939453125" lon="113.2581687904894351959228515625">
        <ele>15.3999996185302734375</ele>
        <time>2020-11-27T10:09:43.000Z</time>
        <extensions>
          <ns3:TrackPointExtension>
            <ns3:hr>148</ns3:hr>
            <ns3:cad>84</ns3:cad>
          </ns3:TrackPointExtension>
        </extensions>
      </trkpt>
      <trkpt lat="23.15980288200080394744873046875" lon="113.25815378688275814056396484375">
        <ele>15.80000019073486328125</ele>
        <time>2020-11-27T10:09:45.000Z</time>
        <extensions>
          <ns3:TrackPointExtension>
            <ns3:hr>145</ns3:hr>
            <ns3:cad>84</ns3:cad>
          </ns3:TrackPointExtension>
        </extensions>
      </trkpt>
      <trkpt lat="23.15975242294371128082275390625" lon="113.258140794932842254638671875">
        <ele>16.200000762939453125</ele>
        <time>2020-11-27T10:09:47.000Z</time>
        <extensions>
          <ns3:TrackPointExtension>
            <ns3:hr>142</ns3:hr>
            <ns3:cad>85</ns3:cad>
          </ns3:TrackPointExtension>
        </extensions>
      </trkpt>
      <trkpt lat="23.15970045514404773712158203125" lon="113.25812327675521373748779296875">
        <ele>16.3999996185302734375</ele>
        <time>2020-11-27T10:09:49.000Z</time>
        <extensions>
          <ns3:TrackPointExtension>
            <ns3:hr>147</ns3:hr>
            <ns3:cad>85</ns3:cad>
          </ns3:TrackPointExtension>
        </extensions>
      </trkpt>
      <trkpt lat="23.15966709516942501068115234375" lon="113.258134089410305023193359375">
        <ele>16.799999237060546875</ele>
        <time>2020-11-27T10:09:50.000Z</time>
        <extensions>
          <ns3:TrackPointExtension>
            <ns3:hr>151</ns3:hr>
            <ns3:cad>84</ns3:cad>
          </ns3:TrackPointExtension>
        </extensions>
      </trkpt>
      <trkpt lat="23.159608505666255950927734375" lon="113.25814590789377689361572265625">
        <ele>16.799999237060546875</ele>
        <time>2020-11-27T10:09:52.000Z</time>
        <extensions>
          <ns3:TrackPointExtension>
            <ns3:hr>154</ns3:hr>
            <ns3:cad>84</ns3:cad>
          </ns3:TrackPointExtension>
        </extensions>
      </trkpt>
      <trkpt lat="23.15951538272202014923095703125" lon="113.25819603167474269866943359375">
        <ele>16.200000762939453125</ele>
        <time>2020-11-27T10:09:55.000Z</time>
        <extensions>
          <ns3:TrackPointExtension>
            <ns3:hr>157</ns3:hr>
            <ns3:cad>86</ns3:cad>
          </ns3:TrackPointExtension>
        </extensions>
      </trkpt>
      <trkpt lat="23.15933299250900745391845703125" lon="113.258258141577243804931640625">
        <ele>15</ele>
        <time>2020-11-27T10:10:02.000Z</time>
        <extensions>
          <ns3:TrackPointExtension>
            <ns3:hr>159</ns3:hr>
            <ns3:cad>85</ns3:cad>
          </ns3:TrackPointExtension>
        </extensions>
      </trkpt>
      <trkpt lat="23.1592606566846370697021484375" lon="113.25825177133083343505859375">
        <ele>14.3999996185302734375</ele>
        <time>2020-11-27T10:10:05.000Z</time>
        <extensions>
          <ns3:TrackPointExtension>
            <ns3:hr>163</ns3:hr>
            <ns3:cad>85</ns3:cad>
          </ns3:TrackPointExtension>
        </extensions>
      </trkpt>
      <trkpt lat="23.15911464393138885498046875" lon="113.25822570361196994781494140625">
        <ele>13.3999996185302734375</ele>
        <time>2020-11-27T10:10:10.000Z</time>
        <extensions>
          <ns3:TrackPointExtension>
            <ns3:hr>160</ns3:hr>
            <ns3:cad>82</ns3:cad>
          </ns3:TrackPointExtension>
        </extensions>
      </trkpt>
      <trkpt lat="23.158912472426891326904296875" lon="113.25820592232048511505126953125">
        <ele>13</ele>
        <time>2020-11-27T10:10:15.000Z</time>
        <extensions>
          <ns3:TrackPointExtension>
            <ns3:hr>162</ns3:hr>
            <ns3:cad>82</ns3:cad>
          </ns3:TrackPointExtension>
        </extensions>
      </trkpt>
      <trkpt lat="23.1587493605911731719970703125" lon="113.25820080935955047607421875">
        <ele>13</ele>
        <time>2020-11-27T10:10:22.000Z</time>
        <extensions>
          <ns3:TrackPointExtension>
            <ns3:hr>165</ns3:hr>
            <ns3:cad>82</ns3:cad>
          </ns3:TrackPointExtension>
        </extensions>
      </trkpt>
      <trkpt lat="23.15865942277014255523681640625" lon="113.25826727785170078277587890625">
        <ele>14</ele>
        <time>2020-11-27T10:10:26.000Z</time>
        <extensions>
          <ns3:TrackPointExtension>
            <ns3:hr>162</ns3:hr>
            <ns3:cad>83</ns3:cad>
          </ns3:TrackPointExtension>
        </extensions>
      </trkpt>
      <trkpt lat="23.15863586962223052978515625" lon="113.2582656852900981903076171875">
        <ele>14.19999980926513671875</ele>
        <time>2020-11-27T10:10:27.000Z</time>
        <extensions>
          <ns3:TrackPointExtension>
            <ns3:hr>159</ns3:hr>
            <ns3:cad>83</ns3:cad>
          </ns3:TrackPointExtension>
        </extensions>
      </trkpt>
      <trkpt lat="23.1586253084242343902587890625" lon="113.25826375745236873626708984375">
        <ele>14.19999980926513671875</ele>
        <time>2020-11-27T10:10:28.000Z</time>
        <extensions>
          <ns3:TrackPointExtension>
            <ns3:hr>162</ns3:hr>
            <ns3:cad>83</ns3:cad>
          </ns3:TrackPointExtension>
        </extensions>
      </trkpt>
      <trkpt lat="23.15859337337315082550048828125" lon="113.25826585292816162109375">
        <ele>14.3999996185302734375</ele>
        <time>2020-11-27T10:10:30.000Z</time>
        <extensions>
          <ns3:TrackPointExtension>
            <ns3:hr>165</ns3:hr>
            <ns3:cad>82</ns3:cad>
          </ns3:TrackPointExtension>
        </extensions>
      </trkpt>
      <trkpt lat="23.15840788185596466064453125" lon="113.258316814899444580078125">
        <ele>17.799999237060546875</ele>
        <time>2020-11-27T10:10:38.000Z</time>
        <extensions>
          <ns3:TrackPointExtension>
            <ns3:hr>163</ns3:hr>
            <ns3:cad>83</ns3:cad>
          </ns3:TrackPointExtension>
        </extensions>
      </trkpt>
      <trkpt lat="23.158229179680347442626953125" lon="113.2584293000400066375732421875">
        <ele>22.3999996185302734375</ele>
        <time>2020-11-27T10:10:49.000Z</time>
        <extensions>
          <ns3:TrackPointExtension>
            <ns3:hr>162</ns3:hr>
            <ns3:cad>81</ns3:cad>
          </ns3:TrackPointExtension>
        </extensions>
      </trkpt>
      <trkpt lat="23.15821937285363674163818359375" lon="113.2584346644580364227294921875">
        <ele>22.6000003814697265625</ele>
        <time>2020-11-27T10:10:50.000Z</time>
        <extensions>
          <ns3:TrackPointExtension>
            <ns3:hr>162</ns3:hr>
            <ns3:cad>61</ns3:cad>
          </ns3:TrackPointExtension>
        </extensions>
      </trkpt>
      <trkpt lat="23.14854581840336322784423828125" lon="113.256888873875141143798828125">
        <ele>11</ele>
        <time>2020-11-27T10:31:24.000Z</time>
        <extensions>
          <ns3:TrackPointExtension>
            <ns3:hr>105</ns3:hr>
            <ns3:cad>0</ns3:cad>
          </ns3:TrackPointExtension>
        </extensions>
      </trkpt>
      <trkpt lat="23.1485163979232311248779296875" lon="113.25691058300435543060302734375">
        <ele>10.3999996185302734375</ele>
        <time>2020-11-27T10:31:26.000Z</time>
        <extensions>
          <ns3:TrackPointExtension>
            <ns3:hr>102</ns3:hr>
            <ns3:cad>0</ns3:cad>
          </ns3:TrackPointExtension>
        </extensions>
      </trkpt>
      <trkpt lat="23.14850223250687122344970703125" lon="113.25691041536629199981689453125">
        <ele>10</ele>
        <time>2020-11-27T10:31:27.000Z</time>
        <extensions>
          <ns3:TrackPointExtension>
            <ns3:hr>102</ns3:hr>
            <ns3:cad>0</ns3:cad>
          </ns3:TrackPointExtension>
        </extensions>
      </trkpt>
      <trkpt lat="23.1484629213809967041015625" lon="113.25691393576562404632568359375">
        <ele>9.19999980926513671875</ele>
        <time>2020-11-27T10:31:29.000Z</time>
        <extensions>
          <ns3:TrackPointExtension>
            <ns3:hr>102</ns3:hr>
            <ns3:cad>79</ns3:cad>
          </ns3:TrackPointExtension>
        </extensions>
      </trkpt>
      <trkpt lat="23.14842469990253448486328125" lon="113.256872110068798065185546875">
        <ele>9.19999980926513671875</ele>
        <time>2020-11-27T10:31:34.000Z</time>
        <extensions>
          <ns3:TrackPointExtension>
            <ns3:hr>97</ns3:hr>
            <ns3:cad>81</ns3:cad>
          </ns3:TrackPointExtension>
        </extensions>
      </trkpt>
      <trkpt lat="23.14841774292290210723876953125" lon="113.2568662427365779876708984375">
        <ele>9.19999980926513671875</ele>
        <time>2020-11-27T10:31:35.000Z</time>
        <extensions>
          <ns3:TrackPointExtension>
            <ns3:hr>102</ns3:hr>
            <ns3:cad>82</ns3:cad>
          </ns3:TrackPointExtension>
        </extensions>
      </trkpt>
      <trkpt lat="23.14817232079803943634033203125" lon="113.25678250752389430999755859375">
        <ele>6.599999904632568359375</ele>
        <time>2020-11-27T10:32:39.000Z</time>
        <extensions>
          <ns3:TrackPointExtension>
            <ns3:hr>120</ns3:hr>
            <ns3:cad>0</ns3:cad>
          </ns3:TrackPointExtension>
        </extensions>
      </trkpt>
      <trkpt lat="23.148170895874500274658203125" lon="113.2567785680294036865234375">
        <ele>6.599999904632568359375</ele>
        <time>2020-11-27T10:32:40.000Z</time>
        <extensions>
          <ns3:TrackPointExtension>
            <ns3:hr>119</ns3:hr>
            <ns3:cad>0</ns3:cad>
          </ns3:TrackPointExtension>
        </extensions>
      </trkpt>
      <trkpt lat="23.148088753223419189453125" lon="113.25674168765544891357421875">
        <ele>6.400000095367431640625</ele>
        <time>2020-11-27T10:32:49.000Z</time>
        <extensions>
          <ns3:TrackPointExtension>
            <ns3:hr>114</ns3:hr>
            <ns3:cad>81</ns3:cad>
          </ns3:TrackPointExtension>
        </extensions>
      </trkpt>
      <trkpt lat="23.148083724081516265869140625" lon="113.256728611886501312255859375">
        <ele>6.599999904632568359375</ele>
        <time>2020-11-27T10:32:50.000Z</time>
        <extensions>
          <ns3:TrackPointExtension>
            <ns3:hr>115</ns3:hr>
            <ns3:cad>82</ns3:cad>
          </ns3:TrackPointExtension>
        </extensions>
      </trkpt>
      <trkpt lat="23.14807710237801074981689453125" lon="113.25672022998332977294921875">
        <ele>6.599999904632568359375</ele>
        <time>2020-11-27T10:32:51.000Z</time>
        <extensions>
          <ns3:TrackPointExtension>
            <ns3:hr>122</ns3:hr>
            <ns3:cad>82</ns3:cad>
          </ns3:TrackPointExtension>
        </extensions>
      </trkpt>
      <trkpt lat="23.1480728276073932647705078125" lon="113.25671209953725337982177734375">
        <ele>6.80000019073486328125</ele>
        <time>2020-11-27T10:32:52.000Z</time>
        <extensions>
          <ns3:TrackPointExtension>
            <ns3:hr>128</ns3:hr>
            <ns3:cad>82</ns3:cad>
          </ns3:TrackPointExtension>
        </extensions>
      </trkpt>
      <trkpt lat="23.148066960275173187255859375" lon="113.25670556165277957916259765625">
        <ele>6.80000019073486328125</ele>
        <time>2020-11-27T10:32:53.000Z</time>
        <extensions>
          <ns3:TrackPointExtension>
            <ns3:hr>131</ns3:hr>
            <ns3:cad>82</ns3:cad>
          </ns3:TrackPointExtension>
        </extensions>
      </trkpt>
      <trkpt lat="23.14805648289620876312255859375" lon="113.25669315643608570098876953125">
        <ele>7</ele>
        <time>2020-11-27T10:32:55.000Z</time>
        <extensions>
          <ns3:TrackPointExtension>
            <ns3:hr>135</ns3:hr>
            <ns3:cad>81</ns3:cad>
          </ns3:TrackPointExtension>
        </extensions>
      </trkpt>
      <trkpt lat="23.14804759807884693145751953125" lon="113.256687708199024200439453125">
        <ele>7</ele>
        <time>2020-11-27T10:32:56.000Z</time>
        <extensions>
          <ns3:TrackPointExtension>
            <ns3:hr>140</ns3:hr>
            <ns3:cad>81</ns3:cad>
          </ns3:TrackPointExtension>
        </extensions>
      </trkpt>
      <trkpt lat="23.1480369530618190765380859375" lon="113.2566848583519458770751953125">
        <ele>7</ele>
        <time>2020-11-27T10:32:57.000Z</time>
        <extensions>
          <ns3:TrackPointExtension>
            <ns3:hr>145</ns3:hr>
            <ns3:cad>81</ns3:cad>
          </ns3:TrackPointExtension>
        </extensions>
      </trkpt>
      <trkpt lat="23.147879205644130706787109375" lon="113.2566660828888416290283203125">
        <ele>7.400000095367431640625</ele>
        <time>2020-11-27T10:33:05.000Z</time>
        <extensions>
          <ns3:TrackPointExtension>
            <ns3:hr>151</ns3:hr>
            <ns3:cad>82</ns3:cad>
          </ns3:TrackPointExtension>
        </extensions>
      </trkpt>
      <trkpt lat="23.14785665832459926605224609375" lon="113.2566632330417633056640625">
        <ele>7.599999904632568359375</ele>
        <time>2020-11-27T10:33:06.000Z</time>
        <extensions>
          <ns3:TrackPointExtension>
            <ns3:hr>151</ns3:hr>
            <ns3:cad>83</ns3:cad>
          </ns3:TrackPointExtension>
        </extensions>
      </trkpt>
      <trkpt lat="23.14783654175698757171630859375" lon="113.25666130520403385162353515625">
        <ele>7.80000019073486328125</ele>
        <time>2020-11-27T10:33:07.000Z</time>
        <extensions>
          <ns3:TrackPointExtension>
            <ns3:hr>155</ns3:hr>
            <ns3:cad>83</ns3:cad>
          </ns3:TrackPointExtension>
        </extensions>
      </trkpt>
      <trkpt lat="23.1477318517863750457763671875" lon="113.25665158219635486602783203125">
        <ele>8.6000003814697265625</ele>
        <time>2020-11-27T10:33:12.000Z</time>
        <extensions>
          <ns3:TrackPointExtension>
            <ns3:hr>158</ns3:hr>
            <ns3:cad>83</ns3:cad>
          </ns3:TrackPointExtension>
        </extensions>
      </trkpt>
      <trkpt lat="23.14771031029522418975830078125" lon="113.2566498219966888427734375">
        <ele>8.80000019073486328125</ele>
        <time>2020-11-27T10:33:13.000Z</time>
        <extensions>
          <ns3:TrackPointExtension>
            <ns3:hr>161</ns3:hr>
            <ns3:cad>82</ns3:cad>
          </ns3:TrackPointExtension>
        </extensions>
      </trkpt>
      <trkpt lat="23.14766840077936649322509765625" lon="113.256642781198024749755859375">
        <ele>9</ele>
        <time>2020-11-27T10:33:15.000Z</time>
        <extensions>
          <ns3:TrackPointExtension>
            <ns3:hr>164</ns3:hr>
            <ns3:cad>82</ns3:cad>
          </ns3:TrackPointExtension>
        </extensions>
      </trkpt>
      <trkpt lat="23.1476235575973987579345703125" lon="113.25663448311388492584228515625">
        <ele>9.19999980926513671875</ele>
        <time>2020-11-27T10:33:17.000Z</time>
        <extensions>
          <ns3:TrackPointExtension>
            <ns3:hr>161</ns3:hr>
            <ns3:cad>83</ns3:cad>
          </ns3:TrackPointExtension>
        </extensions>
      </trkpt>
      <trkpt lat="23.14760386012494564056396484375" lon="113.2566305436193943023681640625">
        <ele>9.3999996185302734375</ele>
        <time>2020-11-27T10:33:18.000Z</time>
        <extensions>
          <ns3:TrackPointExtension>
            <ns3:hr>158</ns3:hr>
            <ns3:cad>83</ns3:cad>
          </ns3:TrackPointExtension>
        </extensions>
      </trkpt>
      <trkpt lat="23.14751920290291309356689453125" lon="113.25661352835595607757568359375">
        <ele>9.6000003814697265625</ele>
        <time>2020-11-27T10:33:22.000Z</time>
        <extensions>
          <ns3:TrackPointExtension>
            <ns3:hr>161</ns3:hr>
            <ns3:cad>83</ns3:cad>
          </ns3:TrackPointExtension>
        </extensions>
      </trkpt>
      <trkpt lat="23.14742063172161579132080078125" lon="113.256597183644771575927734375">
        <ele>10</ele>
        <time>2020-11-27T10:33:26.000Z</time>
        <extensions>
          <ns3:TrackPointExtension>
            <ns3:hr>157</ns3:hr>
            <ns3:cad>83</ns3:cad>
          </ns3:TrackPointExtension>
        </extensions>
      </trkpt>
      <trkpt lat="23.14739473164081573486328125" lon="113.25659290887415409088134765625">
        <ele>10.19999980926513671875</ele>
        <time>2020-11-27T10:33:27.000Z</time>
        <extensions>
          <ns3:TrackPointExtension>
            <ns3:hr>160</ns3:hr>
            <ns3:cad>83</ns3:cad>
          </ns3:TrackPointExtension>
        </extensions>
      </trkpt>
      <trkpt lat="23.1473697535693645477294921875" lon="113.2565903104841709136962890625">
        <ele>10.19999980926513671875</ele>
        <time>2020-11-27T10:33:28.000Z</time>
        <extensions>
          <ns3:TrackPointExtension>
            <ns3:hr>163</ns3:hr>
            <ns3:cad>83</ns3:cad>
          </ns3:TrackPointExtension>
        </extensions>
      </trkpt>
      <trkpt lat="23.1473439373075962066650390625" lon="113.25658787973225116729736328125">
        <ele>10.3999996185302734375</ele>
        <time>2020-11-27T10:33:29.000Z</time>
        <extensions>
          <ns3:TrackPointExtension>
            <ns3:hr>163</ns3:hr>
            <ns3:cad>83</ns3:cad>
          </ns3:TrackPointExtension>
        </extensions>
      </trkpt>
      <trkpt lat="23.14726590178906917572021484375" lon="113.25657933019101619720458984375">
        <ele>10.80000019073486328125</ele>
        <time>2020-11-27T10:33:31.000Z</time>
        <extensions>
          <ns3:TrackPointExtension>
            <ns3:hr>148</ns3:hr>
            <ns3:cad>83</ns3:cad>
          </ns3:TrackPointExtension>
        </extensions>
      </trkpt>
      <trkpt lat="23.14726590178906917572021484375" lon="113.25657933019101619720458984375">
        <ele>10.80000019073486328125</ele>
        <time>2020-11-27T10:33:32.000Z</time>
        <extensions>
          <ns3:TrackPointExtension>
            <ns3:hr>148</ns3:hr>
            <ns3:cad>83</ns3:cad>
          </ns3:TrackPointExtension>
        </extensions>
      </trkpt>
      <trkpt lat="23.14718996174633502960205078125" lon="113.2565705291926860809326171875">
        <ele>11.19999980926513671875</ele>
        <time>2020-11-27T10:33:35.000Z</time>
        <extensions>
          <ns3:TrackPointExtension>
            <ns3:hr>152</ns3:hr>
            <ns3:cad>82</ns3:cad>
          </ns3:TrackPointExtension>
        </extensions>
      </trkpt>
      <trkpt lat="23.14699566923081874847412109375" lon="113.256549574434757232666015625">
        <ele>11</ele>
        <time>2020-11-27T10:33:43.000Z</time>
        <extensions>
          <ns3:TrackPointExtension>
            <ns3:hr>150</ns3:hr>
            <ns3:cad>83</ns3:cad>
          </ns3:TrackPointExtension>
        </extensions>
      </trkpt>
      <trkpt lat="23.14694521017372608184814453125" lon="113.25654077343642711639404296875">
        <ele>10.80000019073486328125</ele>
        <time>2020-11-27T10:33:44.000Z</time>
        <extensions>
          <ns3:TrackPointExtension>
            <ns3:hr>145</ns3:hr>
            <ns3:cad>82</ns3:cad>
          </ns3:TrackPointExtension>
        </extensions>
      </trkpt>
      <trkpt lat="23.14694521017372608184814453125" lon="113.25654077343642711639404296875">
        <ele>10.80000019073486328125</ele>
        <time>2020-11-27T10:33:45.000Z</time>
        <extensions>
          <ns3:TrackPointExtension>
            <ns3:hr>148</ns3:hr>
            <ns3:cad>82</ns3:cad>
          </ns3:TrackPointExtension>
        </extensions>
      </trkpt>
      <trkpt lat="23.14689424820244312286376953125" lon="113.2565393485128879547119140625">
        <ele>10.3999996185302734375</ele>
        <time>2020-11-27T10:33:47.000Z</time>
        <extensions>
          <ns3:TrackPointExtension>
            <ns3:hr>151</ns3:hr>
            <ns3:cad>83</ns3:cad>
          </ns3:TrackPointExtension>
        </extensions>
      </trkpt>
      <trkpt lat="23.1468229182064533233642578125" lon="113.2565336488187313079833984375">
        <ele>9.6000003814697265625</ele>
        <time>2020-11-27T10:33:50.000Z</time>
        <extensions>
          <ns3:TrackPointExtension>
            <ns3:hr>157</ns3:hr>
            <ns3:cad>83</ns3:cad>
          </ns3:TrackPointExtension>
        </extensions>
      </trkpt>
      <trkpt lat="23.14664899371564388275146484375" lon="113.25652250088751316070556640625">
        <ele>7.19999980926513671875</ele>
        <time>2020-11-27T10:33:57.000Z</time>
        <extensions>
          <ns3:TrackPointExtension>
            <ns3:hr>160</ns3:hr>
            <ns3:cad>83</ns3:cad>
          </ns3:TrackPointExtension>
        </extensions>
      </trkpt>
      <trkpt lat="23.14645671285688877105712890625" lon="113.2564934156835079193115234375">
        <ele>7.19999980926513671875</ele>
        <time>2020-11-27T10:34:05.000Z</time>
        <extensions>
          <ns3:TrackPointExtension>
            <ns3:hr>162</ns3:hr>
            <ns3:cad>83</ns3:cad>
          </ns3:TrackPointExtension>
        </extensions>
      </trkpt>
      <trkpt lat="23.14625755883753299713134765625" lon="113.25646600686013698577880859375">
        <ele>9</ele>
        <time>2020-11-27T10:34:14.000Z</time>
        <extensions>
          <ns3:TrackPointExtension>
            <ns3:hr>162</ns3:hr>
            <ns3:cad>82</ns3:cad>
          </ns3:TrackPointExtension>
        </extensions>
      </trkpt>
      <trkpt lat="23.14606276340782642364501953125" lon="113.25645200908184051513671875">
        <ele>11.80000019073486328125</ele>
        <time>2020-11-27T10:34:22.000Z</time>
        <extensions>
          <ns3:TrackPointExtension>
            <ns3:hr>161</ns3:hr>
            <ns3:cad>83</ns3:cad>
          </ns3:TrackPointExtension>
        </extensions>
      </trkpt>
      <trkpt lat="23.1458737514913082122802734375" lon="113.2564367540180683135986328125">
        <ele>11.6000003814697265625</ele>
        <time>2020-11-27T10:34:30.000Z</time>
        <extensions>
          <ns3:TrackPointExtension>
            <ns3:hr>161</ns3:hr>
            <ns3:cad>82</ns3:cad>
          </ns3:TrackPointExtension>
        </extensions>
      </trkpt>
      <trkpt lat="23.14568423666059970855712890625" lon="113.25642812065780162811279296875">
        <ele>12</ele>
        <time>2020-11-27T10:34:38.000Z</time>
        <extensions>
          <ns3:TrackPointExtension>
            <ns3:hr>162</ns3:hr>
            <ns3:cad>83</ns3:cad>
          </ns3:TrackPointExtension>
        </extensions>
      </trkpt>
      <trkpt lat="23.14549447037279605865478515625" lon="113.25641957111656665802001953125">
        <ele>10.80000019073486328125</ele>
        <time>2020-11-27T10:34:46.000Z</time>
        <extensions>
          <ns3:TrackPointExtension>
            <ns3:hr>162</ns3:hr>
            <ns3:cad>84</ns3:cad>
          </ns3:TrackPointExtension>
        </extensions>
      </trkpt>
      <trkpt lat="23.1452970765531063079833984375" lon="113.25640733353793621063232421875">
        <ele>12</ele>
        <time>2020-11-27T10:34:54.000Z</time>
        <extensions>
          <ns3:TrackPointExtension>
            <ns3:hr>162</ns3:hr>
            <ns3:cad>83</ns3:cad>
          </ns3:TrackPointExtension>
        </extensions>
      </trkpt>
      <trkpt lat="23.14511954784393310546875" lon="113.25636743567883968353271484375">
        <ele>13.19999980926513671875</ele>
        <time>2020-11-27T10:35:02.000Z</time>
        <extensions>
          <ns3:TrackPointExtension>
            <ns3:hr>161</ns3:hr>
            <ns3:cad>82</ns3:cad>
          </ns3:TrackPointExtension>
        </extensions>
      </trkpt>
      <trkpt lat="23.1449948251247406005859375" lon="113.2563834451138973236083984375">
        <ele>13.6000003814697265625</ele>
        <time>2020-11-27T10:35:09.000Z</time>
        <extensions>
          <ns3:TrackPointExtension>
            <ns3:hr>161</ns3:hr>
            <ns3:cad>83</ns3:cad>
          </ns3:TrackPointExtension>
        </extensions>
      </trkpt>
    </trkseg>
  </trk>
</gpx>
