<gpx xmlns:ns3="http://www.garmin.com/xmlschemas/TrackPointExtension/v1" xmlns="http://www.topografix.com/GPX/1/1" xmlns:xsi="http://www.w3.org/2001/XMLSchema-instance" xmlns:ns2="http://www.garmin.com/xmlschemas/GpxExtensions/v3" creator="Garmin Connect" version="1.1" xsi:schemaLocation="http://www.topografix.com/GPX/1/1 http://www.topografix.com/GPX/11.xsd">
  <extensions>
<distance>3067.05</distance>
<average_hr>179.0</average_hr>
<average_speed>2.4119999408721924</average_speed>
<start_time>2018-06-30T10:26:30+00:00</start_time>
<end_time>2018-06-30T10:47:41.729000+00:00</end_time>
<moving_time>1270.386</moving_time>
<elapsed_time>1768.786</elapsed_time>
</extensions>
<metadata>
    <link href="connect.garmin.com">
      <text>Garmin Connect</text>
    </link>
    <time>2018-06-30T10:26:30.000Z</time>
  </metadata>
  <trk>
    <name>广州市 跑步</name>
    <type>running</type>
    <trkseg>
      <trkpt lat="23.17504554055631160736083984375" lon="113.25762673281133174896240234375">
        <ele>2</ele>
        <time>2018-06-30T10:35:48.000Z</time>
        <extensions>
          <ns3:TrackPointExtension>
            <ns3:hr>149</ns3:hr>
            <ns3:cad>57</ns3:cad>
          </ns3:TrackPointExtension>
        </extensions>
      </trkpt>
      <trkpt lat="23.17505492828786373138427734375" lon="113.2576320134103298187255859375">
        <ele>2.2000000476837158203125</ele>
        <time>2018-06-30T10:35:49.000Z</time>
        <extensions>
          <ns3:TrackPointExtension>
            <ns3:hr>149</ns3:hr>
            <ns3:cad>57</ns3:cad>
          </ns3:TrackPointExtension>
        </extensions>
      </trkpt>
      <trkpt lat="23.17522088997066020965576171875" lon="113.25772614218294620513916015625">
        <ele>4.80000019073486328125</ele>
        <time>2018-06-30T10:35:59.000Z</time>
        <extensions>
          <ns3:TrackPointExtension>
            <ns3:hr>151</ns3:hr>
            <ns3:cad>83</ns3:cad>
          </ns3:TrackPointExtension>
        </extensions>
      </trkpt>
      <trkpt lat="23.17530336789786815643310546875" lon="113.2577683031558990478515625">
        <ele>7.19999980926513671875</ele>
        <time>2018-06-30T10:36:03.000Z</time>
        <extensions>
          <ns3:TrackPointExtension>
            <ns3:hr>156</ns3:hr>
            <ns3:cad>84</ns3:cad>
          </ns3:TrackPointExtension>
        </extensions>
      </trkpt>
      <trkpt lat="23.17532532848417758941650390625" lon="113.25778104364871978759765625">
        <ele>7.80000019073486328125</ele>
        <time>2018-06-30T10:36:04.000Z</time>
        <extensions>
          <ns3:TrackPointExtension>
            <ns3:hr>156</ns3:hr>
            <ns3:cad>84</ns3:cad>
          </ns3:TrackPointExtension>
        </extensions>
      </trkpt>
      <trkpt lat="23.175391964614391326904296875" lon="113.25782303698360919952392578125">
        <ele>9.6000003814697265625</ele>
        <time>2018-06-30T10:36:07.000Z</time>
        <extensions>
          <ns3:TrackPointExtension>
            <ns3:hr>160</ns3:hr>
            <ns3:cad>84</ns3:cad>
          </ns3:TrackPointExtension>
        </extensions>
      </trkpt>
      <trkpt lat="23.17541132681071758270263671875" lon="113.25783695094287395477294921875">
        <ele>10</ele>
        <time>2018-06-30T10:36:08.000Z</time>
        <extensions>
          <ns3:TrackPointExtension>
            <ns3:hr>165</ns3:hr>
            <ns3:cad>84</ns3:cad>
          </ns3:TrackPointExtension>
        </extensions>
      </trkpt>
      <trkpt lat="23.17543999291956424713134765625" lon="113.2578449137508869171142578125">
        <ele>10.80000019073486328125</ele>
        <time>2018-06-30T10:36:09.000Z</time>
        <extensions>
          <ns3:TrackPointExtension>
            <ns3:hr>165</ns3:hr>
            <ns3:cad>84</ns3:cad>
          </ns3:TrackPointExtension>
        </extensions>
      </trkpt>
      <trkpt lat="23.17550453357398509979248046875" lon="113.25788640417158603668212890625">
        <ele>12.3999996185302734375</ele>
        <time>2018-06-30T10:36:12.000Z</time>
        <extensions>
          <ns3:TrackPointExtension>
            <ns3:hr>161</ns3:hr>
            <ns3:cad>84</ns3:cad>
          </ns3:TrackPointExtension>
        </extensions>
      </trkpt>
      <trkpt lat="23.17554962821304798126220703125" lon="113.25791289098560810089111328125">
        <ele>13.19999980926513671875</ele>
        <time>2018-06-30T10:36:14.000Z</time>
        <extensions>
          <ns3:TrackPointExtension>
            <ns3:hr>164</ns3:hr>
            <ns3:cad>84</ns3:cad>
          </ns3:TrackPointExtension>
        </extensions>
      </trkpt>
      <trkpt lat="23.17557058297097682952880859375" lon="113.25792529620230197906494140625">
        <ele>13.6000003814697265625</ele>
        <time>2018-06-30T10:36:15.000Z</time>
        <extensions>
          <ns3:TrackPointExtension>
            <ns3:hr>172</ns3:hr>
            <ns3:cad>84</ns3:cad>
          </ns3:TrackPointExtension>
        </extensions>
      </trkpt>
      <trkpt lat="23.1755946390330791473388671875" lon="113.25793527066707611083984375">
        <ele>14.19999980926513671875</ele>
        <time>2018-06-30T10:36:16.000Z</time>
        <extensions>
          <ns3:TrackPointExtension>
            <ns3:hr>176</ns3:hr>
            <ns3:cad>83</ns3:cad>
          </ns3:TrackPointExtension>
        </extensions>
      </trkpt>
      <trkpt lat="23.17570402286946773529052734375" lon="113.257996626198291778564453125">
        <ele>16.200000762939453125</ele>
        <time>2018-06-30T10:36:21.000Z</time>
        <extensions>
          <ns3:TrackPointExtension>
            <ns3:hr>181</ns3:hr>
            <ns3:cad>83</ns3:cad>
          </ns3:TrackPointExtension>
        </extensions>
      </trkpt>
      <trkpt lat="23.17576705478131771087646484375" lon="113.25803308747708797454833984375">
        <ele>17.799999237060546875</ele>
        <time>2018-06-30T10:36:24.000Z</time>
        <extensions>
          <ns3:TrackPointExtension>
            <ns3:hr>178</ns3:hr>
            <ns3:cad>83</ns3:cad>
          </ns3:TrackPointExtension>
        </extensions>
      </trkpt>
      <trkpt lat="23.17580862902104854583740234375" lon="113.25805856846272945404052734375">
        <ele>19.6000003814697265625</ele>
        <time>2018-06-30T10:36:25.000Z</time>
        <extensions>
          <ns3:TrackPointExtension>
            <ns3:hr>168</ns3:hr>
            <ns3:cad>84</ns3:cad>
          </ns3:TrackPointExtension>
        </extensions>
      </trkpt>
      <trkpt lat="23.17580862902104854583740234375" lon="113.25805856846272945404052734375">
        <ele>19.6000003814697265625</ele>
        <time>2018-06-30T10:36:26.000Z</time>
        <extensions>
          <ns3:TrackPointExtension>
            <ns3:hr>169</ns3:hr>
            <ns3:cad>84</ns3:cad>
          </ns3:TrackPointExtension>
        </extensions>
      </trkpt>
      <trkpt lat="23.17584601230919361114501953125" lon="113.25809176079928874969482421875">
        <ele>21</ele>
        <time>2018-06-30T10:36:28.000Z</time>
        <extensions>
          <ns3:TrackPointExtension>
            <ns3:hr>180</ns3:hr>
            <ns3:cad>84</ns3:cad>
          </ns3:TrackPointExtension>
        </extensions>
      </trkpt>
      <trkpt lat="23.17586445249617099761962890625" lon="113.25810969807207584381103515625">
        <ele>21.799999237060546875</ele>
        <time>2018-06-30T10:36:29.000Z</time>
        <extensions>
          <ns3:TrackPointExtension>
            <ns3:hr>180</ns3:hr>
            <ns3:cad>84</ns3:cad>
          </ns3:TrackPointExtension>
        </extensions>
      </trkpt>
      <trkpt lat="23.175910301506519317626953125" lon="113.258134424686431884765625">
        <ele>23.3999996185302734375</ele>
        <time>2018-06-30T10:36:30.000Z</time>
        <extensions>
          <ns3:TrackPointExtension>
            <ns3:hr>177</ns3:hr>
            <ns3:cad>86</ns3:cad>
          </ns3:TrackPointExtension>
        </extensions>
      </trkpt>
      <trkpt lat="23.175972998142242431640625" lon="113.25817105360329151153564453125">
        <ele>25.6000003814697265625</ele>
        <time>2018-06-30T10:36:34.000Z</time>
        <extensions>
          <ns3:TrackPointExtension>
            <ns3:hr>180</ns3:hr>
            <ns3:cad>86</ns3:cad>
          </ns3:TrackPointExtension>
        </extensions>
      </trkpt>
      <trkpt lat="23.17601650021970272064208984375" lon="113.2582003064453601837158203125">
        <ele>27.200000762939453125</ele>
        <time>2018-06-30T10:36:35.000Z</time>
        <extensions>
          <ns3:TrackPointExtension>
            <ns3:hr>176</ns3:hr>
            <ns3:cad>86</ns3:cad>
          </ns3:TrackPointExtension>
        </extensions>
      </trkpt>
      <trkpt lat="23.17605891264975070953369140625" lon="113.258228302001953125">
        <ele>27.799999237060546875</ele>
        <time>2018-06-30T10:36:38.000Z</time>
        <extensions>
          <ns3:TrackPointExtension>
            <ns3:hr>179</ns3:hr>
            <ns3:cad>86</ns3:cad>
          </ns3:TrackPointExtension>
        </extensions>
      </trkpt>
      <trkpt lat="23.17623057402670383453369140625" lon="113.25833567418158054351806640625">
        <ele>30.200000762939453125</ele>
        <time>2018-06-30T10:36:46.000Z</time>
        <extensions>
          <ns3:TrackPointExtension>
            <ns3:hr>180</ns3:hr>
            <ns3:cad>86</ns3:cad>
          </ns3:TrackPointExtension>
        </extensions>
      </trkpt>
      <trkpt lat="23.176273070275783538818359375" lon="113.2583478279411792755126953125">
        <ele>30.6000003814697265625</ele>
        <time>2018-06-30T10:36:49.000Z</time>
        <extensions>
          <ns3:TrackPointExtension>
            <ns3:hr>177</ns3:hr>
            <ns3:cad>86</ns3:cad>
          </ns3:TrackPointExtension>
        </extensions>
      </trkpt>
      <trkpt lat="23.17629628814756870269775390625" lon="113.25835461728274822235107421875">
        <ele>30.799999237060546875</ele>
        <time>2018-06-30T10:36:51.000Z</time>
        <extensions>
          <ns3:TrackPointExtension>
            <ns3:hr>180</ns3:hr>
            <ns3:cad>86</ns3:cad>
          </ns3:TrackPointExtension>
        </extensions>
      </trkpt>
      <trkpt lat="23.17644045688211917877197265625" lon="113.25842703692615032196044921875">
        <ele>27.3999996185302734375</ele>
        <time>2018-06-30T10:37:05.000Z</time>
        <extensions>
          <ns3:TrackPointExtension>
            <ns3:hr>177</ns3:hr>
            <ns3:cad>0</ns3:cad>
          </ns3:TrackPointExtension>
        </extensions>
      </trkpt>
      <trkpt lat="23.17653265781700611114501953125" lon="113.25845235027372837066650390625">
        <ele>24.200000762939453125</ele>
        <time>2018-06-30T10:37:13.000Z</time>
        <extensions>
          <ns3:TrackPointExtension>
            <ns3:hr>174</ns3:hr>
            <ns3:cad>61</ns3:cad>
          </ns3:TrackPointExtension>
        </extensions>
      </trkpt>
      <trkpt lat="23.1766450591385364532470703125" lon="113.258509933948516845703125">
        <ele>22.200000762939453125</ele>
        <time>2018-06-30T10:37:19.000Z</time>
        <extensions>
          <ns3:TrackPointExtension>
            <ns3:hr>171</ns3:hr>
            <ns3:cad>82</ns3:cad>
          </ns3:TrackPointExtension>
        </extensions>
      </trkpt>
      <trkpt lat="23.17681211046874523162841796875" lon="113.2586029730737209320068359375">
        <ele>20.3999996185302734375</ele>
        <time>2018-06-30T10:37:27.000Z</time>
        <extensions>
          <ns3:TrackPointExtension>
            <ns3:hr>172</ns3:hr>
            <ns3:cad>84</ns3:cad>
          </ns3:TrackPointExtension>
        </extensions>
      </trkpt>
      <trkpt lat="23.1768593005836009979248046875" lon="113.25863038189709186553955078125">
        <ele>19.799999237060546875</ele>
        <time>2018-06-30T10:37:29.000Z</time>
        <extensions>
          <ns3:TrackPointExtension>
            <ns3:hr>175</ns3:hr>
            <ns3:cad>84</ns3:cad>
          </ns3:TrackPointExtension>
        </extensions>
      </trkpt>
      <trkpt lat="23.17697807215154170989990234375" lon="113.258678577840328216552734375">
        <ele>17.799999237060546875</ele>
        <time>2018-06-30T10:37:34.000Z</time>
        <extensions>
          <ns3:TrackPointExtension>
            <ns3:hr>172</ns3:hr>
            <ns3:cad>84</ns3:cad>
          </ns3:TrackPointExtension>
        </extensions>
      </trkpt>
      <trkpt lat="23.1770185567438602447509765625" lon="113.2587072439491748809814453125">
        <ele>17.3999996185302734375</ele>
        <time>2018-06-30T10:37:36.000Z</time>
        <extensions>
          <ns3:TrackPointExtension>
            <ns3:hr>177</ns3:hr>
            <ns3:cad>85</ns3:cad>
          </ns3:TrackPointExtension>
        </extensions>
      </trkpt>
      <trkpt lat="23.177040852606296539306640625" lon="113.2587230019271373748779296875">
        <ele>17.3999996185302734375</ele>
        <time>2018-06-30T10:37:37.000Z</time>
        <extensions>
          <ns3:TrackPointExtension>
            <ns3:hr>182</ns3:hr>
            <ns3:cad>85</ns3:cad>
          </ns3:TrackPointExtension>
        </extensions>
      </trkpt>
      <trkpt lat="23.1770633161067962646484375" lon="113.25873750261962413787841796875">
        <ele>17.200000762939453125</ele>
        <time>2018-06-30T10:37:38.000Z</time>
        <extensions>
          <ns3:TrackPointExtension>
            <ns3:hr>187</ns3:hr>
            <ns3:cad>85</ns3:cad>
          </ns3:TrackPointExtension>
        </extensions>
      </trkpt>
      <trkpt lat="23.17709022201597690582275390625" lon="113.25874974019825458526611328125">
        <ele>17</ele>
        <time>2018-06-30T10:37:39.000Z</time>
        <extensions>
          <ns3:TrackPointExtension>
            <ns3:hr>187</ns3:hr>
            <ns3:cad>86</ns3:cad>
          </ns3:TrackPointExtension>
        </extensions>
      </trkpt>
      <trkpt lat="23.1771338917315006256103515625" lon="113.25877421535551548004150390625">
        <ele>16.799999237060546875</ele>
        <time>2018-06-30T10:37:40.000Z</time>
        <extensions>
          <ns3:TrackPointExtension>
            <ns3:hr>183</ns3:hr>
            <ns3:cad>86</ns3:cad>
          </ns3:TrackPointExtension>
        </extensions>
      </trkpt>
      <trkpt lat="23.17724294029176235198974609375" lon="113.25883246958255767822265625">
        <ele>15.80000019073486328125</ele>
        <time>2018-06-30T10:37:46.000Z</time>
        <extensions>
          <ns3:TrackPointExtension>
            <ns3:hr>180</ns3:hr>
            <ns3:cad>84</ns3:cad>
          </ns3:TrackPointExtension>
        </extensions>
      </trkpt>
      <trkpt lat="23.1772891245782375335693359375" lon="113.25885987840592861175537109375">
        <ele>15.3999996185302734375</ele>
        <time>2018-06-30T10:37:48.000Z</time>
        <extensions>
          <ns3:TrackPointExtension>
            <ns3:hr>177</ns3:hr>
            <ns3:cad>84</ns3:cad>
          </ns3:TrackPointExtension>
        </extensions>
      </trkpt>
      <trkpt lat="23.1773545034229755401611328125" lon="113.25890346430242061614990234375">
        <ele>14.80000019073486328125</ele>
        <time>2018-06-30T10:37:51.000Z</time>
        <extensions>
          <ns3:TrackPointExtension>
            <ns3:hr>181</ns3:hr>
            <ns3:cad>85</ns3:cad>
          </ns3:TrackPointExtension>
        </extensions>
      </trkpt>
      <trkpt lat="23.17752021364867687225341796875" lon="113.25900019146502017974853515625">
        <ele>13</ele>
        <time>2018-06-30T10:37:59.000Z</time>
        <extensions>
          <ns3:TrackPointExtension>
            <ns3:hr>183</ns3:hr>
            <ns3:cad>85</ns3:cad>
          </ns3:TrackPointExtension>
        </extensions>
      </trkpt>
      <trkpt lat="23.17764778621494770050048828125" lon="113.25906037352979183197021484375">
        <ele>11.3999996185302734375</ele>
        <time>2018-06-30T10:38:05.000Z</time>
        <extensions>
          <ns3:TrackPointExtension>
            <ns3:hr>180</ns3:hr>
            <ns3:cad>84</ns3:cad>
          </ns3:TrackPointExtension>
        </extensions>
      </trkpt>
      <trkpt lat="23.17779262550175189971923828125" lon="113.25914134271442890167236328125">
        <ele>10.3999996185302734375</ele>
        <time>2018-06-30T10:38:12.000Z</time>
        <extensions>
          <ns3:TrackPointExtension>
            <ns3:hr>183</ns3:hr>
            <ns3:cad>84</ns3:cad>
          </ns3:TrackPointExtension>
        </extensions>
      </trkpt>
      <trkpt lat="23.17796646617352962493896484375" lon="113.259249888360500335693359375">
        <ele>9.6000003814697265625</ele>
        <time>2018-06-30T10:38:21.000Z</time>
        <extensions>
          <ns3:TrackPointExtension>
            <ns3:hr>181</ns3:hr>
            <ns3:cad>85</ns3:cad>
          </ns3:TrackPointExtension>
        </extensions>
      </trkpt>
      <trkpt lat="23.1780106388032436370849609375" lon="113.25926723890006542205810546875">
        <ele>10</ele>
        <time>2018-06-30T10:38:22.000Z</time>
        <extensions>
          <ns3:TrackPointExtension>
            <ns3:hr>185</ns3:hr>
            <ns3:cad>85</ns3:cad>
          </ns3:TrackPointExtension>
        </extensions>
      </trkpt>
      <trkpt lat="23.178175427019596099853515625" lon="113.2593184523284435272216796875">
        <ele>11.19999980926513671875</ele>
        <time>2018-06-30T10:38:30.000Z</time>
        <extensions>
          <ns3:TrackPointExtension>
            <ns3:hr>188</ns3:hr>
            <ns3:cad>85</ns3:cad>
          </ns3:TrackPointExtension>
        </extensions>
      </trkpt>
      <trkpt lat="23.17835689522325992584228515625" lon="113.2593764550983905792236328125">
        <ele>14.80000019073486328125</ele>
        <time>2018-06-30T10:38:38.000Z</time>
        <extensions>
          <ns3:TrackPointExtension>
            <ns3:hr>185</ns3:hr>
            <ns3:cad>86</ns3:cad>
          </ns3:TrackPointExtension>
        </extensions>
      </trkpt>
      <trkpt lat="23.17839796654880046844482421875" lon="113.25939975678920745849609375">
        <ele>15</ele>
        <time>2018-06-30T10:38:40.000Z</time>
        <extensions>
          <ns3:TrackPointExtension>
            <ns3:hr>188</ns3:hr>
            <ns3:cad>86</ns3:cad>
          </ns3:TrackPointExtension>
        </extensions>
      </trkpt>
      <trkpt lat="23.1784568913280963897705078125" lon="113.259437978267669677734375">
        <ele>14.80000019073486328125</ele>
        <time>2018-06-30T10:38:43.000Z</time>
        <extensions>
          <ns3:TrackPointExtension>
            <ns3:hr>184</ns3:hr>
            <ns3:cad>86</ns3:cad>
          </ns3:TrackPointExtension>
        </extensions>
      </trkpt>
      <trkpt lat="23.17851631902158260345458984375" lon="113.25947544537484645843505859375">
        <ele>14.6000003814697265625</ele>
        <time>2018-06-30T10:38:46.000Z</time>
        <extensions>
          <ns3:TrackPointExtension>
            <ns3:hr>187</ns3:hr>
            <ns3:cad>86</ns3:cad>
          </ns3:TrackPointExtension>
        </extensions>
      </trkpt>
      <trkpt lat="23.1786852143704891204833984375" lon="113.259575776755809783935546875">
        <ele>17</ele>
        <time>2018-06-30T10:38:54.000Z</time>
        <extensions>
          <ns3:TrackPointExtension>
            <ns3:hr>185</ns3:hr>
            <ns3:cad>86</ns3:cad>
          </ns3:TrackPointExtension>
        </extensions>
      </trkpt>
      <trkpt lat="23.1787760742008686065673828125" lon="113.25967468321323394775390625">
        <ele>16.3999996185302734375</ele>
        <time>2018-06-30T10:38:59.000Z</time>
        <extensions>
          <ns3:TrackPointExtension>
            <ns3:hr>188</ns3:hr>
            <ns3:cad>86</ns3:cad>
          </ns3:TrackPointExtension>
        </extensions>
      </trkpt>
      <trkpt lat="23.17893885076045989990234375" lon="113.25977518223226070404052734375">
        <ele>14.80000019073486328125</ele>
        <time>2018-06-30T10:39:06.000Z</time>
        <extensions>
          <ns3:TrackPointExtension>
            <ns3:hr>190</ns3:hr>
            <ns3:cad>85</ns3:cad>
          </ns3:TrackPointExtension>
        </extensions>
      </trkpt>
      <trkpt lat="23.17909232340753078460693359375" lon="113.25987861491739749908447265625">
        <ele>11.6000003814697265625</ele>
        <time>2018-06-30T10:39:13.000Z</time>
        <extensions>
          <ns3:TrackPointExtension>
            <ns3:hr>191</ns3:hr>
            <ns3:cad>85</ns3:cad>
          </ns3:TrackPointExtension>
        </extensions>
      </trkpt>
      <trkpt lat="23.17925794981420040130615234375" lon="113.25998523272573947906494140625">
        <ele>10.6000003814697265625</ele>
        <time>2018-06-30T10:39:21.000Z</time>
        <extensions>
          <ns3:TrackPointExtension>
            <ns3:hr>192</ns3:hr>
            <ns3:cad>85</ns3:cad>
          </ns3:TrackPointExtension>
        </extensions>
      </trkpt>
      <trkpt lat="23.1794174574315547943115234375" lon="113.26008833013474941253662109375">
        <ele>14.3999996185302734375</ele>
        <time>2018-06-30T10:39:29.000Z</time>
        <extensions>
          <ns3:TrackPointExtension>
            <ns3:hr>192</ns3:hr>
            <ns3:cad>84</ns3:cad>
          </ns3:TrackPointExtension>
        </extensions>
      </trkpt>
      <trkpt lat="23.1795904599130153656005859375" lon="113.26016812585294246673583984375">
        <ele>22.3999996185302734375</ele>
        <time>2018-06-30T10:39:37.000Z</time>
        <extensions>
          <ns3:TrackPointExtension>
            <ns3:hr>193</ns3:hr>
            <ns3:cad>85</ns3:cad>
          </ns3:TrackPointExtension>
        </extensions>
      </trkpt>
      <trkpt lat="23.17977662198245525360107421875" lon="113.2602478377521038055419921875">
        <ele>28.3999996185302734375</ele>
        <time>2018-06-30T10:39:46.000Z</time>
        <extensions>
          <ns3:TrackPointExtension>
            <ns3:hr>192</ns3:hr>
            <ns3:cad>83</ns3:cad>
          </ns3:TrackPointExtension>
        </extensions>
      </trkpt>
      <trkpt lat="23.1799703277647495269775390625" lon="113.26030592434108257293701171875">
        <ele>26.200000762939453125</ele>
        <time>2018-06-30T10:39:54.000Z</time>
        <extensions>
          <ns3:TrackPointExtension>
            <ns3:hr>194</ns3:hr>
            <ns3:cad>83</ns3:cad>
          </ns3:TrackPointExtension>
        </extensions>
      </trkpt>
      <trkpt lat="23.18003729917109012603759765625" lon="113.260343559086322784423828125">
        <ele>22</ele>
        <time>2018-06-30T10:39:57.000Z</time>
        <extensions>
          <ns3:TrackPointExtension>
            <ns3:hr>190</ns3:hr>
            <ns3:cad>83</ns3:cad>
          </ns3:TrackPointExtension>
        </extensions>
      </trkpt>
      <trkpt lat="23.1800739280879497528076171875" lon="113.26038136146962642669677734375">
        <ele>22.6000003814697265625</ele>
        <time>2018-06-30T10:39:59.000Z</time>
        <extensions>
          <ns3:TrackPointExtension>
            <ns3:hr>194</ns3:hr>
            <ns3:cad>83</ns3:cad>
          </ns3:TrackPointExtension>
        </extensions>
      </trkpt>
      <trkpt lat="23.1802482716739177703857421875" lon="113.260489404201507568359375">
        <ele>25</ele>
        <time>2018-06-30T10:40:07.000Z</time>
        <extensions>
          <ns3:TrackPointExtension>
            <ns3:hr>193</ns3:hr>
            <ns3:cad>84</ns3:cad>
          </ns3:TrackPointExtension>
        </extensions>
      </trkpt>
      <trkpt lat="23.18033016286790370941162109375" lon="113.260540030896663665771484375">
        <ele>26.200000762939453125</ele>
        <time>2018-06-30T10:40:11.000Z</time>
        <extensions>
          <ns3:TrackPointExtension>
            <ns3:hr>190</ns3:hr>
            <ns3:cad>83</ns3:cad>
          </ns3:TrackPointExtension>
        </extensions>
      </trkpt>
      <trkpt lat="23.1803696416318416595458984375" lon="113.26056358404457569122314453125">
        <ele>27</ele>
        <time>2018-06-30T10:40:13.000Z</time>
        <extensions>
          <ns3:TrackPointExtension>
            <ns3:hr>193</ns3:hr>
            <ns3:cad>82</ns3:cad>
          </ns3:TrackPointExtension>
        </extensions>
      </trkpt>
      <trkpt lat="23.18052663467824459075927734375" lon="113.26067958958446979522705078125">
        <ele>29.200000762939453125</ele>
        <time>2018-06-30T10:40:22.000Z</time>
        <extensions>
          <ns3:TrackPointExtension>
            <ns3:hr>193</ns3:hr>
            <ns3:cad>83</ns3:cad>
          </ns3:TrackPointExtension>
        </extensions>
      </trkpt>
      <trkpt lat="23.1805553846061229705810546875" lon="113.26067917048931121826171875">
        <ele>30</ele>
        <time>2018-06-30T10:40:24.000Z</time>
        <extensions>
          <ns3:TrackPointExtension>
            <ns3:hr>192</ns3:hr>
            <ns3:cad>84</ns3:cad>
          </ns3:TrackPointExtension>
        </extensions>
      </trkpt>
      <trkpt lat="23.180597126483917236328125" lon="113.2612700946629047393798828125">
        <ele>39.59999847412109375</ele>
        <time>2018-06-30T10:42:08.000Z</time>
        <extensions>
          <ns3:TrackPointExtension>
            <ns3:hr>157</ns3:hr>
            <ns3:cad>61</ns3:cad>
          </ns3:TrackPointExtension>
        </extensions>
      </trkpt>
      <trkpt lat="23.18060894496738910675048828125" lon="113.261274285614490509033203125">
        <ele>40.40000152587890625</ele>
        <time>2018-06-30T10:42:09.000Z</time>
        <extensions>
          <ns3:TrackPointExtension>
            <ns3:hr>158</ns3:hr>
            <ns3:cad>61</ns3:cad>
          </ns3:TrackPointExtension>
        </extensions>
      </trkpt>
      <trkpt lat="23.1807350926101207733154296875" lon="113.26131208799779415130615234375">
        <ele>48.799999237060546875</ele>
        <time>2018-06-30T10:42:16.000Z</time>
        <extensions>
          <ns3:TrackPointExtension>
            <ns3:hr>164</ns3:hr>
            <ns3:cad>82</ns3:cad>
          </ns3:TrackPointExtension>
        </extensions>
      </trkpt>
      <trkpt lat="23.1807594001293182373046875" lon="113.26132248155772686004638671875">
        <ele>50.40000152587890625</ele>
        <time>2018-06-30T10:42:17.000Z</time>
        <extensions>
          <ns3:TrackPointExtension>
            <ns3:hr>168</ns3:hr>
            <ns3:cad>82</ns3:cad>
          </ns3:TrackPointExtension>
        </extensions>
      </trkpt>
      <trkpt lat="23.18083425052464008331298828125" lon="113.261368162930011749267578125">
        <ele>53.799999237060546875</ele>
        <time>2018-06-30T10:42:21.000Z</time>
        <extensions>
          <ns3:TrackPointExtension>
            <ns3:hr>171</ns3:hr>
            <ns3:cad>84</ns3:cad>
          </ns3:TrackPointExtension>
        </extensions>
      </trkpt>
      <trkpt lat="23.1808765791356563568115234375" lon="113.2613897882401943206787109375">
        <ele>56</ele>
        <time>2018-06-30T10:42:23.000Z</time>
        <extensions>
          <ns3:TrackPointExtension>
            <ns3:hr>168</ns3:hr>
            <ns3:cad>84</ns3:cad>
          </ns3:TrackPointExtension>
        </extensions>
      </trkpt>
      <trkpt lat="23.1810626573860645294189453125" lon="113.26148441992700099945068359375">
        <ele>63.40000152587890625</ele>
        <time>2018-06-30T10:42:32.000Z</time>
        <extensions>
          <ns3:TrackPointExtension>
            <ns3:hr>170</ns3:hr>
            <ns3:cad>84</ns3:cad>
          </ns3:TrackPointExtension>
        </extensions>
      </trkpt>
      <trkpt lat="23.18110448308289051055908203125" lon="113.26150688342750072479248046875">
        <ele>62.799999237060546875</ele>
        <time>2018-06-30T10:42:34.000Z</time>
        <extensions>
          <ns3:TrackPointExtension>
            <ns3:hr>173</ns3:hr>
            <ns3:cad>83</ns3:cad>
          </ns3:TrackPointExtension>
        </extensions>
      </trkpt>
      <trkpt lat="23.18117271177470684051513671875" lon="113.26157578267157077789306640625">
        <ele>59</ele>
        <time>2018-06-30T10:42:38.000Z</time>
        <extensions>
          <ns3:TrackPointExtension>
            <ns3:hr>170</ns3:hr>
            <ns3:cad>84</ns3:cad>
          </ns3:TrackPointExtension>
        </extensions>
      </trkpt>
      <trkpt lat="23.18120975978672504425048828125" lon="113.261600844562053680419921875">
        <ele>58</ele>
        <time>2018-06-30T10:42:40.000Z</time>
        <extensions>
          <ns3:TrackPointExtension>
            <ns3:hr>174</ns3:hr>
            <ns3:cad>84</ns3:cad>
          </ns3:TrackPointExtension>
        </extensions>
      </trkpt>
      <trkpt lat="23.1812970153987407684326171875" lon="113.26164987869560718536376953125">
        <ele>57.59999847412109375</ele>
        <time>2018-06-30T10:42:44.000Z</time>
        <extensions>
          <ns3:TrackPointExtension>
            <ns3:hr>177</ns3:hr>
            <ns3:cad>84</ns3:cad>
          </ns3:TrackPointExtension>
        </extensions>
      </trkpt>
      <trkpt lat="23.18133280612528324127197265625" lon="113.261673934757709503173828125">
        <ele>57.59999847412109375</ele>
        <time>2018-06-30T10:42:46.000Z</time>
        <extensions>
          <ns3:TrackPointExtension>
            <ns3:hr>174</ns3:hr>
            <ns3:cad>84</ns3:cad>
          </ns3:TrackPointExtension>
        </extensions>
      </trkpt>
      <trkpt lat="23.18139432929456233978271484375" lon="113.26169430278241634368896484375">
        <ele>59.40000152587890625</ele>
        <time>2018-06-30T10:42:49.000Z</time>
        <extensions>
          <ns3:TrackPointExtension>
            <ns3:hr>177</ns3:hr>
            <ns3:cad>84</ns3:cad>
          </ns3:TrackPointExtension>
        </extensions>
      </trkpt>
      <trkpt lat="23.18151435814797878265380859375" lon="113.2617471925914287567138671875">
        <ele>51.59999847412109375</ele>
        <time>2018-06-30T10:42:54.000Z</time>
        <extensions>
          <ns3:TrackPointExtension>
            <ns3:hr>180</ns3:hr>
            <ns3:cad>84</ns3:cad>
          </ns3:TrackPointExtension>
        </extensions>
      </trkpt>
      <trkpt lat="23.18170881830155849456787109375" lon="113.26185389421880245208740234375">
        <ele>49.799999237060546875</ele>
        <time>2018-06-30T10:43:01.000Z</time>
        <extensions>
          <ns3:TrackPointExtension>
            <ns3:hr>183</ns3:hr>
            <ns3:cad>84</ns3:cad>
          </ns3:TrackPointExtension>
        </extensions>
      </trkpt>
      <trkpt lat="23.18185701034963130950927734375" lon="113.26194106601178646087646484375">
        <ele>42</ele>
        <time>2018-06-30T10:43:06.000Z</time>
        <extensions>
          <ns3:TrackPointExtension>
            <ns3:hr>180</ns3:hr>
            <ns3:cad>82</ns3:cad>
          </ns3:TrackPointExtension>
        </extensions>
      </trkpt>
      <trkpt lat="23.18202607333660125732421875" lon="113.26202538795769214630126953125">
        <ele>26.3999996185302734375</ele>
        <time>2018-06-30T10:43:11.000Z</time>
        <extensions>
          <ns3:TrackPointExtension>
            <ns3:hr>181</ns3:hr>
            <ns3:cad>82</ns3:cad>
          </ns3:TrackPointExtension>
        </extensions>
      </trkpt>
      <trkpt lat="23.18214618600904941558837890625" lon="113.26207953505218029022216796875">
        <ele>14.80000019073486328125</ele>
        <time>2018-06-30T10:43:14.000Z</time>
        <extensions>
          <ns3:TrackPointExtension>
            <ns3:hr>177</ns3:hr>
            <ns3:cad>83</ns3:cad>
          </ns3:TrackPointExtension>
        </extensions>
      </trkpt>
      <trkpt lat="23.18221005611121654510498046875" lon="113.26211038045585155487060546875">
        <ele>14.19999980926513671875</ele>
        <time>2018-06-30T10:43:15.000Z</time>
        <extensions>
          <ns3:TrackPointExtension>
            <ns3:hr>168</ns3:hr>
            <ns3:cad>82</ns3:cad>
          </ns3:TrackPointExtension>
        </extensions>
      </trkpt>
      <trkpt lat="23.18223620764911174774169921875" lon="113.26212462969124317169189453125">
        <ele>13.80000019073486328125</ele>
        <time>2018-06-30T10:43:17.000Z</time>
        <extensions>
          <ns3:TrackPointExtension>
            <ns3:hr>164</ns3:hr>
            <ns3:cad>80</ns3:cad>
          </ns3:TrackPointExtension>
        </extensions>
      </trkpt>
      <trkpt lat="23.1822605989873409271240234375" lon="113.26213904656469821929931640625">
        <ele>13.6000003814697265625</ele>
        <time>2018-06-30T10:43:18.000Z</time>
        <extensions>
          <ns3:TrackPointExtension>
            <ns3:hr>168</ns3:hr>
            <ns3:cad>80</ns3:cad>
          </ns3:TrackPointExtension>
        </extensions>
      </trkpt>
      <trkpt lat="23.18229940719902515411376953125" lon="113.2621679641306400299072265625">
        <ele>13.6000003814697265625</ele>
        <time>2018-06-30T10:43:20.000Z</time>
        <extensions>
          <ns3:TrackPointExtension>
            <ns3:hr>175</ns3:hr>
            <ns3:cad>81</ns3:cad>
          </ns3:TrackPointExtension>
        </extensions>
      </trkpt>
      <trkpt lat="23.18231038749217987060546875" lon="113.26217860914766788482666015625">
        <ele>14</ele>
        <time>2018-06-30T10:43:21.000Z</time>
        <extensions>
          <ns3:TrackPointExtension>
            <ns3:hr>188</ns3:hr>
            <ns3:cad>81</ns3:cad>
          </ns3:TrackPointExtension>
        </extensions>
      </trkpt>
      <trkpt lat="23.1823326833546161651611328125" lon="113.2622028328478336334228515625">
        <ele>14.80000019073486328125</ele>
        <time>2018-06-30T10:43:22.000Z</time>
        <extensions>
          <ns3:TrackPointExtension>
            <ns3:hr>191</ns3:hr>
            <ns3:cad>82</ns3:cad>
          </ns3:TrackPointExtension>
        </extensions>
      </trkpt>
      <trkpt lat="23.1823326833546161651611328125" lon="113.2622028328478336334228515625">
        <ele>14.80000019073486328125</ele>
        <time>2018-06-30T10:43:23.000Z</time>
        <extensions>
          <ns3:TrackPointExtension>
            <ns3:hr>191</ns3:hr>
            <ns3:cad>82</ns3:cad>
          </ns3:TrackPointExtension>
        </extensions>
      </trkpt>
      <trkpt lat="23.18244257010519504547119140625" lon="113.26231104321777820587158203125">
        <ele>19.799999237060546875</ele>
        <time>2018-06-30T10:43:36.000Z</time>
        <extensions>
          <ns3:TrackPointExtension>
            <ns3:hr>188</ns3:hr>
            <ns3:cad>61</ns3:cad>
          </ns3:TrackPointExtension>
        </extensions>
      </trkpt>
      <trkpt lat="23.1824600882828235626220703125" lon="113.26232730410993099212646484375">
        <ele>21</ele>
        <time>2018-06-30T10:43:38.000Z</time>
        <extensions>
          <ns3:TrackPointExtension>
            <ns3:hr>189</ns3:hr>
            <ns3:cad>57</ns3:cad>
          </ns3:TrackPointExtension>
        </extensions>
      </trkpt>
      <trkpt lat="23.18249168805778026580810546875" lon="113.26234616339206695556640625">
        <ele>23</ele>
        <time>2018-06-30T10:43:40.000Z</time>
        <extensions>
          <ns3:TrackPointExtension>
            <ns3:hr>186</ns3:hr>
            <ns3:cad>57</ns3:cad>
          </ns3:TrackPointExtension>
        </extensions>
      </trkpt>
      <trkpt lat="23.18261372856795787811279296875" lon="113.26243861578404903411865234375">
        <ele>30.3999996185302734375</ele>
        <time>2018-06-30T10:43:52.000Z</time>
        <extensions>
          <ns3:TrackPointExtension>
            <ns3:hr>182</ns3:hr>
            <ns3:cad>60</ns3:cad>
          </ns3:TrackPointExtension>
        </extensions>
      </trkpt>
      <trkpt lat="23.1826423108577728271484375" lon="113.2624710537493228912353515625">
        <ele>29</ele>
        <time>2018-06-30T10:43:56.000Z</time>
        <extensions>
          <ns3:TrackPointExtension>
            <ns3:hr>178</ns3:hr>
            <ns3:cad>60</ns3:cad>
          </ns3:TrackPointExtension>
        </extensions>
      </trkpt>
      <trkpt lat="23.1826743297278881072998046875" lon="113.26249728910624980926513671875">
        <ele>28.3999996185302734375</ele>
        <time>2018-06-30T10:43:59.000Z</time>
        <extensions>
          <ns3:TrackPointExtension>
            <ns3:hr>181</ns3:hr>
            <ns3:cad>60</ns3:cad>
          </ns3:TrackPointExtension>
        </extensions>
      </trkpt>
      <trkpt lat="23.182677514851093292236328125" lon="113.26250986196100711822509765625">
        <ele>27.3999996185302734375</ele>
        <time>2018-06-30T10:44:01.000Z</time>
        <extensions>
          <ns3:TrackPointExtension>
            <ns3:hr>184</ns3:hr>
            <ns3:cad>60</ns3:cad>
          </ns3:TrackPointExtension>
        </extensions>
      </trkpt>
      <trkpt lat="23.18270006217062473297119140625" lon="113.26252176426351070404052734375">
        <ele>27.6000003814697265625</ele>
        <time>2018-06-30T10:44:03.000Z</time>
        <extensions>
          <ns3:TrackPointExtension>
            <ns3:hr>180</ns3:hr>
            <ns3:cad>59</ns3:cad>
          </ns3:TrackPointExtension>
        </extensions>
      </trkpt>
      <trkpt lat="23.1827229447662830352783203125" lon="113.2625334151089191436767578125">
        <ele>28.200000762939453125</ele>
        <time>2018-06-30T10:44:05.000Z</time>
        <extensions>
          <ns3:TrackPointExtension>
            <ns3:hr>185</ns3:hr>
            <ns3:cad>59</ns3:cad>
          </ns3:TrackPointExtension>
        </extensions>
      </trkpt>
      <trkpt lat="23.18273224867880344390869140625" lon="113.26253567822277545928955078125">
        <ele>28.6000003814697265625</ele>
        <time>2018-06-30T10:44:06.000Z</time>
        <extensions>
          <ns3:TrackPointExtension>
            <ns3:hr>189</ns3:hr>
            <ns3:cad>59</ns3:cad>
          </ns3:TrackPointExtension>
        </extensions>
      </trkpt>
      <trkpt lat="23.1827403791248798370361328125" lon="113.262537606060504913330078125">
        <ele>29</ele>
        <time>2018-06-30T10:44:07.000Z</time>
        <extensions>
          <ns3:TrackPointExtension>
            <ns3:hr>188</ns3:hr>
            <ns3:cad>59</ns3:cad>
          </ns3:TrackPointExtension>
        </extensions>
      </trkpt>
      <trkpt lat="23.18276493810117244720458984375" lon="113.2625572197139263153076171875">
        <ele>28.799999237060546875</ele>
        <time>2018-06-30T10:44:10.000Z</time>
        <extensions>
          <ns3:TrackPointExtension>
            <ns3:hr>185</ns3:hr>
            <ns3:cad>61</ns3:cad>
          </ns3:TrackPointExtension>
        </extensions>
      </trkpt>
      <trkpt lat="23.1827953644096851348876953125" lon="113.2625756599009037017822265625">
        <ele>29.200000762939453125</ele>
        <time>2018-06-30T10:44:13.000Z</time>
        <extensions>
          <ns3:TrackPointExtension>
            <ns3:hr>181</ns3:hr>
            <ns3:cad>61</ns3:cad>
          </ns3:TrackPointExtension>
        </extensions>
      </trkpt>
      <trkpt lat="23.18282512016594409942626953125" lon="113.26258756220340728759765625">
        <ele>30.200000762939453125</ele>
        <time>2018-06-30T10:44:16.000Z</time>
        <extensions>
          <ns3:TrackPointExtension>
            <ns3:hr>178</ns3:hr>
            <ns3:cad>61</ns3:cad>
          </ns3:TrackPointExtension>
        </extensions>
      </trkpt>
      <trkpt lat="23.18288999609649181365966796875" lon="113.2626333273947238922119140625">
        <ele>30.3999996185302734375</ele>
        <time>2018-06-30T10:44:20.000Z</time>
        <extensions>
          <ns3:TrackPointExtension>
            <ns3:hr>175</ns3:hr>
            <ns3:cad>81</ns3:cad>
          </ns3:TrackPointExtension>
        </extensions>
      </trkpt>
      <trkpt lat="23.182945735752582550048828125" lon="113.26267850585281848907470703125">
        <ele>29.3999996185302734375</ele>
        <time>2018-06-30T10:44:23.000Z</time>
        <extensions>
          <ns3:TrackPointExtension>
            <ns3:hr>172</ns3:hr>
            <ns3:cad>83</ns3:cad>
          </ns3:TrackPointExtension>
        </extensions>
      </trkpt>
      <trkpt lat="23.183108009397983551025390625" lon="113.262779675424098968505859375">
        <ele>24.6000003814697265625</ele>
        <time>2018-06-30T10:44:32.000Z</time>
        <extensions>
          <ns3:TrackPointExtension>
            <ns3:hr>175</ns3:hr>
            <ns3:cad>84</ns3:cad>
          </ns3:TrackPointExtension>
        </extensions>
      </trkpt>
      <trkpt lat="23.18316542543470859527587890625" lon="113.26281982474029064178466796875">
        <ele>21.799999237060546875</ele>
        <time>2018-06-30T10:44:35.000Z</time>
        <extensions>
          <ns3:TrackPointExtension>
            <ns3:hr>178</ns3:hr>
            <ns3:cad>84</ns3:cad>
          </ns3:TrackPointExtension>
        </extensions>
      </trkpt>
      <trkpt lat="23.18329609930515289306640625" lon="113.26289978809654712677001953125">
        <ele>17</ele>
        <time>2018-06-30T10:44:41.000Z</time>
        <extensions>
          <ns3:TrackPointExtension>
            <ns3:hr>181</ns3:hr>
            <ns3:cad>84</ns3:cad>
          </ns3:TrackPointExtension>
        </extensions>
      </trkpt>
      <trkpt lat="23.18347178399562835693359375" lon="113.26301512308418750762939453125">
        <ele>11.80000019073486328125</ele>
        <time>2018-06-30T10:44:49.000Z</time>
        <extensions>
          <ns3:TrackPointExtension>
            <ns3:hr>181</ns3:hr>
            <ns3:cad>84</ns3:cad>
          </ns3:TrackPointExtension>
        </extensions>
      </trkpt>
      <trkpt lat="23.1836543418467044830322265625" lon="113.263096176087856292724609375">
        <ele>12.19999980926513671875</ele>
        <time>2018-06-30T10:44:57.000Z</time>
        <extensions>
          <ns3:TrackPointExtension>
            <ns3:hr>183</ns3:hr>
            <ns3:cad>85</ns3:cad>
          </ns3:TrackPointExtension>
        </extensions>
      </trkpt>
      <trkpt lat="23.183842599391937255859375" lon="113.26315359212458133697509765625">
        <ele>11.19999980926513671875</ele>
        <time>2018-06-30T10:45:05.000Z</time>
        <extensions>
          <ns3:TrackPointExtension>
            <ns3:hr>181</ns3:hr>
            <ns3:cad>85</ns3:cad>
          </ns3:TrackPointExtension>
        </extensions>
      </trkpt>
      <trkpt lat="23.18403370678424835205078125" lon="113.26320857740938663482666015625">
        <ele>11.6000003814697265625</ele>
        <time>2018-06-30T10:45:13.000Z</time>
        <extensions>
          <ns3:TrackPointExtension>
            <ns3:hr>183</ns3:hr>
            <ns3:cad>83</ns3:cad>
          </ns3:TrackPointExtension>
        </extensions>
      </trkpt>
      <trkpt lat="23.1842085532844066619873046875" lon="113.26330815441906452178955078125">
        <ele>15</ele>
        <time>2018-06-30T10:45:22.000Z</time>
        <extensions>
          <ns3:TrackPointExtension>
            <ns3:hr>184</ns3:hr>
            <ns3:cad>85</ns3:cad>
          </ns3:TrackPointExtension>
        </extensions>
      </trkpt>
      <trkpt lat="23.18433973006904125213623046875" lon="113.26340253464877605438232421875">
        <ele>21.200000762939453125</ele>
        <time>2018-06-30T10:45:30.000Z</time>
        <extensions>
          <ns3:TrackPointExtension>
            <ns3:hr>187</ns3:hr>
            <ns3:cad>85</ns3:cad>
          </ns3:TrackPointExtension>
        </extensions>
      </trkpt>
      <trkpt lat="23.18449697457253932952880859375" lon="113.263519294559955596923828125">
        <ele>22.3999996185302734375</ele>
        <time>2018-06-30T10:45:38.000Z</time>
        <extensions>
          <ns3:TrackPointExtension>
            <ns3:hr>186</ns3:hr>
            <ns3:cad>85</ns3:cad>
          </ns3:TrackPointExtension>
        </extensions>
      </trkpt>
      <trkpt lat="23.18458599038422107696533203125" lon="113.2635806500911712646484375">
        <ele>19.3999996185302734375</ele>
        <time>2018-06-30T10:45:42.000Z</time>
        <extensions>
          <ns3:TrackPointExtension>
            <ns3:hr>189</ns3:hr>
            <ns3:cad>85</ns3:cad>
          </ns3:TrackPointExtension>
        </extensions>
      </trkpt>
      <trkpt lat="23.1846095435321331024169921875" lon="113.2636294327676296234130859375">
        <ele>17.200000762939453125</ele>
        <time>2018-06-30T10:45:43.000Z</time>
        <extensions>
          <ns3:TrackPointExtension>
            <ns3:hr>186</ns3:hr>
            <ns3:cad>85</ns3:cad>
          </ns3:TrackPointExtension>
        </extensions>
      </trkpt>
      <trkpt lat="23.1845976412296295166015625" lon="113.2637253217399120330810546875">
        <ele>15.80000019073486328125</ele>
        <time>2018-06-30T10:45:48.000Z</time>
        <extensions>
          <ns3:TrackPointExtension>
            <ns3:hr>190</ns3:hr>
            <ns3:cad>83</ns3:cad>
          </ns3:TrackPointExtension>
        </extensions>
      </trkpt>
      <trkpt lat="23.18459638394415378570556640625" lon="113.26380260288715362548828125">
        <ele>13.3999996185302734375</ele>
        <time>2018-06-30T10:45:51.000Z</time>
        <extensions>
          <ns3:TrackPointExtension>
            <ns3:hr>186</ns3:hr>
            <ns3:cad>82</ns3:cad>
          </ns3:TrackPointExtension>
        </extensions>
      </trkpt>
      <trkpt lat="23.18460660986602306365966796875" lon="113.26394475996494293212890625">
        <ele>9.6000003814697265625</ele>
        <time>2018-06-30T10:45:56.000Z</time>
        <extensions>
          <ns3:TrackPointExtension>
            <ns3:hr>190</ns3:hr>
            <ns3:cad>83</ns3:cad>
          </ns3:TrackPointExtension>
        </extensions>
      </trkpt>
      <trkpt lat="23.184569813311100006103515625" lon="113.2641544751822948455810546875">
        <ele>5.599999904632568359375</ele>
        <time>2018-06-30T10:46:04.000Z</time>
        <extensions>
          <ns3:TrackPointExtension>
            <ns3:hr>193</ns3:hr>
            <ns3:cad>83</ns3:cad>
          </ns3:TrackPointExtension>
        </extensions>
      </trkpt>
      <trkpt lat="23.1844945438206195831298828125" lon="113.26435036025941371917724609375">
        <ele>2.599999904632568359375</ele>
        <time>2018-06-30T10:46:13.000Z</time>
        <extensions>
          <ns3:TrackPointExtension>
            <ns3:hr>192</ns3:hr>
            <ns3:cad>84</ns3:cad>
          </ns3:TrackPointExtension>
        </extensions>
      </trkpt>
      <trkpt lat="23.18444140255451202392578125" lon="113.26454783789813518524169921875">
        <ele>1.2000000476837158203125</ele>
        <time>2018-06-30T10:46:22.000Z</time>
        <extensions>
          <ns3:TrackPointExtension>
            <ns3:hr>191</ns3:hr>
            <ns3:cad>83</ns3:cad>
          </ns3:TrackPointExtension>
        </extensions>
      </trkpt>
      <trkpt lat="23.18437493406236171722412109375" lon="113.2647368498146533966064453125">
        <ele>2</ele>
        <time>2018-06-30T10:46:31.000Z</time>
        <extensions>
          <ns3:TrackPointExtension>
            <ns3:hr>192</ns3:hr>
            <ns3:cad>84</ns3:cad>
          </ns3:TrackPointExtension>
        </extensions>
      </trkpt>
      <trkpt lat="23.1842829845845699310302734375" lon="113.26491530053317546844482421875">
        <ele>1.39999997615814208984375</ele>
        <time>2018-06-30T10:46:38.000Z</time>
        <extensions>
          <ns3:TrackPointExtension>
            <ns3:hr>192</ns3:hr>
            <ns3:cad>84</ns3:cad>
          </ns3:TrackPointExtension>
        </extensions>
      </trkpt>
      <trkpt lat="23.18417376838624477386474609375" lon="113.26507866382598876953125">
        <ele>-1.60000002384185791015625</ele>
        <time>2018-06-30T10:46:45.000Z</time>
        <extensions>
          <ns3:TrackPointExtension>
            <ns3:hr>192</ns3:hr>
            <ns3:cad>84</ns3:cad>
          </ns3:TrackPointExtension>
        </extensions>
      </trkpt>
      <trkpt lat="23.1841475330293178558349609375" lon="113.26528594829142093658447265625">
        <ele>-7.80000019073486328125</ele>
        <time>2018-06-30T10:46:53.000Z</time>
        <extensions>
          <ns3:TrackPointExtension>
            <ns3:hr>193</ns3:hr>
            <ns3:cad>83</ns3:cad>
          </ns3:TrackPointExtension>
        </extensions>
      </trkpt>
      <trkpt lat="23.1841592676937580108642578125" lon="113.2653876207768917083740234375">
        <ele>-13.19999980926513671875</ele>
        <time>2018-06-30T10:46:57.000Z</time>
        <extensions>
          <ns3:TrackPointExtension>
            <ns3:hr>193</ns3:hr>
            <ns3:cad>82</ns3:cad>
          </ns3:TrackPointExtension>
        </extensions>
      </trkpt>
      <trkpt lat="23.18408575840294361114501953125" lon="113.2654965855181217193603515625">
        <ele>-18.6000003814697265625</ele>
        <time>2018-06-30T10:47:02.000Z</time>
        <extensions>
          <ns3:TrackPointExtension>
            <ns3:hr>189</ns3:hr>
            <ns3:cad>79</ns3:cad>
          </ns3:TrackPointExtension>
        </extensions>
      </trkpt>
      <trkpt lat="23.184068240225315093994140625" lon="113.26551108621060848236083984375">
        <ele>-17.3999996185302734375</ele>
        <time>2018-06-30T10:47:03.000Z</time>
        <extensions>
          <ns3:TrackPointExtension>
            <ns3:hr>182</ns3:hr>
            <ns3:cad>80</ns3:cad>
          </ns3:TrackPointExtension>
        </extensions>
      </trkpt>
      <trkpt lat="23.184050805866718292236328125" lon="113.265525586903095245361328125">
        <ele>-15.6000003814697265625</ele>
        <time>2018-06-30T10:47:04.000Z</time>
        <extensions>
          <ns3:TrackPointExtension>
            <ns3:hr>182</ns3:hr>
            <ns3:cad>80</ns3:cad>
          </ns3:TrackPointExtension>
        </extensions>
      </trkpt>
      <trkpt lat="23.18400152027606964111328125" lon="113.2655988447368144989013671875">
        <ele>-9.19999980926513671875</ele>
        <time>2018-06-30T10:47:08.000Z</time>
        <extensions>
          <ns3:TrackPointExtension>
            <ns3:hr>189</ns3:hr>
            <ns3:cad>83</ns3:cad>
          </ns3:TrackPointExtension>
        </extensions>
      </trkpt>
      <trkpt lat="23.18398668430745601654052734375" lon="113.2656142674386501312255859375">
        <ele>-7.599999904632568359375</ele>
        <time>2018-06-30T10:47:09.000Z</time>
        <extensions>
          <ns3:TrackPointExtension>
            <ns3:hr>193</ns3:hr>
            <ns3:cad>83</ns3:cad>
          </ns3:TrackPointExtension>
        </extensions>
      </trkpt>
      <trkpt lat="23.18395567126572132110595703125" lon="113.26564016751945018768310546875">
        <ele>-4.80000019073486328125</ele>
        <time>2018-06-30T10:47:10.000Z</time>
        <extensions>
          <ns3:TrackPointExtension>
            <ns3:hr>193</ns3:hr>
            <ns3:cad>82</ns3:cad>
          </ns3:TrackPointExtension>
        </extensions>
      </trkpt>
      <trkpt lat="23.183930777013301849365234375" lon="113.265659026801586151123046875">
        <ele>-4.19999980926513671875</ele>
        <time>2018-06-30T10:47:13.000Z</time>
        <extensions>
          <ns3:TrackPointExtension>
            <ns3:hr>192</ns3:hr>
            <ns3:cad>83</ns3:cad>
          </ns3:TrackPointExtension>
        </extensions>
      </trkpt>
      <trkpt lat="23.18273861892521381378173828125" lon="113.26701982878148555755615234375">
        <ele>6.599999904632568359375</ele>
        <time>2018-06-30T10:51:21.000Z</time>
        <extensions>
          <ns3:TrackPointExtension>
            <ns3:hr>153</ns3:hr>
            <ns3:cad>0</ns3:cad>
          </ns3:TrackPointExtension>
        </extensions>
      </trkpt>
      <trkpt lat="23.18260383792221546173095703125" lon="113.26692469418048858642578125">
        <ele>5.80000019073486328125</ele>
        <time>2018-06-30T10:51:29.000Z</time>
        <extensions>
          <ns3:TrackPointExtension>
            <ns3:hr>150</ns3:hr>
            <ns3:cad>82</ns3:cad>
          </ns3:TrackPointExtension>
        </extensions>
      </trkpt>
      <trkpt lat="23.1825576536357402801513671875" lon="113.2669013924896717071533203125">
        <ele>5.599999904632568359375</ele>
        <time>2018-06-30T10:51:31.000Z</time>
        <extensions>
          <ns3:TrackPointExtension>
            <ns3:hr>153</ns3:hr>
            <ns3:cad>82</ns3:cad>
          </ns3:TrackPointExtension>
        </extensions>
      </trkpt>
      <trkpt lat="23.1825127266347408294677734375" lon="113.266873061656951904296875">
        <ele>5.400000095367431640625</ele>
        <time>2018-06-30T10:51:32.000Z</time>
        <extensions>
          <ns3:TrackPointExtension>
            <ns3:hr>158</ns3:hr>
            <ns3:cad>82</ns3:cad>
          </ns3:TrackPointExtension>
        </extensions>
      </trkpt>
      <trkpt lat="23.1825127266347408294677734375" lon="113.266873061656951904296875">
        <ele>5.400000095367431640625</ele>
        <time>2018-06-30T10:51:33.000Z</time>
        <extensions>
          <ns3:TrackPointExtension>
            <ns3:hr>158</ns3:hr>
            <ns3:cad>83</ns3:cad>
          </ns3:TrackPointExtension>
        </extensions>
      </trkpt>
      <trkpt lat="23.182431757450103759765625" lon="113.2668125443160533905029296875">
        <ele>5.400000095367431640625</ele>
        <time>2018-06-30T10:51:37.000Z</time>
        <extensions>
          <ns3:TrackPointExtension>
            <ns3:hr>161</ns3:hr>
            <ns3:cad>84</ns3:cad>
          </ns3:TrackPointExtension>
        </extensions>
      </trkpt>
      <trkpt lat="23.18233544938266277313232421875" lon="113.26676518656313419342041015625">
        <ele>6.599999904632568359375</ele>
        <time>2018-06-30T10:51:41.000Z</time>
        <extensions>
          <ns3:TrackPointExtension>
            <ns3:hr>158</ns3:hr>
            <ns3:cad>84</ns3:cad>
          </ns3:TrackPointExtension>
        </extensions>
      </trkpt>
      <trkpt lat="23.18231038749217987060546875" lon="113.266756050288677215576171875">
        <ele>7</ele>
        <time>2018-06-30T10:51:42.000Z</time>
        <extensions>
          <ns3:TrackPointExtension>
            <ns3:hr>161</ns3:hr>
            <ns3:cad>85</ns3:cad>
          </ns3:TrackPointExtension>
        </extensions>
      </trkpt>
      <trkpt lat="23.18223285488784313201904296875" lon="113.26671858318150043487548828125">
        <ele>8.19999980926513671875</ele>
        <time>2018-06-30T10:51:45.000Z</time>
        <extensions>
          <ns3:TrackPointExtension>
            <ns3:hr>157</ns3:hr>
            <ns3:cad>86</ns3:cad>
          </ns3:TrackPointExtension>
        </extensions>
      </trkpt>
      <trkpt lat="23.182184994220733642578125" lon="113.26669058762490749359130859375">
        <ele>9</ele>
        <time>2018-06-30T10:51:47.000Z</time>
        <extensions>
          <ns3:TrackPointExtension>
            <ns3:hr>160</ns3:hr>
            <ns3:cad>86</ns3:cad>
          </ns3:TrackPointExtension>
        </extensions>
      </trkpt>
      <trkpt lat="23.18216018378734588623046875" lon="113.26667667366564273834228515625">
        <ele>9.3999996185302734375</ele>
        <time>2018-06-30T10:51:48.000Z</time>
        <extensions>
          <ns3:TrackPointExtension>
            <ns3:hr>169</ns3:hr>
            <ns3:cad>86</ns3:cad>
          </ns3:TrackPointExtension>
        </extensions>
      </trkpt>
      <trkpt lat="23.18213663063943386077880859375" lon="113.2666653580963611602783203125">
        <ele>9.80000019073486328125</ele>
        <time>2018-06-30T10:51:49.000Z</time>
        <extensions>
          <ns3:TrackPointExtension>
            <ns3:hr>173</ns3:hr>
            <ns3:cad>86</ns3:cad>
          </ns3:TrackPointExtension>
        </extensions>
      </trkpt>
      <trkpt lat="23.18208885379135608673095703125" lon="113.26664230786263942718505859375">
        <ele>10.19999980926513671875</ele>
        <time>2018-06-30T10:51:50.000Z</time>
        <extensions>
          <ns3:TrackPointExtension>
            <ns3:hr>177</ns3:hr>
            <ns3:cad>85</ns3:cad>
          </ns3:TrackPointExtension>
        </extensions>
      </trkpt>
      <trkpt lat="23.18208885379135608673095703125" lon="113.26664230786263942718505859375">
        <ele>10.19999980926513671875</ele>
        <time>2018-06-30T10:51:51.000Z</time>
        <extensions>
          <ns3:TrackPointExtension>
            <ns3:hr>176</ns3:hr>
            <ns3:cad>85</ns3:cad>
          </ns3:TrackPointExtension>
        </extensions>
      </trkpt>
      <trkpt lat="23.18201593123376369476318359375" lon="113.26660928316414356231689453125">
        <ele>10.80000019073486328125</ele>
        <time>2018-06-30T10:51:54.000Z</time>
        <extensions>
          <ns3:TrackPointExtension>
            <ns3:hr>173</ns3:hr>
            <ns3:cad>84</ns3:cad>
          </ns3:TrackPointExtension>
        </extensions>
      </trkpt>
      <trkpt lat="23.18196765147149562835693359375" lon="113.26658807694911956787109375">
        <ele>11.19999980926513671875</ele>
        <time>2018-06-30T10:51:56.000Z</time>
        <extensions>
          <ns3:TrackPointExtension>
            <ns3:hr>177</ns3:hr>
            <ns3:cad>84</ns3:cad>
          </ns3:TrackPointExtension>
        </extensions>
      </trkpt>
      <trkpt lat="23.1818349659442901611328125" lon="113.26650224626064300537109375">
        <ele>11.6000003814697265625</ele>
        <time>2018-06-30T10:52:02.000Z</time>
        <extensions>
          <ns3:TrackPointExtension>
            <ns3:hr>180</ns3:hr>
            <ns3:cad>84</ns3:cad>
          </ns3:TrackPointExtension>
        </extensions>
      </trkpt>
      <trkpt lat="23.18179129622876644134521484375" lon="113.26647148467600345611572265625">
        <ele>11.6000003814697265625</ele>
        <time>2018-06-30T10:52:04.000Z</time>
        <extensions>
          <ns3:TrackPointExtension>
            <ns3:hr>177</ns3:hr>
            <ns3:cad>85</ns3:cad>
          </ns3:TrackPointExtension>
        </extensions>
      </trkpt>
      <trkpt lat="23.18174385465681552886962890625" lon="113.26644801534712314605712890625">
        <ele>11.3999996185302734375</ele>
        <time>2018-06-30T10:52:06.000Z</time>
        <extensions>
          <ns3:TrackPointExtension>
            <ns3:hr>180</ns3:hr>
            <ns3:cad>85</ns3:cad>
          </ns3:TrackPointExtension>
        </extensions>
      </trkpt>
      <trkpt lat="23.18165970034897327423095703125" lon="113.266406357288360595703125">
        <ele>11.19999980926513671875</ele>
        <time>2018-06-30T10:52:10.000Z</time>
        <extensions>
          <ns3:TrackPointExtension>
            <ns3:hr>184</ns3:hr>
            <ns3:cad>85</ns3:cad>
          </ns3:TrackPointExtension>
        </extensions>
      </trkpt>
      <trkpt lat="23.1816373206675052642822265625" lon="113.26639520935714244842529296875">
        <ele>11.19999980926513671875</ele>
        <time>2018-06-30T10:52:12.000Z</time>
        <extensions>
          <ns3:TrackPointExtension>
            <ns3:hr>180</ns3:hr>
            <ns3:cad>85</ns3:cad>
          </ns3:TrackPointExtension>
        </extensions>
      </trkpt>
      <trkpt lat="23.18162885494530200958251953125" lon="113.266390264034271240234375">
        <ele>11.19999980926513671875</ele>
        <time>2018-06-30T10:52:13.000Z</time>
        <extensions>
          <ns3:TrackPointExtension>
            <ns3:hr>176</ns3:hr>
            <ns3:cad>85</ns3:cad>
          </ns3:TrackPointExtension>
        </extensions>
      </trkpt>
      <trkpt lat="23.181615360081195831298828125" lon="113.26637911610305309295654296875">
        <ele>11.19999980926513671875</ele>
        <time>2018-06-30T10:52:15.000Z</time>
        <extensions>
          <ns3:TrackPointExtension>
            <ns3:hr>181</ns3:hr>
            <ns3:cad>85</ns3:cad>
          </ns3:TrackPointExtension>
        </extensions>
      </trkpt>
      <trkpt lat="23.1815930642187595367431640625" lon="113.26636889018118381500244140625">
        <ele>11.19999980926513671875</ele>
        <time>2018-06-30T10:52:18.000Z</time>
        <extensions>
          <ns3:TrackPointExtension>
            <ns3:hr>176</ns3:hr>
            <ns3:cad>61</ns3:cad>
          </ns3:TrackPointExtension>
        </extensions>
      </trkpt>
      <trkpt lat="23.18158929236233234405517578125" lon="113.26636277139186859130859375">
        <ele>11.19999980926513671875</ele>
        <time>2018-06-30T10:52:19.000Z</time>
        <extensions>
          <ns3:TrackPointExtension>
            <ns3:hr>180</ns3:hr>
            <ns3:cad>61</ns3:cad>
          </ns3:TrackPointExtension>
        </extensions>
      </trkpt>
      <trkpt lat="23.1815840117633342742919921875" lon="113.26635338366031646728515625">
        <ele>11.19999980926513671875</ele>
        <time>2018-06-30T10:52:20.000Z</time>
        <extensions>
          <ns3:TrackPointExtension>
            <ns3:hr>181</ns3:hr>
            <ns3:cad>61</ns3:cad>
          </ns3:TrackPointExtension>
        </extensions>
      </trkpt>
      <trkpt lat="23.1815481372177600860595703125" lon="113.26629948802292346954345703125">
        <ele>10.6000003814697265625</ele>
        <time>2018-06-30T10:52:27.000Z</time>
        <extensions>
          <ns3:TrackPointExtension>
            <ns3:hr>177</ns3:hr>
            <ns3:cad>60</ns3:cad>
          </ns3:TrackPointExtension>
        </extensions>
      </trkpt>
      <trkpt lat="23.181530199944972991943359375" lon="113.266281969845294952392578125">
        <ele>10.3999996185302734375</ele>
        <time>2018-06-30T10:52:30.000Z</time>
        <extensions>
          <ns3:TrackPointExtension>
            <ns3:hr>174</ns3:hr>
            <ns3:cad>60</ns3:cad>
          </ns3:TrackPointExtension>
        </extensions>
      </trkpt>
      <trkpt lat="23.1814569421112537384033203125" lon="113.26624265871942043304443359375">
        <ele>9.6000003814697265625</ele>
        <time>2018-06-30T10:52:39.000Z</time>
        <extensions>
          <ns3:TrackPointExtension>
            <ns3:hr>171</ns3:hr>
            <ns3:cad>57</ns3:cad>
          </ns3:TrackPointExtension>
        </extensions>
      </trkpt>
      <trkpt lat="23.18143062293529510498046875" lon="113.26621985994279384613037109375">
        <ele>9.3999996185302734375</ele>
        <time>2018-06-30T10:52:43.000Z</time>
        <extensions>
          <ns3:TrackPointExtension>
            <ns3:hr>168</ns3:hr>
            <ns3:cad>61</ns3:cad>
          </ns3:TrackPointExtension>
        </extensions>
      </trkpt>
      <trkpt lat="23.181320987641811370849609375" lon="113.26614526100456714630126953125">
        <ele>8.19999980926513671875</ele>
        <time>2018-06-30T10:52:55.000Z</time>
        <extensions>
          <ns3:TrackPointExtension>
            <ns3:hr>165</ns3:hr>
            <ns3:cad>61</ns3:cad>
          </ns3:TrackPointExtension>
        </extensions>
      </trkpt>
      <trkpt lat="23.18114228546619415283203125" lon="113.2660766132175922393798828125">
        <ele>9</ele>
        <time>2018-06-30T10:53:07.000Z</time>
        <extensions>
          <ns3:TrackPointExtension>
            <ns3:hr>165</ns3:hr>
            <ns3:cad>82</ns3:cad>
          </ns3:TrackPointExtension>
        </extensions>
      </trkpt>
      <trkpt lat="23.18096450529992580413818359375" lon="113.26597024686634540557861328125">
        <ele>10.6000003814697265625</ele>
        <time>2018-06-30T10:53:14.000Z</time>
        <extensions>
          <ns3:TrackPointExtension>
            <ns3:hr>166</ns3:hr>
            <ns3:cad>83</ns3:cad>
          </ns3:TrackPointExtension>
        </extensions>
      </trkpt>
      <trkpt lat="23.18089493550360202789306640625" lon="113.26593202538788318634033203125">
        <ele>11.3999996185302734375</ele>
        <time>2018-06-30T10:53:17.000Z</time>
        <extensions>
          <ns3:TrackPointExtension>
            <ns3:hr>171</ns3:hr>
            <ns3:cad>84</ns3:cad>
          </ns3:TrackPointExtension>
        </extensions>
      </trkpt>
      <trkpt lat="23.18080365657806396484375" lon="113.26589472591876983642578125">
        <ele>12.3999996185302734375</ele>
        <time>2018-06-30T10:53:21.000Z</time>
        <extensions>
          <ns3:TrackPointExtension>
            <ns3:hr>174</ns3:hr>
            <ns3:cad>84</ns3:cad>
          </ns3:TrackPointExtension>
        </extensions>
      </trkpt>
      <trkpt lat="23.180735595524311065673828125" lon="113.26587368734180927276611328125">
        <ele>13</ele>
        <time>2018-06-30T10:53:24.000Z</time>
        <extensions>
          <ns3:TrackPointExtension>
            <ns3:hr>177</ns3:hr>
            <ns3:cad>85</ns3:cad>
          </ns3:TrackPointExtension>
        </extensions>
      </trkpt>
      <trkpt lat="23.180686645209789276123046875" lon="113.26584937982261180877685546875">
        <ele>13</ele>
        <time>2018-06-30T10:53:25.000Z</time>
        <extensions>
          <ns3:TrackPointExtension>
            <ns3:hr>180</ns3:hr>
            <ns3:cad>85</ns3:cad>
          </ns3:TrackPointExtension>
        </extensions>
      </trkpt>
      <trkpt lat="23.180686645209789276123046875" lon="113.26584937982261180877685546875">
        <ele>13</ele>
        <time>2018-06-30T10:53:26.000Z</time>
        <extensions>
          <ns3:TrackPointExtension>
            <ns3:hr>180</ns3:hr>
            <ns3:cad>85</ns3:cad>
          </ns3:TrackPointExtension>
        </extensions>
      </trkpt>
      <trkpt lat="23.1805657781660556793212890625" lon="113.26577545143663883209228515625">
        <ele>13</ele>
        <time>2018-06-30T10:53:31.000Z</time>
        <extensions>
          <ns3:TrackPointExtension>
            <ns3:hr>174</ns3:hr>
            <ns3:cad>85</ns3:cad>
          </ns3:TrackPointExtension>
        </extensions>
      </trkpt>
      <trkpt lat="23.18054088391363620758056640625" lon="113.2657621242105960845947265625">
        <ele>13</ele>
        <time>2018-06-30T10:53:32.000Z</time>
        <extensions>
          <ns3:TrackPointExtension>
            <ns3:hr>174</ns3:hr>
            <ns3:cad>84</ns3:cad>
          </ns3:TrackPointExtension>
        </extensions>
      </trkpt>
      <trkpt lat="23.1804893352091312408447265625" lon="113.26573454774916172027587890625">
        <ele>13.19999980926513671875</ele>
        <time>2018-06-30T10:53:33.000Z</time>
        <extensions>
          <ns3:TrackPointExtension>
            <ns3:hr>178</ns3:hr>
            <ns3:cad>84</ns3:cad>
          </ns3:TrackPointExtension>
        </extensions>
      </trkpt>
      <trkpt lat="23.18046611733734607696533203125" lon="113.26571904122829437255859375">
        <ele>13.19999980926513671875</ele>
        <time>2018-06-30T10:53:35.000Z</time>
        <extensions>
          <ns3:TrackPointExtension>
            <ns3:hr>181</ns3:hr>
            <ns3:cad>84</ns3:cad>
          </ns3:TrackPointExtension>
        </extensions>
      </trkpt>
      <trkpt lat="23.18039604462683200836181640625" lon="113.26567235402762889862060546875">
        <ele>13.3999996185302734375</ele>
        <time>2018-06-30T10:53:38.000Z</time>
        <extensions>
          <ns3:TrackPointExtension>
            <ns3:hr>178</ns3:hr>
            <ns3:cad>85</ns3:cad>
          </ns3:TrackPointExtension>
        </extensions>
      </trkpt>
      <trkpt lat="23.1803250499069690704345703125" lon="113.2656218111515045166015625">
        <ele>13.6000003814697265625</ele>
        <time>2018-06-30T10:53:41.000Z</time>
        <extensions>
          <ns3:TrackPointExtension>
            <ns3:hr>181</ns3:hr>
            <ns3:cad>84</ns3:cad>
          </ns3:TrackPointExtension>
        </extensions>
      </trkpt>
      <trkpt lat="23.18016470409929752349853515625" lon="113.26551594771444797515869140625">
        <ele>14</ele>
        <time>2018-06-30T10:53:47.000Z</time>
        <extensions>
          <ns3:TrackPointExtension>
            <ns3:hr>181</ns3:hr>
            <ns3:cad>86</ns3:cad>
          </ns3:TrackPointExtension>
        </extensions>
      </trkpt>
      <trkpt lat="23.1800202839076519012451171875" lon="113.26541318558156490325927734375">
        <ele>14.3999996185302734375</ele>
        <time>2018-06-30T10:53:53.000Z</time>
        <extensions>
          <ns3:TrackPointExtension>
            <ns3:hr>185</ns3:hr>
            <ns3:cad>87</ns3:cad>
          </ns3:TrackPointExtension>
        </extensions>
      </trkpt>
      <trkpt lat="23.1798767857253551483154296875" lon="113.26530556194484233856201171875">
        <ele>14.3999996185302734375</ele>
        <time>2018-06-30T10:53:59.000Z</time>
        <extensions>
          <ns3:TrackPointExtension>
            <ns3:hr>189</ns3:hr>
            <ns3:cad>87</ns3:cad>
          </ns3:TrackPointExtension>
        </extensions>
      </trkpt>
      <trkpt lat="23.17982624284923076629638671875" lon="113.2652729563415050506591796875">
        <ele>14.6000003814697265625</ele>
        <time>2018-06-30T10:54:01.000Z</time>
        <extensions>
          <ns3:TrackPointExtension>
            <ns3:hr>185</ns3:hr>
            <ns3:cad>87</ns3:cad>
          </ns3:TrackPointExtension>
        </extensions>
      </trkpt>
      <trkpt lat="23.17972607910633087158203125" lon="113.26520481146872043609619140625">
        <ele>14.6000003814697265625</ele>
        <time>2018-06-30T10:54:05.000Z</time>
        <extensions>
          <ns3:TrackPointExtension>
            <ns3:hr>188</ns3:hr>
            <ns3:cad>85</ns3:cad>
          </ns3:TrackPointExtension>
        </extensions>
      </trkpt>
      <trkpt lat="23.17961183376610279083251953125" lon="113.265112526714801788330078125">
        <ele>13.80000019073486328125</ele>
        <time>2018-06-30T10:54:11.000Z</time>
        <extensions>
          <ns3:TrackPointExtension>
            <ns3:hr>184</ns3:hr>
            <ns3:cad>84</ns3:cad>
          </ns3:TrackPointExtension>
        </extensions>
      </trkpt>
      <trkpt lat="23.1795336306095123291015625" lon="113.2650612294673919677734375">
        <ele>13.80000019073486328125</ele>
        <time>2018-06-30T10:54:15.000Z</time>
        <extensions>
          <ns3:TrackPointExtension>
            <ns3:hr>188</ns3:hr>
            <ns3:cad>84</ns3:cad>
          </ns3:TrackPointExtension>
        </extensions>
      </trkpt>
      <trkpt lat="23.17937311716377735137939453125" lon="113.26496207155287265777587890625">
        <ele>14</ele>
        <time>2018-06-30T10:54:24.000Z</time>
        <extensions>
          <ns3:TrackPointExtension>
            <ns3:hr>188</ns3:hr>
            <ns3:cad>83</ns3:cad>
          </ns3:TrackPointExtension>
        </extensions>
      </trkpt>
      <trkpt lat="23.17928016185760498046875" lon="113.26489987783133983612060546875">
        <ele>14.80000019073486328125</ele>
        <time>2018-06-30T10:54:29.000Z</time>
        <extensions>
          <ns3:TrackPointExtension>
            <ns3:hr>191</ns3:hr>
            <ns3:cad>84</ns3:cad>
          </ns3:TrackPointExtension>
        </extensions>
      </trkpt>
      <trkpt lat="23.1791205704212188720703125" lon="113.26479979790747165679931640625">
        <ele>16.6000003814697265625</ele>
        <time>2018-06-30T10:54:40.000Z</time>
        <extensions>
          <ns3:TrackPointExtension>
            <ns3:hr>189</ns3:hr>
            <ns3:cad>84</ns3:cad>
          </ns3:TrackPointExtension>
        </extensions>
      </trkpt>
      <trkpt lat="23.179041780531406402587890625" lon="113.26473022811114788055419921875">
        <ele>17.3999996185302734375</ele>
        <time>2018-06-30T10:54:50.000Z</time>
        <extensions>
          <ns3:TrackPointExtension>
            <ns3:hr>192</ns3:hr>
            <ns3:cad>61</ns3:cad>
          </ns3:TrackPointExtension>
        </extensions>
      </trkpt>
      <trkpt lat="23.178986124694347381591796875" lon="113.26465864665806293487548828125">
        <ele>18</ele>
        <time>2018-06-30T10:54:57.000Z</time>
        <extensions>
          <ns3:TrackPointExtension>
            <ns3:hr>188</ns3:hr>
            <ns3:cad>61</ns3:cad>
          </ns3:TrackPointExtension>
        </extensions>
      </trkpt>
      <trkpt lat="23.17897883243858814239501953125" lon="113.26464657671749591827392578125">
        <ele>17.799999237060546875</ele>
        <time>2018-06-30T10:54:58.000Z</time>
        <extensions>
          <ns3:TrackPointExtension>
            <ns3:hr>185</ns3:hr>
            <ns3:cad>61</ns3:cad>
          </ns3:TrackPointExtension>
        </extensions>
      </trkpt>
      <trkpt lat="23.1789678521454334259033203125" lon="113.2646198384463787078857421875">
        <ele>17.200000762939453125</ele>
        <time>2018-06-30T10:54:59.000Z</time>
        <extensions>
          <ns3:TrackPointExtension>
            <ns3:hr>181</ns3:hr>
            <ns3:cad>61</ns3:cad>
          </ns3:TrackPointExtension>
        </extensions>
      </trkpt>
      <trkpt lat="23.1789678521454334259033203125" lon="113.2646198384463787078857421875">
        <ele>17.200000762939453125</ele>
        <time>2018-06-30T10:55:00.000Z</time>
        <extensions>
          <ns3:TrackPointExtension>
            <ns3:hr>181</ns3:hr>
            <ns3:cad>61</ns3:cad>
          </ns3:TrackPointExtension>
        </extensions>
      </trkpt>
      <trkpt lat="23.178961314260959625244140625" lon="113.264608941972255706787109375">
        <ele>17</ele>
        <time>2018-06-30T10:55:01.000Z</time>
        <extensions>
          <ns3:TrackPointExtension>
            <ns3:hr>180</ns3:hr>
            <ns3:cad>61</ns3:cad>
          </ns3:TrackPointExtension>
        </extensions>
      </trkpt>
      <trkpt lat="23.178933821618556976318359375" lon="113.26454691588878631591796875">
        <ele>15.6000003814697265625</ele>
        <time>2018-06-30T10:55:06.000Z</time>
        <extensions>
          <ns3:TrackPointExtension>
            <ns3:hr>182</ns3:hr>
            <ns3:cad>61</ns3:cad>
          </ns3:TrackPointExtension>
        </extensions>
      </trkpt>
      <trkpt lat="23.1789132021367549896240234375" lon="113.26443962752819061279296875">
        <ele>13.80000019073486328125</ele>
        <time>2018-06-30T10:55:15.000Z</time>
        <extensions>
          <ns3:TrackPointExtension>
            <ns3:hr>179</ns3:hr>
            <ns3:cad>59</ns3:cad>
          </ns3:TrackPointExtension>
        </extensions>
      </trkpt>
      <trkpt lat="23.1789086759090423583984375" lon="113.26443451456725597381591796875">
        <ele>13.80000019073486328125</ele>
        <time>2018-06-30T10:55:17.000Z</time>
        <extensions>
          <ns3:TrackPointExtension>
            <ns3:hr>177</ns3:hr>
            <ns3:cad>58</ns3:cad>
          </ns3:TrackPointExtension>
        </extensions>
      </trkpt>
      <trkpt lat="23.17890607751905918121337890625" lon="113.264427892863750457763671875">
        <ele>13.6000003814697265625</ele>
        <time>2018-06-30T10:55:19.000Z</time>
        <extensions>
          <ns3:TrackPointExtension>
            <ns3:hr>167</ns3:hr>
            <ns3:cad>57</ns3:cad>
          </ns3:TrackPointExtension>
        </extensions>
      </trkpt>
      <trkpt lat="23.17890255711972713470458984375" lon="113.264426551759243011474609375">
        <ele>13.6000003814697265625</ele>
        <time>2018-06-30T10:55:20.000Z</time>
        <extensions>
          <ns3:TrackPointExtension>
            <ns3:hr>174</ns3:hr>
            <ns3:cad>57</ns3:cad>
          </ns3:TrackPointExtension>
        </extensions>
      </trkpt>
      <trkpt lat="23.17889191210269927978515625" lon="113.2644290663301944732666015625">
        <ele>13.6000003814697265625</ele>
        <time>2018-06-30T10:55:21.000Z</time>
        <extensions>
          <ns3:TrackPointExtension>
            <ns3:hr>180</ns3:hr>
            <ns3:cad>61</ns3:cad>
          </ns3:TrackPointExtension>
        </extensions>
      </trkpt>
      <trkpt lat="23.17885838449001312255859375" lon="113.26443099416792392730712890625">
        <ele>13.19999980926513671875</ele>
        <time>2018-06-30T10:55:24.000Z</time>
        <extensions>
          <ns3:TrackPointExtension>
            <ns3:hr>181</ns3:hr>
            <ns3:cad>61</ns3:cad>
          </ns3:TrackPointExtension>
        </extensions>
      </trkpt>
      <trkpt lat="23.17882359959185123443603515625" lon="113.26443082652986049652099609375">
        <ele>13.19999980926513671875</ele>
        <time>2018-06-30T10:55:25.000Z</time>
        <extensions>
          <ns3:TrackPointExtension>
            <ns3:hr>185</ns3:hr>
            <ns3:cad>61</ns3:cad>
          </ns3:TrackPointExtension>
        </extensions>
      </trkpt>
      <trkpt lat="23.17882359959185123443603515625" lon="113.26443082652986049652099609375">
        <ele>13.19999980926513671875</ele>
        <time>2018-06-30T10:55:26.000Z</time>
        <extensions>
          <ns3:TrackPointExtension>
            <ns3:hr>185</ns3:hr>
            <ns3:cad>64</ns3:cad>
          </ns3:TrackPointExtension>
        </extensions>
      </trkpt>
      <trkpt lat="23.1787559576332569122314453125" lon="113.26443082652986049652099609375">
        <ele>12.80000019073486328125</ele>
        <time>2018-06-30T10:55:29.000Z</time>
        <extensions>
          <ns3:TrackPointExtension>
            <ns3:hr>183</ns3:hr>
            <ns3:cad>79</ns3:cad>
          </ns3:TrackPointExtension>
        </extensions>
      </trkpt>
      <trkpt lat="23.17868764512240886688232421875" lon="113.26441070996224880218505859375">
        <ele>11.80000019073486328125</ele>
        <time>2018-06-30T10:55:32.000Z</time>
        <extensions>
          <ns3:TrackPointExtension>
            <ns3:hr>180</ns3:hr>
            <ns3:cad>81</ns3:cad>
          </ns3:TrackPointExtension>
        </extensions>
      </trkpt>
      <trkpt lat="23.17861790768802165985107421875" lon="113.2643804512917995452880859375">
        <ele>10.80000019073486328125</ele>
        <time>2018-06-30T10:55:35.000Z</time>
        <extensions>
          <ns3:TrackPointExtension>
            <ns3:hr>177</ns3:hr>
            <ns3:cad>83</ns3:cad>
          </ns3:TrackPointExtension>
        </extensions>
      </trkpt>
      <trkpt lat="23.1785497628152370452880859375" lon="113.2643492706120014190673828125">
        <ele>9.80000019073486328125</ele>
        <time>2018-06-30T10:55:38.000Z</time>
        <extensions>
          <ns3:TrackPointExtension>
            <ns3:hr>164</ns3:hr>
            <ns3:cad>84</ns3:cad>
          </ns3:TrackPointExtension>
        </extensions>
      </trkpt>
      <trkpt lat="23.1785256229341030120849609375" lon="113.2643358595669269561767578125">
        <ele>9.6000003814697265625</ele>
        <time>2018-06-30T10:55:39.000Z</time>
        <extensions>
          <ns3:TrackPointExtension>
            <ns3:hr>165</ns3:hr>
            <ns3:cad>85</ns3:cad>
          </ns3:TrackPointExtension>
        </extensions>
      </trkpt>
      <trkpt lat="23.17848094739019870758056640625" lon="113.26430417597293853759765625">
        <ele>9.3999996185302734375</ele>
        <time>2018-06-30T10:55:40.000Z</time>
        <extensions>
          <ns3:TrackPointExtension>
            <ns3:hr>173</ns3:hr>
            <ns3:cad>85</ns3:cad>
          </ns3:TrackPointExtension>
        </extensions>
      </trkpt>
      <trkpt lat="23.17848094739019870758056640625" lon="113.26430417597293853759765625">
        <ele>9.3999996185302734375</ele>
        <time>2018-06-30T10:55:41.000Z</time>
        <extensions>
          <ns3:TrackPointExtension>
            <ns3:hr>176</ns3:hr>
            <ns3:cad>85</ns3:cad>
          </ns3:TrackPointExtension>
        </extensions>
      </trkpt>
      <trkpt lat="23.1784015707671642303466796875" lon="113.26425463892519474029541015625">
        <ele>9.6000003814697265625</ele>
        <time>2018-06-30T10:55:45.000Z</time>
        <extensions>
          <ns3:TrackPointExtension>
            <ns3:hr>172</ns3:hr>
            <ns3:cad>85</ns3:cad>
          </ns3:TrackPointExtension>
        </extensions>
      </trkpt>
      <trkpt lat="23.17831666208803653717041015625" lon="113.2642121426761150360107421875">
        <ele>9.6000003814697265625</ele>
        <time>2018-06-30T10:55:49.000Z</time>
        <extensions>
          <ns3:TrackPointExtension>
            <ns3:hr>179</ns3:hr>
            <ns3:cad>84</ns3:cad>
          </ns3:TrackPointExtension>
        </extensions>
      </trkpt>
      <trkpt lat="23.1782905943691730499267578125" lon="113.26420049183070659637451171875">
        <ele>9.80000019073486328125</ele>
        <time>2018-06-30T10:55:50.000Z</time>
        <extensions>
          <ns3:TrackPointExtension>
            <ns3:hr>179</ns3:hr>
            <ns3:cad>84</ns3:cad>
          </ns3:TrackPointExtension>
        </extensions>
      </trkpt>
      <trkpt lat="23.17827005870640277862548828125" lon="113.2641782797873020172119140625">
        <ele>9.6000003814697265625</ele>
        <time>2018-06-30T10:55:54.000Z</time>
        <extensions>
          <ns3:TrackPointExtension>
            <ns3:hr>179</ns3:hr>
            <ns3:cad>84</ns3:cad>
          </ns3:TrackPointExtension>
        </extensions>
      </trkpt>
      <trkpt lat="23.17824156023561954498291015625" lon="113.26412379741668701171875">
        <ele>9.19999980926513671875</ele>
        <time>2018-06-30T10:56:00.000Z</time>
        <extensions>
          <ns3:TrackPointExtension>
            <ns3:hr>181</ns3:hr>
            <ns3:cad>61</ns3:cad>
          </ns3:TrackPointExtension>
        </extensions>
      </trkpt>
    </trkseg>
  </trk>
</gpx>
