<gpx xmlns:ns3="http://www.garmin.com/xmlschemas/TrackPointExtension/v1" xmlns="http://www.topografix.com/GPX/1/1" xmlns:xsi="http://www.w3.org/2001/XMLSchema-instance" xmlns:ns2="http://www.garmin.com/xmlschemas/GpxExtensions/v3" creator="Garmin Connect" version="1.1" xsi:schemaLocation="http://www.topografix.com/GPX/1/1 http://www.topografix.com/GPX/11.xsd">
  <extensions>
<distance>2799.59</distance>
<average_hr>105.0</average_hr>
<average_speed>0.9940000176429749</average_speed>
<start_time>2020-07-22T22:51:26+00:00</start_time>
<end_time>2020-07-22T23:38:21.513000+00:00</end_time>
<moving_time>2792.293</moving_time>
<elapsed_time>2849.386</elapsed_time>
</extensions>
<metadata>
    <link href="connect.garmin.com">
      <text>Garmin Connect</text>
    </link>
    <time>2020-07-22T22:51:26.000Z</time>
  </metadata>
  <trk>
    <name>广州市 跑步</name>
    <type>running</type>
    <trkseg>
      <trkpt lat="23.18680484779179096221923828125" lon="113.25025141239166259765625">
        <ele>6.19999980926513671875</ele>
        <time>2020-07-25T22:44:30.000Z</time>
        <extensions>
          <ns3:TrackPointExtension>
            <ns3:hr>94</ns3:hr>
            <ns3:cad>0</ns3:cad>
          </ns3:TrackPointExtension>
        </extensions>
      </trkpt>
      <trkpt lat="23.18674952723085880279541015625" lon="113.25015284121036529541015625">
        <ele>5.80000019073486328125</ele>
        <time>2020-07-25T22:44:31.000Z</time>
        <extensions>
          <ns3:TrackPointExtension>
            <ns3:hr>94</ns3:hr>
            <ns3:cad>0</ns3:cad>
          </ns3:TrackPointExtension>
        </extensions>
      </trkpt>
      <trkpt lat="23.18653193302452564239501953125" lon="113.25014051981270313262939453125">
        <ele>5.599999904632568359375</ele>
        <time>2020-07-25T22:44:35.000Z</time>
        <extensions>
          <ns3:TrackPointExtension>
            <ns3:hr>91</ns3:hr>
            <ns3:cad>0</ns3:cad>
          </ns3:TrackPointExtension>
        </extensions>
      </trkpt>
      <trkpt lat="23.186423219740390777587890625" lon="113.25017337687313556671142578125">
        <ele>7.19999980926513671875</ele>
        <time>2020-07-25T22:44:56.000Z</time>
        <extensions>
          <ns3:TrackPointExtension>
            <ns3:hr>88</ns3:hr>
            <ns3:cad>0</ns3:cad>
          </ns3:TrackPointExtension>
        </extensions>
      </trkpt>
      <trkpt lat="23.186423219740390777587890625" lon="113.25017337687313556671142578125">
        <ele>7.19999980926513671875</ele>
        <time>2020-07-25T22:44:59.000Z</time>
        <extensions>
          <ns3:TrackPointExtension>
            <ns3:hr>83</ns3:hr>
            <ns3:cad>0</ns3:cad>
          </ns3:TrackPointExtension>
        </extensions>
      </trkpt>
      <trkpt lat="23.186423219740390777587890625" lon="113.25017337687313556671142578125">
        <ele>7.19999980926513671875</ele>
        <time>2020-07-25T22:45:02.000Z</time>
        <extensions>
          <ns3:TrackPointExtension>
            <ns3:hr>80</ns3:hr>
            <ns3:cad>0</ns3:cad>
          </ns3:TrackPointExtension>
        </extensions>
      </trkpt>
      <trkpt lat="23.186423219740390777587890625" lon="113.25017337687313556671142578125">
        <ele>7.19999980926513671875</ele>
        <time>2020-07-25T22:45:22.000Z</time>
        <extensions>
          <ns3:TrackPointExtension>
            <ns3:hr>83</ns3:hr>
            <ns3:cad>0</ns3:cad>
          </ns3:TrackPointExtension>
        </extensions>
      </trkpt>
      <trkpt lat="23.186423219740390777587890625" lon="113.25017337687313556671142578125">
        <ele>7.19999980926513671875</ele>
        <time>2020-07-25T22:45:24.000Z</time>
        <extensions>
          <ns3:TrackPointExtension>
            <ns3:hr>86</ns3:hr>
            <ns3:cad>0</ns3:cad>
          </ns3:TrackPointExtension>
        </extensions>
      </trkpt>
      <trkpt lat="23.186423219740390777587890625" lon="113.25017337687313556671142578125">
        <ele>7.19999980926513671875</ele>
        <time>2020-07-25T22:45:42.000Z</time>
        <extensions>
          <ns3:TrackPointExtension>
            <ns3:hr>83</ns3:hr>
            <ns3:cad>0</ns3:cad>
          </ns3:TrackPointExtension>
        </extensions>
      </trkpt>
      <trkpt lat="23.186423219740390777587890625" lon="113.25017337687313556671142578125">
        <ele>7.19999980926513671875</ele>
        <time>2020-07-25T22:45:46.000Z</time>
        <extensions>
          <ns3:TrackPointExtension>
            <ns3:hr>78</ns3:hr>
            <ns3:cad>0</ns3:cad>
          </ns3:TrackPointExtension>
        </extensions>
      </trkpt>
      <trkpt lat="23.186423219740390777587890625" lon="113.25017337687313556671142578125">
        <ele>7.19999980926513671875</ele>
        <time>2020-07-25T22:45:58.000Z</time>
        <extensions>
          <ns3:TrackPointExtension>
            <ns3:hr>81</ns3:hr>
            <ns3:cad>0</ns3:cad>
          </ns3:TrackPointExtension>
        </extensions>
      </trkpt>
      <trkpt lat="23.186423219740390777587890625" lon="113.25017337687313556671142578125">
        <ele>7.19999980926513671875</ele>
        <time>2020-07-25T22:46:31.000Z</time>
        <extensions>
          <ns3:TrackPointExtension>
            <ns3:hr>84</ns3:hr>
            <ns3:cad>0</ns3:cad>
          </ns3:TrackPointExtension>
        </extensions>
      </trkpt>
      <trkpt lat="23.186423219740390777587890625" lon="113.25017337687313556671142578125">
        <ele>7.19999980926513671875</ele>
        <time>2020-07-25T22:46:36.000Z</time>
        <extensions>
          <ns3:TrackPointExtension>
            <ns3:hr>81</ns3:hr>
            <ns3:cad>0</ns3:cad>
          </ns3:TrackPointExtension>
        </extensions>
      </trkpt>
      <trkpt lat="23.186423219740390777587890625" lon="113.25017337687313556671142578125">
        <ele>7.19999980926513671875</ele>
        <time>2020-07-25T22:46:47.000Z</time>
        <extensions>
          <ns3:TrackPointExtension>
            <ns3:hr>78</ns3:hr>
            <ns3:cad>0</ns3:cad>
          </ns3:TrackPointExtension>
        </extensions>
      </trkpt>
      <trkpt lat="23.186423219740390777587890625" lon="113.25017337687313556671142578125">
        <ele>7.19999980926513671875</ele>
        <time>2020-07-25T22:46:50.000Z</time>
        <extensions>
          <ns3:TrackPointExtension>
            <ns3:hr>75</ns3:hr>
            <ns3:cad>0</ns3:cad>
          </ns3:TrackPointExtension>
        </extensions>
      </trkpt>
      <trkpt lat="23.186423219740390777587890625" lon="113.25017337687313556671142578125">
        <ele>7.19999980926513671875</ele>
        <time>2020-07-25T22:47:01.000Z</time>
        <extensions>
          <ns3:TrackPointExtension>
            <ns3:hr>78</ns3:hr>
            <ns3:cad>0</ns3:cad>
          </ns3:TrackPointExtension>
        </extensions>
      </trkpt>
      <trkpt lat="23.186423219740390777587890625" lon="113.25017337687313556671142578125">
        <ele>7.19999980926513671875</ele>
        <time>2020-07-25T22:47:08.000Z</time>
        <extensions>
          <ns3:TrackPointExtension>
            <ns3:hr>81</ns3:hr>
            <ns3:cad>0</ns3:cad>
          </ns3:TrackPointExtension>
        </extensions>
      </trkpt>
      <trkpt lat="23.186423219740390777587890625" lon="113.25017337687313556671142578125">
        <ele>7.19999980926513671875</ele>
        <time>2020-07-25T22:47:15.000Z</time>
        <extensions>
          <ns3:TrackPointExtension>
            <ns3:hr>81</ns3:hr>
            <ns3:cad>0</ns3:cad>
          </ns3:TrackPointExtension>
        </extensions>
      </trkpt>
      <trkpt lat="23.186423219740390777587890625" lon="113.25017337687313556671142578125">
        <ele>7.19999980926513671875</ele>
        <time>2020-07-25T22:47:49.000Z</time>
        <extensions>
          <ns3:TrackPointExtension>
            <ns3:hr>90</ns3:hr>
            <ns3:cad>61</ns3:cad>
          </ns3:TrackPointExtension>
        </extensions>
      </trkpt>
      <trkpt lat="23.186418525874614715576171875" lon="113.250176645815372467041015625">
        <ele>7.19999980926513671875</ele>
        <time>2020-07-25T22:47:50.000Z</time>
        <extensions>
          <ns3:TrackPointExtension>
            <ns3:hr>90</ns3:hr>
            <ns3:cad>0</ns3:cad>
          </ns3:TrackPointExtension>
        </extensions>
      </trkpt>
      <trkpt lat="23.18642883561551570892333984375" lon="113.25020514428615570068359375">
        <ele>7.19999980926513671875</ele>
        <time>2020-07-25T22:47:58.000Z</time>
        <extensions>
          <ns3:TrackPointExtension>
            <ns3:hr>85</ns3:hr>
            <ns3:cad>0</ns3:cad>
          </ns3:TrackPointExtension>
        </extensions>
      </trkpt>
      <trkpt lat="23.18639178760349750518798828125" lon="113.25023758225142955780029296875">
        <ele>7.80000019073486328125</ele>
        <time>2020-07-25T22:48:00.000Z</time>
        <extensions>
          <ns3:TrackPointExtension>
            <ns3:hr>88</ns3:hr>
            <ns3:cad>0</ns3:cad>
          </ns3:TrackPointExtension>
        </extensions>
      </trkpt>
      <trkpt lat="23.1863751076161861419677734375" lon="113.25029826723039150238037109375">
        <ele>8</ele>
        <time>2020-07-25T22:48:04.000Z</time>
        <extensions>
          <ns3:TrackPointExtension>
            <ns3:hr>95</ns3:hr>
            <ns3:cad>61</ns3:cad>
          </ns3:TrackPointExtension>
        </extensions>
      </trkpt>
      <trkpt lat="23.18636588752269744873046875" lon="113.2503112591803073883056640625">
        <ele>7.80000019073486328125</ele>
        <time>2020-07-25T22:48:05.000Z</time>
        <extensions>
          <ns3:TrackPointExtension>
            <ns3:hr>98</ns3:hr>
            <ns3:cad>61</ns3:cad>
          </ns3:TrackPointExtension>
        </extensions>
      </trkpt>
      <trkpt lat="23.18636530078947544097900390625" lon="113.250313438475131988525390625">
        <ele>7.80000019073486328125</ele>
        <time>2020-07-25T22:48:06.000Z</time>
        <extensions>
          <ns3:TrackPointExtension>
            <ns3:hr>98</ns3:hr>
            <ns3:cad>60</ns3:cad>
          </ns3:TrackPointExtension>
        </extensions>
      </trkpt>
      <trkpt lat="23.18634836934506893157958984375" lon="113.25035526417195796966552734375">
        <ele>7.400000095367431640625</ele>
        <time>2020-07-25T22:48:10.000Z</time>
        <extensions>
          <ns3:TrackPointExtension>
            <ns3:hr>97</ns3:hr>
            <ns3:cad>60</ns3:cad>
          </ns3:TrackPointExtension>
        </extensions>
      </trkpt>
      <trkpt lat="23.18633948452770709991455078125" lon="113.250381834805011749267578125">
        <ele>7.19999980926513671875</ele>
        <time>2020-07-25T22:48:12.000Z</time>
        <extensions>
          <ns3:TrackPointExtension>
            <ns3:hr>100</ns3:hr>
            <ns3:cad>60</ns3:cad>
          </ns3:TrackPointExtension>
        </extensions>
      </trkpt>
      <trkpt lat="23.1863325275480747222900390625" lon="113.2504024542868137359619140625">
        <ele>7</ele>
        <time>2020-07-25T22:48:14.000Z</time>
        <extensions>
          <ns3:TrackPointExtension>
            <ns3:hr>102</ns3:hr>
            <ns3:cad>61</ns3:cad>
          </ns3:TrackPointExtension>
        </extensions>
      </trkpt>
      <trkpt lat="23.1863234750926494598388671875" lon="113.2504155300557613372802734375">
        <ele>6.80000019073486328125</ele>
        <time>2020-07-25T22:48:15.000Z</time>
        <extensions>
          <ns3:TrackPointExtension>
            <ns3:hr>102</ns3:hr>
            <ns3:cad>61</ns3:cad>
          </ns3:TrackPointExtension>
        </extensions>
      </trkpt>
      <trkpt lat="23.1863060407340526580810546875" lon="113.2504644803702831268310546875">
        <ele>6.19999980926513671875</ele>
        <time>2020-07-25T22:48:18.000Z</time>
        <extensions>
          <ns3:TrackPointExtension>
            <ns3:hr>105</ns3:hr>
            <ns3:cad>61</ns3:cad>
          </ns3:TrackPointExtension>
        </extensions>
      </trkpt>
      <trkpt lat="23.18630419671535491943359375" lon="113.25047059915959835052490234375">
        <ele>6.19999980926513671875</ele>
        <time>2020-07-25T22:48:19.000Z</time>
        <extensions>
          <ns3:TrackPointExtension>
            <ns3:hr>104</ns3:hr>
            <ns3:cad>61</ns3:cad>
          </ns3:TrackPointExtension>
        </extensions>
      </trkpt>
      <trkpt lat="23.1863010115921497344970703125" lon="113.2504775561392307281494140625">
        <ele>6.19999980926513671875</ele>
        <time>2020-07-25T22:48:20.000Z</time>
        <extensions>
          <ns3:TrackPointExtension>
            <ns3:hr>104</ns3:hr>
            <ns3:cad>61</ns3:cad>
          </ns3:TrackPointExtension>
        </extensions>
      </trkpt>
      <trkpt lat="23.1862802244722843170166015625" lon="113.250529356300830841064453125">
        <ele>6.400000095367431640625</ele>
        <time>2020-07-25T22:48:23.000Z</time>
        <extensions>
          <ns3:TrackPointExtension>
            <ns3:hr>107</ns3:hr>
            <ns3:cad>59</ns3:cad>
          </ns3:TrackPointExtension>
        </extensions>
      </trkpt>
      <trkpt lat="23.186276368796825408935546875" lon="113.2505633868277072906494140625">
        <ele>6.599999904632568359375</ele>
        <time>2020-07-25T22:48:25.000Z</time>
        <extensions>
          <ns3:TrackPointExtension>
            <ns3:hr>110</ns3:hr>
            <ns3:cad>57</ns3:cad>
          </ns3:TrackPointExtension>
        </extensions>
      </trkpt>
      <trkpt lat="23.186238817870616912841796875" lon="113.250717110931873321533203125">
        <ele>7.599999904632568359375</ele>
        <time>2020-07-25T22:48:34.000Z</time>
        <extensions>
          <ns3:TrackPointExtension>
            <ns3:hr>114</ns3:hr>
            <ns3:cad>57</ns3:cad>
          </ns3:TrackPointExtension>
        </extensions>
      </trkpt>
      <trkpt lat="23.186168409883975982666015625" lon="113.2508346252143383026123046875">
        <ele>8.80000019073486328125</ele>
        <time>2020-07-25T22:48:44.000Z</time>
        <extensions>
          <ns3:TrackPointExtension>
            <ns3:hr>117</ns3:hr>
            <ns3:cad>57</ns3:cad>
          </ns3:TrackPointExtension>
        </extensions>
      </trkpt>
      <trkpt lat="23.1861726008355617523193359375" lon="113.2508399896323680877685546875">
        <ele>8.80000019073486328125</ele>
        <time>2020-07-25T22:48:47.000Z</time>
        <extensions>
          <ns3:TrackPointExtension>
            <ns3:hr>120</ns3:hr>
            <ns3:cad>0</ns3:cad>
          </ns3:TrackPointExtension>
        </extensions>
      </trkpt>
      <trkpt lat="23.1861658953130245208740234375" lon="113.25085264630615711212158203125">
        <ele>9</ele>
        <time>2020-07-25T22:48:51.000Z</time>
        <extensions>
          <ns3:TrackPointExtension>
            <ns3:hr>116</ns3:hr>
            <ns3:cad>0</ns3:cad>
          </ns3:TrackPointExtension>
        </extensions>
      </trkpt>
      <trkpt lat="23.186150304973125457763671875" lon="113.25086337514221668243408203125">
        <ele>9.19999980926513671875</ele>
        <time>2020-07-25T22:48:53.000Z</time>
        <extensions>
          <ns3:TrackPointExtension>
            <ns3:hr>113</ns3:hr>
            <ns3:cad>61</ns3:cad>
          </ns3:TrackPointExtension>
        </extensions>
      </trkpt>
      <trkpt lat="23.186138905584812164306640625" lon="113.25086924247443675994873046875">
        <ele>9.3999996185302734375</ele>
        <time>2020-07-25T22:49:01.000Z</time>
        <extensions>
          <ns3:TrackPointExtension>
            <ns3:hr>110</ns3:hr>
            <ns3:cad>61</ns3:cad>
          </ns3:TrackPointExtension>
        </extensions>
      </trkpt>
      <trkpt lat="23.18603706546127796173095703125" lon="113.2510391436517238616943359375">
        <ele>9</ele>
        <time>2020-07-25T22:49:23.000Z</time>
        <extensions>
          <ns3:TrackPointExtension>
            <ns3:hr>109</ns3:hr>
            <ns3:cad>58</ns3:cad>
          </ns3:TrackPointExtension>
        </extensions>
      </trkpt>
      <trkpt lat="23.18604796193540096282958984375" lon="113.25109723024070262908935546875">
        <ele>9.6000003814697265625</ele>
        <time>2020-07-25T22:49:30.000Z</time>
        <extensions>
          <ns3:TrackPointExtension>
            <ns3:hr>105</ns3:hr>
            <ns3:cad>0</ns3:cad>
          </ns3:TrackPointExtension>
        </extensions>
      </trkpt>
      <trkpt lat="23.1860084831714630126953125" lon="113.25113142840564250946044921875">
        <ele>10</ele>
        <time>2020-07-25T22:49:38.000Z</time>
        <extensions>
          <ns3:TrackPointExtension>
            <ns3:hr>103</ns3:hr>
            <ns3:cad>0</ns3:cad>
          </ns3:TrackPointExtension>
        </extensions>
      </trkpt>
      <trkpt lat="23.18599767051637172698974609375" lon="113.25113427825272083282470703125">
        <ele>10.19999980926513671875</ele>
        <time>2020-07-25T22:49:40.000Z</time>
        <extensions>
          <ns3:TrackPointExtension>
            <ns3:hr>103</ns3:hr>
            <ns3:cad>0</ns3:cad>
          </ns3:TrackPointExtension>
        </extensions>
      </trkpt>
      <trkpt lat="23.18594721145927906036376953125" lon="113.25115942396223545074462890625">
        <ele>10.80000019073486328125</ele>
        <time>2020-07-25T22:49:50.000Z</time>
        <extensions>
          <ns3:TrackPointExtension>
            <ns3:hr>99</ns3:hr>
            <ns3:cad>0</ns3:cad>
          </ns3:TrackPointExtension>
        </extensions>
      </trkpt>
      <trkpt lat="23.18592743016779422760009765625" lon="113.25117367319762706756591796875">
        <ele>11.19999980926513671875</ele>
        <time>2020-07-25T22:49:55.000Z</time>
        <extensions>
          <ns3:TrackPointExtension>
            <ns3:hr>96</ns3:hr>
            <ns3:cad>61</ns3:cad>
          </ns3:TrackPointExtension>
        </extensions>
      </trkpt>
      <trkpt lat="23.1858162023127079010009765625" lon="113.25118289329111576080322265625">
        <ele>11</ele>
        <time>2020-07-25T22:50:08.000Z</time>
        <extensions>
          <ns3:TrackPointExtension>
            <ns3:hr>99</ns3:hr>
            <ns3:cad>0</ns3:cad>
          </ns3:TrackPointExtension>
        </extensions>
      </trkpt>
      <trkpt lat="23.1857716105878353118896484375" lon="113.25119010172784328460693359375">
        <ele>10.6000003814697265625</ele>
        <time>2020-07-25T22:50:13.000Z</time>
        <extensions>
          <ns3:TrackPointExtension>
            <ns3:hr>101</ns3:hr>
            <ns3:cad>0</ns3:cad>
          </ns3:TrackPointExtension>
        </extensions>
      </trkpt>
      <trkpt lat="23.18566004745662212371826171875" lon="113.25120694935321807861328125">
        <ele>11.3999996185302734375</ele>
        <time>2020-07-25T22:50:23.000Z</time>
        <extensions>
          <ns3:TrackPointExtension>
            <ns3:hr>101</ns3:hr>
            <ns3:cad>0</ns3:cad>
          </ns3:TrackPointExtension>
        </extensions>
      </trkpt>
      <trkpt lat="23.1856318004429340362548828125" lon="113.25122396461665630340576171875">
        <ele>11.3999996185302734375</ele>
        <time>2020-07-25T22:50:26.000Z</time>
        <extensions>
          <ns3:TrackPointExtension>
            <ns3:hr>102</ns3:hr>
            <ns3:cad>0</ns3:cad>
          </ns3:TrackPointExtension>
        </extensions>
      </trkpt>
      <trkpt lat="23.18562316708266735076904296875" lon="113.25118607841432094573974609375">
        <ele>11.80000019073486328125</ele>
        <time>2020-07-25T22:50:30.000Z</time>
        <extensions>
          <ns3:TrackPointExtension>
            <ns3:hr>102</ns3:hr>
            <ns3:cad>58</ns3:cad>
          </ns3:TrackPointExtension>
        </extensions>
      </trkpt>
      <trkpt lat="23.18553750403225421905517578125" lon="113.25119865126907825469970703125">
        <ele>11.80000019073486328125</ele>
        <time>2020-07-25T22:50:46.000Z</time>
        <extensions>
          <ns3:TrackPointExtension>
            <ns3:hr>104</ns3:hr>
            <ns3:cad>59</ns3:cad>
          </ns3:TrackPointExtension>
        </extensions>
      </trkpt>
      <trkpt lat="23.185503892600536346435546875" lon="113.251251876354217529296875">
        <ele>11</ele>
        <time>2020-07-25T22:50:52.000Z</time>
        <extensions>
          <ns3:TrackPointExtension>
            <ns3:hr>104</ns3:hr>
            <ns3:cad>61</ns3:cad>
          </ns3:TrackPointExtension>
        </extensions>
      </trkpt>
      <trkpt lat="23.18548142910003662109375" lon="113.2512657903134822845458984375">
        <ele>10.80000019073486328125</ele>
        <time>2020-07-25T22:50:54.000Z</time>
        <extensions>
          <ns3:TrackPointExtension>
            <ns3:hr>103</ns3:hr>
            <ns3:cad>61</ns3:cad>
          </ns3:TrackPointExtension>
        </extensions>
      </trkpt>
      <trkpt lat="23.18546508438885211944580078125" lon="113.2512480206787586212158203125">
        <ele>11</ele>
        <time>2020-07-25T22:50:57.000Z</time>
        <extensions>
          <ns3:TrackPointExtension>
            <ns3:hr>103</ns3:hr>
            <ns3:cad>57</ns3:cad>
          </ns3:TrackPointExtension>
        </extensions>
      </trkpt>
      <trkpt lat="23.18544027395546436309814453125" lon="113.2512746751308441162109375">
        <ele>10.6000003814697265625</ele>
        <time>2020-07-25T22:50:59.000Z</time>
        <extensions>
          <ns3:TrackPointExtension>
            <ns3:hr>103</ns3:hr>
            <ns3:cad>55</ns3:cad>
          </ns3:TrackPointExtension>
        </extensions>
      </trkpt>
      <trkpt lat="23.18541127257049083709716796875" lon="113.25131465680897235870361328125">
        <ele>10.19999980926513671875</ele>
        <time>2020-07-25T22:51:02.000Z</time>
        <extensions>
          <ns3:TrackPointExtension>
            <ns3:hr>106</ns3:hr>
            <ns3:cad>57</ns3:cad>
          </ns3:TrackPointExtension>
        </extensions>
      </trkpt>
      <trkpt lat="23.18539987318217754364013671875" lon="113.25132337398827075958251953125">
        <ele>10.19999980926513671875</ele>
        <time>2020-07-25T22:51:03.000Z</time>
        <extensions>
          <ns3:TrackPointExtension>
            <ns3:hr>107</ns3:hr>
            <ns3:cad>57</ns3:cad>
          </ns3:TrackPointExtension>
        </extensions>
      </trkpt>
      <trkpt lat="23.18537489511072635650634765625" lon="113.25134240090847015380859375">
        <ele>10.19999980926513671875</ele>
        <time>2020-07-25T22:51:05.000Z</time>
        <extensions>
          <ns3:TrackPointExtension>
            <ns3:hr>110</ns3:hr>
            <ns3:cad>59</ns3:cad>
          </ns3:TrackPointExtension>
        </extensions>
      </trkpt>
      <trkpt lat="23.18525738082826137542724609375" lon="113.251436613500118255615234375">
        <ele>9.80000019073486328125</ele>
        <time>2020-07-25T22:51:16.000Z</time>
        <extensions>
          <ns3:TrackPointExtension>
            <ns3:hr>107</ns3:hr>
            <ns3:cad>0</ns3:cad>
          </ns3:TrackPointExtension>
        </extensions>
      </trkpt>
      <trkpt lat="23.185199797153472900390625" lon="113.2515001483261585235595703125">
        <ele>9</ele>
        <time>2020-07-25T22:51:25.000Z</time>
        <extensions>
          <ns3:TrackPointExtension>
            <ns3:hr>110</ns3:hr>
            <ns3:cad>61</ns3:cad>
          </ns3:TrackPointExtension>
        </extensions>
      </trkpt>
      <trkpt lat="23.18503056652843952178955078125" lon="113.2515893317759037017822265625">
        <ele>8.6000003814697265625</ele>
        <time>2020-07-25T22:51:41.000Z</time>
        <extensions>
          <ns3:TrackPointExtension>
            <ns3:hr>109</ns3:hr>
            <ns3:cad>59</ns3:cad>
          </ns3:TrackPointExtension>
        </extensions>
      </trkpt>
      <trkpt lat="23.18498513661324977874755859375" lon="113.251635767519474029541015625">
        <ele>8.6000003814697265625</ele>
        <time>2020-07-25T22:51:46.000Z</time>
        <extensions>
          <ns3:TrackPointExtension>
            <ns3:hr>112</ns3:hr>
            <ns3:cad>57</ns3:cad>
          </ns3:TrackPointExtension>
        </extensions>
      </trkpt>
      <trkpt lat="23.18492344580590724945068359375" lon="113.2516848854720592498779296875">
        <ele>8.6000003814697265625</ele>
        <time>2020-07-25T22:51:52.000Z</time>
        <extensions>
          <ns3:TrackPointExtension>
            <ns3:hr>109</ns3:hr>
            <ns3:cad>58</ns3:cad>
          </ns3:TrackPointExtension>
        </extensions>
      </trkpt>
      <trkpt lat="23.18489830009639263153076171875" lon="113.25170139782130718231201171875">
        <ele>8.6000003814697265625</ele>
        <time>2020-07-25T22:51:55.000Z</time>
        <extensions>
          <ns3:TrackPointExtension>
            <ns3:hr>106</ns3:hr>
            <ns3:cad>58</ns3:cad>
          </ns3:TrackPointExtension>
        </extensions>
      </trkpt>
      <trkpt lat="23.18477508611977100372314453125" lon="113.25188211165368556976318359375">
        <ele>8</ele>
        <time>2020-07-25T22:52:10.000Z</time>
        <extensions>
          <ns3:TrackPointExtension>
            <ns3:hr>107</ns3:hr>
            <ns3:cad>61</ns3:cad>
          </ns3:TrackPointExtension>
        </extensions>
      </trkpt>
      <trkpt lat="23.1847289018332958221435546875" lon="113.25194187462329864501953125">
        <ele>7.80000019073486328125</ele>
        <time>2020-07-25T22:52:19.000Z</time>
        <extensions>
          <ns3:TrackPointExtension>
            <ns3:hr>108</ns3:hr>
            <ns3:cad>61</ns3:cad>
          </ns3:TrackPointExtension>
        </extensions>
      </trkpt>
      <trkpt lat="23.1847299076616764068603515625" lon="113.25197012163698673248291015625">
        <ele>7.599999904632568359375</ele>
        <time>2020-07-25T22:52:22.000Z</time>
        <extensions>
          <ns3:TrackPointExtension>
            <ns3:hr>108</ns3:hr>
            <ns3:cad>0</ns3:cad>
          </ns3:TrackPointExtension>
        </extensions>
      </trkpt>
      <trkpt lat="23.18465463817119598388671875" lon="113.25195436365902423858642578125">
        <ele>8</ele>
        <time>2020-07-25T22:52:36.000Z</time>
        <extensions>
          <ns3:TrackPointExtension>
            <ns3:hr>105</ns3:hr>
            <ns3:cad>0</ns3:cad>
          </ns3:TrackPointExtension>
        </extensions>
      </trkpt>
      <trkpt lat="23.1846313364803791046142578125" lon="113.25193089433014392852783203125">
        <ele>8</ele>
        <time>2020-07-25T22:52:39.000Z</time>
        <extensions>
          <ns3:TrackPointExtension>
            <ns3:hr>102</ns3:hr>
            <ns3:cad>0</ns3:cad>
          </ns3:TrackPointExtension>
        </extensions>
      </trkpt>
      <trkpt lat="23.18452463485300540924072265625" lon="113.251926116645336151123046875">
        <ele>7.19999980926513671875</ele>
        <time>2020-07-25T22:52:49.000Z</time>
        <extensions>
          <ns3:TrackPointExtension>
            <ns3:hr>105</ns3:hr>
            <ns3:cad>61</ns3:cad>
          </ns3:TrackPointExtension>
        </extensions>
      </trkpt>
      <trkpt lat="23.18450510501861572265625" lon="113.25200968421995639801025390625">
        <ele>7</ele>
        <time>2020-07-25T22:53:07.000Z</time>
        <extensions>
          <ns3:TrackPointExtension>
            <ns3:hr>100</ns3:hr>
            <ns3:cad>0</ns3:cad>
          </ns3:TrackPointExtension>
        </extensions>
      </trkpt>
      <trkpt lat="23.18447987549006938934326171875" lon="113.25200281105935573577880859375">
        <ele>7</ele>
        <time>2020-07-25T22:53:11.000Z</time>
        <extensions>
          <ns3:TrackPointExtension>
            <ns3:hr>97</ns3:hr>
            <ns3:cad>0</ns3:cad>
          </ns3:TrackPointExtension>
        </extensions>
      </trkpt>
      <trkpt lat="23.1844734214246273040771484375" lon="113.25200867839157581329345703125">
        <ele>7</ele>
        <time>2020-07-25T22:53:13.000Z</time>
        <extensions>
          <ns3:TrackPointExtension>
            <ns3:hr>99</ns3:hr>
            <ns3:cad>0</ns3:cad>
          </ns3:TrackPointExtension>
        </extensions>
      </trkpt>
      <trkpt lat="23.18443679250776767730712890625" lon="113.25204991735517978668212890625">
        <ele>7.599999904632568359375</ele>
        <time>2020-07-25T22:53:25.000Z</time>
        <extensions>
          <ns3:TrackPointExtension>
            <ns3:hr>101</ns3:hr>
            <ns3:cad>0</ns3:cad>
          </ns3:TrackPointExtension>
        </extensions>
      </trkpt>
      <trkpt lat="23.1843252293765544891357421875" lon="113.251999877393245697021484375">
        <ele>7.599999904632568359375</ele>
        <time>2020-07-25T22:53:35.000Z</time>
        <extensions>
          <ns3:TrackPointExtension>
            <ns3:hr>106</ns3:hr>
            <ns3:cad>61</ns3:cad>
          </ns3:TrackPointExtension>
        </extensions>
      </trkpt>
      <trkpt lat="23.184289522469043731689453125" lon="113.2519675232470035552978515625">
        <ele>7.80000019073486328125</ele>
        <time>2020-07-25T22:53:39.000Z</time>
        <extensions>
          <ns3:TrackPointExtension>
            <ns3:hr>106</ns3:hr>
            <ns3:cad>61</ns3:cad>
          </ns3:TrackPointExtension>
        </extensions>
      </trkpt>
      <trkpt lat="23.18427334539592266082763671875" lon="113.25195838697254657745361328125">
        <ele>7.80000019073486328125</ele>
        <time>2020-07-25T22:53:41.000Z</time>
        <extensions>
          <ns3:TrackPointExtension>
            <ns3:hr>105</ns3:hr>
            <ns3:cad>61</ns3:cad>
          </ns3:TrackPointExtension>
        </extensions>
      </trkpt>
      <trkpt lat="23.1841079704463481903076171875" lon="113.25190105475485324859619140625">
        <ele>9</ele>
        <time>2020-07-25T22:53:55.000Z</time>
        <extensions>
          <ns3:TrackPointExtension>
            <ns3:hr>105</ns3:hr>
            <ns3:cad>61</ns3:cad>
          </ns3:TrackPointExtension>
        </extensions>
      </trkpt>
      <trkpt lat="23.1839577667415142059326171875" lon="113.25178002007305622100830078125">
        <ele>10</ele>
        <time>2020-07-25T22:54:09.000Z</time>
        <extensions>
          <ns3:TrackPointExtension>
            <ns3:hr>107</ns3:hr>
            <ns3:cad>61</ns3:cad>
          </ns3:TrackPointExtension>
        </extensions>
      </trkpt>
      <trkpt lat="23.1838253326714038848876953125" lon="113.25191295705735683441162109375">
        <ele>16.200000762939453125</ele>
        <time>2020-07-25T22:54:22.000Z</time>
        <extensions>
          <ns3:TrackPointExtension>
            <ns3:hr>110</ns3:hr>
            <ns3:cad>58</ns3:cad>
          </ns3:TrackPointExtension>
        </extensions>
      </trkpt>
      <trkpt lat="23.183772861957550048828125" lon="113.25193441472947597503662109375">
        <ele>18</ele>
        <time>2020-07-25T22:54:25.000Z</time>
        <extensions>
          <ns3:TrackPointExtension>
            <ns3:hr>113</ns3:hr>
            <ns3:cad>57</ns3:cad>
          </ns3:TrackPointExtension>
        </extensions>
      </trkpt>
      <trkpt lat="23.18374360911548137664794921875" lon="113.25197498314082622528076171875">
        <ele>19.6000003814697265625</ele>
        <time>2020-07-25T22:54:28.000Z</time>
        <extensions>
          <ns3:TrackPointExtension>
            <ns3:hr>112</ns3:hr>
            <ns3:cad>59</ns3:cad>
          </ns3:TrackPointExtension>
        </extensions>
      </trkpt>
      <trkpt lat="23.183679319918155670166015625" lon="113.2520114444196224212646484375">
        <ele>22</ele>
        <time>2020-07-25T22:54:34.000Z</time>
        <extensions>
          <ns3:TrackPointExtension>
            <ns3:hr>107</ns3:hr>
            <ns3:cad>59</ns3:cad>
          </ns3:TrackPointExtension>
        </extensions>
      </trkpt>
      <trkpt lat="23.18355954252183437347412109375" lon="113.2519782520830631256103515625">
        <ele>23.6000003814697265625</ele>
        <time>2020-07-25T22:54:46.000Z</time>
        <extensions>
          <ns3:TrackPointExtension>
            <ns3:hr>110</ns3:hr>
            <ns3:cad>59</ns3:cad>
          </ns3:TrackPointExtension>
        </extensions>
      </trkpt>
      <trkpt lat="23.18337522447109222412109375" lon="113.25195335783064365386962890625">
        <ele>27</ele>
        <time>2020-07-25T22:55:05.000Z</time>
        <extensions>
          <ns3:TrackPointExtension>
            <ns3:hr>109</ns3:hr>
            <ns3:cad>61</ns3:cad>
          </ns3:TrackPointExtension>
        </extensions>
      </trkpt>
      <trkpt lat="23.1832624040544033050537109375" lon="113.25195168145000934600830078125">
        <ele>29</ele>
        <time>2020-07-25T22:55:19.000Z</time>
        <extensions>
          <ns3:TrackPointExtension>
            <ns3:hr>109</ns3:hr>
            <ns3:cad>59</ns3:cad>
          </ns3:TrackPointExtension>
        </extensions>
      </trkpt>
      <trkpt lat="23.18323499523103237152099609375" lon="113.251948244869709014892578125">
        <ele>29.3999996185302734375</ele>
        <time>2020-07-25T22:55:22.000Z</time>
        <extensions>
          <ns3:TrackPointExtension>
            <ns3:hr>109</ns3:hr>
            <ns3:cad>59</ns3:cad>
          </ns3:TrackPointExtension>
        </extensions>
      </trkpt>
      <trkpt lat="23.18306484259665012359619140625" lon="113.25200683437287807464599609375">
        <ele>30.3999996185302734375</ele>
        <time>2020-07-25T22:55:39.000Z</time>
        <extensions>
          <ns3:TrackPointExtension>
            <ns3:hr>108</ns3:hr>
            <ns3:cad>0</ns3:cad>
          </ns3:TrackPointExtension>
        </extensions>
      </trkpt>
      <trkpt lat="23.183032572269439697265625" lon="113.2519722171127796173095703125">
        <ele>30.6000003814697265625</ele>
        <time>2020-07-25T22:55:50.000Z</time>
        <extensions>
          <ns3:TrackPointExtension>
            <ns3:hr>109</ns3:hr>
            <ns3:cad>0</ns3:cad>
          </ns3:TrackPointExtension>
        </extensions>
      </trkpt>
      <trkpt lat="23.18301849067211151123046875" lon="113.251930810511112213134765625">
        <ele>30.799999237060546875</ele>
        <time>2020-07-25T22:56:05.000Z</time>
        <extensions>
          <ns3:TrackPointExtension>
            <ns3:hr>106</ns3:hr>
            <ns3:cad>0</ns3:cad>
          </ns3:TrackPointExtension>
        </extensions>
      </trkpt>
      <trkpt lat="23.183021508157253265380859375" lon="113.25192175805568695068359375">
        <ele>30.799999237060546875</ele>
        <time>2020-07-25T22:56:20.000Z</time>
        <extensions>
          <ns3:TrackPointExtension>
            <ns3:hr>103</ns3:hr>
            <ns3:cad>0</ns3:cad>
          </ns3:TrackPointExtension>
        </extensions>
      </trkpt>
      <trkpt lat="23.18302812986075878143310546875" lon="113.25191597454249858856201171875">
        <ele>30.799999237060546875</ele>
        <time>2020-07-25T22:56:25.000Z</time>
        <extensions>
          <ns3:TrackPointExtension>
            <ns3:hr>93</ns3:hr>
            <ns3:cad>0</ns3:cad>
          </ns3:TrackPointExtension>
        </extensions>
      </trkpt>
      <trkpt lat="23.18302930332720279693603515625" lon="113.2519168965518474578857421875">
        <ele>30.799999237060546875</ele>
        <time>2020-07-25T22:56:30.000Z</time>
        <extensions>
          <ns3:TrackPointExtension>
            <ns3:hr>90</ns3:hr>
            <ns3:cad>0</ns3:cad>
          </ns3:TrackPointExtension>
        </extensions>
      </trkpt>
      <trkpt lat="23.1830206699669361114501953125" lon="113.251926116645336151123046875">
        <ele>30.799999237060546875</ele>
        <time>2020-07-25T22:56:40.000Z</time>
        <extensions>
          <ns3:TrackPointExtension>
            <ns3:hr>93</ns3:hr>
            <ns3:cad>61</ns3:cad>
          </ns3:TrackPointExtension>
        </extensions>
      </trkpt>
      <trkpt lat="23.18301740102469921112060546875" lon="113.25194447301328182220458984375">
        <ele>30.6000003814697265625</ele>
        <time>2020-07-25T22:56:46.000Z</time>
        <extensions>
          <ns3:TrackPointExtension>
            <ns3:hr>89</ns3:hr>
            <ns3:cad>0</ns3:cad>
          </ns3:TrackPointExtension>
        </extensions>
      </trkpt>
      <trkpt lat="23.18301756866276264190673828125" lon="113.25194447301328182220458984375">
        <ele>30.6000003814697265625</ele>
        <time>2020-07-25T22:56:47.000Z</time>
        <extensions>
          <ns3:TrackPointExtension>
            <ns3:hr>92</ns3:hr>
            <ns3:cad>0</ns3:cad>
          </ns3:TrackPointExtension>
        </extensions>
      </trkpt>
      <trkpt lat="23.18301740102469921112060546875" lon="113.25194447301328182220458984375">
        <ele>30.6000003814697265625</ele>
        <time>2020-07-25T22:56:48.000Z</time>
        <extensions>
          <ns3:TrackPointExtension>
            <ns3:hr>100</ns3:hr>
            <ns3:cad>0</ns3:cad>
          </ns3:TrackPointExtension>
        </extensions>
      </trkpt>
      <trkpt lat="23.18301740102469921112060546875" lon="113.2519443891942501068115234375">
        <ele>30.6000003814697265625</ele>
        <time>2020-07-25T22:56:49.000Z</time>
        <extensions>
          <ns3:TrackPointExtension>
            <ns3:hr>104</ns3:hr>
            <ns3:cad>0</ns3:cad>
          </ns3:TrackPointExtension>
        </extensions>
      </trkpt>
      <trkpt lat="23.1830176524817943572998046875" lon="113.25194329954683780670166015625">
        <ele>30.6000003814697265625</ele>
        <time>2020-07-25T22:56:50.000Z</time>
        <extensions>
          <ns3:TrackPointExtension>
            <ns3:hr>104</ns3:hr>
            <ns3:cad>0</ns3:cad>
          </ns3:TrackPointExtension>
        </extensions>
      </trkpt>
      <trkpt lat="23.182967863976955413818359375" lon="113.2519344985485076904296875">
        <ele>30.6000003814697265625</ele>
        <time>2020-07-25T22:57:05.000Z</time>
        <extensions>
          <ns3:TrackPointExtension>
            <ns3:hr>107</ns3:hr>
            <ns3:cad>0</ns3:cad>
          </ns3:TrackPointExtension>
        </extensions>
      </trkpt>
      <trkpt lat="23.18291254341602325439453125" lon="113.25197540223598480224609375">
        <ele>29.3999996185302734375</ele>
        <time>2020-07-25T22:57:14.000Z</time>
        <extensions>
          <ns3:TrackPointExtension>
            <ns3:hr>102</ns3:hr>
            <ns3:cad>0</ns3:cad>
          </ns3:TrackPointExtension>
        </extensions>
      </trkpt>
      <trkpt lat="23.18282964639365673065185546875" lon="113.25220364145934581756591796875">
        <ele>26.6000003814697265625</ele>
        <time>2020-07-25T22:57:25.000Z</time>
        <extensions>
          <ns3:TrackPointExtension>
            <ns3:hr>105</ns3:hr>
            <ns3:cad>0</ns3:cad>
          </ns3:TrackPointExtension>
        </extensions>
      </trkpt>
      <trkpt lat="23.182810284197330474853515625" lon="113.25222677551209926605224609375">
        <ele>26.200000762939453125</ele>
        <time>2020-07-25T22:57:28.000Z</time>
        <extensions>
          <ns3:TrackPointExtension>
            <ns3:hr>109</ns3:hr>
            <ns3:cad>0</ns3:cad>
          </ns3:TrackPointExtension>
        </extensions>
      </trkpt>
      <trkpt lat="23.182796202600002288818359375" lon="113.25223851017653942108154296875">
        <ele>26</ele>
        <time>2020-07-25T22:57:30.000Z</time>
        <extensions>
          <ns3:TrackPointExtension>
            <ns3:hr>106</ns3:hr>
            <ns3:cad>0</ns3:cad>
          </ns3:TrackPointExtension>
        </extensions>
      </trkpt>
      <trkpt lat="23.18275270052254199981689453125" lon="113.252277486026287078857421875">
        <ele>24.6000003814697265625</ele>
        <time>2020-07-25T22:57:34.000Z</time>
        <extensions>
          <ns3:TrackPointExtension>
            <ns3:hr>109</ns3:hr>
            <ns3:cad>61</ns3:cad>
          </ns3:TrackPointExtension>
        </extensions>
      </trkpt>
      <trkpt lat="23.18273509852588176727294921875" lon="113.25230103917419910430908203125">
        <ele>24</ele>
        <time>2020-07-25T22:57:36.000Z</time>
        <extensions>
          <ns3:TrackPointExtension>
            <ns3:hr>114</ns3:hr>
            <ns3:cad>61</ns3:cad>
          </ns3:TrackPointExtension>
        </extensions>
      </trkpt>
      <trkpt lat="23.18271883763372898101806640625" lon="113.2523126900196075439453125">
        <ele>23.6000003814697265625</ele>
        <time>2020-07-25T22:57:37.000Z</time>
        <extensions>
          <ns3:TrackPointExtension>
            <ns3:hr>114</ns3:hr>
            <ns3:cad>61</ns3:cad>
          </ns3:TrackPointExtension>
        </extensions>
      </trkpt>
      <trkpt lat="23.18267659284174442291259765625" lon="113.25236675329506397247314453125">
        <ele>22.200000762939453125</ele>
        <time>2020-07-25T22:57:42.000Z</time>
        <extensions>
          <ns3:TrackPointExtension>
            <ns3:hr>111</ns3:hr>
            <ns3:cad>0</ns3:cad>
          </ns3:TrackPointExtension>
        </extensions>
      </trkpt>
      <trkpt lat="23.18268547765910625457763671875" lon="113.25240681879222393035888671875">
        <ele>22</ele>
        <time>2020-07-25T22:57:45.000Z</time>
        <extensions>
          <ns3:TrackPointExtension>
            <ns3:hr>107</ns3:hr>
            <ns3:cad>0</ns3:cad>
          </ns3:TrackPointExtension>
        </extensions>
      </trkpt>
      <trkpt lat="23.18269503302872180938720703125" lon="113.25244554318487644195556640625">
        <ele>22.200000762939453125</ele>
        <time>2020-07-25T22:57:49.000Z</time>
        <extensions>
          <ns3:TrackPointExtension>
            <ns3:hr>104</ns3:hr>
            <ns3:cad>0</ns3:cad>
          </ns3:TrackPointExtension>
        </extensions>
      </trkpt>
      <trkpt lat="23.18270467221736907958984375" lon="113.25248829089105129241943359375">
        <ele>22.799999237060546875</ele>
        <time>2020-07-25T22:58:02.000Z</time>
        <extensions>
          <ns3:TrackPointExtension>
            <ns3:hr>107</ns3:hr>
            <ns3:cad>57</ns3:cad>
          </ns3:TrackPointExtension>
        </extensions>
      </trkpt>
      <trkpt lat="23.18277281709015369415283203125" lon="113.2526659034192562103271484375">
        <ele>25.3999996185302734375</ele>
        <time>2020-07-25T22:58:17.000Z</time>
        <extensions>
          <ns3:TrackPointExtension>
            <ns3:hr>109</ns3:hr>
            <ns3:cad>58</ns3:cad>
          </ns3:TrackPointExtension>
        </extensions>
      </trkpt>
      <trkpt lat="23.1827729009091854095458984375" lon="113.25267218984663486480712890625">
        <ele>25.6000003814697265625</ele>
        <time>2020-07-25T22:58:19.000Z</time>
        <extensions>
          <ns3:TrackPointExtension>
            <ns3:hr>110</ns3:hr>
            <ns3:cad>58</ns3:cad>
          </ns3:TrackPointExtension>
        </extensions>
      </trkpt>
      <trkpt lat="23.1827702187001705169677734375" lon="113.2526774704456329345703125">
        <ele>25.6000003814697265625</ele>
        <time>2020-07-25T22:58:21.000Z</time>
        <extensions>
          <ns3:TrackPointExtension>
            <ns3:hr>110</ns3:hr>
            <ns3:cad>61</ns3:cad>
          </ns3:TrackPointExtension>
        </extensions>
      </trkpt>
      <trkpt lat="23.18279595114290714263916015625" lon="113.2527604512870311737060546875">
        <ele>26.6000003814697265625</ele>
        <time>2020-07-25T22:58:48.000Z</time>
        <extensions>
          <ns3:TrackPointExtension>
            <ns3:hr>107</ns3:hr>
            <ns3:cad>0</ns3:cad>
          </ns3:TrackPointExtension>
        </extensions>
      </trkpt>
      <trkpt lat="23.18280584178864955902099609375" lon="113.25284686870872974395751953125">
        <ele>27.200000762939453125</ele>
        <time>2020-07-25T22:58:53.000Z</time>
        <extensions>
          <ns3:TrackPointExtension>
            <ns3:hr>112</ns3:hr>
            <ns3:cad>61</ns3:cad>
          </ns3:TrackPointExtension>
        </extensions>
      </trkpt>
      <trkpt lat="23.1827980466187000274658203125" lon="113.25286463834345340728759765625">
        <ele>27.200000762939453125</ele>
        <time>2020-07-25T22:58:55.000Z</time>
        <extensions>
          <ns3:TrackPointExtension>
            <ns3:hr>112</ns3:hr>
            <ns3:cad>61</ns3:cad>
          </ns3:TrackPointExtension>
        </extensions>
      </trkpt>
      <trkpt lat="23.182804249227046966552734375" lon="113.25290210545063018798828125">
        <ele>27.6000003814697265625</ele>
        <time>2020-07-25T22:58:56.000Z</time>
        <extensions>
          <ns3:TrackPointExtension>
            <ns3:hr>116</ns3:hr>
            <ns3:cad>61</ns3:cad>
          </ns3:TrackPointExtension>
        </extensions>
      </trkpt>
      <trkpt lat="23.182804249227046966552734375" lon="113.25290210545063018798828125">
        <ele>27.6000003814697265625</ele>
        <time>2020-07-25T22:58:57.000Z</time>
        <extensions>
          <ns3:TrackPointExtension>
            <ns3:hr>116</ns3:hr>
            <ns3:cad>61</ns3:cad>
          </ns3:TrackPointExtension>
        </extensions>
      </trkpt>
      <trkpt lat="23.18280215375125408172607421875" lon="113.25292649678885936737060546875">
        <ele>27.799999237060546875</ele>
        <time>2020-07-25T22:58:58.000Z</time>
        <extensions>
          <ns3:TrackPointExtension>
            <ns3:hr>120</ns3:hr>
            <ns3:cad>61</ns3:cad>
          </ns3:TrackPointExtension>
        </extensions>
      </trkpt>
      <trkpt lat="23.182802908122539520263671875" lon="113.25297829695045948028564453125">
        <ele>28.200000762939453125</ele>
        <time>2020-07-25T22:59:00.000Z</time>
        <extensions>
          <ns3:TrackPointExtension>
            <ns3:hr>123</ns3:hr>
            <ns3:cad>61</ns3:cad>
          </ns3:TrackPointExtension>
        </extensions>
      </trkpt>
      <trkpt lat="23.18280299194157123565673828125" lon="113.25300176627933979034423828125">
        <ele>28</ele>
        <time>2020-07-25T22:59:02.000Z</time>
        <extensions>
          <ns3:TrackPointExtension>
            <ns3:hr>130</ns3:hr>
            <ns3:cad>53</ns3:cad>
          </ns3:TrackPointExtension>
        </extensions>
      </trkpt>
      <trkpt lat="23.182804584503173828125" lon="113.2530105672776699066162109375">
        <ele>28</ele>
        <time>2020-07-25T22:59:03.000Z</time>
        <extensions>
          <ns3:TrackPointExtension>
            <ns3:hr>131</ns3:hr>
            <ns3:cad>53</ns3:cad>
          </ns3:TrackPointExtension>
        </extensions>
      </trkpt>
      <trkpt lat="23.1828032433986663818359375" lon="113.2530179433524608612060546875">
        <ele>27.799999237060546875</ele>
        <time>2020-07-25T22:59:04.000Z</time>
        <extensions>
          <ns3:TrackPointExtension>
            <ns3:hr>135</ns3:hr>
            <ns3:cad>53</ns3:cad>
          </ns3:TrackPointExtension>
        </extensions>
      </trkpt>
      <trkpt lat="23.1828070990741252899169921875" lon="113.2530266605317592620849609375">
        <ele>27.6000003814697265625</ele>
        <time>2020-07-25T22:59:05.000Z</time>
        <extensions>
          <ns3:TrackPointExtension>
            <ns3:hr>136</ns3:hr>
            <ns3:cad>53</ns3:cad>
          </ns3:TrackPointExtension>
        </extensions>
      </trkpt>
      <trkpt lat="23.1828087754547595977783203125" lon="113.25304065831005573272705078125">
        <ele>27.6000003814697265625</ele>
        <time>2020-07-25T22:59:08.000Z</time>
        <extensions>
          <ns3:TrackPointExtension>
            <ns3:hr>142</ns3:hr>
            <ns3:cad>53</ns3:cad>
          </ns3:TrackPointExtension>
        </extensions>
      </trkpt>
      <trkpt lat="23.1827990524470806121826171875" lon="113.25311190448701381683349609375">
        <ele>26.3999996185302734375</ele>
        <time>2020-07-25T22:59:12.000Z</time>
        <extensions>
          <ns3:TrackPointExtension>
            <ns3:hr>146</ns3:hr>
            <ns3:cad>61</ns3:cad>
          </ns3:TrackPointExtension>
        </extensions>
      </trkpt>
      <trkpt lat="23.18279058672487735748291015625" lon="113.25313135050237178802490234375">
        <ele>26</ele>
        <time>2020-07-25T22:59:13.000Z</time>
        <extensions>
          <ns3:TrackPointExtension>
            <ns3:hr>143</ns3:hr>
            <ns3:cad>0</ns3:cad>
          </ns3:TrackPointExtension>
        </extensions>
      </trkpt>
      <trkpt lat="23.18277734331786632537841796875" lon="113.253156244754791259765625">
        <ele>25.6000003814697265625</ele>
        <time>2020-07-25T22:59:15.000Z</time>
        <extensions>
          <ns3:TrackPointExtension>
            <ns3:hr>139</ns3:hr>
            <ns3:cad>0</ns3:cad>
          </ns3:TrackPointExtension>
        </extensions>
      </trkpt>
      <trkpt lat="23.18276896141469478607177734375" lon="113.253170661628246307373046875">
        <ele>25.200000762939453125</ele>
        <time>2020-07-25T22:59:16.000Z</time>
        <extensions>
          <ns3:TrackPointExtension>
            <ns3:hr>134</ns3:hr>
            <ns3:cad>0</ns3:cad>
          </ns3:TrackPointExtension>
        </extensions>
      </trkpt>
      <trkpt lat="23.1827303208410739898681640625" lon="113.25318113900721073150634765625">
        <ele>24.6000003814697265625</ele>
        <time>2020-07-25T22:59:20.000Z</time>
        <extensions>
          <ns3:TrackPointExtension>
            <ns3:hr>130</ns3:hr>
            <ns3:cad>0</ns3:cad>
          </ns3:TrackPointExtension>
        </extensions>
      </trkpt>
      <trkpt lat="23.1827095337212085723876953125" lon="113.2531775347888469696044921875">
        <ele>24.3999996185302734375</ele>
        <time>2020-07-25T22:59:22.000Z</time>
        <extensions>
          <ns3:TrackPointExtension>
            <ns3:hr>130</ns3:hr>
            <ns3:cad>0</ns3:cad>
          </ns3:TrackPointExtension>
        </extensions>
      </trkpt>
      <trkpt lat="23.1826880760490894317626953125" lon="113.25316605158150196075439453125">
        <ele>24.3999996185302734375</ele>
        <time>2020-07-25T22:59:25.000Z</time>
        <extensions>
          <ns3:TrackPointExtension>
            <ns3:hr>130</ns3:hr>
            <ns3:cad>0</ns3:cad>
          </ns3:TrackPointExtension>
        </extensions>
      </trkpt>
      <trkpt lat="23.1826830469071865081787109375" lon="113.2531607709825038909912109375">
        <ele>24.3999996185302734375</ele>
        <time>2020-07-25T22:59:28.000Z</time>
        <extensions>
          <ns3:TrackPointExtension>
            <ns3:hr>124</ns3:hr>
            <ns3:cad>0</ns3:cad>
          </ns3:TrackPointExtension>
        </extensions>
      </trkpt>
      <trkpt lat="23.18267692811787128448486328125" lon="113.25316403992474079132080078125">
        <ele>24.200000762939453125</ele>
        <time>2020-07-25T22:59:29.000Z</time>
        <extensions>
          <ns3:TrackPointExtension>
            <ns3:hr>117</ns3:hr>
            <ns3:cad>0</ns3:cad>
          </ns3:TrackPointExtension>
        </extensions>
      </trkpt>
      <trkpt lat="23.18266703747212886810302734375" lon="113.2531698234379291534423828125">
        <ele>24</ele>
        <time>2020-07-25T22:59:30.000Z</time>
        <extensions>
          <ns3:TrackPointExtension>
            <ns3:hr>110</ns3:hr>
            <ns3:cad>0</ns3:cad>
          </ns3:TrackPointExtension>
        </extensions>
      </trkpt>
      <trkpt lat="23.18266066722571849822998046875" lon="113.25317141599953174591064453125">
        <ele>23.799999237060546875</ele>
        <time>2020-07-25T22:59:31.000Z</time>
        <extensions>
          <ns3:TrackPointExtension>
            <ns3:hr>110</ns3:hr>
            <ns3:cad>0</ns3:cad>
          </ns3:TrackPointExtension>
        </extensions>
      </trkpt>
      <trkpt lat="23.1826852262020111083984375" lon="113.25313051231205463409423828125">
        <ele>24.799999237060546875</ele>
        <time>2020-07-25T22:59:36.000Z</time>
        <extensions>
          <ns3:TrackPointExtension>
            <ns3:hr>113</ns3:hr>
            <ns3:cad>0</ns3:cad>
          </ns3:TrackPointExtension>
        </extensions>
      </trkpt>
      <trkpt lat="23.18268564529716968536376953125" lon="113.25313017703592777252197265625">
        <ele>24.799999237060546875</ele>
        <time>2020-07-25T22:59:38.000Z</time>
        <extensions>
          <ns3:TrackPointExtension>
            <ns3:hr>105</ns3:hr>
            <ns3:cad>0</ns3:cad>
          </ns3:TrackPointExtension>
        </extensions>
      </trkpt>
      <trkpt lat="23.18268547765910625457763671875" lon="113.25313067995011806488037109375">
        <ele>24.799999237060546875</ele>
        <time>2020-07-25T22:59:39.000Z</time>
        <extensions>
          <ns3:TrackPointExtension>
            <ns3:hr>98</ns3:hr>
            <ns3:cad>0</ns3:cad>
          </ns3:TrackPointExtension>
        </extensions>
      </trkpt>
      <trkpt lat="23.18268497474491596221923828125" lon="113.25313218869268894195556640625">
        <ele>24.799999237060546875</ele>
        <time>2020-07-25T22:59:40.000Z</time>
        <extensions>
          <ns3:TrackPointExtension>
            <ns3:hr>94</ns3:hr>
            <ns3:cad>0</ns3:cad>
          </ns3:TrackPointExtension>
        </extensions>
      </trkpt>
      <trkpt lat="23.1826843880116939544677734375" lon="113.2531346194446086883544921875">
        <ele>24.799999237060546875</ele>
        <time>2020-07-25T22:59:41.000Z</time>
        <extensions>
          <ns3:TrackPointExtension>
            <ns3:hr>94</ns3:hr>
            <ns3:cad>0</ns3:cad>
          </ns3:TrackPointExtension>
        </extensions>
      </trkpt>
      <trkpt lat="23.182683885097503662109375" lon="113.25313570909202098846435546875">
        <ele>24.799999237060546875</ele>
        <time>2020-07-25T22:59:43.000Z</time>
        <extensions>
          <ns3:TrackPointExtension>
            <ns3:hr>91</ns3:hr>
            <ns3:cad>0</ns3:cad>
          </ns3:TrackPointExtension>
        </extensions>
      </trkpt>
      <trkpt lat="23.18268396891653537750244140625" lon="113.25313948094844818115234375">
        <ele>24.799999237060546875</ele>
        <time>2020-07-25T22:59:45.000Z</time>
        <extensions>
          <ns3:TrackPointExtension>
            <ns3:hr>88</ns3:hr>
            <ns3:cad>0</ns3:cad>
          </ns3:TrackPointExtension>
        </extensions>
      </trkpt>
      <trkpt lat="23.182685561478137969970703125" lon="113.253139816224575042724609375">
        <ele>24.799999237060546875</ele>
        <time>2020-07-25T22:59:49.000Z</time>
        <extensions>
          <ns3:TrackPointExtension>
            <ns3:hr>85</ns3:hr>
            <ns3:cad>0</ns3:cad>
          </ns3:TrackPointExtension>
        </extensions>
      </trkpt>
      <trkpt lat="23.182668797671794891357421875" lon="113.25325355865061283111572265625">
        <ele>22.799999237060546875</ele>
        <time>2020-07-25T23:00:13.000Z</time>
        <extensions>
          <ns3:TrackPointExtension>
            <ns3:hr>83</ns3:hr>
            <ns3:cad>0</ns3:cad>
          </ns3:TrackPointExtension>
        </extensions>
      </trkpt>
      <trkpt lat="23.182670809328556060791015625" lon="113.25326621532440185546875">
        <ele>22.799999237060546875</ele>
        <time>2020-07-25T23:00:18.000Z</time>
        <extensions>
          <ns3:TrackPointExtension>
            <ns3:hr>86</ns3:hr>
            <ns3:cad>0</ns3:cad>
          </ns3:TrackPointExtension>
        </extensions>
      </trkpt>
      <trkpt lat="23.18265932612121105194091796875" lon="113.2532968930900096893310546875">
        <ele>22</ele>
        <time>2020-07-25T23:00:25.000Z</time>
        <extensions>
          <ns3:TrackPointExtension>
            <ns3:hr>89</ns3:hr>
            <ns3:cad>61</ns3:cad>
          </ns3:TrackPointExtension>
        </extensions>
      </trkpt>
      <trkpt lat="23.18264574743807315826416015625" lon="113.2533753477036952972412109375">
        <ele>19.799999237060546875</ele>
        <time>2020-07-25T23:00:34.000Z</time>
        <extensions>
          <ns3:TrackPointExtension>
            <ns3:hr>92</ns3:hr>
            <ns3:cad>61</ns3:cad>
          </ns3:TrackPointExtension>
        </extensions>
      </trkpt>
      <trkpt lat="23.18265639245510101318359375" lon="113.25345489196479320526123046875">
        <ele>18</ele>
        <time>2020-07-25T23:00:40.000Z</time>
        <extensions>
          <ns3:TrackPointExtension>
            <ns3:hr>94</ns3:hr>
            <ns3:cad>59</ns3:cad>
          </ns3:TrackPointExtension>
        </extensions>
      </trkpt>
      <trkpt lat="23.182712383568286895751953125" lon="113.25353317894041538238525390625">
        <ele>16.3999996185302734375</ele>
        <time>2020-07-25T23:00:45.000Z</time>
        <extensions>
          <ns3:TrackPointExtension>
            <ns3:hr>94</ns3:hr>
            <ns3:cad>0</ns3:cad>
          </ns3:TrackPointExtension>
        </extensions>
      </trkpt>
      <trkpt lat="23.18271808326244354248046875" lon="113.25356318615376949310302734375">
        <ele>16.200000762939453125</ele>
        <time>2020-07-25T23:00:49.000Z</time>
        <extensions>
          <ns3:TrackPointExtension>
            <ns3:hr>102</ns3:hr>
            <ns3:cad>61</ns3:cad>
          </ns3:TrackPointExtension>
        </extensions>
      </trkpt>
      <trkpt lat="23.18272068165242671966552734375" lon="113.25357106514275074005126953125">
        <ele>16.200000762939453125</ele>
        <time>2020-07-25T23:00:50.000Z</time>
        <extensions>
          <ns3:TrackPointExtension>
            <ns3:hr>104</ns3:hr>
            <ns3:cad>61</ns3:cad>
          </ns3:TrackPointExtension>
        </extensions>
      </trkpt>
      <trkpt lat="23.182705342769622802734375" lon="113.25361850671470165252685546875">
        <ele>16.3999996185302734375</ele>
        <time>2020-07-25T23:00:54.000Z</time>
        <extensions>
          <ns3:TrackPointExtension>
            <ns3:hr>103</ns3:hr>
            <ns3:cad>61</ns3:cad>
          </ns3:TrackPointExtension>
        </extensions>
      </trkpt>
      <trkpt lat="23.18270442076027393341064453125" lon="113.2536254636943340301513671875">
        <ele>16.3999996185302734375</ele>
        <time>2020-07-25T23:00:55.000Z</time>
        <extensions>
          <ns3:TrackPointExtension>
            <ns3:hr>103</ns3:hr>
            <ns3:cad>61</ns3:cad>
          </ns3:TrackPointExtension>
        </extensions>
      </trkpt>
      <trkpt lat="23.18269687704741954803466796875" lon="113.2536469213664531707763671875">
        <ele>16.3999996185302734375</ele>
        <time>2020-07-25T23:00:58.000Z</time>
        <extensions>
          <ns3:TrackPointExtension>
            <ns3:hr>102</ns3:hr>
            <ns3:cad>61</ns3:cad>
          </ns3:TrackPointExtension>
        </extensions>
      </trkpt>
      <trkpt lat="23.1826937757432460784912109375" lon="113.2536626793444156646728515625">
        <ele>16.3999996185302734375</ele>
        <time>2020-07-25T23:01:00.000Z</time>
        <extensions>
          <ns3:TrackPointExtension>
            <ns3:hr>102</ns3:hr>
            <ns3:cad>61</ns3:cad>
          </ns3:TrackPointExtension>
        </extensions>
      </trkpt>
      <trkpt lat="23.18268212489783763885498046875" lon="113.253665864467620849609375">
        <ele>16.3999996185302734375</ele>
        <time>2020-07-25T23:01:03.000Z</time>
        <extensions>
          <ns3:TrackPointExtension>
            <ns3:hr>101</ns3:hr>
            <ns3:cad>61</ns3:cad>
          </ns3:TrackPointExtension>
        </extensions>
      </trkpt>
      <trkpt lat="23.1826726533472537994384765625" lon="113.25367416255176067352294921875">
        <ele>16.6000003814697265625</ele>
        <time>2020-07-25T23:01:07.000Z</time>
        <extensions>
          <ns3:TrackPointExtension>
            <ns3:hr>101</ns3:hr>
            <ns3:cad>53</ns3:cad>
          </ns3:TrackPointExtension>
        </extensions>
      </trkpt>
      <trkpt lat="23.18264910019934177398681640625" lon="113.25368489138782024383544921875">
        <ele>16.799999237060546875</ele>
        <time>2020-07-25T23:01:13.000Z</time>
        <extensions>
          <ns3:TrackPointExtension>
            <ns3:hr>101</ns3:hr>
            <ns3:cad>61</ns3:cad>
          </ns3:TrackPointExtension>
        </extensions>
      </trkpt>
      <trkpt lat="23.18262982182204723358154296875" lon="113.25369469821453094482421875">
        <ele>17</ele>
        <time>2020-07-25T23:01:15.000Z</time>
        <extensions>
          <ns3:TrackPointExtension>
            <ns3:hr>100</ns3:hr>
            <ns3:cad>54</ns3:cad>
          </ns3:TrackPointExtension>
        </extensions>
      </trkpt>
      <trkpt lat="23.18261993117630481719970703125" lon="113.25370215810835361480712890625">
        <ele>17</ele>
        <time>2020-07-25T23:01:17.000Z</time>
        <extensions>
          <ns3:TrackPointExtension>
            <ns3:hr>100</ns3:hr>
            <ns3:cad>57</ns3:cad>
          </ns3:TrackPointExtension>
        </extensions>
      </trkpt>
      <trkpt lat="23.18257567472755908966064453125" lon="113.2537823729217052459716796875">
        <ele>16.6000003814697265625</ele>
        <time>2020-07-25T23:01:27.000Z</time>
        <extensions>
          <ns3:TrackPointExtension>
            <ns3:hr>100</ns3:hr>
            <ns3:cad>59</ns3:cad>
          </ns3:TrackPointExtension>
        </extensions>
      </trkpt>
      <trkpt lat="23.1825677119195461273193359375" lon="113.25380022637546062469482421875">
        <ele>16.3999996185302734375</ele>
        <time>2020-07-25T23:01:29.000Z</time>
        <extensions>
          <ns3:TrackPointExtension>
            <ns3:hr>100</ns3:hr>
            <ns3:cad>59</ns3:cad>
          </ns3:TrackPointExtension>
        </extensions>
      </trkpt>
      <trkpt lat="23.182543404400348663330078125" lon="113.253841884434223175048828125">
        <ele>16</ele>
        <time>2020-07-25T23:01:35.000Z</time>
        <extensions>
          <ns3:TrackPointExtension>
            <ns3:hr>100</ns3:hr>
            <ns3:cad>0</ns3:cad>
          </ns3:TrackPointExtension>
        </extensions>
      </trkpt>
      <trkpt lat="23.18254105746746063232421875" lon="113.2538450695574283599853515625">
        <ele>16</ele>
        <time>2020-07-25T23:01:38.000Z</time>
        <extensions>
          <ns3:TrackPointExtension>
            <ns3:hr>101</ns3:hr>
            <ns3:cad>0</ns3:cad>
          </ns3:TrackPointExtension>
        </extensions>
      </trkpt>
      <trkpt lat="23.182550109922885894775390625" lon="113.25386560522019863128662109375">
        <ele>16.200000762939453125</ele>
        <time>2020-07-25T23:01:40.000Z</time>
        <extensions>
          <ns3:TrackPointExtension>
            <ns3:hr>101</ns3:hr>
            <ns3:cad>0</ns3:cad>
          </ns3:TrackPointExtension>
        </extensions>
      </trkpt>
      <trkpt lat="23.18264189176261425018310546875" lon="113.2539811916649341583251953125">
        <ele>17.200000762939453125</ele>
        <time>2020-07-25T23:01:50.000Z</time>
        <extensions>
          <ns3:TrackPointExtension>
            <ns3:hr>101</ns3:hr>
            <ns3:cad>0</ns3:cad>
          </ns3:TrackPointExtension>
        </extensions>
      </trkpt>
      <trkpt lat="23.18263753317296504974365234375" lon="113.25399870984256267547607421875">
        <ele>17.200000762939453125</ele>
        <time>2020-07-25T23:01:53.000Z</time>
        <extensions>
          <ns3:TrackPointExtension>
            <ns3:hr>101</ns3:hr>
            <ns3:cad>61</ns3:cad>
          </ns3:TrackPointExtension>
        </extensions>
      </trkpt>
      <trkpt lat="23.18260702304542064666748046875" lon="113.2541186548769474029541015625">
        <ele>16.6000003814697265625</ele>
        <time>2020-07-25T23:01:57.000Z</time>
        <extensions>
          <ns3:TrackPointExtension>
            <ns3:hr>101</ns3:hr>
            <ns3:cad>61</ns3:cad>
          </ns3:TrackPointExtension>
        </extensions>
      </trkpt>
      <trkpt lat="23.18256142549216747283935546875" lon="113.2541848719120025634765625">
        <ele>15.6000003814697265625</ele>
        <time>2020-07-25T23:02:04.000Z</time>
        <extensions>
          <ns3:TrackPointExtension>
            <ns3:hr>103</ns3:hr>
            <ns3:cad>0</ns3:cad>
          </ns3:TrackPointExtension>
        </extensions>
      </trkpt>
      <trkpt lat="23.18242765031754970550537109375" lon="113.25427648611366748809814453125">
        <ele>14.6000003814697265625</ele>
        <time>2020-07-25T23:02:36.000Z</time>
        <extensions>
          <ns3:TrackPointExtension>
            <ns3:hr>103</ns3:hr>
            <ns3:cad>61</ns3:cad>
          </ns3:TrackPointExtension>
        </extensions>
      </trkpt>
      <trkpt lat="23.1823531351983547210693359375" lon="113.25425184331834316253662109375">
        <ele>14.19999980926513671875</ele>
        <time>2020-07-25T23:02:42.000Z</time>
        <extensions>
          <ns3:TrackPointExtension>
            <ns3:hr>103</ns3:hr>
            <ns3:cad>61</ns3:cad>
          </ns3:TrackPointExtension>
        </extensions>
      </trkpt>
      <trkpt lat="23.18217493593692779541015625" lon="113.254179172217845916748046875">
        <ele>12.3999996185302734375</ele>
        <time>2020-07-25T23:02:58.000Z</time>
        <extensions>
          <ns3:TrackPointExtension>
            <ns3:hr>101</ns3:hr>
            <ns3:cad>0</ns3:cad>
          </ns3:TrackPointExtension>
        </extensions>
      </trkpt>
      <trkpt lat="23.182150460779666900634765625" lon="113.2541743107140064239501953125">
        <ele>12.19999980926513671875</ele>
        <time>2020-07-25T23:03:02.000Z</time>
        <extensions>
          <ns3:TrackPointExtension>
            <ns3:hr>102</ns3:hr>
            <ns3:cad>0</ns3:cad>
          </ns3:TrackPointExtension>
        </extensions>
      </trkpt>
      <trkpt lat="23.1819729320704936981201171875" lon="113.254120163619518280029296875">
        <ele>12</ele>
        <time>2020-07-25T23:03:30.000Z</time>
        <extensions>
          <ns3:TrackPointExtension>
            <ns3:hr>100</ns3:hr>
            <ns3:cad>53</ns3:cad>
          </ns3:TrackPointExtension>
        </extensions>
      </trkpt>
      <trkpt lat="23.18192490376532077789306640625" lon="113.254098705947399139404296875">
        <ele>12</ele>
        <time>2020-07-25T23:03:37.000Z</time>
        <extensions>
          <ns3:TrackPointExtension>
            <ns3:hr>97</ns3:hr>
            <ns3:cad>61</ns3:cad>
          </ns3:TrackPointExtension>
        </extensions>
      </trkpt>
      <trkpt lat="23.1817357242107391357421875" lon="113.2541122846305370330810546875">
        <ele>12</ele>
        <time>2020-07-25T23:03:56.000Z</time>
        <extensions>
          <ns3:TrackPointExtension>
            <ns3:hr>99</ns3:hr>
            <ns3:cad>0</ns3:cad>
          </ns3:TrackPointExtension>
        </extensions>
      </trkpt>
      <trkpt lat="23.18170152604579925537109375" lon="113.25414790771901607513427734375">
        <ele>12</ele>
        <time>2020-07-25T23:04:01.000Z</time>
        <extensions>
          <ns3:TrackPointExtension>
            <ns3:hr>101</ns3:hr>
            <ns3:cad>0</ns3:cad>
          </ns3:TrackPointExtension>
        </extensions>
      </trkpt>
      <trkpt lat="23.18167830817401409149169921875" lon="113.25415478087961673736572265625">
        <ele>12</ele>
        <time>2020-07-25T23:04:05.000Z</time>
        <extensions>
          <ns3:TrackPointExtension>
            <ns3:hr>102</ns3:hr>
            <ns3:cad>61</ns3:cad>
          </ns3:TrackPointExtension>
        </extensions>
      </trkpt>
      <trkpt lat="23.18165467120707035064697265625" lon="113.25415142811834812164306640625">
        <ele>12</ele>
        <time>2020-07-25T23:04:07.000Z</time>
        <extensions>
          <ns3:TrackPointExtension>
            <ns3:hr>102</ns3:hr>
            <ns3:cad>61</ns3:cad>
          </ns3:TrackPointExtension>
        </extensions>
      </trkpt>
      <trkpt lat="23.18160991184413433074951171875" lon="113.25411538593471050262451171875">
        <ele>12</ele>
        <time>2020-07-25T23:04:11.000Z</time>
        <extensions>
          <ns3:TrackPointExtension>
            <ns3:hr>102</ns3:hr>
            <ns3:cad>61</ns3:cad>
          </ns3:TrackPointExtension>
        </extensions>
      </trkpt>
      <trkpt lat="23.18150279112160205841064453125" lon="113.25410130433738231658935546875">
        <ele>12.6000003814697265625</ele>
        <time>2020-07-25T23:04:25.000Z</time>
        <extensions>
          <ns3:TrackPointExtension>
            <ns3:hr>99</ns3:hr>
            <ns3:cad>0</ns3:cad>
          </ns3:TrackPointExtension>
        </extensions>
      </trkpt>
      <trkpt lat="23.18139575421810150146484375" lon="113.254089988768100738525390625">
        <ele>13.3999996185302734375</ele>
        <time>2020-07-25T23:04:37.000Z</time>
        <extensions>
          <ns3:TrackPointExtension>
            <ns3:hr>101</ns3:hr>
            <ns3:cad>0</ns3:cad>
          </ns3:TrackPointExtension>
        </extensions>
      </trkpt>
      <trkpt lat="23.18135526962578296661376953125" lon="113.25407498516142368316650390625">
        <ele>14</ele>
        <time>2020-07-25T23:04:41.000Z</time>
        <extensions>
          <ns3:TrackPointExtension>
            <ns3:hr>100</ns3:hr>
            <ns3:cad>59</ns3:cad>
          </ns3:TrackPointExtension>
        </extensions>
      </trkpt>
      <trkpt lat="23.1812148727476596832275390625" lon="113.2539272122085094451904296875">
        <ele>17.6000003814697265625</ele>
        <time>2020-07-25T23:04:49.000Z</time>
        <extensions>
          <ns3:TrackPointExtension>
            <ns3:hr>99</ns3:hr>
            <ns3:cad>0</ns3:cad>
          </ns3:TrackPointExtension>
        </extensions>
      </trkpt>
      <trkpt lat="23.181145973503589630126953125" lon="113.25390114448964595794677734375">
        <ele>19</ele>
        <time>2020-07-25T23:04:53.000Z</time>
        <extensions>
          <ns3:TrackPointExtension>
            <ns3:hr>97</ns3:hr>
            <ns3:cad>58</ns3:cad>
          </ns3:TrackPointExtension>
        </extensions>
      </trkpt>
      <trkpt lat="23.1810143776237964630126953125" lon="113.253913633525371551513671875">
        <ele>20.3999996185302734375</ele>
        <time>2020-07-25T23:05:03.000Z</time>
        <extensions>
          <ns3:TrackPointExtension>
            <ns3:hr>100</ns3:hr>
            <ns3:cad>56</ns3:cad>
          </ns3:TrackPointExtension>
        </extensions>
      </trkpt>
      <trkpt lat="23.18093315698206424713134765625" lon="113.25396819971501827239990234375">
        <ele>20.3999996185302734375</ele>
        <time>2020-07-25T23:05:13.000Z</time>
        <extensions>
          <ns3:TrackPointExtension>
            <ns3:hr>103</ns3:hr>
            <ns3:cad>59</ns3:cad>
          </ns3:TrackPointExtension>
        </extensions>
      </trkpt>
      <trkpt lat="23.1808665208518505096435546875" lon="113.25400323607027530670166015625">
        <ele>21</ele>
        <time>2020-07-25T23:05:24.000Z</time>
        <extensions>
          <ns3:TrackPointExtension>
            <ns3:hr>105</ns3:hr>
            <ns3:cad>57</ns3:cad>
          </ns3:TrackPointExtension>
        </extensions>
      </trkpt>
      <trkpt lat="23.1808229349553585052490234375" lon="113.25402670539915561676025390625">
        <ele>21.799999237060546875</ele>
        <time>2020-07-25T23:05:30.000Z</time>
        <extensions>
          <ns3:TrackPointExtension>
            <ns3:hr>103</ns3:hr>
            <ns3:cad>58</ns3:cad>
          </ns3:TrackPointExtension>
        </extensions>
      </trkpt>
      <trkpt lat="23.18080206401646137237548828125" lon="113.25403793714940547943115234375">
        <ele>22.200000762939453125</ele>
        <time>2020-07-25T23:05:32.000Z</time>
        <extensions>
          <ns3:TrackPointExtension>
            <ns3:hr>102</ns3:hr>
            <ns3:cad>57</ns3:cad>
          </ns3:TrackPointExtension>
        </extensions>
      </trkpt>
      <trkpt lat="23.18072662688791751861572265625" lon="113.25408764183521270751953125">
        <ele>23.200000762939453125</ele>
        <time>2020-07-25T23:05:40.000Z</time>
        <extensions>
          <ns3:TrackPointExtension>
            <ns3:hr>102</ns3:hr>
            <ns3:cad>56</ns3:cad>
          </ns3:TrackPointExtension>
        </extensions>
      </trkpt>
      <trkpt lat="23.18066962994635105133056640625" lon="113.254081942141056060791015625">
        <ele>23.799999237060546875</ele>
        <time>2020-07-25T23:05:48.000Z</time>
        <extensions>
          <ns3:TrackPointExtension>
            <ns3:hr>105</ns3:hr>
            <ns3:cad>0</ns3:cad>
          </ns3:TrackPointExtension>
        </extensions>
      </trkpt>
      <trkpt lat="23.1806633435189723968505859375" lon="113.2540800981223583221435546875">
        <ele>23.799999237060546875</ele>
        <time>2020-07-25T23:05:49.000Z</time>
        <extensions>
          <ns3:TrackPointExtension>
            <ns3:hr>105</ns3:hr>
            <ns3:cad>0</ns3:cad>
          </ns3:TrackPointExtension>
        </extensions>
      </trkpt>
      <trkpt lat="23.18066644482314586639404296875" lon="113.25407833792269229888916015625">
        <ele>23.799999237060546875</ele>
        <time>2020-07-25T23:05:51.000Z</time>
        <extensions>
          <ns3:TrackPointExtension>
            <ns3:hr>105</ns3:hr>
            <ns3:cad>61</ns3:cad>
          </ns3:TrackPointExtension>
        </extensions>
      </trkpt>
      <trkpt lat="23.180672563612461090087890625" lon="113.2540333271026611328125">
        <ele>23.799999237060546875</ele>
        <time>2020-07-25T23:06:02.000Z</time>
        <extensions>
          <ns3:TrackPointExtension>
            <ns3:hr>102</ns3:hr>
            <ns3:cad>0</ns3:cad>
          </ns3:TrackPointExtension>
        </extensions>
      </trkpt>
      <trkpt lat="23.18065353669226169586181640625" lon="113.25395948253571987152099609375">
        <ele>24.3999996185302734375</ele>
        <time>2020-07-25T23:06:26.000Z</time>
        <extensions>
          <ns3:TrackPointExtension>
            <ns3:hr>97</ns3:hr>
            <ns3:cad>0</ns3:cad>
          </ns3:TrackPointExtension>
        </extensions>
      </trkpt>
      <trkpt lat="23.1805580668151378631591796875" lon="113.253977000713348388671875">
        <ele>25</ele>
        <time>2020-07-25T23:06:39.000Z</time>
        <extensions>
          <ns3:TrackPointExtension>
            <ns3:hr>97</ns3:hr>
            <ns3:cad>0</ns3:cad>
          </ns3:TrackPointExtension>
        </extensions>
      </trkpt>
      <trkpt lat="23.180373497307300567626953125" lon="113.25404967181384563446044921875">
        <ele>26.3999996185302734375</ele>
        <time>2020-07-25T23:07:01.000Z</time>
        <extensions>
          <ns3:TrackPointExtension>
            <ns3:hr>97</ns3:hr>
            <ns3:cad>61</ns3:cad>
          </ns3:TrackPointExtension>
        </extensions>
      </trkpt>
      <trkpt lat="23.180201165378093719482421875" lon="113.25405989773571491241455078125">
        <ele>27.6000003814697265625</ele>
        <time>2020-07-25T23:07:22.000Z</time>
        <extensions>
          <ns3:TrackPointExtension>
            <ns3:hr>100</ns3:hr>
            <ns3:cad>0</ns3:cad>
          </ns3:TrackPointExtension>
        </extensions>
      </trkpt>
      <trkpt lat="23.1800491176545619964599609375" lon="113.254157714545726776123046875">
        <ele>26.200000762939453125</ele>
        <time>2020-07-25T23:07:34.000Z</time>
        <extensions>
          <ns3:TrackPointExtension>
            <ns3:hr>100</ns3:hr>
            <ns3:cad>0</ns3:cad>
          </ns3:TrackPointExtension>
        </extensions>
      </trkpt>
      <trkpt lat="23.17986899055540561676025390625" lon="113.254157043993473052978515625">
        <ele>23.3999996185302734375</ele>
        <time>2020-07-25T23:07:44.000Z</time>
        <extensions>
          <ns3:TrackPointExtension>
            <ns3:hr>102</ns3:hr>
            <ns3:cad>61</ns3:cad>
          </ns3:TrackPointExtension>
        </extensions>
      </trkpt>
      <trkpt lat="23.1796954013407230377197265625" lon="113.254070542752742767333984375">
        <ele>20.200000762939453125</ele>
        <time>2020-07-25T23:07:50.000Z</time>
        <extensions>
          <ns3:TrackPointExtension>
            <ns3:hr>100</ns3:hr>
            <ns3:cad>57</ns3:cad>
          </ns3:TrackPointExtension>
        </extensions>
      </trkpt>
      <trkpt lat="23.17963362671434879302978515625" lon="113.2540633343160152435302734375">
        <ele>18.6000003814697265625</ele>
        <time>2020-07-25T23:07:55.000Z</time>
        <extensions>
          <ns3:TrackPointExtension>
            <ns3:hr>103</ns3:hr>
            <ns3:cad>0</ns3:cad>
          </ns3:TrackPointExtension>
        </extensions>
      </trkpt>
      <trkpt lat="23.17952566780149936676025390625" lon="113.2539622485637664794921875">
        <ele>17.200000762939453125</ele>
        <time>2020-07-25T23:08:22.000Z</time>
        <extensions>
          <ns3:TrackPointExtension>
            <ns3:hr>103</ns3:hr>
            <ns3:cad>0</ns3:cad>
          </ns3:TrackPointExtension>
        </extensions>
      </trkpt>
      <trkpt lat="23.1794814951717853546142578125" lon="113.253814391791820526123046875">
        <ele>18.200000762939453125</ele>
        <time>2020-07-25T23:08:33.000Z</time>
        <extensions>
          <ns3:TrackPointExtension>
            <ns3:hr>106</ns3:hr>
            <ns3:cad>61</ns3:cad>
          </ns3:TrackPointExtension>
        </extensions>
      </trkpt>
      <trkpt lat="23.17947839386761188507080078125" lon="113.25380265712738037109375">
        <ele>18.200000762939453125</ele>
        <time>2020-07-25T23:08:34.000Z</time>
        <extensions>
          <ns3:TrackPointExtension>
            <ns3:hr>107</ns3:hr>
            <ns3:cad>61</ns3:cad>
          </ns3:TrackPointExtension>
        </extensions>
      </trkpt>
      <trkpt lat="23.1794633902609348297119140625" lon="113.25369461439549922943115234375">
        <ele>19</ele>
        <time>2020-07-25T23:08:43.000Z</time>
        <extensions>
          <ns3:TrackPointExtension>
            <ns3:hr>112</ns3:hr>
            <ns3:cad>52</ns3:cad>
          </ns3:TrackPointExtension>
        </extensions>
      </trkpt>
      <trkpt lat="23.1794660724699497222900390625" lon="113.253632672131061553955078125">
        <ele>19.799999237060546875</ele>
        <time>2020-07-25T23:08:49.000Z</time>
        <extensions>
          <ns3:TrackPointExtension>
            <ns3:hr>115</ns3:hr>
            <ns3:cad>54</ns3:cad>
          </ns3:TrackPointExtension>
        </extensions>
      </trkpt>
      <trkpt lat="23.1794623844325542449951171875" lon="113.25357240624725818634033203125">
        <ele>20</ele>
        <time>2020-07-25T23:08:57.000Z</time>
        <extensions>
          <ns3:TrackPointExtension>
            <ns3:hr>118</ns3:hr>
            <ns3:cad>54</ns3:cad>
          </ns3:TrackPointExtension>
        </extensions>
      </trkpt>
      <trkpt lat="23.1794620491564273834228515625" lon="113.25357927940785884857177734375">
        <ele>20</ele>
        <time>2020-07-25T23:09:00.000Z</time>
        <extensions>
          <ns3:TrackPointExtension>
            <ns3:hr>118</ns3:hr>
            <ns3:cad>54</ns3:cad>
          </ns3:TrackPointExtension>
        </extensions>
      </trkpt>
      <trkpt lat="23.1794677488505840301513671875" lon="113.2535118050873279571533203125">
        <ele>20.6000003814697265625</ele>
        <time>2020-07-25T23:09:04.000Z</time>
        <extensions>
          <ns3:TrackPointExtension>
            <ns3:hr>116</ns3:hr>
            <ns3:cad>61</ns3:cad>
          </ns3:TrackPointExtension>
        </extensions>
      </trkpt>
      <trkpt lat="23.17947453819215297698974609375" lon="113.2534628547728061676025390625">
        <ele>21.200000762939453125</ele>
        <time>2020-07-25T23:09:08.000Z</time>
        <extensions>
          <ns3:TrackPointExtension>
            <ns3:hr>113</ns3:hr>
            <ns3:cad>61</ns3:cad>
          </ns3:TrackPointExtension>
        </extensions>
      </trkpt>
      <trkpt lat="23.179467581212520599365234375" lon="113.25341046787798404693603515625">
        <ele>21.3999996185302734375</ele>
        <time>2020-07-25T23:09:13.000Z</time>
        <extensions>
          <ns3:TrackPointExtension>
            <ns3:hr>110</ns3:hr>
            <ns3:cad>61</ns3:cad>
          </ns3:TrackPointExtension>
        </extensions>
      </trkpt>
      <trkpt lat="23.179460875689983367919921875" lon="113.25339739210903644561767578125">
        <ele>21.3999996185302734375</ele>
        <time>2020-07-25T23:09:15.000Z</time>
        <extensions>
          <ns3:TrackPointExtension>
            <ns3:hr>107</ns3:hr>
            <ns3:cad>61</ns3:cad>
          </ns3:TrackPointExtension>
        </extensions>
      </trkpt>
      <trkpt lat="23.17945743910968303680419921875" lon="113.25338733382523059844970703125">
        <ele>21.3999996185302734375</ele>
        <time>2020-07-25T23:09:17.000Z</time>
        <extensions>
          <ns3:TrackPointExtension>
            <ns3:hr>104</ns3:hr>
            <ns3:cad>53</ns3:cad>
          </ns3:TrackPointExtension>
        </extensions>
      </trkpt>
      <trkpt lat="23.1794553436338901519775390625" lon="113.253381885588169097900390625">
        <ele>21.3999996185302734375</ele>
        <time>2020-07-25T23:09:18.000Z</time>
        <extensions>
          <ns3:TrackPointExtension>
            <ns3:hr>101</ns3:hr>
            <ns3:cad>53</ns3:cad>
          </ns3:TrackPointExtension>
        </extensions>
      </trkpt>
      <trkpt lat="23.1794429384171962738037109375" lon="113.2533475197851657867431640625">
        <ele>21.200000762939453125</ele>
        <time>2020-07-25T23:09:22.000Z</time>
        <extensions>
          <ns3:TrackPointExtension>
            <ns3:hr>97</ns3:hr>
            <ns3:cad>53</ns3:cad>
          </ns3:TrackPointExtension>
        </extensions>
      </trkpt>
      <trkpt lat="23.17939725704491138458251953125" lon="113.25314895249903202056884765625">
        <ele>21</ele>
        <time>2020-07-25T23:09:33.000Z</time>
        <extensions>
          <ns3:TrackPointExtension>
            <ns3:hr>97</ns3:hr>
            <ns3:cad>53</ns3:cad>
          </ns3:TrackPointExtension>
        </extensions>
      </trkpt>
      <trkpt lat="23.17933774553239345550537109375" lon="113.252966813743114471435546875">
        <ele>20.799999237060546875</ele>
        <time>2020-07-25T23:09:51.000Z</time>
        <extensions>
          <ns3:TrackPointExtension>
            <ns3:hr>98</ns3:hr>
            <ns3:cad>0</ns3:cad>
          </ns3:TrackPointExtension>
        </extensions>
      </trkpt>
      <trkpt lat="23.179328441619873046875" lon="113.25278232805430889129638671875">
        <ele>20</ele>
        <time>2020-07-25T23:10:07.000Z</time>
        <extensions>
          <ns3:TrackPointExtension>
            <ns3:hr>100</ns3:hr>
            <ns3:cad>61</ns3:cad>
          </ns3:TrackPointExtension>
        </extensions>
      </trkpt>
      <trkpt lat="23.179403878748416900634765625" lon="113.2526125945150852203369140625">
        <ele>20.6000003814697265625</ele>
        <time>2020-07-25T23:10:24.000Z</time>
        <extensions>
          <ns3:TrackPointExtension>
            <ns3:hr>102</ns3:hr>
            <ns3:cad>0</ns3:cad>
          </ns3:TrackPointExtension>
        </extensions>
      </trkpt>
      <trkpt lat="23.17929147742688655853271484375" lon="113.25246364809572696685791015625">
        <ele>19.799999237060546875</ele>
        <time>2020-07-25T23:10:57.000Z</time>
        <extensions>
          <ns3:TrackPointExtension>
            <ns3:hr>103</ns3:hr>
            <ns3:cad>61</ns3:cad>
          </ns3:TrackPointExtension>
        </extensions>
      </trkpt>
      <trkpt lat="23.17919097840785980224609375" lon="113.25230154208838939666748046875">
        <ele>19.3999996185302734375</ele>
        <time>2020-07-25T23:11:14.000Z</time>
        <extensions>
          <ns3:TrackPointExtension>
            <ns3:hr>103</ns3:hr>
            <ns3:cad>61</ns3:cad>
          </ns3:TrackPointExtension>
        </extensions>
      </trkpt>
      <trkpt lat="23.179140351712703704833984375" lon="113.2522662542760372161865234375">
        <ele>19.200000762939453125</ele>
        <time>2020-07-25T23:11:20.000Z</time>
        <extensions>
          <ns3:TrackPointExtension>
            <ns3:hr>103</ns3:hr>
            <ns3:cad>0</ns3:cad>
          </ns3:TrackPointExtension>
        </extensions>
      </trkpt>
      <trkpt lat="23.17899023182690143585205078125" lon="113.252227865159511566162109375">
        <ele>20</ele>
        <time>2020-07-25T23:11:41.000Z</time>
        <extensions>
          <ns3:TrackPointExtension>
            <ns3:hr>100</ns3:hr>
            <ns3:cad>0</ns3:cad>
          </ns3:TrackPointExtension>
        </extensions>
      </trkpt>
      <trkpt lat="23.17893893457949161529541015625" lon="113.252105824649333953857421875">
        <ele>19.6000003814697265625</ele>
        <time>2020-07-25T23:11:54.000Z</time>
        <extensions>
          <ns3:TrackPointExtension>
            <ns3:hr>105</ns3:hr>
            <ns3:cad>0</ns3:cad>
          </ns3:TrackPointExtension>
        </extensions>
      </trkpt>
      <trkpt lat="23.178939186036586761474609375" lon="113.2520949281752109527587890625">
        <ele>19.3999996185302734375</ele>
        <time>2020-07-25T23:11:55.000Z</time>
        <extensions>
          <ns3:TrackPointExtension>
            <ns3:hr>108</ns3:hr>
            <ns3:cad>0</ns3:cad>
          </ns3:TrackPointExtension>
        </extensions>
      </trkpt>
      <trkpt lat="23.17889719270169734954833984375" lon="113.2520201615989208221435546875">
        <ele>18.6000003814697265625</ele>
        <time>2020-07-25T23:12:04.000Z</time>
        <extensions>
          <ns3:TrackPointExtension>
            <ns3:hr>111</ns3:hr>
            <ns3:cad>59</ns3:cad>
          </ns3:TrackPointExtension>
        </extensions>
      </trkpt>
      <trkpt lat="23.17888126708567142486572265625" lon="113.25199292041361331939697265625">
        <ele>18.200000762939453125</ele>
        <time>2020-07-25T23:12:07.000Z</time>
        <extensions>
          <ns3:TrackPointExtension>
            <ns3:hr>110</ns3:hr>
            <ns3:cad>61</ns3:cad>
          </ns3:TrackPointExtension>
        </extensions>
      </trkpt>
      <trkpt lat="23.1788756512105464935302734375" lon="113.25197950936853885650634765625">
        <ele>18</ele>
        <time>2020-07-25T23:12:09.000Z</time>
        <extensions>
          <ns3:TrackPointExtension>
            <ns3:hr>106</ns3:hr>
            <ns3:cad>61</ns3:cad>
          </ns3:TrackPointExtension>
        </extensions>
      </trkpt>
      <trkpt lat="23.17886869423091411590576171875" lon="113.25196576304733753204345703125">
        <ele>17.799999237060546875</ele>
        <time>2020-07-25T23:12:11.000Z</time>
        <extensions>
          <ns3:TrackPointExtension>
            <ns3:hr>102</ns3:hr>
            <ns3:cad>61</ns3:cad>
          </ns3:TrackPointExtension>
        </extensions>
      </trkpt>
      <trkpt lat="23.17884723655879497528076171875" lon="113.2519386895000934600830078125">
        <ele>17.6000003814697265625</ele>
        <time>2020-07-25T23:12:12.000Z</time>
        <extensions>
          <ns3:TrackPointExtension>
            <ns3:hr>108</ns3:hr>
            <ns3:cad>61</ns3:cad>
          </ns3:TrackPointExtension>
        </extensions>
      </trkpt>
      <trkpt lat="23.17883382551372051239013671875" lon="113.25193039141595363616943359375">
        <ele>17.6000003814697265625</ele>
        <time>2020-07-25T23:12:14.000Z</time>
        <extensions>
          <ns3:TrackPointExtension>
            <ns3:hr>115</ns3:hr>
            <ns3:cad>58</ns3:cad>
          </ns3:TrackPointExtension>
        </extensions>
      </trkpt>
      <trkpt lat="23.17881823517382144927978515625" lon="113.2519061677157878875732421875">
        <ele>17.3999996185302734375</ele>
        <time>2020-07-25T23:12:15.000Z</time>
        <extensions>
          <ns3:TrackPointExtension>
            <ns3:hr>115</ns3:hr>
            <ns3:cad>58</ns3:cad>
          </ns3:TrackPointExtension>
        </extensions>
      </trkpt>
      <trkpt lat="23.178795687854290008544921875" lon="113.25186484493315219879150390625">
        <ele>17</ele>
        <time>2020-07-25T23:12:20.000Z</time>
        <extensions>
          <ns3:TrackPointExtension>
            <ns3:hr>112</ns3:hr>
            <ns3:cad>0</ns3:cad>
          </ns3:TrackPointExtension>
        </extensions>
      </trkpt>
      <trkpt lat="23.17878202535212039947509765625" lon="113.2518431358039379119873046875">
        <ele>17</ele>
        <time>2020-07-25T23:12:23.000Z</time>
        <extensions>
          <ns3:TrackPointExtension>
            <ns3:hr>105</ns3:hr>
            <ns3:cad>0</ns3:cad>
          </ns3:TrackPointExtension>
        </extensions>
      </trkpt>
      <trkpt lat="23.17880474030971527099609375" lon="113.25179569423198699951171875">
        <ele>16.3999996185302734375</ele>
        <time>2020-07-25T23:12:26.000Z</time>
        <extensions>
          <ns3:TrackPointExtension>
            <ns3:hr>102</ns3:hr>
            <ns3:cad>0</ns3:cad>
          </ns3:TrackPointExtension>
        </extensions>
      </trkpt>
      <trkpt lat="23.17885746248066425323486328125" lon="113.2517127133905887603759765625">
        <ele>15.19999980926513671875</ele>
        <time>2020-07-25T23:12:30.000Z</time>
        <extensions>
          <ns3:TrackPointExtension>
            <ns3:hr>99</ns3:hr>
            <ns3:cad>61</ns3:cad>
          </ns3:TrackPointExtension>
        </extensions>
      </trkpt>
      <trkpt lat="23.178862072527408599853515625" lon="113.2516957819461822509765625">
        <ele>15</ele>
        <time>2020-07-25T23:12:31.000Z</time>
        <extensions>
          <ns3:TrackPointExtension>
            <ns3:hr>99</ns3:hr>
            <ns3:cad>61</ns3:cad>
          </ns3:TrackPointExtension>
        </extensions>
      </trkpt>
      <trkpt lat="23.178878165781497955322265625" lon="113.2515933550894260406494140625">
        <ele>14.19999980926513671875</ele>
        <time>2020-07-25T23:12:39.000Z</time>
        <extensions>
          <ns3:TrackPointExtension>
            <ns3:hr>102</ns3:hr>
            <ns3:cad>0</ns3:cad>
          </ns3:TrackPointExtension>
        </extensions>
      </trkpt>
      <trkpt lat="23.178888894617557525634765625" lon="113.25155504979193210601806640625">
        <ele>14.19999980926513671875</ele>
        <time>2020-07-25T23:12:43.000Z</time>
        <extensions>
          <ns3:TrackPointExtension>
            <ns3:hr>99</ns3:hr>
            <ns3:cad>0</ns3:cad>
          </ns3:TrackPointExtension>
        </extensions>
      </trkpt>
      <trkpt lat="23.1789274513721466064453125" lon="113.2514329254627227783203125">
        <ele>14.3999996185302734375</ele>
        <time>2020-07-25T23:12:57.000Z</time>
        <extensions>
          <ns3:TrackPointExtension>
            <ns3:hr>100</ns3:hr>
            <ns3:cad>0</ns3:cad>
          </ns3:TrackPointExtension>
        </extensions>
      </trkpt>
      <trkpt lat="23.17893625237047672271728515625" lon="113.2513475976884365081787109375">
        <ele>15.19999980926513671875</ele>
        <time>2020-07-25T23:13:05.000Z</time>
        <extensions>
          <ns3:TrackPointExtension>
            <ns3:hr>97</ns3:hr>
            <ns3:cad>0</ns3:cad>
          </ns3:TrackPointExtension>
        </extensions>
      </trkpt>
      <trkpt lat="23.17893750965595245361328125" lon="113.25128230266273021697998046875">
        <ele>15.80000019073486328125</ele>
        <time>2020-07-25T23:13:17.000Z</time>
        <extensions>
          <ns3:TrackPointExtension>
            <ns3:hr>94</ns3:hr>
            <ns3:cad>0</ns3:cad>
          </ns3:TrackPointExtension>
        </extensions>
      </trkpt>
      <trkpt lat="23.178929127752780914306640625" lon="113.2512671314179897308349609375">
        <ele>16</ele>
        <time>2020-07-25T23:13:22.000Z</time>
        <extensions>
          <ns3:TrackPointExtension>
            <ns3:hr>91</ns3:hr>
            <ns3:cad>0</ns3:cad>
          </ns3:TrackPointExtension>
        </extensions>
      </trkpt>
      <trkpt lat="23.17881622351706027984619140625" lon="113.2512550614774227142333984375">
        <ele>16.3999996185302734375</ele>
        <time>2020-07-25T23:13:36.000Z</time>
        <extensions>
          <ns3:TrackPointExtension>
            <ns3:hr>94</ns3:hr>
            <ns3:cad>0</ns3:cad>
          </ns3:TrackPointExtension>
        </extensions>
      </trkpt>
      <trkpt lat="23.17880298011004924774169921875" lon="113.25128582306206226348876953125">
        <ele>16.200000762939453125</ele>
        <time>2020-07-25T23:13:43.000Z</time>
        <extensions>
          <ns3:TrackPointExtension>
            <ns3:hr>97</ns3:hr>
            <ns3:cad>0</ns3:cad>
          </ns3:TrackPointExtension>
        </extensions>
      </trkpt>
      <trkpt lat="23.178800381720066070556640625" lon="113.25129546225070953369140625">
        <ele>16.200000762939453125</ele>
        <time>2020-07-25T23:13:45.000Z</time>
        <extensions>
          <ns3:TrackPointExtension>
            <ns3:hr>100</ns3:hr>
            <ns3:cad>61</ns3:cad>
          </ns3:TrackPointExtension>
        </extensions>
      </trkpt>
      <trkpt lat="23.1786302290856838226318359375" lon="113.2512490265071392059326171875">
        <ele>17.3999996185302734375</ele>
        <time>2020-07-25T23:14:14.000Z</time>
        <extensions>
          <ns3:TrackPointExtension>
            <ns3:hr>98</ns3:hr>
            <ns3:cad>0</ns3:cad>
          </ns3:TrackPointExtension>
        </extensions>
      </trkpt>
      <trkpt lat="23.17858521826565265655517578125" lon="113.25105247087776660919189453125">
        <ele>18.6000003814697265625</ele>
        <time>2020-07-25T23:14:38.000Z</time>
        <extensions>
          <ns3:TrackPointExtension>
            <ns3:hr>99</ns3:hr>
            <ns3:cad>55</ns3:cad>
          </ns3:TrackPointExtension>
        </extensions>
      </trkpt>
      <trkpt lat="23.17855722270905971527099609375" lon="113.251018524169921875">
        <ele>19.200000762939453125</ele>
        <time>2020-07-25T23:14:45.000Z</time>
        <extensions>
          <ns3:TrackPointExtension>
            <ns3:hr>100</ns3:hr>
            <ns3:cad>55</ns3:cad>
          </ns3:TrackPointExtension>
        </extensions>
      </trkpt>
      <trkpt lat="23.17848530597984790802001953125" lon="113.2509606890380382537841796875">
        <ele>20.200000762939453125</ele>
        <time>2020-07-25T23:14:52.000Z</time>
        <extensions>
          <ns3:TrackPointExtension>
            <ns3:hr>100</ns3:hr>
            <ns3:cad>0</ns3:cad>
          </ns3:TrackPointExtension>
        </extensions>
      </trkpt>
      <trkpt lat="23.17841037176549434661865234375" lon="113.2509355433285236358642578125">
        <ele>21.3999996185302734375</ele>
        <time>2020-07-25T23:15:01.000Z</time>
        <extensions>
          <ns3:TrackPointExtension>
            <ns3:hr>101</ns3:hr>
            <ns3:cad>61</ns3:cad>
          </ns3:TrackPointExtension>
        </extensions>
      </trkpt>
      <trkpt lat="23.17835991270840167999267578125" lon="113.25093210674822330474853515625">
        <ele>21.6000003814697265625</ele>
        <time>2020-07-25T23:15:07.000Z</time>
        <extensions>
          <ns3:TrackPointExtension>
            <ns3:hr>101</ns3:hr>
            <ns3:cad>59</ns3:cad>
          </ns3:TrackPointExtension>
        </extensions>
      </trkpt>
      <trkpt lat="23.1782929413020610809326171875" lon="113.2508963160216808319091796875">
        <ele>22.3999996185302734375</ele>
        <time>2020-07-25T23:15:18.000Z</time>
        <extensions>
          <ns3:TrackPointExtension>
            <ns3:hr>98</ns3:hr>
            <ns3:cad>0</ns3:cad>
          </ns3:TrackPointExtension>
        </extensions>
      </trkpt>
      <trkpt lat="23.17821339704096317291259765625" lon="113.25084359385073184967041015625">
        <ele>23.3999996185302734375</ele>
        <time>2020-07-25T23:15:32.000Z</time>
        <extensions>
          <ns3:TrackPointExtension>
            <ns3:hr>98</ns3:hr>
            <ns3:cad>57</ns3:cad>
          </ns3:TrackPointExtension>
        </extensions>
      </trkpt>
      <trkpt lat="23.1782005727291107177734375" lon="113.2508235611021518707275390625">
        <ele>23.799999237060546875</ele>
        <time>2020-07-25T23:15:34.000Z</time>
        <extensions>
          <ns3:TrackPointExtension>
            <ns3:hr>98</ns3:hr>
            <ns3:cad>0</ns3:cad>
          </ns3:TrackPointExtension>
        </extensions>
      </trkpt>
      <trkpt lat="23.17813955247402191162109375" lon="113.25074435211718082427978515625">
        <ele>24.799999237060546875</ele>
        <time>2020-07-25T23:15:39.000Z</time>
        <extensions>
          <ns3:TrackPointExtension>
            <ns3:hr>99</ns3:hr>
            <ns3:cad>61</ns3:cad>
          </ns3:TrackPointExtension>
        </extensions>
      </trkpt>
      <trkpt lat="23.17806981503963470458984375" lon="113.25067721307277679443359375">
        <ele>25.3999996185302734375</ele>
        <time>2020-07-25T23:15:52.000Z</time>
        <extensions>
          <ns3:TrackPointExtension>
            <ns3:hr>102</ns3:hr>
            <ns3:cad>0</ns3:cad>
          </ns3:TrackPointExtension>
        </extensions>
      </trkpt>
    </trkseg>
  </trk>
</gpx>
