<gpx xmlns:ns3="http://www.garmin.com/xmlschemas/TrackPointExtension/v1" xmlns="http://www.topografix.com/GPX/1/1" xmlns:xsi="http://www.w3.org/2001/XMLSchema-instance" xmlns:ns2="http://www.garmin.com/xmlschemas/GpxExtensions/v3" creator="Garmin Connect" version="1.1" xsi:schemaLocation="http://www.topografix.com/GPX/1/1 http://www.topografix.com/GPX/11.xsd">
  <extensions>
<distance>3106.7</distance>
<average_hr>85.0</average_hr>
<average_speed>1.9910000562667847</average_speed>
<start_time>2018-09-24T09:34:06+00:00</start_time>
<end_time>2018-09-24T10:00:06.109000+00:00</end_time>
<moving_time>1496.928</moving_time>
<elapsed_time>1560.109</elapsed_time>
</extensions>
<metadata>
    <link href="connect.garmin.com">
      <text>Garmin Connect</text>
    </link>
    <time>2018-09-24T09:34:06.000Z</time>
  </metadata>
  <trk>
    <name>广州市 跑步</name>
    <type>running</type>
    <trkseg>
      <trkpt lat="23.17445880733430385589599609375" lon="113.24614117853343486785888671875">
        <ele>13.6000003814697265625</ele>
        <time>2018-09-24T09:41:41.000Z</time>
        <extensions>
          <ns3:TrackPointExtension>
            <ns3:hr>75</ns3:hr>
            <ns3:cad>0</ns3:cad>
          </ns3:TrackPointExtension>
        </extensions>
      </trkpt>
      <trkpt lat="23.1744406186044216156005859375" lon="113.24614604003727436065673828125">
        <ele>13.6000003814697265625</ele>
        <time>2018-09-24T09:41:42.000Z</time>
        <extensions>
          <ns3:TrackPointExtension>
            <ns3:hr>71</ns3:hr>
            <ns3:cad>0</ns3:cad>
          </ns3:TrackPointExtension>
        </extensions>
      </trkpt>
      <trkpt lat="23.17441890947520732879638671875" lon="113.246150650084018707275390625">
        <ele>13.80000019073486328125</ele>
        <time>2018-09-24T09:41:44.000Z</time>
        <extensions>
          <ns3:TrackPointExtension>
            <ns3:hr>66</ns3:hr>
            <ns3:cad>0</ns3:cad>
          </ns3:TrackPointExtension>
        </extensions>
      </trkpt>
      <trkpt lat="23.1744845397770404815673828125" lon="113.24613765813410282135009765625">
        <ele>13.6000003814697265625</ele>
        <time>2018-09-24T09:41:50.000Z</time>
        <extensions>
          <ns3:TrackPointExtension>
            <ns3:hr>64</ns3:hr>
            <ns3:cad>61</ns3:cad>
          </ns3:TrackPointExtension>
        </extensions>
      </trkpt>
      <trkpt lat="23.1745214201509952545166015625" lon="113.246171772480010986328125">
        <ele>13.3999996185302734375</ele>
        <time>2018-09-24T09:42:03.000Z</time>
        <extensions>
          <ns3:TrackPointExtension>
            <ns3:hr>70</ns3:hr>
            <ns3:cad>0</ns3:cad>
          </ns3:TrackPointExtension>
        </extensions>
      </trkpt>
      <trkpt lat="23.17452703602612018585205078125" lon="113.246178813278675079345703125">
        <ele>13.3999996185302734375</ele>
        <time>2018-09-24T09:42:04.000Z</time>
        <extensions>
          <ns3:TrackPointExtension>
            <ns3:hr>77</ns3:hr>
            <ns3:cad>0</ns3:cad>
          </ns3:TrackPointExtension>
        </extensions>
      </trkpt>
      <trkpt lat="23.17452703602612018585205078125" lon="113.246178813278675079345703125">
        <ele>13.3999996185302734375</ele>
        <time>2018-09-24T09:42:05.000Z</time>
        <extensions>
          <ns3:TrackPointExtension>
            <ns3:hr>77</ns3:hr>
            <ns3:cad>0</ns3:cad>
          </ns3:TrackPointExtension>
        </extensions>
      </trkpt>
      <trkpt lat="23.1745670177042484283447265625" lon="113.2461722753942012786865234375">
        <ele>13.19999980926513671875</ele>
        <time>2018-09-24T09:42:14.000Z</time>
        <extensions>
          <ns3:TrackPointExtension>
            <ns3:hr>74</ns3:hr>
            <ns3:cad>0</ns3:cad>
          </ns3:TrackPointExtension>
        </extensions>
      </trkpt>
      <trkpt lat="23.17458118312060832977294921875" lon="113.24617185629904270172119140625">
        <ele>13.19999980926513671875</ele>
        <time>2018-09-24T09:42:17.000Z</time>
        <extensions>
          <ns3:TrackPointExtension>
            <ns3:hr>71</ns3:hr>
            <ns3:cad>0</ns3:cad>
          </ns3:TrackPointExtension>
        </extensions>
      </trkpt>
      <trkpt lat="23.1745814345777034759521484375" lon="113.24617152102291584014892578125">
        <ele>13.19999980926513671875</ele>
        <time>2018-09-24T09:42:19.000Z</time>
        <extensions>
          <ns3:TrackPointExtension>
            <ns3:hr>76</ns3:hr>
            <ns3:cad>0</ns3:cad>
          </ns3:TrackPointExtension>
        </extensions>
      </trkpt>
      <trkpt lat="23.1745844520628452301025390625" lon="113.2461669109761714935302734375">
        <ele>13.19999980926513671875</ele>
        <time>2018-09-24T09:42:25.000Z</time>
        <extensions>
          <ns3:TrackPointExtension>
            <ns3:hr>72</ns3:hr>
            <ns3:cad>0</ns3:cad>
          </ns3:TrackPointExtension>
        </extensions>
      </trkpt>
      <trkpt lat="23.17467053420841693878173828125" lon="113.24613547883927822113037109375">
        <ele>13.19999980926513671875</ele>
        <time>2018-09-24T09:42:35.000Z</time>
        <extensions>
          <ns3:TrackPointExtension>
            <ns3:hr>71</ns3:hr>
            <ns3:cad>61</ns3:cad>
          </ns3:TrackPointExtension>
        </extensions>
      </trkpt>
      <trkpt lat="23.17477614618837833404541015625" lon="113.24604512192308902740478515625">
        <ele>13.6000003814697265625</ele>
        <time>2018-09-24T09:42:46.000Z</time>
        <extensions>
          <ns3:TrackPointExtension>
            <ns3:hr>62</ns3:hr>
            <ns3:cad>61</ns3:cad>
          </ns3:TrackPointExtension>
        </extensions>
      </trkpt>
      <trkpt lat="23.174774385988712310791015625" lon="113.24603187851607799530029296875">
        <ele>13.3999996185302734375</ele>
        <time>2018-09-24T09:42:47.000Z</time>
        <extensions>
          <ns3:TrackPointExtension>
            <ns3:hr>61</ns3:hr>
            <ns3:cad>61</ns3:cad>
          </ns3:TrackPointExtension>
        </extensions>
      </trkpt>
      <trkpt lat="23.1747903116047382354736328125" lon="113.2460043020546436309814453125">
        <ele>13.19999980926513671875</ele>
        <time>2018-09-24T09:42:49.000Z</time>
        <extensions>
          <ns3:TrackPointExtension>
            <ns3:hr>58</ns3:hr>
            <ns3:cad>51</ns3:cad>
          </ns3:TrackPointExtension>
        </extensions>
      </trkpt>
      <trkpt lat="23.1748290359973907470703125" lon="113.24598862789571285247802734375">
        <ele>13.19999980926513671875</ele>
        <time>2018-09-24T09:42:51.000Z</time>
        <extensions>
          <ns3:TrackPointExtension>
            <ns3:hr>55</ns3:hr>
            <ns3:cad>51</ns3:cad>
          </ns3:TrackPointExtension>
        </extensions>
      </trkpt>
      <trkpt lat="23.1750082410871982574462890625" lon="113.245944790542125701904296875">
        <ele>13.3999996185302734375</ele>
        <time>2018-09-24T09:42:59.000Z</time>
        <extensions>
          <ns3:TrackPointExtension>
            <ns3:hr>54</ns3:hr>
            <ns3:cad>57</ns3:cad>
          </ns3:TrackPointExtension>
        </extensions>
      </trkpt>
      <trkpt lat="23.17517101764678955078125" lon="113.2458527572453022003173828125">
        <ele>14.19999980926513671875</ele>
        <time>2018-09-24T09:43:07.000Z</time>
        <extensions>
          <ns3:TrackPointExtension>
            <ns3:hr>55</ns3:hr>
            <ns3:cad>57</ns3:cad>
          </ns3:TrackPointExtension>
        </extensions>
      </trkpt>
      <trkpt lat="23.17533018998801708221435546875" lon="113.245740272104740142822265625">
        <ele>15</ele>
        <time>2018-09-24T09:43:17.000Z</time>
        <extensions>
          <ns3:TrackPointExtension>
            <ns3:hr>54</ns3:hr>
            <ns3:cad>58</ns3:cad>
          </ns3:TrackPointExtension>
        </extensions>
      </trkpt>
      <trkpt lat="23.17544250749051570892333984375" lon="113.24567028321325778961181640625">
        <ele>15.6000003814697265625</ele>
        <time>2018-09-24T09:43:24.000Z</time>
        <extensions>
          <ns3:TrackPointExtension>
            <ns3:hr>58</ns3:hr>
            <ns3:cad>49</ns3:cad>
          </ns3:TrackPointExtension>
        </extensions>
      </trkpt>
      <trkpt lat="23.17553588189184665679931640625" lon="113.2456328161060810089111328125">
        <ele>14.80000019073486328125</ele>
        <time>2018-09-24T09:43:28.000Z</time>
        <extensions>
          <ns3:TrackPointExtension>
            <ns3:hr>62</ns3:hr>
            <ns3:cad>55</ns3:cad>
          </ns3:TrackPointExtension>
        </extensions>
      </trkpt>
      <trkpt lat="23.175542168319225311279296875" lon="113.2456219196319580078125">
        <ele>14.6000003814697265625</ele>
        <time>2018-09-24T09:43:29.000Z</time>
        <extensions>
          <ns3:TrackPointExtension>
            <ns3:hr>67</ns3:hr>
            <ns3:cad>55</ns3:cad>
          </ns3:TrackPointExtension>
        </extensions>
      </trkpt>
      <trkpt lat="23.17572833038866519927978515625" lon="113.245572634041309356689453125">
        <ele>13.19999980926513671875</ele>
        <time>2018-09-24T09:43:38.000Z</time>
        <extensions>
          <ns3:TrackPointExtension>
            <ns3:hr>71</ns3:hr>
            <ns3:cad>0</ns3:cad>
          </ns3:TrackPointExtension>
        </extensions>
      </trkpt>
      <trkpt lat="23.17591658793389797210693359375" lon="113.2455520145595073699951171875">
        <ele>10.6000003814697265625</ele>
        <time>2018-09-24T09:43:50.000Z</time>
        <extensions>
          <ns3:TrackPointExtension>
            <ns3:hr>72</ns3:hr>
            <ns3:cad>0</ns3:cad>
          </ns3:TrackPointExtension>
        </extensions>
      </trkpt>
      <trkpt lat="23.17598230205476284027099609375" lon="113.24553265236318111419677734375">
        <ele>9.19999980926513671875</ele>
        <time>2018-09-24T09:43:56.000Z</time>
        <extensions>
          <ns3:TrackPointExtension>
            <ns3:hr>75</ns3:hr>
            <ns3:cad>48</ns3:cad>
          </ns3:TrackPointExtension>
        </extensions>
      </trkpt>
      <trkpt lat="23.1761448271572589874267578125" lon="113.24543156661093235015869140625">
        <ele>6.400000095367431640625</ele>
        <time>2018-09-24T09:44:06.000Z</time>
        <extensions>
          <ns3:TrackPointExtension>
            <ns3:hr>77</ns3:hr>
            <ns3:cad>0</ns3:cad>
          </ns3:TrackPointExtension>
        </extensions>
      </trkpt>
      <trkpt lat="23.1762720644474029541015625" lon="113.24536669068038463592529296875">
        <ele>4.400000095367431640625</ele>
        <time>2018-09-24T09:44:13.000Z</time>
        <extensions>
          <ns3:TrackPointExtension>
            <ns3:hr>76</ns3:hr>
            <ns3:cad>58</ns3:cad>
          </ns3:TrackPointExtension>
        </extensions>
      </trkpt>
      <trkpt lat="23.17643777467310428619384765625" lon="113.24527231045067310333251953125">
        <ele>4.19999980926513671875</ele>
        <time>2018-09-24T09:44:22.000Z</time>
        <extensions>
          <ns3:TrackPointExtension>
            <ns3:hr>77</ns3:hr>
            <ns3:cad>53</ns3:cad>
          </ns3:TrackPointExtension>
        </extensions>
      </trkpt>
      <trkpt lat="23.1766343303024768829345703125" lon="113.245229311287403106689453125">
        <ele>4.80000019073486328125</ele>
        <time>2018-09-24T09:44:33.000Z</time>
        <extensions>
          <ns3:TrackPointExtension>
            <ns3:hr>77</ns3:hr>
            <ns3:cad>53</ns3:cad>
          </ns3:TrackPointExtension>
        </extensions>
      </trkpt>
      <trkpt lat="23.17681982181966304779052734375" lon="113.2451989687979221343994140625">
        <ele>5.599999904632568359375</ele>
        <time>2018-09-24T09:44:41.000Z</time>
        <extensions>
          <ns3:TrackPointExtension>
            <ns3:hr>79</ns3:hr>
            <ns3:cad>53</ns3:cad>
          </ns3:TrackPointExtension>
        </extensions>
      </trkpt>
      <trkpt lat="23.1769974343478679656982421875" lon="113.2451252080500125885009765625">
        <ele>6.19999980926513671875</ele>
        <time>2018-09-24T09:44:53.000Z</time>
        <extensions>
          <ns3:TrackPointExtension>
            <ns3:hr>81</ns3:hr>
            <ns3:cad>58</ns3:cad>
          </ns3:TrackPointExtension>
        </extensions>
      </trkpt>
      <trkpt lat="23.17716834135353565216064453125" lon="113.24504113756120204925537109375">
        <ele>6</ele>
        <time>2018-09-24T09:45:02.000Z</time>
        <extensions>
          <ns3:TrackPointExtension>
            <ns3:hr>83</ns3:hr>
            <ns3:cad>60</ns3:cad>
          </ns3:TrackPointExtension>
        </extensions>
      </trkpt>
      <trkpt lat="23.177265487611293792724609375" lon="113.2450028322637081146240234375">
        <ele>5.400000095367431640625</ele>
        <time>2018-09-24T09:45:07.000Z</time>
        <extensions>
          <ns3:TrackPointExtension>
            <ns3:hr>78</ns3:hr>
            <ns3:cad>60</ns3:cad>
          </ns3:TrackPointExtension>
        </extensions>
      </trkpt>
      <trkpt lat="23.177292644977569580078125" lon="113.24499470181763172149658203125">
        <ele>5.599999904632568359375</ele>
        <time>2018-09-24T09:45:08.000Z</time>
        <extensions>
          <ns3:TrackPointExtension>
            <ns3:hr>75</ns3:hr>
            <ns3:cad>60</ns3:cad>
          </ns3:TrackPointExtension>
        </extensions>
      </trkpt>
      <trkpt lat="23.17738492973148822784423828125" lon="113.2449848949909210205078125">
        <ele>6</ele>
        <time>2018-09-24T09:45:11.000Z</time>
        <extensions>
          <ns3:TrackPointExtension>
            <ns3:hr>72</ns3:hr>
            <ns3:cad>0</ns3:cad>
          </ns3:TrackPointExtension>
        </extensions>
      </trkpt>
      <trkpt lat="23.1774433515965938568115234375" lon="113.244971148669719696044921875">
        <ele>5.80000019073486328125</ele>
        <time>2018-09-24T09:45:13.000Z</time>
        <extensions>
          <ns3:TrackPointExtension>
            <ns3:hr>69</ns3:hr>
            <ns3:cad>0</ns3:cad>
          </ns3:TrackPointExtension>
        </extensions>
      </trkpt>
      <trkpt lat="23.17749758251011371612548828125" lon="113.24496067129075527191162109375">
        <ele>5.80000019073486328125</ele>
        <time>2018-09-24T09:45:15.000Z</time>
        <extensions>
          <ns3:TrackPointExtension>
            <ns3:hr>66</ns3:hr>
            <ns3:cad>58</ns3:cad>
          </ns3:TrackPointExtension>
        </extensions>
      </trkpt>
      <trkpt lat="23.177555836737155914306640625" lon="113.2449491880834102630615234375">
        <ele>5.80000019073486328125</ele>
        <time>2018-09-24T09:45:17.000Z</time>
        <extensions>
          <ns3:TrackPointExtension>
            <ns3:hr>62</ns3:hr>
            <ns3:cad>58</ns3:cad>
          </ns3:TrackPointExtension>
        </extensions>
      </trkpt>
      <trkpt lat="23.17761174403131008148193359375" lon="113.244948349893093109130859375">
        <ele>5.80000019073486328125</ele>
        <time>2018-09-24T09:45:19.000Z</time>
        <extensions>
          <ns3:TrackPointExtension>
            <ns3:hr>59</ns3:hr>
            <ns3:cad>58</ns3:cad>
          </ns3:TrackPointExtension>
        </extensions>
      </trkpt>
      <trkpt lat="23.177812993526458740234375" lon="113.24496285058557987213134765625">
        <ele>5.19999980926513671875</ele>
        <time>2018-09-24T09:45:25.000Z</time>
        <extensions>
          <ns3:TrackPointExtension>
            <ns3:hr>57</ns3:hr>
            <ns3:cad>61</ns3:cad>
          </ns3:TrackPointExtension>
        </extensions>
      </trkpt>
      <trkpt lat="23.17800200544297695159912109375" lon="113.24495580978691577911376953125">
        <ele>4.19999980926513671875</ele>
        <time>2018-09-24T09:45:33.000Z</time>
        <extensions>
          <ns3:TrackPointExtension>
            <ns3:hr>56</ns3:hr>
            <ns3:cad>53</ns3:cad>
          </ns3:TrackPointExtension>
        </extensions>
      </trkpt>
      <trkpt lat="23.17817576229572296142578125" lon="113.24498179368674755096435546875">
        <ele>5</ele>
        <time>2018-09-24T09:45:42.000Z</time>
        <extensions>
          <ns3:TrackPointExtension>
            <ns3:hr>54</ns3:hr>
            <ns3:cad>0</ns3:cad>
          </ns3:TrackPointExtension>
        </extensions>
      </trkpt>
      <trkpt lat="23.17817081697285175323486328125" lon="113.2449813745915889739990234375">
        <ele>5</ele>
        <time>2018-09-24T09:45:45.000Z</time>
        <extensions>
          <ns3:TrackPointExtension>
            <ns3:hr>54</ns3:hr>
            <ns3:cad>0</ns3:cad>
          </ns3:TrackPointExtension>
        </extensions>
      </trkpt>
      <trkpt lat="23.17817039787769317626953125" lon="113.24497642926871776580810546875">
        <ele>5</ele>
        <time>2018-09-24T09:45:47.000Z</time>
        <extensions>
          <ns3:TrackPointExtension>
            <ns3:hr>54</ns3:hr>
            <ns3:cad>0</ns3:cad>
          </ns3:TrackPointExtension>
        </extensions>
      </trkpt>
      <trkpt lat="23.17817048169672489166259765625" lon="113.24497559107840061187744140625">
        <ele>5</ele>
        <time>2018-09-24T09:45:52.000Z</time>
        <extensions>
          <ns3:TrackPointExtension>
            <ns3:hr>54</ns3:hr>
            <ns3:cad>61</ns3:cad>
          </ns3:TrackPointExtension>
        </extensions>
      </trkpt>
      <trkpt lat="23.1781712360680103302001953125" lon="113.24497592635452747344970703125">
        <ele>5</ele>
        <time>2018-09-24T09:45:54.000Z</time>
        <extensions>
          <ns3:TrackPointExtension>
            <ns3:hr>54</ns3:hr>
            <ns3:cad>0</ns3:cad>
          </ns3:TrackPointExtension>
        </extensions>
      </trkpt>
      <trkpt lat="23.17817450501024723052978515625" lon="113.24497609399259090423583984375">
        <ele>5</ele>
        <time>2018-09-24T09:45:57.000Z</time>
        <extensions>
          <ns3:TrackPointExtension>
            <ns3:hr>55</ns3:hr>
            <ns3:cad>0</ns3:cad>
          </ns3:TrackPointExtension>
        </extensions>
      </trkpt>
      <trkpt lat="23.17817651666700839996337890625" lon="113.24497642926871776580810546875">
        <ele>5</ele>
        <time>2018-09-24T09:45:59.000Z</time>
        <extensions>
          <ns3:TrackPointExtension>
            <ns3:hr>55</ns3:hr>
            <ns3:cad>0</ns3:cad>
          </ns3:TrackPointExtension>
        </extensions>
      </trkpt>
      <trkpt lat="23.178178109228610992431640625" lon="113.24497693218290805816650390625">
        <ele>5</ele>
        <time>2018-09-24T09:46:01.000Z</time>
        <extensions>
          <ns3:TrackPointExtension>
            <ns3:hr>56</ns3:hr>
            <ns3:cad>54</ns3:cad>
          </ns3:TrackPointExtension>
        </extensions>
      </trkpt>
      <trkpt lat="23.1781812943518161773681640625" lon="113.24498154222965240478515625">
        <ele>5</ele>
        <time>2018-09-24T09:46:06.000Z</time>
        <extensions>
          <ns3:TrackPointExtension>
            <ns3:hr>57</ns3:hr>
            <ns3:cad>0</ns3:cad>
          </ns3:TrackPointExtension>
        </extensions>
      </trkpt>
      <trkpt lat="23.1781970523297786712646484375" lon="113.24499486945569515228271484375">
        <ele>5</ele>
        <time>2018-09-24T09:46:14.000Z</time>
        <extensions>
          <ns3:TrackPointExtension>
            <ns3:hr>60</ns3:hr>
            <ns3:cad>54</ns3:cad>
          </ns3:TrackPointExtension>
        </extensions>
      </trkpt>
      <trkpt lat="23.178209960460662841796875" lon="113.245007693767547607421875">
        <ele>5.19999980926513671875</ele>
        <time>2018-09-24T09:46:19.000Z</time>
        <extensions>
          <ns3:TrackPointExtension>
            <ns3:hr>61</ns3:hr>
            <ns3:cad>54</ns3:cad>
          </ns3:TrackPointExtension>
        </extensions>
      </trkpt>
      <trkpt lat="23.17840500734746456146240234375" lon="113.2451034151017665863037109375">
        <ele>8.6000003814697265625</ele>
        <time>2018-09-24T09:46:27.000Z</time>
        <extensions>
          <ns3:TrackPointExtension>
            <ns3:hr>62</ns3:hr>
            <ns3:cad>0</ns3:cad>
          </ns3:TrackPointExtension>
        </extensions>
      </trkpt>
      <trkpt lat="23.1785705499351024627685546875" lon="113.24518832378089427947998046875">
        <ele>11.19999980926513671875</ele>
        <time>2018-09-24T09:46:31.000Z</time>
        <extensions>
          <ns3:TrackPointExtension>
            <ns3:hr>62</ns3:hr>
            <ns3:cad>53</ns3:cad>
          </ns3:TrackPointExtension>
        </extensions>
      </trkpt>
      <trkpt lat="23.17874682135879993438720703125" lon="113.24529393576085567474365234375">
        <ele>14.6000003814697265625</ele>
        <time>2018-09-24T09:46:36.000Z</time>
        <extensions>
          <ns3:TrackPointExtension>
            <ns3:hr>63</ns3:hr>
            <ns3:cad>55</ns3:cad>
          </ns3:TrackPointExtension>
        </extensions>
      </trkpt>
      <trkpt lat="23.1789373420178890228271484375" lon="113.245343975722789764404296875">
        <ele>16</ele>
        <time>2018-09-24T09:46:43.000Z</time>
        <extensions>
          <ns3:TrackPointExtension>
            <ns3:hr>65</ns3:hr>
            <ns3:cad>0</ns3:cad>
          </ns3:TrackPointExtension>
        </extensions>
      </trkpt>
      <trkpt lat="23.17905460484325885772705078125" lon="113.24539016000926494598388671875">
        <ele>16.799999237060546875</ele>
        <time>2018-09-24T09:46:47.000Z</time>
        <extensions>
          <ns3:TrackPointExtension>
            <ns3:hr>69</ns3:hr>
            <ns3:cad>0</ns3:cad>
          </ns3:TrackPointExtension>
        </extensions>
      </trkpt>
      <trkpt lat="23.17907036282122135162353515625" lon="113.24539770372211933135986328125">
        <ele>17</ele>
        <time>2018-09-24T09:46:48.000Z</time>
        <extensions>
          <ns3:TrackPointExtension>
            <ns3:hr>75</ns3:hr>
            <ns3:cad>0</ns3:cad>
          </ns3:TrackPointExtension>
        </extensions>
      </trkpt>
      <trkpt lat="23.17912417463958263397216796875" lon="113.24541647918522357940673828125">
        <ele>16.3999996185302734375</ele>
        <time>2018-09-24T09:46:49.000Z</time>
        <extensions>
          <ns3:TrackPointExtension>
            <ns3:hr>75</ns3:hr>
            <ns3:cad>0</ns3:cad>
          </ns3:TrackPointExtension>
        </extensions>
      </trkpt>
      <trkpt lat="23.179318048059940338134765625" lon="113.24547884054481983184814453125">
        <ele>13.6000003814697265625</ele>
        <time>2018-09-24T09:46:56.000Z</time>
        <extensions>
          <ns3:TrackPointExtension>
            <ns3:hr>81</ns3:hr>
            <ns3:cad>52</ns3:cad>
          </ns3:TrackPointExtension>
        </extensions>
      </trkpt>
      <trkpt lat="23.179338835179805755615234375" lon="113.24549057520925998687744140625">
        <ele>13.19999980926513671875</ele>
        <time>2018-09-24T09:46:57.000Z</time>
        <extensions>
          <ns3:TrackPointExtension>
            <ns3:hr>81</ns3:hr>
            <ns3:cad>0</ns3:cad>
          </ns3:TrackPointExtension>
        </extensions>
      </trkpt>
      <trkpt lat="23.17935970611870288848876953125" lon="113.245501555502414703369140625">
        <ele>13</ele>
        <time>2018-09-24T09:46:58.000Z</time>
        <extensions>
          <ns3:TrackPointExtension>
            <ns3:hr>84</ns3:hr>
            <ns3:cad>0</ns3:cad>
          </ns3:TrackPointExtension>
        </extensions>
      </trkpt>
      <trkpt lat="23.17938300780951976776123046875" lon="113.24550733901560306549072265625">
        <ele>12.6000003814697265625</ele>
        <time>2018-09-24T09:46:59.000Z</time>
        <extensions>
          <ns3:TrackPointExtension>
            <ns3:hr>90</ns3:hr>
            <ns3:cad>55</ns3:cad>
          </ns3:TrackPointExtension>
        </extensions>
      </trkpt>
      <trkpt lat="23.1794094108045101165771484375" lon="113.2455121167004108428955078125">
        <ele>12.19999980926513671875</ele>
        <time>2018-09-24T09:47:00.000Z</time>
        <extensions>
          <ns3:TrackPointExtension>
            <ns3:hr>93</ns3:hr>
            <ns3:cad>57</ns3:cad>
          </ns3:TrackPointExtension>
        </extensions>
      </trkpt>
      <trkpt lat="23.17943598143756389617919921875" lon="113.245515637099742889404296875">
        <ele>11.6000003814697265625</ele>
        <time>2018-09-24T09:47:01.000Z</time>
        <extensions>
          <ns3:TrackPointExtension>
            <ns3:hr>96</ns3:hr>
            <ns3:cad>57</ns3:cad>
          </ns3:TrackPointExtension>
        </extensions>
      </trkpt>
      <trkpt lat="23.1794875301420688629150390625" lon="113.24553131125867366790771484375">
        <ele>10.80000019073486328125</ele>
        <time>2018-09-24T09:47:03.000Z</time>
        <extensions>
          <ns3:TrackPointExtension>
            <ns3:hr>99</ns3:hr>
            <ns3:cad>57</ns3:cad>
          </ns3:TrackPointExtension>
        </extensions>
      </trkpt>
      <trkpt lat="23.1795418448746204376220703125" lon="113.2455506734549999237060546875">
        <ele>9.80000019073486328125</ele>
        <time>2018-09-24T09:47:05.000Z</time>
        <extensions>
          <ns3:TrackPointExtension>
            <ns3:hr>94</ns3:hr>
            <ns3:cad>0</ns3:cad>
          </ns3:TrackPointExtension>
        </extensions>
      </trkpt>
      <trkpt lat="23.17956984043121337890625" lon="113.24555880390107631683349609375">
        <ele>9.3999996185302734375</ele>
        <time>2018-09-24T09:47:06.000Z</time>
        <extensions>
          <ns3:TrackPointExtension>
            <ns3:hr>94</ns3:hr>
            <ns3:cad>0</ns3:cad>
          </ns3:TrackPointExtension>
        </extensions>
      </trkpt>
      <trkpt lat="23.1796092353761196136474609375" lon="113.2455634139478206634521484375">
        <ele>8.80000019073486328125</ele>
        <time>2018-09-24T09:47:08.000Z</time>
        <extensions>
          <ns3:TrackPointExtension>
            <ns3:hr>90</ns3:hr>
            <ns3:cad>0</ns3:cad>
          </ns3:TrackPointExtension>
        </extensions>
      </trkpt>
      <trkpt lat="23.17973605357110500335693359375" lon="113.2456599734723567962646484375">
        <ele>7.80000019073486328125</ele>
        <time>2018-09-24T09:47:15.000Z</time>
        <extensions>
          <ns3:TrackPointExtension>
            <ns3:hr>87</ns3:hr>
            <ns3:cad>61</ns3:cad>
          </ns3:TrackPointExtension>
        </extensions>
      </trkpt>
      <trkpt lat="23.1799032725393772125244140625" lon="113.24573666788637638092041015625">
        <ele>7.19999980926513671875</ele>
        <time>2018-09-24T09:47:23.000Z</time>
        <extensions>
          <ns3:TrackPointExtension>
            <ns3:hr>90</ns3:hr>
            <ns3:cad>53</ns3:cad>
          </ns3:TrackPointExtension>
        </extensions>
      </trkpt>
      <trkpt lat="23.17994660697877407073974609375" lon="113.24577623046934604644775390625">
        <ele>7.599999904632568359375</ele>
        <time>2018-09-24T09:47:26.000Z</time>
        <extensions>
          <ns3:TrackPointExtension>
            <ns3:hr>93</ns3:hr>
            <ns3:cad>53</ns3:cad>
          </ns3:TrackPointExtension>
        </extensions>
      </trkpt>
      <trkpt lat="23.17996186204254627227783203125" lon="113.24578821659088134765625">
        <ele>7.80000019073486328125</ele>
        <time>2018-09-24T09:47:27.000Z</time>
        <extensions>
          <ns3:TrackPointExtension>
            <ns3:hr>99</ns3:hr>
            <ns3:cad>53</ns3:cad>
          </ns3:TrackPointExtension>
        </extensions>
      </trkpt>
      <trkpt lat="23.18001684732735157012939453125" lon="113.2458458840847015380859375">
        <ele>9</ele>
        <time>2018-09-24T09:47:31.000Z</time>
        <extensions>
          <ns3:TrackPointExtension>
            <ns3:hr>103</ns3:hr>
            <ns3:cad>53</ns3:cad>
          </ns3:TrackPointExtension>
        </extensions>
      </trkpt>
      <trkpt lat="23.180085830390453338623046875" lon="113.2459134422242641448974609375">
        <ele>10.6000003814697265625</ele>
        <time>2018-09-24T09:47:36.000Z</time>
        <extensions>
          <ns3:TrackPointExtension>
            <ns3:hr>104</ns3:hr>
            <ns3:cad>54</ns3:cad>
          </ns3:TrackPointExtension>
        </extensions>
      </trkpt>
      <trkpt lat="23.18010351620614528656005859375" lon="113.24597395956516265869140625">
        <ele>11.3999996185302734375</ele>
        <time>2018-09-24T09:47:42.000Z</time>
        <extensions>
          <ns3:TrackPointExtension>
            <ns3:hr>104</ns3:hr>
            <ns3:cad>0</ns3:cad>
          </ns3:TrackPointExtension>
        </extensions>
      </trkpt>
      <trkpt lat="23.18012170493602752685546875" lon="113.24599944055080413818359375">
        <ele>12</ele>
        <time>2018-09-24T09:47:45.000Z</time>
        <extensions>
          <ns3:TrackPointExtension>
            <ns3:hr>104</ns3:hr>
            <ns3:cad>0</ns3:cad>
          </ns3:TrackPointExtension>
        </extensions>
      </trkpt>
      <trkpt lat="23.18023435771465301513671875" lon="113.2460374943912029266357421875">
        <ele>13.3999996185302734375</ele>
        <time>2018-09-24T09:47:53.000Z</time>
        <extensions>
          <ns3:TrackPointExtension>
            <ns3:hr>101</ns3:hr>
            <ns3:cad>49</ns3:cad>
          </ns3:TrackPointExtension>
        </extensions>
      </trkpt>
      <trkpt lat="23.18036176264286041259765625" lon="113.2460545934736728668212890625">
        <ele>14.80000019073486328125</ele>
        <time>2018-09-24T09:47:58.000Z</time>
        <extensions>
          <ns3:TrackPointExtension>
            <ns3:hr>98</ns3:hr>
            <ns3:cad>51</ns3:cad>
          </ns3:TrackPointExtension>
        </extensions>
      </trkpt>
      <trkpt lat="23.18055085837841033935546875" lon="113.24606649577617645263671875">
        <ele>15.3999996185302734375</ele>
        <time>2018-09-24T09:48:05.000Z</time>
        <extensions>
          <ns3:TrackPointExtension>
            <ns3:hr>96</ns3:hr>
            <ns3:cad>52</ns3:cad>
          </ns3:TrackPointExtension>
        </extensions>
      </trkpt>
      <trkpt lat="23.18073802627623081207275390625" lon="113.2461028732359409332275390625">
        <ele>14.19999980926513671875</ele>
        <time>2018-09-24T09:48:12.000Z</time>
        <extensions>
          <ns3:TrackPointExtension>
            <ns3:hr>94</ns3:hr>
            <ns3:cad>61</ns3:cad>
          </ns3:TrackPointExtension>
        </extensions>
      </trkpt>
      <trkpt lat="23.1808819435536861419677734375" lon="113.246171772480010986328125">
        <ele>11.19999980926513671875</ele>
        <time>2018-09-24T09:48:18.000Z</time>
        <extensions>
          <ns3:TrackPointExtension>
            <ns3:hr>91</ns3:hr>
            <ns3:cad>61</ns3:cad>
          </ns3:TrackPointExtension>
        </extensions>
      </trkpt>
      <trkpt lat="23.18096249364316463470458984375" lon="113.24622767977416515350341796875">
        <ele>9.80000019073486328125</ele>
        <time>2018-09-24T09:48:23.000Z</time>
        <extensions>
          <ns3:TrackPointExtension>
            <ns3:hr>88</ns3:hr>
            <ns3:cad>58</ns3:cad>
          </ns3:TrackPointExtension>
        </extensions>
      </trkpt>
      <trkpt lat="23.18100188858807086944580078125" lon="113.24630144052207469940185546875">
        <ele>8.3999996185302734375</ele>
        <time>2018-09-24T09:48:28.000Z</time>
        <extensions>
          <ns3:TrackPointExtension>
            <ns3:hr>85</ns3:hr>
            <ns3:cad>58</ns3:cad>
          </ns3:TrackPointExtension>
        </extensions>
      </trkpt>
      <trkpt lat="23.1811283715069293975830078125" lon="113.24644795618951320648193359375">
        <ele>8.6000003814697265625</ele>
        <time>2018-09-24T09:48:35.000Z</time>
        <extensions>
          <ns3:TrackPointExtension>
            <ns3:hr>84</ns3:hr>
            <ns3:cad>55</ns3:cad>
          </ns3:TrackPointExtension>
        </extensions>
      </trkpt>
      <trkpt lat="23.1811793334782123565673828125" lon="113.24666471220552921295166015625">
        <ele>13</ele>
        <time>2018-09-24T09:48:43.000Z</time>
        <extensions>
          <ns3:TrackPointExtension>
            <ns3:hr>82</ns3:hr>
            <ns3:cad>0</ns3:cad>
          </ns3:TrackPointExtension>
        </extensions>
      </trkpt>
      <trkpt lat="23.1812232546508312225341796875" lon="113.246848694980144500732421875">
        <ele>17.6000003814697265625</ele>
        <time>2018-09-24T09:48:50.000Z</time>
        <extensions>
          <ns3:TrackPointExtension>
            <ns3:hr>79</ns3:hr>
            <ns3:cad>52</ns3:cad>
          </ns3:TrackPointExtension>
        </extensions>
      </trkpt>
      <trkpt lat="23.1812406890094280242919921875" lon="113.2468753494322299957275390625">
        <ele>18</ele>
        <time>2018-09-24T09:48:51.000Z</time>
        <extensions>
          <ns3:TrackPointExtension>
            <ns3:hr>74</ns3:hr>
            <ns3:cad>52</ns3:cad>
          </ns3:TrackPointExtension>
        </extensions>
      </trkpt>
      <trkpt lat="23.18126658909022808074951171875" lon="113.2469266466796398162841796875">
        <ele>17</ele>
        <time>2018-09-24T09:48:52.000Z</time>
        <extensions>
          <ns3:TrackPointExtension>
            <ns3:hr>78</ns3:hr>
            <ns3:cad>52</ns3:cad>
          </ns3:TrackPointExtension>
        </extensions>
      </trkpt>
      <trkpt lat="23.18127396516501903533935546875" lon="113.24695372022688388824462890625">
        <ele>16.6000003814697265625</ele>
        <time>2018-09-24T09:48:54.000Z</time>
        <extensions>
          <ns3:TrackPointExtension>
            <ns3:hr>82</ns3:hr>
            <ns3:cad>52</ns3:cad>
          </ns3:TrackPointExtension>
        </extensions>
      </trkpt>
      <trkpt lat="23.18129056133329868316650390625" lon="113.24700937606394290924072265625">
        <ele>15.80000019073486328125</ele>
        <time>2018-09-24T09:48:56.000Z</time>
        <extensions>
          <ns3:TrackPointExtension>
            <ns3:hr>79</ns3:hr>
            <ns3:cad>55</ns3:cad>
          </ns3:TrackPointExtension>
        </extensions>
      </trkpt>
      <trkpt lat="23.18132274784147739410400390625" lon="113.24725714512169361114501953125">
        <ele>13.80000019073486328125</ele>
        <time>2018-09-24T09:49:04.000Z</time>
        <extensions>
          <ns3:TrackPointExtension>
            <ns3:hr>94</ns3:hr>
            <ns3:cad>59</ns3:cad>
          </ns3:TrackPointExtension>
        </extensions>
      </trkpt>
      <trkpt lat="23.1813399307429790496826171875" lon="113.24728145264089107513427734375">
        <ele>13.3999996185302734375</ele>
        <time>2018-09-24T09:49:06.000Z</time>
        <extensions>
          <ns3:TrackPointExtension>
            <ns3:hr>97</ns3:hr>
            <ns3:cad>59</ns3:cad>
          </ns3:TrackPointExtension>
        </extensions>
      </trkpt>
      <trkpt lat="23.1814267672598361968994140625" lon="113.24750575236976146697998046875">
        <ele>12.6000003814697265625</ele>
        <time>2018-09-24T09:49:14.000Z</time>
        <extensions>
          <ns3:TrackPointExtension>
            <ns3:hr>99</ns3:hr>
            <ns3:cad>59</ns3:cad>
          </ns3:TrackPointExtension>
        </extensions>
      </trkpt>
      <trkpt lat="23.1814755499362945556640625" lon="113.2476163096725940704345703125">
        <ele>13.80000019073486328125</ele>
        <time>2018-09-24T09:49:18.000Z</time>
        <extensions>
          <ns3:TrackPointExtension>
            <ns3:hr>103</ns3:hr>
            <ns3:cad>0</ns3:cad>
          </ns3:TrackPointExtension>
        </extensions>
      </trkpt>
      <trkpt lat="23.18148233927786350250244140625" lon="113.24767137877643108367919921875">
        <ele>13.19999980926513671875</ele>
        <time>2018-09-24T09:49:19.000Z</time>
        <extensions>
          <ns3:TrackPointExtension>
            <ns3:hr>106</ns3:hr>
            <ns3:cad>0</ns3:cad>
          </ns3:TrackPointExtension>
        </extensions>
      </trkpt>
      <trkpt lat="23.18148233927786350250244140625" lon="113.24767137877643108367919921875">
        <ele>13.19999980926513671875</ele>
        <time>2018-09-24T09:49:20.000Z</time>
        <extensions>
          <ns3:TrackPointExtension>
            <ns3:hr>106</ns3:hr>
            <ns3:cad>0</ns3:cad>
          </ns3:TrackPointExtension>
        </extensions>
      </trkpt>
      <trkpt lat="23.18068563938140869140625" lon="113.24874610640108585357666015625">
        <ele>18.3999996185302734375</ele>
        <time>2018-09-24T09:49:52.000Z</time>
        <extensions>
          <ns3:TrackPointExtension>
            <ns3:hr>102</ns3:hr>
            <ns3:cad>57</ns3:cad>
          </ns3:TrackPointExtension>
        </extensions>
      </trkpt>
      <trkpt lat="23.18085352890193462371826171875" lon="113.24878625571727752685546875">
        <ele>19.200000762939453125</ele>
        <time>2018-09-24T09:49:55.000Z</time>
        <extensions>
          <ns3:TrackPointExtension>
            <ns3:hr>99</ns3:hr>
            <ns3:cad>53</ns3:cad>
          </ns3:TrackPointExtension>
        </extensions>
      </trkpt>
      <trkpt lat="23.1809050776064395904541015625" lon="113.248861022293567657470703125">
        <ele>19.799999237060546875</ele>
        <time>2018-09-24T09:49:58.000Z</time>
        <extensions>
          <ns3:TrackPointExtension>
            <ns3:hr>96</ns3:hr>
            <ns3:cad>58</ns3:cad>
          </ns3:TrackPointExtension>
        </extensions>
      </trkpt>
      <trkpt lat="23.1810244359076023101806640625" lon="113.248988427221775054931640625">
        <ele>20.6000003814697265625</ele>
        <time>2018-09-24T09:50:03.000Z</time>
        <extensions>
          <ns3:TrackPointExtension>
            <ns3:hr>93</ns3:hr>
            <ns3:cad>57</ns3:cad>
          </ns3:TrackPointExtension>
        </extensions>
      </trkpt>
      <trkpt lat="23.18108805455267429351806640625" lon="113.2491220347583293914794921875">
        <ele>22</ele>
        <time>2018-09-24T09:50:09.000Z</time>
        <extensions>
          <ns3:TrackPointExtension>
            <ns3:hr>90</ns3:hr>
            <ns3:cad>59</ns3:cad>
          </ns3:TrackPointExtension>
        </extensions>
      </trkpt>
      <trkpt lat="23.18130455911159515380859375" lon="113.24922957457602024078369140625">
        <ele>25.200000762939453125</ele>
        <time>2018-09-24T09:50:15.000Z</time>
        <extensions>
          <ns3:TrackPointExtension>
            <ns3:hr>87</ns3:hr>
            <ns3:cad>61</ns3:cad>
          </ns3:TrackPointExtension>
        </extensions>
      </trkpt>
      <trkpt lat="23.18155408836901187896728515625" lon="113.24940827675163745880126953125">
        <ele>18.200000762939453125</ele>
        <time>2018-09-24T09:50:24.000Z</time>
        <extensions>
          <ns3:TrackPointExtension>
            <ns3:hr>85</ns3:hr>
            <ns3:cad>61</ns3:cad>
          </ns3:TrackPointExtension>
        </extensions>
      </trkpt>
      <trkpt lat="23.18165467120707035064697265625" lon="113.24962033890187740325927734375">
        <ele>16.799999237060546875</ele>
        <time>2018-09-24T09:50:32.000Z</time>
        <extensions>
          <ns3:TrackPointExtension>
            <ns3:hr>85</ns3:hr>
            <ns3:cad>0</ns3:cad>
          </ns3:TrackPointExtension>
        </extensions>
      </trkpt>
      <trkpt lat="23.18170529790222644805908203125" lon="113.249828629195690155029296875">
        <ele>16.3999996185302734375</ele>
        <time>2018-09-24T09:50:42.000Z</time>
        <extensions>
          <ns3:TrackPointExtension>
            <ns3:hr>83</ns3:hr>
            <ns3:cad>0</ns3:cad>
          </ns3:TrackPointExtension>
        </extensions>
      </trkpt>
      <trkpt lat="23.18173312582075595855712890625" lon="113.250026442110538482666015625">
        <ele>17.200000762939453125</ele>
        <time>2018-09-24T09:50:51.000Z</time>
        <extensions>
          <ns3:TrackPointExtension>
            <ns3:hr>81</ns3:hr>
            <ns3:cad>0</ns3:cad>
          </ns3:TrackPointExtension>
        </extensions>
      </trkpt>
      <trkpt lat="23.18176749162375926971435546875" lon="113.2502247579395771026611328125">
        <ele>16</ele>
        <time>2018-09-24T09:51:03.000Z</time>
        <extensions>
          <ns3:TrackPointExtension>
            <ns3:hr>79</ns3:hr>
            <ns3:cad>0</ns3:cad>
          </ns3:TrackPointExtension>
        </extensions>
      </trkpt>
      <trkpt lat="23.1818606145679950714111328125" lon="113.25039130635559558868408203125">
        <ele>16.6000003814697265625</ele>
        <time>2018-09-24T09:51:13.000Z</time>
        <extensions>
          <ns3:TrackPointExtension>
            <ns3:hr>76</ns3:hr>
            <ns3:cad>0</ns3:cad>
          </ns3:TrackPointExtension>
        </extensions>
      </trkpt>
      <trkpt lat="23.18180571310222148895263671875" lon="113.2505228184163570404052734375">
        <ele>17.200000762939453125</ele>
        <time>2018-09-24T09:51:19.000Z</time>
        <extensions>
          <ns3:TrackPointExtension>
            <ns3:hr>75</ns3:hr>
            <ns3:cad>0</ns3:cad>
          </ns3:TrackPointExtension>
        </extensions>
      </trkpt>
      <trkpt lat="23.1814914755523204803466796875" lon="113.2507725991308689117431640625">
        <ele>19.3999996185302734375</ele>
        <time>2018-09-24T09:51:29.000Z</time>
        <extensions>
          <ns3:TrackPointExtension>
            <ns3:hr>75</ns3:hr>
            <ns3:cad>0</ns3:cad>
          </ns3:TrackPointExtension>
        </extensions>
      </trkpt>
      <trkpt lat="23.18160287104547023773193359375" lon="113.25096999295055866241455078125">
        <ele>20.6000003814697265625</ele>
        <time>2018-09-24T09:51:40.000Z</time>
        <extensions>
          <ns3:TrackPointExtension>
            <ns3:hr>76</ns3:hr>
            <ns3:cad>61</ns3:cad>
          </ns3:TrackPointExtension>
        </extensions>
      </trkpt>
      <trkpt lat="23.18205331452190876007080078125" lon="113.25108490884304046630859375">
        <ele>19.3999996185302734375</ele>
        <time>2018-09-24T09:51:51.000Z</time>
        <extensions>
          <ns3:TrackPointExtension>
            <ns3:hr>76</ns3:hr>
            <ns3:cad>0</ns3:cad>
          </ns3:TrackPointExtension>
        </extensions>
      </trkpt>
      <trkpt lat="23.182236962020397186279296875" lon="113.25126470066606998443603515625">
        <ele>23</ele>
        <time>2018-09-24T09:52:04.000Z</time>
        <extensions>
          <ns3:TrackPointExtension>
            <ns3:hr>75</ns3:hr>
            <ns3:cad>61</ns3:cad>
          </ns3:TrackPointExtension>
        </extensions>
      </trkpt>
      <trkpt lat="23.18248414434492588043212890625" lon="113.25142663903534412384033203125">
        <ele>25.799999237060546875</ele>
        <time>2018-09-24T09:52:14.000Z</time>
        <extensions>
          <ns3:TrackPointExtension>
            <ns3:hr>77</ns3:hr>
            <ns3:cad>57</ns3:cad>
          </ns3:TrackPointExtension>
        </extensions>
      </trkpt>
      <trkpt lat="23.18264440633356571197509765625" lon="113.2515869848430156707763671875">
        <ele>28.6000003814697265625</ele>
        <time>2018-09-24T09:52:24.000Z</time>
        <extensions>
          <ns3:TrackPointExtension>
            <ns3:hr>76</ns3:hr>
            <ns3:cad>59</ns3:cad>
          </ns3:TrackPointExtension>
        </extensions>
      </trkpt>
      <trkpt lat="23.1827829591929912567138671875" lon="113.25176124460995197296142578125">
        <ele>29.200000762939453125</ele>
        <time>2018-09-24T09:52:34.000Z</time>
        <extensions>
          <ns3:TrackPointExtension>
            <ns3:hr>76</ns3:hr>
            <ns3:cad>59</ns3:cad>
          </ns3:TrackPointExtension>
        </extensions>
      </trkpt>
      <trkpt lat="23.182911537587642669677734375" lon="113.25192200951278209686279296875">
        <ele>29.799999237060546875</ele>
        <time>2018-09-24T09:52:45.000Z</time>
        <extensions>
          <ns3:TrackPointExtension>
            <ns3:hr>76</ns3:hr>
            <ns3:cad>0</ns3:cad>
          </ns3:TrackPointExtension>
        </extensions>
      </trkpt>
      <trkpt lat="23.1828944385051727294921875" lon="113.252082355320453643798828125">
        <ele>28.3999996185302734375</ele>
        <time>2018-09-24T09:52:53.000Z</time>
        <extensions>
          <ns3:TrackPointExtension>
            <ns3:hr>76</ns3:hr>
            <ns3:cad>0</ns3:cad>
          </ns3:TrackPointExtension>
        </extensions>
      </trkpt>
      <trkpt lat="23.18289519287645816802978515625" lon="113.25211311690509319305419921875">
        <ele>28.200000762939453125</ele>
        <time>2018-09-24T09:52:55.000Z</time>
        <extensions>
          <ns3:TrackPointExtension>
            <ns3:hr>76</ns3:hr>
            <ns3:cad>0</ns3:cad>
          </ns3:TrackPointExtension>
        </extensions>
      </trkpt>
      <trkpt lat="23.1829143874347209930419921875" lon="113.25231662951409816741943359375">
        <ele>28</ele>
        <time>2018-09-24T09:53:06.000Z</time>
        <extensions>
          <ns3:TrackPointExtension>
            <ns3:hr>75</ns3:hr>
            <ns3:cad>0</ns3:cad>
          </ns3:TrackPointExtension>
        </extensions>
      </trkpt>
      <trkpt lat="23.182920254766941070556640625" lon="113.25252391397953033447265625">
        <ele>27.3999996185302734375</ele>
        <time>2018-09-24T09:53:17.000Z</time>
        <extensions>
          <ns3:TrackPointExtension>
            <ns3:hr>73</ns3:hr>
            <ns3:cad>0</ns3:cad>
          </ns3:TrackPointExtension>
        </extensions>
      </trkpt>
      <trkpt lat="23.18287901580333709716796875" lon="113.2527369819581508636474609375">
        <ele>27.200000762939453125</ele>
        <time>2018-09-24T09:53:26.000Z</time>
        <extensions>
          <ns3:TrackPointExtension>
            <ns3:hr>73</ns3:hr>
            <ns3:cad>0</ns3:cad>
          </ns3:TrackPointExtension>
        </extensions>
      </trkpt>
      <trkpt lat="23.18283920176327228546142578125" lon="113.252940662205219268798828125">
        <ele>28.200000762939453125</ele>
        <time>2018-09-24T09:53:40.000Z</time>
        <extensions>
          <ns3:TrackPointExtension>
            <ns3:hr>74</ns3:hr>
            <ns3:cad>0</ns3:cad>
          </ns3:TrackPointExtension>
        </extensions>
      </trkpt>
      <trkpt lat="23.18286786787211894989013671875" lon="113.2530595175921916961669921875">
        <ele>27.799999237060546875</ele>
        <time>2018-09-24T09:53:48.000Z</time>
        <extensions>
          <ns3:TrackPointExtension>
            <ns3:hr>73</ns3:hr>
            <ns3:cad>0</ns3:cad>
          </ns3:TrackPointExtension>
        </extensions>
      </trkpt>
      <trkpt lat="23.18288664333522319793701171875" lon="113.25325221754610538482666015625">
        <ele>25.3999996185302734375</ele>
        <time>2018-09-24T09:53:58.000Z</time>
        <extensions>
          <ns3:TrackPointExtension>
            <ns3:hr>74</ns3:hr>
            <ns3:cad>0</ns3:cad>
          </ns3:TrackPointExtension>
        </extensions>
      </trkpt>
      <trkpt lat="23.18274222314357757568359375" lon="113.253472410142421722412109375">
        <ele>18.3999996185302734375</ele>
        <time>2018-09-24T09:54:08.000Z</time>
        <extensions>
          <ns3:TrackPointExtension>
            <ns3:hr>73</ns3:hr>
            <ns3:cad>61</ns3:cad>
          </ns3:TrackPointExtension>
        </extensions>
      </trkpt>
      <trkpt lat="23.18267642520368099212646484375" lon="113.25365580618381500244140625">
        <ele>16.6000003814697265625</ele>
        <time>2018-09-24T09:54:15.000Z</time>
        <extensions>
          <ns3:TrackPointExtension>
            <ns3:hr>73</ns3:hr>
            <ns3:cad>0</ns3:cad>
          </ns3:TrackPointExtension>
        </extensions>
      </trkpt>
      <trkpt lat="23.1826478429138660430908203125" lon="113.25388270430266857147216796875">
        <ele>17</ele>
        <time>2018-09-24T09:54:24.000Z</time>
        <extensions>
          <ns3:TrackPointExtension>
            <ns3:hr>73</ns3:hr>
            <ns3:cad>0</ns3:cad>
          </ns3:TrackPointExtension>
        </extensions>
      </trkpt>
      <trkpt lat="23.18261054344475269317626953125" lon="113.25409141369163990020751953125">
        <ele>16.799999237060546875</ele>
        <time>2018-09-24T09:54:33.000Z</time>
        <extensions>
          <ns3:TrackPointExtension>
            <ns3:hr>72</ns3:hr>
            <ns3:cad>59</ns3:cad>
          </ns3:TrackPointExtension>
        </extensions>
      </trkpt>
      <trkpt lat="23.1824450008571147918701171875" lon="113.25417489744722843170166015625">
        <ele>14.3999996185302734375</ele>
        <time>2018-09-24T09:54:42.000Z</time>
        <extensions>
          <ns3:TrackPointExtension>
            <ns3:hr>71</ns3:hr>
            <ns3:cad>61</ns3:cad>
          </ns3:TrackPointExtension>
        </extensions>
      </trkpt>
      <trkpt lat="23.1822488643229007720947265625" lon="113.254170119762420654296875">
        <ele>13</ele>
        <time>2018-09-24T09:54:48.000Z</time>
        <extensions>
          <ns3:TrackPointExtension>
            <ns3:hr>70</ns3:hr>
            <ns3:cad>55</ns3:cad>
          </ns3:TrackPointExtension>
        </extensions>
      </trkpt>
      <trkpt lat="23.1820262409746646881103515625" lon="113.25413801707327365875244140625">
        <ele>12</ele>
        <time>2018-09-24T09:54:54.000Z</time>
        <extensions>
          <ns3:TrackPointExtension>
            <ns3:hr>70</ns3:hr>
            <ns3:cad>58</ns3:cad>
          </ns3:TrackPointExtension>
        </extensions>
      </trkpt>
      <trkpt lat="23.1818066351115703582763671875" lon="113.25410465709865093231201171875">
        <ele>12</ele>
        <time>2018-09-24T09:54:59.000Z</time>
        <extensions>
          <ns3:TrackPointExtension>
            <ns3:hr>70</ns3:hr>
            <ns3:cad>57</ns3:cad>
          </ns3:TrackPointExtension>
        </extensions>
      </trkpt>
      <trkpt lat="23.18160907365381717681884765625" lon="113.25406643562018871307373046875">
        <ele>12.19999980926513671875</ele>
        <time>2018-09-24T09:55:04.000Z</time>
        <extensions>
          <ns3:TrackPointExtension>
            <ns3:hr>70</ns3:hr>
            <ns3:cad>61</ns3:cad>
          </ns3:TrackPointExtension>
        </extensions>
      </trkpt>
      <trkpt lat="23.18140656687319278717041015625" lon="113.2540462352335453033447265625">
        <ele>14</ele>
        <time>2018-09-24T09:55:10.000Z</time>
        <extensions>
          <ns3:TrackPointExtension>
            <ns3:hr>71</ns3:hr>
            <ns3:cad>0</ns3:cad>
          </ns3:TrackPointExtension>
        </extensions>
      </trkpt>
      <trkpt lat="23.18122409284114837646484375" lon="113.2540321536362171173095703125">
        <ele>16</ele>
        <time>2018-09-24T09:55:15.000Z</time>
        <extensions>
          <ns3:TrackPointExtension>
            <ns3:hr>71</ns3:hr>
            <ns3:cad>0</ns3:cad>
          </ns3:TrackPointExtension>
        </extensions>
      </trkpt>
      <trkpt lat="23.18102736957371234893798828125" lon="113.25402502901852130889892578125">
        <ele>18.200000762939453125</ele>
        <time>2018-09-24T09:55:20.000Z</time>
        <extensions>
          <ns3:TrackPointExtension>
            <ns3:hr>71</ns3:hr>
            <ns3:cad>0</ns3:cad>
          </ns3:TrackPointExtension>
        </extensions>
      </trkpt>
      <trkpt lat="23.18083609454333782196044921875" lon="113.25400893576443195343017578125">
        <ele>21.6000003814697265625</ele>
        <time>2018-09-24T09:55:25.000Z</time>
        <extensions>
          <ns3:TrackPointExtension>
            <ns3:hr>71</ns3:hr>
            <ns3:cad>57</ns3:cad>
          </ns3:TrackPointExtension>
        </extensions>
      </trkpt>
      <trkpt lat="23.18062839098274707794189453125" lon="113.25399485416710376739501953125">
        <ele>24.200000762939453125</ele>
        <time>2018-09-24T09:55:31.000Z</time>
        <extensions>
          <ns3:TrackPointExtension>
            <ns3:hr>72</ns3:hr>
            <ns3:cad>0</ns3:cad>
          </ns3:TrackPointExtension>
        </extensions>
      </trkpt>
      <trkpt lat="23.1804286502301692962646484375" lon="113.2539748214185237884521484375">
        <ele>26</ele>
        <time>2018-09-24T09:55:36.000Z</time>
        <extensions>
          <ns3:TrackPointExtension>
            <ns3:hr>71</ns3:hr>
            <ns3:cad>0</ns3:cad>
          </ns3:TrackPointExtension>
        </extensions>
      </trkpt>
      <trkpt lat="23.18022455088794231414794921875" lon="113.25397289358079433441162109375">
        <ele>26.799999237060546875</ele>
        <time>2018-09-24T09:55:42.000Z</time>
        <extensions>
          <ns3:TrackPointExtension>
            <ns3:hr>70</ns3:hr>
            <ns3:cad>0</ns3:cad>
          </ns3:TrackPointExtension>
        </extensions>
      </trkpt>
      <trkpt lat="23.18002690561115741729736328125" lon="113.25395629741251468658447265625">
        <ele>27.799999237060546875</ele>
        <time>2018-09-24T09:55:49.000Z</time>
        <extensions>
          <ns3:TrackPointExtension>
            <ns3:hr>70</ns3:hr>
            <ns3:cad>0</ns3:cad>
          </ns3:TrackPointExtension>
        </extensions>
      </trkpt>
      <trkpt lat="23.17983998917043209075927734375" lon="113.2539530284702777862548828125">
        <ele>25.6000003814697265625</ele>
        <time>2018-09-24T09:55:57.000Z</time>
        <extensions>
          <ns3:TrackPointExtension>
            <ns3:hr>68</ns3:hr>
            <ns3:cad>61</ns3:cad>
          </ns3:TrackPointExtension>
        </extensions>
      </trkpt>
      <trkpt lat="23.17963278852403163909912109375" lon="113.25398110784590244293212890625">
        <ele>19.6000003814697265625</ele>
        <time>2018-09-24T09:56:03.000Z</time>
        <extensions>
          <ns3:TrackPointExtension>
            <ns3:hr>67</ns3:hr>
            <ns3:cad>0</ns3:cad>
          </ns3:TrackPointExtension>
        </extensions>
      </trkpt>
      <trkpt lat="23.17942491732537746429443359375" lon="113.25401119887828826904296875">
        <ele>14</ele>
        <time>2018-09-24T09:56:10.000Z</time>
        <extensions>
          <ns3:TrackPointExtension>
            <ns3:hr>67</ns3:hr>
            <ns3:cad>61</ns3:cad>
          </ns3:TrackPointExtension>
        </extensions>
      </trkpt>
      <trkpt lat="23.17922090180218219757080078125" lon="113.25405134819447994232177734375">
        <ele>8.80000019073486328125</ele>
        <time>2018-09-24T09:56:16.000Z</time>
        <extensions>
          <ns3:TrackPointExtension>
            <ns3:hr>68</ns3:hr>
            <ns3:cad>64</ns3:cad>
          </ns3:TrackPointExtension>
        </extensions>
      </trkpt>
      <trkpt lat="23.17903138697147369384765625" lon="113.25405671261250972747802734375">
        <ele>5.400000095367431640625</ele>
        <time>2018-09-24T09:56:23.000Z</time>
        <extensions>
          <ns3:TrackPointExtension>
            <ns3:hr>68</ns3:hr>
            <ns3:cad>61</ns3:cad>
          </ns3:TrackPointExtension>
        </extensions>
      </trkpt>
      <trkpt lat="23.178948573768138885498046875" lon="113.2540351711213588714599609375">
        <ele>5.19999980926513671875</ele>
        <time>2018-09-24T09:56:32.000Z</time>
        <extensions>
          <ns3:TrackPointExtension>
            <ns3:hr>68</ns3:hr>
            <ns3:cad>0</ns3:cad>
          </ns3:TrackPointExtension>
        </extensions>
      </trkpt>
      <trkpt lat="23.17889601923525333404541015625" lon="113.25405302457511425018310546875">
        <ele>4.599999904632568359375</ele>
        <time>2018-09-24T09:56:36.000Z</time>
        <extensions>
          <ns3:TrackPointExtension>
            <ns3:hr>68</ns3:hr>
            <ns3:cad>61</ns3:cad>
          </ns3:TrackPointExtension>
        </extensions>
      </trkpt>
      <trkpt lat="23.1786557100713253021240234375" lon="113.25412158854305744171142578125">
        <ele>6.80000019073486328125</ele>
        <time>2018-09-24T09:56:37.000Z</time>
        <extensions>
          <ns3:TrackPointExtension>
            <ns3:hr>69</ns3:hr>
            <ns3:cad>61</ns3:cad>
          </ns3:TrackPointExtension>
        </extensions>
      </trkpt>
      <trkpt lat="23.17844674922525882720947265625" lon="113.25418126769363880157470703125">
        <ele>10.80000019073486328125</ele>
        <time>2018-09-24T09:56:38.000Z</time>
        <extensions>
          <ns3:TrackPointExtension>
            <ns3:hr>69</ns3:hr>
            <ns3:cad>61</ns3:cad>
          </ns3:TrackPointExtension>
        </extensions>
      </trkpt>
      <trkpt lat="23.178255222737789154052734375" lon="113.2541957683861255645751953125">
        <ele>13.80000019073486328125</ele>
        <time>2018-09-24T09:56:45.000Z</time>
        <extensions>
          <ns3:TrackPointExtension>
            <ns3:hr>69</ns3:hr>
            <ns3:cad>0</ns3:cad>
          </ns3:TrackPointExtension>
        </extensions>
      </trkpt>
      <trkpt lat="23.17803083918988704681396484375" lon="113.25423893518745899200439453125">
        <ele>16.799999237060546875</ele>
        <time>2018-09-24T09:56:49.000Z</time>
        <extensions>
          <ns3:TrackPointExtension>
            <ns3:hr>69</ns3:hr>
            <ns3:cad>59</ns3:cad>
          </ns3:TrackPointExtension>
        </extensions>
      </trkpt>
      <trkpt lat="23.177823722362518310546875" lon="113.25426743365824222564697265625">
        <ele>18.200000762939453125</ele>
        <time>2018-09-24T09:56:54.000Z</time>
        <extensions>
          <ns3:TrackPointExtension>
            <ns3:hr>69</ns3:hr>
            <ns3:cad>59</ns3:cad>
          </ns3:TrackPointExtension>
        </extensions>
      </trkpt>
      <trkpt lat="23.1776247359812259674072265625" lon="113.25434052385389804840087890625">
        <ele>19.200000762939453125</ele>
        <time>2018-09-24T09:57:03.000Z</time>
        <extensions>
          <ns3:TrackPointExtension>
            <ns3:hr>69</ns3:hr>
            <ns3:cad>0</ns3:cad>
          </ns3:TrackPointExtension>
        </extensions>
      </trkpt>
      <trkpt lat="23.17744092084467411041259765625" lon="113.25438125990331172943115234375">
        <ele>19</ele>
        <time>2018-09-24T09:57:09.000Z</time>
        <extensions>
          <ns3:TrackPointExtension>
            <ns3:hr>70</ns3:hr>
            <ns3:cad>61</ns3:cad>
          </ns3:TrackPointExtension>
        </extensions>
      </trkpt>
      <trkpt lat="23.1772485561668872833251953125" lon="113.2543962635099887847900390625">
        <ele>17.200000762939453125</ele>
        <time>2018-09-24T09:57:17.000Z</time>
        <extensions>
          <ns3:TrackPointExtension>
            <ns3:hr>71</ns3:hr>
            <ns3:cad>0</ns3:cad>
          </ns3:TrackPointExtension>
        </extensions>
      </trkpt>
      <trkpt lat="23.1770510785281658172607421875" lon="113.25433046557009220123291015625">
        <ele>14.6000003814697265625</ele>
        <time>2018-09-24T09:57:26.000Z</time>
        <extensions>
          <ns3:TrackPointExtension>
            <ns3:hr>71</ns3:hr>
            <ns3:cad>0</ns3:cad>
          </ns3:TrackPointExtension>
        </extensions>
      </trkpt>
      <trkpt lat="23.176858127117156982421875" lon="113.2543385960161685943603515625">
        <ele>14</ele>
        <time>2018-09-24T09:57:32.000Z</time>
        <extensions>
          <ns3:TrackPointExtension>
            <ns3:hr>72</ns3:hr>
            <ns3:cad>0</ns3:cad>
          </ns3:TrackPointExtension>
        </extensions>
      </trkpt>
      <trkpt lat="23.17666660062968730926513671875" lon="113.25434203259646892547607421875">
        <ele>13.3999996185302734375</ele>
        <time>2018-09-24T09:57:40.000Z</time>
        <extensions>
          <ns3:TrackPointExtension>
            <ns3:hr>74</ns3:hr>
            <ns3:cad>0</ns3:cad>
          </ns3:TrackPointExtension>
        </extensions>
      </trkpt>
      <trkpt lat="23.1764787621796131134033203125" lon="113.25436868704855442047119140625">
        <ele>12.6000003814697265625</ele>
        <time>2018-09-24T09:57:47.000Z</time>
        <extensions>
          <ns3:TrackPointExtension>
            <ns3:hr>75</ns3:hr>
            <ns3:cad>0</ns3:cad>
          </ns3:TrackPointExtension>
        </extensions>
      </trkpt>
      <trkpt lat="23.1764606572687625885009765625" lon="113.25437463819980621337890625">
        <ele>12.6000003814697265625</ele>
        <time>2018-09-24T09:57:48.000Z</time>
        <extensions>
          <ns3:TrackPointExtension>
            <ns3:hr>79</ns3:hr>
            <ns3:cad>0</ns3:cad>
          </ns3:TrackPointExtension>
        </extensions>
      </trkpt>
      <trkpt lat="23.17640877328813076019287109375" lon="113.25438193045556545257568359375">
        <ele>12.3999996185302734375</ele>
        <time>2018-09-24T09:57:50.000Z</time>
        <extensions>
          <ns3:TrackPointExtension>
            <ns3:hr>82</ns3:hr>
            <ns3:cad>0</ns3:cad>
          </ns3:TrackPointExtension>
        </extensions>
      </trkpt>
      <trkpt lat="23.17620727233588695526123046875" lon="113.25440757907927036285400390625">
        <ele>12.6000003814697265625</ele>
        <time>2018-09-24T09:57:58.000Z</time>
        <extensions>
          <ns3:TrackPointExtension>
            <ns3:hr>84</ns3:hr>
            <ns3:cad>61</ns3:cad>
          </ns3:TrackPointExtension>
        </extensions>
      </trkpt>
      <trkpt lat="23.176023960113525390625" lon="113.25441579334437847137451171875">
        <ele>13</ele>
        <time>2018-09-24T09:58:10.000Z</time>
        <extensions>
          <ns3:TrackPointExtension>
            <ns3:hr>83</ns3:hr>
            <ns3:cad>61</ns3:cad>
          </ns3:TrackPointExtension>
        </extensions>
      </trkpt>
      <trkpt lat="23.1758692301809787750244140625" lon="113.25438536703586578369140625">
        <ele>14.6000003814697265625</ele>
        <time>2018-09-24T09:58:20.000Z</time>
        <extensions>
          <ns3:TrackPointExtension>
            <ns3:hr>80</ns3:hr>
            <ns3:cad>61</ns3:cad>
          </ns3:TrackPointExtension>
        </extensions>
      </trkpt>
      <trkpt lat="23.1756844930350780487060546875" lon="113.2543872110545635223388671875">
        <ele>15.80000019073486328125</ele>
        <time>2018-09-24T09:58:31.000Z</time>
        <extensions>
          <ns3:TrackPointExtension>
            <ns3:hr>80</ns3:hr>
            <ns3:cad>61</ns3:cad>
          </ns3:TrackPointExtension>
        </extensions>
      </trkpt>
      <trkpt lat="23.175492547452449798583984375" lon="113.2544321380555629730224609375">
        <ele>15.19999980926513671875</ele>
        <time>2018-09-24T09:58:39.000Z</time>
        <extensions>
          <ns3:TrackPointExtension>
            <ns3:hr>79</ns3:hr>
            <ns3:cad>61</ns3:cad>
          </ns3:TrackPointExtension>
        </extensions>
      </trkpt>
      <trkpt lat="23.175303451716899871826171875" lon="113.2544428668916225433349609375">
        <ele>10.80000019073486328125</ele>
        <time>2018-09-24T09:58:47.000Z</time>
        <extensions>
          <ns3:TrackPointExtension>
            <ns3:hr>77</ns3:hr>
            <ns3:cad>0</ns3:cad>
          </ns3:TrackPointExtension>
        </extensions>
      </trkpt>
      <trkpt lat="23.1751426868140697479248046875" lon="113.25439014472067356109619140625">
        <ele>8</ele>
        <time>2018-09-24T09:58:58.000Z</time>
        <extensions>
          <ns3:TrackPointExtension>
            <ns3:hr>78</ns3:hr>
            <ns3:cad>0</ns3:cad>
          </ns3:TrackPointExtension>
        </extensions>
      </trkpt>
      <trkpt lat="23.17491017282009124755859375" lon="113.25432275421917438507080078125">
        <ele>4.19999980926513671875</ele>
        <time>2018-09-24T09:59:08.000Z</time>
        <extensions>
          <ns3:TrackPointExtension>
            <ns3:hr>79</ns3:hr>
            <ns3:cad>61</ns3:cad>
          </ns3:TrackPointExtension>
        </extensions>
      </trkpt>
      <trkpt lat="23.174728117883205413818359375" lon="113.25430464930832386016845703125">
        <ele>4.400000095367431640625</ele>
        <time>2018-09-24T09:59:14.000Z</time>
        <extensions>
          <ns3:TrackPointExtension>
            <ns3:hr>80</ns3:hr>
            <ns3:cad>61</ns3:cad>
          </ns3:TrackPointExtension>
        </extensions>
      </trkpt>
      <trkpt lat="23.17467740736901760101318359375" lon="113.25428545475006103515625">
        <ele>4.80000019073486328125</ele>
        <time>2018-09-24T09:59:16.000Z</time>
        <extensions>
          <ns3:TrackPointExtension>
            <ns3:hr>83</ns3:hr>
            <ns3:cad>61</ns3:cad>
          </ns3:TrackPointExtension>
        </extensions>
      </trkpt>
      <trkpt lat="23.1745988689363002777099609375" lon="113.25426123104989528656005859375">
        <ele>5.400000095367431640625</ele>
        <time>2018-09-24T09:59:19.000Z</time>
        <extensions>
          <ns3:TrackPointExtension>
            <ns3:hr>83</ns3:hr>
            <ns3:cad>61</ns3:cad>
          </ns3:TrackPointExtension>
        </extensions>
      </trkpt>
      <trkpt lat="23.17441874183714389801025390625" lon="113.25422233901917934417724609375">
        <ele>7</ele>
        <time>2018-09-24T09:59:27.000Z</time>
        <extensions>
          <ns3:TrackPointExtension>
            <ns3:hr>88</ns3:hr>
            <ns3:cad>0</ns3:cad>
          </ns3:TrackPointExtension>
        </extensions>
      </trkpt>
      <trkpt lat="23.17438890226185321807861328125" lon="113.254014886915683746337890625">
        <ele>9</ele>
        <time>2018-09-24T09:59:38.000Z</time>
        <extensions>
          <ns3:TrackPointExtension>
            <ns3:hr>88</ns3:hr>
            <ns3:cad>61</ns3:cad>
          </ns3:TrackPointExtension>
        </extensions>
      </trkpt>
      <trkpt lat="23.17442812956869602203369140625" lon="113.25396970845758914947509765625">
        <ele>9.6000003814697265625</ele>
        <time>2018-09-24T09:59:39.000Z</time>
        <extensions>
          <ns3:TrackPointExtension>
            <ns3:hr>87</ns3:hr>
            <ns3:cad>61</ns3:cad>
          </ns3:TrackPointExtension>
        </extensions>
      </trkpt>
      <trkpt lat="23.17447490058839321136474609375" lon="113.25376066379249095916748046875">
        <ele>13</ele>
        <time>2018-09-24T09:59:50.000Z</time>
        <extensions>
          <ns3:TrackPointExtension>
            <ns3:hr>89</ns3:hr>
            <ns3:cad>0</ns3:cad>
          </ns3:TrackPointExtension>
        </extensions>
      </trkpt>
      <trkpt lat="23.1745609827339649200439453125" lon="113.25355513952672481536865234375">
        <ele>18.799999237060546875</ele>
        <time>2018-09-24T10:00:01.000Z</time>
        <extensions>
          <ns3:TrackPointExtension>
            <ns3:hr>87</ns3:hr>
            <ns3:cad>0</ns3:cad>
          </ns3:TrackPointExtension>
        </extensions>
      </trkpt>
      <trkpt lat="23.1747137010097503662109375" lon="113.25342739932239055633544921875">
        <ele>17.6000003814697265625</ele>
        <time>2018-09-24T10:00:07.000Z</time>
        <extensions>
          <ns3:TrackPointExtension>
            <ns3:hr>87</ns3:hr>
            <ns3:cad>0</ns3:cad>
          </ns3:TrackPointExtension>
        </extensions>
      </trkpt>
    </trkseg>
  </trk>
</gpx>
