<gpx xmlns:ns3="http://www.garmin.com/xmlschemas/TrackPointExtension/v1" xmlns="http://www.topografix.com/GPX/1/1" xmlns:xsi="http://www.w3.org/2001/XMLSchema-instance" xmlns:ns2="http://www.garmin.com/xmlschemas/GpxExtensions/v3" creator="Garmin Connect" version="1.1" xsi:schemaLocation="http://www.topografix.com/GPX/1/1 http://www.topografix.com/GPX/11.xsd">
  <extensions>
<distance>2001.02</distance>
<average_hr>149.0</average_hr>
<average_speed>2.0239999294281006</average_speed>
<start_time>2020-09-15T13:08:59+00:00</start_time>
<end_time>2020-09-15T13:25:27.788000+00:00</end_time>
<moving_time>988.0</moving_time>
<elapsed_time>1249.079</elapsed_time>
</extensions>
<metadata>
    <link href="connect.garmin.com">
      <text>Garmin Connect</text>
    </link>
    <time>2020-09-15T13:08:59.000Z</time>
  </metadata>
  <trk>
    <name>广州市 跑步</name>
    <type>running</type>
    <trkseg>
      <trkpt lat="23.1878047250211238861083984375" lon="113.25481795705854892730712890625">
        <ele>19</ele>
        <time>2020-09-15T13:24:40.000Z</time>
        <extensions>
          <ns3:TrackPointExtension>
            <ns3:hr>134</ns3:hr>
            <ns3:cad>0</ns3:cad>
          </ns3:TrackPointExtension>
        </extensions>
      </trkpt>
      <trkpt lat="23.18778611719608306884765625" lon="113.2548200525343418121337890625">
        <ele>18.6000003814697265625</ele>
        <time>2020-09-15T13:24:41.000Z</time>
        <extensions>
          <ns3:TrackPointExtension>
            <ns3:hr>134</ns3:hr>
            <ns3:cad>0</ns3:cad>
          </ns3:TrackPointExtension>
        </extensions>
      </trkpt>
      <trkpt lat="23.1876045651733875274658203125" lon="113.2548073120415210723876953125">
        <ele>16.799999237060546875</ele>
        <time>2020-09-15T13:24:50.000Z</time>
        <extensions>
          <ns3:TrackPointExtension>
            <ns3:hr>135</ns3:hr>
            <ns3:cad>81</ns3:cad>
          </ns3:TrackPointExtension>
        </extensions>
      </trkpt>
      <trkpt lat="23.18754471838474273681640625" lon="113.2548009417951107025146484375">
        <ele>16</ele>
        <time>2020-09-15T13:24:53.000Z</time>
        <extensions>
          <ns3:TrackPointExtension>
            <ns3:hr>139</ns3:hr>
            <ns3:cad>81</ns3:cad>
          </ns3:TrackPointExtension>
        </extensions>
      </trkpt>
      <trkpt lat="23.18753055296838283538818359375" lon="113.2547990977764129638671875">
        <ele>15.80000019073486328125</ele>
        <time>2020-09-15T13:24:54.000Z</time>
        <extensions>
          <ns3:TrackPointExtension>
            <ns3:hr>144</ns3:hr>
            <ns3:cad>81</ns3:cad>
          </ns3:TrackPointExtension>
        </extensions>
      </trkpt>
      <trkpt lat="23.187518902122974395751953125" lon="113.254785351455211639404296875">
        <ele>16</ele>
        <time>2020-09-15T13:24:55.000Z</time>
        <extensions>
          <ns3:TrackPointExtension>
            <ns3:hr>148</ns3:hr>
            <ns3:cad>81</ns3:cad>
          </ns3:TrackPointExtension>
        </extensions>
      </trkpt>
      <trkpt lat="23.1874835304915904998779296875" lon="113.2547694258391857147216796875">
        <ele>16</ele>
        <time>2020-09-15T13:24:57.000Z</time>
        <extensions>
          <ns3:TrackPointExtension>
            <ns3:hr>151</ns3:hr>
            <ns3:cad>80</ns3:cad>
          </ns3:TrackPointExtension>
        </extensions>
      </trkpt>
      <trkpt lat="23.1874114461243152618408203125" lon="113.25474134646356105804443359375">
        <ele>15.3999996185302734375</ele>
        <time>2020-09-15T13:25:02.000Z</time>
        <extensions>
          <ns3:TrackPointExtension>
            <ns3:hr>154</ns3:hr>
            <ns3:cad>80</ns3:cad>
          </ns3:TrackPointExtension>
        </extensions>
      </trkpt>
      <trkpt lat="23.1873806007206439971923828125" lon="113.25471536256372928619384765625">
        <ele>15.6000003814697265625</ele>
        <time>2020-09-15T13:25:04.000Z</time>
        <extensions>
          <ns3:TrackPointExtension>
            <ns3:hr>157</ns3:hr>
            <ns3:cad>80</ns3:cad>
          </ns3:TrackPointExtension>
        </extensions>
      </trkpt>
      <trkpt lat="23.187368027865886688232421875" lon="113.25470396317541599273681640625">
        <ele>15.80000019073486328125</ele>
        <time>2020-09-15T13:25:05.000Z</time>
        <extensions>
          <ns3:TrackPointExtension>
            <ns3:hr>161</ns3:hr>
            <ns3:cad>80</ns3:cad>
          </ns3:TrackPointExtension>
        </extensions>
      </trkpt>
      <trkpt lat="23.18734933622181415557861328125" lon="113.2546963356435298919677734375">
        <ele>15.3999996185302734375</ele>
        <time>2020-09-15T13:25:06.000Z</time>
        <extensions>
          <ns3:TrackPointExtension>
            <ns3:hr>165</ns3:hr>
            <ns3:cad>81</ns3:cad>
          </ns3:TrackPointExtension>
        </extensions>
      </trkpt>
      <trkpt lat="23.187215141952037811279296875" lon="113.25470278970897197723388671875">
        <ele>11.3999996185302734375</ele>
        <time>2020-09-15T13:25:10.000Z</time>
        <extensions>
          <ns3:TrackPointExtension>
            <ns3:hr>162</ns3:hr>
            <ns3:cad>80</ns3:cad>
          </ns3:TrackPointExtension>
        </extensions>
      </trkpt>
      <trkpt lat="23.18715370260179042816162109375" lon="113.254696838557720184326171875">
        <ele>10.19999980926513671875</ele>
        <time>2020-09-15T13:25:12.000Z</time>
        <extensions>
          <ns3:TrackPointExtension>
            <ns3:hr>165</ns3:hr>
            <ns3:cad>80</ns3:cad>
          </ns3:TrackPointExtension>
        </extensions>
      </trkpt>
      <trkpt lat="23.18712495267391204833984375" lon="113.254695832729339599609375">
        <ele>9.80000019073486328125</ele>
        <time>2020-09-15T13:25:14.000Z</time>
        <extensions>
          <ns3:TrackPointExtension>
            <ns3:hr>169</ns3:hr>
            <ns3:cad>80</ns3:cad>
          </ns3:TrackPointExtension>
        </extensions>
      </trkpt>
      <trkpt lat="23.187096454203128814697265625" lon="113.25469524599611759185791015625">
        <ele>9.19999980926513671875</ele>
        <time>2020-09-15T13:25:15.000Z</time>
        <extensions>
          <ns3:TrackPointExtension>
            <ns3:hr>169</ns3:hr>
            <ns3:cad>80</ns3:cad>
          </ns3:TrackPointExtension>
        </extensions>
      </trkpt>
      <trkpt lat="23.18696267902851104736328125" lon="113.2547218166291713714599609375">
        <ele>5.80000019073486328125</ele>
        <time>2020-09-15T13:25:20.000Z</time>
        <extensions>
          <ns3:TrackPointExtension>
            <ns3:hr>172</ns3:hr>
            <ns3:cad>80</ns3:cad>
          </ns3:TrackPointExtension>
        </extensions>
      </trkpt>
      <trkpt lat="23.18686251528561115264892578125" lon="113.254776298999786376953125">
        <ele>6.19999980926513671875</ele>
        <time>2020-09-15T13:25:27.000Z</time>
        <extensions>
          <ns3:TrackPointExtension>
            <ns3:hr>168</ns3:hr>
            <ns3:cad>80</ns3:cad>
          </ns3:TrackPointExtension>
        </extensions>
      </trkpt>
      <trkpt lat="23.1868411414325237274169921875" lon="113.25478233397006988525390625">
        <ele>6.400000095367431640625</ele>
        <time>2020-09-15T13:25:30.000Z</time>
        <extensions>
          <ns3:TrackPointExtension>
            <ns3:hr>173</ns3:hr>
            <ns3:cad>80</ns3:cad>
          </ns3:TrackPointExtension>
        </extensions>
      </trkpt>
      <trkpt lat="23.1867583282291889190673828125" lon="113.2547017000615596771240234375">
        <ele>5.599999904632568359375</ele>
        <time>2020-09-15T13:25:36.000Z</time>
        <extensions>
          <ns3:TrackPointExtension>
            <ns3:hr>176</ns3:hr>
            <ns3:cad>81</ns3:cad>
          </ns3:TrackPointExtension>
        </extensions>
      </trkpt>
      <trkpt lat="23.1867380440235137939453125" lon="113.2546634785830974578857421875">
        <ele>5.19999980926513671875</ele>
        <time>2020-09-15T13:25:39.000Z</time>
        <extensions>
          <ns3:TrackPointExtension>
            <ns3:hr>173</ns3:hr>
            <ns3:cad>61</ns3:cad>
          </ns3:TrackPointExtension>
        </extensions>
      </trkpt>
      <trkpt lat="23.18672790192067623138427734375" lon="113.25465266592800617218017578125">
        <ele>5</ele>
        <time>2020-09-15T13:25:40.000Z</time>
        <extensions>
          <ns3:TrackPointExtension>
            <ns3:hr>170</ns3:hr>
            <ns3:cad>61</ns3:cad>
          </ns3:TrackPointExtension>
        </extensions>
      </trkpt>
      <trkpt lat="23.1866963021457195281982421875" lon="113.2546272687613964080810546875">
        <ele>5.19999980926513671875</ele>
        <time>2020-09-15T13:25:43.000Z</time>
        <extensions>
          <ns3:TrackPointExtension>
            <ns3:hr>175</ns3:hr>
            <ns3:cad>60</ns3:cad>
          </ns3:TrackPointExtension>
        </extensions>
      </trkpt>
      <trkpt lat="23.18665883503854274749755859375" lon="113.25461260043084621429443359375">
        <ele>5.400000095367431640625</ele>
        <time>2020-09-15T13:25:46.000Z</time>
        <extensions>
          <ns3:TrackPointExtension>
            <ns3:hr>178</ns3:hr>
            <ns3:cad>60</ns3:cad>
          </ns3:TrackPointExtension>
        </extensions>
      </trkpt>
      <trkpt lat="23.18664341233670711517333984375" lon="113.2546175457537174224853515625">
        <ele>5.400000095367431640625</ele>
        <time>2020-09-15T13:25:47.000Z</time>
        <extensions>
          <ns3:TrackPointExtension>
            <ns3:hr>175</ns3:hr>
            <ns3:cad>59</ns3:cad>
          </ns3:TrackPointExtension>
        </extensions>
      </trkpt>
      <trkpt lat="23.18662111647427082061767578125" lon="113.2546279393136501312255859375">
        <ele>5.19999980926513671875</ele>
        <time>2020-09-15T13:25:48.000Z</time>
        <extensions>
          <ns3:TrackPointExtension>
            <ns3:hr>175</ns3:hr>
            <ns3:cad>58</ns3:cad>
          </ns3:TrackPointExtension>
        </extensions>
      </trkpt>
      <trkpt lat="23.18655724637210369110107421875" lon="113.2546188868582248687744140625">
        <ele>5.19999980926513671875</ele>
        <time>2020-09-15T13:25:52.000Z</time>
        <extensions>
          <ns3:TrackPointExtension>
            <ns3:hr>174</ns3:hr>
            <ns3:cad>58</ns3:cad>
          </ns3:TrackPointExtension>
        </extensions>
      </trkpt>
      <trkpt lat="23.1864766962826251983642578125" lon="113.2545947469770908355712890625">
        <ele>5</ele>
        <time>2020-09-15T13:25:58.000Z</time>
        <extensions>
          <ns3:TrackPointExtension>
            <ns3:hr>171</ns3:hr>
            <ns3:cad>60</ns3:cad>
          </ns3:TrackPointExtension>
        </extensions>
      </trkpt>
      <trkpt lat="23.1864384748041629791259765625" lon="113.25458946637809276580810546875">
        <ele>5</ele>
        <time>2020-09-15T13:26:01.000Z</time>
        <extensions>
          <ns3:TrackPointExtension>
            <ns3:hr>168</ns3:hr>
            <ns3:cad>57</ns3:cad>
          </ns3:TrackPointExtension>
        </extensions>
      </trkpt>
      <trkpt lat="23.18637720309197902679443359375" lon="113.25456566177308559417724609375">
        <ele>5</ele>
        <time>2020-09-15T13:26:06.000Z</time>
        <extensions>
          <ns3:TrackPointExtension>
            <ns3:hr>165</ns3:hr>
            <ns3:cad>57</ns3:cad>
          </ns3:TrackPointExtension>
        </extensions>
      </trkpt>
      <trkpt lat="23.18636580370366573333740234375" lon="113.25456733815371990203857421875">
        <ele>5</ele>
        <time>2020-09-15T13:26:07.000Z</time>
        <extensions>
          <ns3:TrackPointExtension>
            <ns3:hr>164</ns3:hr>
            <ns3:cad>57</ns3:cad>
          </ns3:TrackPointExtension>
        </extensions>
      </trkpt>
      <trkpt lat="23.18632087670266628265380859375" lon="113.2545414380729198455810546875">
        <ele>5</ele>
        <time>2020-09-15T13:26:11.000Z</time>
        <extensions>
          <ns3:TrackPointExtension>
            <ns3:hr>161</ns3:hr>
            <ns3:cad>61</ns3:cad>
          </ns3:TrackPointExtension>
        </extensions>
      </trkpt>
      <trkpt lat="23.18619732744991779327392578125" lon="113.2545229978859424591064453125">
        <ele>3.400000095367431640625</ele>
        <time>2020-09-15T13:26:20.000Z</time>
        <extensions>
          <ns3:TrackPointExtension>
            <ns3:hr>158</ns3:hr>
            <ns3:cad>61</ns3:cad>
          </ns3:TrackPointExtension>
        </extensions>
      </trkpt>
      <trkpt lat="23.18613429553806781768798828125" lon="113.2544944994151592254638671875">
        <ele>2.7999999523162841796875</ele>
        <time>2020-09-15T13:26:25.000Z</time>
        <extensions>
          <ns3:TrackPointExtension>
            <ns3:hr>155</ns3:hr>
            <ns3:cad>58</ns3:cad>
          </ns3:TrackPointExtension>
        </extensions>
      </trkpt>
      <trkpt lat="23.18597587756812572479248046875" lon="113.25447245500981807708740234375">
        <ele>3.2000000476837158203125</ele>
        <time>2020-09-15T13:26:36.000Z</time>
        <extensions>
          <ns3:TrackPointExtension>
            <ns3:hr>152</ns3:hr>
            <ns3:cad>61</ns3:cad>
          </ns3:TrackPointExtension>
        </extensions>
      </trkpt>
      <trkpt lat="23.185953833162784576416015625" lon="113.25447161681950092315673828125">
        <ele>3.400000095367431640625</ele>
        <time>2020-09-15T13:26:38.000Z</time>
        <extensions>
          <ns3:TrackPointExtension>
            <ns3:hr>152</ns3:hr>
            <ns3:cad>61</ns3:cad>
          </ns3:TrackPointExtension>
        </extensions>
      </trkpt>
      <trkpt lat="23.1858985126018524169921875" lon="113.2544867880642414093017578125">
        <ele>4.400000095367431640625</ele>
        <time>2020-09-15T13:26:43.000Z</time>
        <extensions>
          <ns3:TrackPointExtension>
            <ns3:hr>151</ns3:hr>
            <ns3:cad>61</ns3:cad>
          </ns3:TrackPointExtension>
        </extensions>
      </trkpt>
      <trkpt lat="23.18584126420319080352783203125" lon="113.25450246222317218780517578125">
        <ele>5.400000095367431640625</ele>
        <time>2020-09-15T13:26:49.000Z</time>
        <extensions>
          <ns3:TrackPointExtension>
            <ns3:hr>149</ns3:hr>
            <ns3:cad>61</ns3:cad>
          </ns3:TrackPointExtension>
        </extensions>
      </trkpt>
      <trkpt lat="23.1857464648783206939697265625" lon="113.2545417733490467071533203125">
        <ele>8.19999980926513671875</ele>
        <time>2020-09-15T13:26:59.000Z</time>
        <extensions>
          <ns3:TrackPointExtension>
            <ns3:hr>146</ns3:hr>
            <ns3:cad>55</ns3:cad>
          </ns3:TrackPointExtension>
        </extensions>
      </trkpt>
      <trkpt lat="23.18559835664927959442138671875" lon="113.25453146360814571380615234375">
        <ele>8.80000019073486328125</ele>
        <time>2020-09-15T13:27:14.000Z</time>
        <extensions>
          <ns3:TrackPointExtension>
            <ns3:hr>143</ns3:hr>
            <ns3:cad>57</ns3:cad>
          </ns3:TrackPointExtension>
        </extensions>
      </trkpt>
      <trkpt lat="23.18545184098184108734130859375" lon="113.25452224351465702056884765625">
        <ele>8.80000019073486328125</ele>
        <time>2020-09-15T13:27:27.000Z</time>
        <extensions>
          <ns3:TrackPointExtension>
            <ns3:hr>143</ns3:hr>
            <ns3:cad>57</ns3:cad>
          </ns3:TrackPointExtension>
        </extensions>
      </trkpt>
      <trkpt lat="23.1853122822940349578857421875" lon="113.2545300386846065521240234375">
        <ele>6.599999904632568359375</ele>
        <time>2020-09-15T13:27:37.000Z</time>
        <extensions>
          <ns3:TrackPointExtension>
            <ns3:hr>140</ns3:hr>
            <ns3:cad>59</ns3:cad>
          </ns3:TrackPointExtension>
        </extensions>
      </trkpt>
      <trkpt lat="23.18530180491507053375244140625" lon="113.2545228302478790283203125">
        <ele>6.19999980926513671875</ele>
        <time>2020-09-15T13:27:38.000Z</time>
        <extensions>
          <ns3:TrackPointExtension>
            <ns3:hr>140</ns3:hr>
            <ns3:cad>59</ns3:cad>
          </ns3:TrackPointExtension>
        </extensions>
      </trkpt>
      <trkpt lat="23.18527598865330219268798828125" lon="113.25452475808560848236083984375">
        <ele>5.80000019073486328125</ele>
        <time>2020-09-15T13:27:40.000Z</time>
        <extensions>
          <ns3:TrackPointExtension>
            <ns3:hr>140</ns3:hr>
            <ns3:cad>57</ns3:cad>
          </ns3:TrackPointExtension>
        </extensions>
      </trkpt>
      <trkpt lat="23.18511405028402805328369140625" lon="113.2545317150652408599853515625">
        <ele>5</ele>
        <time>2020-09-15T13:27:50.000Z</time>
        <extensions>
          <ns3:TrackPointExtension>
            <ns3:hr>139</ns3:hr>
            <ns3:cad>59</ns3:cad>
          </ns3:TrackPointExtension>
        </extensions>
      </trkpt>
      <trkpt lat="23.184966109693050384521484375" lon="113.25455057434737682342529296875">
        <ele>5</ele>
        <time>2020-09-15T13:28:04.000Z</time>
        <extensions>
          <ns3:TrackPointExtension>
            <ns3:hr>138</ns3:hr>
            <ns3:cad>56</ns3:cad>
          </ns3:TrackPointExtension>
        </extensions>
      </trkpt>
      <trkpt lat="23.18478363566100597381591796875" lon="113.2544981874525547027587890625">
        <ele>6.599999904632568359375</ele>
        <time>2020-09-15T13:28:18.000Z</time>
        <extensions>
          <ns3:TrackPointExtension>
            <ns3:hr>139</ns3:hr>
            <ns3:cad>57</ns3:cad>
          </ns3:TrackPointExtension>
        </extensions>
      </trkpt>
      <trkpt lat="23.18467768840491771697998046875" lon="113.25448284856975078582763671875">
        <ele>8.6000003814697265625</ele>
        <time>2020-09-15T13:28:27.000Z</time>
        <extensions>
          <ns3:TrackPointExtension>
            <ns3:hr>142</ns3:hr>
            <ns3:cad>57</ns3:cad>
          </ns3:TrackPointExtension>
        </extensions>
      </trkpt>
      <trkpt lat="23.18456151522696018218994140625" lon="113.25446541421115398406982421875">
        <ele>9.80000019073486328125</ele>
        <time>2020-09-15T13:28:37.000Z</time>
        <extensions>
          <ns3:TrackPointExtension>
            <ns3:hr>141</ns3:hr>
            <ns3:cad>56</ns3:cad>
          </ns3:TrackPointExtension>
        </extensions>
      </trkpt>
      <trkpt lat="23.18442706950008869171142578125" lon="113.254441358149051666259765625">
        <ele>10.3999996185302734375</ele>
        <time>2020-09-15T13:28:49.000Z</time>
        <extensions>
          <ns3:TrackPointExtension>
            <ns3:hr>138</ns3:hr>
            <ns3:cad>59</ns3:cad>
          </ns3:TrackPointExtension>
        </extensions>
      </trkpt>
      <trkpt lat="23.18428893573582172393798828125" lon="113.25439835898578166961669921875">
        <ele>10.19999980926513671875</ele>
        <time>2020-09-15T13:29:02.000Z</time>
        <extensions>
          <ns3:TrackPointExtension>
            <ns3:hr>136</ns3:hr>
            <ns3:cad>0</ns3:cad>
          </ns3:TrackPointExtension>
        </extensions>
      </trkpt>
      <trkpt lat="23.1841783784329891204833984375" lon="113.25437069870531558990478515625">
        <ele>10</ele>
        <time>2020-09-15T13:29:13.000Z</time>
        <extensions>
          <ns3:TrackPointExtension>
            <ns3:hr>135</ns3:hr>
            <ns3:cad>0</ns3:cad>
          </ns3:TrackPointExtension>
        </extensions>
      </trkpt>
      <trkpt lat="23.18414770066738128662109375" lon="113.254373632371425628662109375">
        <ele>10</ele>
        <time>2020-09-15T13:29:16.000Z</time>
        <extensions>
          <ns3:TrackPointExtension>
            <ns3:hr>135</ns3:hr>
            <ns3:cad>0</ns3:cad>
          </ns3:TrackPointExtension>
        </extensions>
      </trkpt>
      <trkpt lat="23.18399104289710521697998046875" lon="113.25437732040882110595703125">
        <ele>10</ele>
        <time>2020-09-15T13:29:28.000Z</time>
        <extensions>
          <ns3:TrackPointExtension>
            <ns3:hr>135</ns3:hr>
            <ns3:cad>61</ns3:cad>
          </ns3:TrackPointExtension>
        </extensions>
      </trkpt>
      <trkpt lat="23.1838099099695682525634765625" lon="113.25434404425323009490966796875">
        <ele>10.19999980926513671875</ele>
        <time>2020-09-15T13:29:45.000Z</time>
        <extensions>
          <ns3:TrackPointExtension>
            <ns3:hr>134</ns3:hr>
            <ns3:cad>61</ns3:cad>
          </ns3:TrackPointExtension>
        </extensions>
      </trkpt>
      <trkpt lat="23.18377646617591381072998046875" lon="113.25435142032802104949951171875">
        <ele>10.19999980926513671875</ele>
        <time>2020-09-15T13:29:49.000Z</time>
        <extensions>
          <ns3:TrackPointExtension>
            <ns3:hr>135</ns3:hr>
            <ns3:cad>61</ns3:cad>
          </ns3:TrackPointExtension>
        </extensions>
      </trkpt>
    </trkseg>
  </trk>
</gpx>
