<gpx xmlns:ns3="http://www.garmin.com/xmlschemas/TrackPointExtension/v1" xmlns="http://www.topografix.com/GPX/1/1" xmlns:xsi="http://www.w3.org/2001/XMLSchema-instance" xmlns:ns2="http://www.garmin.com/xmlschemas/GpxExtensions/v3" creator="Garmin Connect" version="1.1" xsi:schemaLocation="http://www.topografix.com/GPX/1/1 http://www.topografix.com/GPX/11.xsd">
  <extensions>
<distance>3000.08</distance>
<average_hr>127.0</average_hr>
<average_speed>2.247999906539917</average_speed>
<start_time>2020-11-12T13:22:29+00:00</start_time>
<end_time>2020-11-12T13:44:43.753000+00:00</end_time>
<moving_time>1328.165</moving_time>
<elapsed_time>2048.606</elapsed_time>
</extensions>
<metadata>
    <link href="connect.garmin.com">
      <text>Garmin Connect</text>
    </link>
    <time>2020-11-12T13:22:29.000Z</time>
  </metadata>
  <trk>
    <name>广州市 跑步</name>
    <type>running</type>
    <trkseg>
      <trkpt lat="23.18455028347671031951904296875" lon="113.25621890835464000701904296875">
        <ele>16.799999237060546875</ele>
        <time>2020-11-12T13:27:48.000Z</time>
        <extensions>
          <ns3:TrackPointExtension>
            <ns3:hr>142</ns3:hr>
            <ns3:cad>83</ns3:cad>
          </ns3:TrackPointExtension>
        </extensions>
      </trkpt>
      <trkpt lat="23.18468204699456691741943359375" lon="113.25641219504177570343017578125">
        <ele>18.3999996185302734375</ele>
        <time>2020-11-12T13:27:58.000Z</time>
        <extensions>
          <ns3:TrackPointExtension>
            <ns3:hr>142</ns3:hr>
            <ns3:cad>81</ns3:cad>
          </ns3:TrackPointExtension>
        </extensions>
      </trkpt>
      <trkpt lat="23.18481431342661380767822265625" lon="113.25655820779502391815185546875">
        <ele>17.200000762939453125</ele>
        <time>2020-11-12T13:28:03.000Z</time>
        <extensions>
          <ns3:TrackPointExtension>
            <ns3:hr>142</ns3:hr>
            <ns3:cad>82</ns3:cad>
          </ns3:TrackPointExtension>
        </extensions>
      </trkpt>
      <trkpt lat="23.18493735976517200469970703125" lon="113.25671612285077571868896484375">
        <ele>16.200000762939453125</ele>
        <time>2020-11-12T13:28:09.000Z</time>
        <extensions>
          <ns3:TrackPointExtension>
            <ns3:hr>142</ns3:hr>
            <ns3:cad>81</ns3:cad>
          </ns3:TrackPointExtension>
        </extensions>
      </trkpt>
      <trkpt lat="23.18503173999488353729248046875" lon="113.25688325800001621246337890625">
        <ele>15</ele>
        <time>2020-11-12T13:28:15.000Z</time>
        <extensions>
          <ns3:TrackPointExtension>
            <ns3:hr>142</ns3:hr>
            <ns3:cad>82</ns3:cad>
          </ns3:TrackPointExtension>
        </extensions>
      </trkpt>
      <trkpt lat="23.1851409561932086944580078125" lon="113.25704603455960750579833984375">
        <ele>14.3999996185302734375</ele>
        <time>2020-11-12T13:28:23.000Z</time>
        <extensions>
          <ns3:TrackPointExtension>
            <ns3:hr>142</ns3:hr>
            <ns3:cad>81</ns3:cad>
          </ns3:TrackPointExtension>
        </extensions>
      </trkpt>
      <trkpt lat="23.1851513497531414031982421875" lon="113.2572544924914836883544921875">
        <ele>14</ele>
        <time>2020-11-12T13:28:34.000Z</time>
        <extensions>
          <ns3:TrackPointExtension>
            <ns3:hr>142</ns3:hr>
            <ns3:cad>61</ns3:cad>
          </ns3:TrackPointExtension>
        </extensions>
      </trkpt>
      <trkpt lat="23.18510483019053936004638671875" lon="113.25749404728412628173828125">
        <ele>15.19999980926513671875</ele>
        <time>2020-11-12T13:28:48.000Z</time>
        <extensions>
          <ns3:TrackPointExtension>
            <ns3:hr>143</ns3:hr>
            <ns3:cad>61</ns3:cad>
          </ns3:TrackPointExtension>
        </extensions>
      </trkpt>
      <trkpt lat="23.1851292215287685394287109375" lon="113.25768138282001018524169921875">
        <ele>16.3999996185302734375</ele>
        <time>2020-11-12T13:29:03.000Z</time>
        <extensions>
          <ns3:TrackPointExtension>
            <ns3:hr>140</ns3:hr>
            <ns3:cad>61</ns3:cad>
          </ns3:TrackPointExtension>
        </extensions>
      </trkpt>
      <trkpt lat="23.185172975063323974609375" lon="113.257796131074428558349609375">
        <ele>17.3999996185302734375</ele>
        <time>2020-11-12T13:29:12.000Z</time>
        <extensions>
          <ns3:TrackPointExtension>
            <ns3:hr>137</ns3:hr>
            <ns3:cad>57</ns3:cad>
          </ns3:TrackPointExtension>
        </extensions>
      </trkpt>
      <trkpt lat="23.18518177606165409088134765625" lon="113.25784005224704742431640625">
        <ele>18</ele>
        <time>2020-11-12T13:29:16.000Z</time>
        <extensions>
          <ns3:TrackPointExtension>
            <ns3:hr>136</ns3:hr>
            <ns3:cad>61</ns3:cad>
          </ns3:TrackPointExtension>
        </extensions>
      </trkpt>
      <trkpt lat="23.1851992942392826080322265625" lon="113.2579129748046398162841796875">
        <ele>19</ele>
        <time>2020-11-12T13:29:22.000Z</time>
        <extensions>
          <ns3:TrackPointExtension>
            <ns3:hr>133</ns3:hr>
            <ns3:cad>61</ns3:cad>
          </ns3:TrackPointExtension>
        </extensions>
      </trkpt>
      <trkpt lat="23.18622834049165248870849609375" lon="113.26051555573940277099609375">
        <ele>9.3999996185302734375</ele>
        <time>2020-11-12T13:33:22.000Z</time>
        <extensions>
          <ns3:TrackPointExtension>
            <ns3:hr>97</ns3:hr>
            <ns3:cad>0</ns3:cad>
          </ns3:TrackPointExtension>
        </extensions>
      </trkpt>
      <trkpt lat="23.1862336210906505584716796875" lon="113.26052854768931865692138671875">
        <ele>9.3999996185302734375</ele>
        <time>2020-11-12T13:33:23.000Z</time>
        <extensions>
          <ns3:TrackPointExtension>
            <ns3:hr>97</ns3:hr>
            <ns3:cad>0</ns3:cad>
          </ns3:TrackPointExtension>
        </extensions>
      </trkpt>
      <trkpt lat="23.18634116090834140777587890625" lon="113.2607125304639339447021484375">
        <ele>11</ele>
        <time>2020-11-12T13:33:32.000Z</time>
        <extensions>
          <ns3:TrackPointExtension>
            <ns3:hr>99</ns3:hr>
            <ns3:cad>83</ns3:cad>
          </ns3:TrackPointExtension>
        </extensions>
      </trkpt>
      <trkpt lat="23.1863677315413951873779296875" lon="113.26090724207460880279541015625">
        <ele>10.19999980926513671875</ele>
        <time>2020-11-12T13:33:39.000Z</time>
        <extensions>
          <ns3:TrackPointExtension>
            <ns3:hr>100</ns3:hr>
            <ns3:cad>84</ns3:cad>
          </ns3:TrackPointExtension>
        </extensions>
      </trkpt>
      <trkpt lat="23.18631987087428569793701171875" lon="113.2611145265400409698486328125">
        <ele>8.6000003814697265625</ele>
        <time>2020-11-12T13:33:46.000Z</time>
        <extensions>
          <ns3:TrackPointExtension>
            <ns3:hr>100</ns3:hr>
            <ns3:cad>85</ns3:cad>
          </ns3:TrackPointExtension>
        </extensions>
      </trkpt>
      <trkpt lat="23.186291791498661041259765625" lon="113.2611988484859466552734375">
        <ele>8.3999996185302734375</ele>
        <time>2020-11-12T13:33:49.000Z</time>
        <extensions>
          <ns3:TrackPointExtension>
            <ns3:hr>105</ns3:hr>
            <ns3:cad>84</ns3:cad>
          </ns3:TrackPointExtension>
        </extensions>
      </trkpt>
      <trkpt lat="23.18628114648163318634033203125" lon="113.2612268440425395965576171875">
        <ele>8.19999980926513671875</ele>
        <time>2020-11-12T13:33:50.000Z</time>
        <extensions>
          <ns3:TrackPointExtension>
            <ns3:hr>110</ns3:hr>
            <ns3:cad>84</ns3:cad>
          </ns3:TrackPointExtension>
        </extensions>
      </trkpt>
      <trkpt lat="23.18627066910266876220703125" lon="113.2612516544759273529052734375">
        <ele>8</ele>
        <time>2020-11-12T13:33:51.000Z</time>
        <extensions>
          <ns3:TrackPointExtension>
            <ns3:hr>113</ns3:hr>
            <ns3:cad>84</ns3:cad>
          </ns3:TrackPointExtension>
        </extensions>
      </trkpt>
      <trkpt lat="23.18625465966761112213134765625" lon="113.26127906329929828643798828125">
        <ele>7.80000019073486328125</ele>
        <time>2020-11-12T13:33:52.000Z</time>
        <extensions>
          <ns3:TrackPointExtension>
            <ns3:hr>116</ns3:hr>
            <ns3:cad>85</ns3:cad>
          </ns3:TrackPointExtension>
        </extensions>
      </trkpt>
      <trkpt lat="23.1862391531467437744140625" lon="113.26130638830363750457763671875">
        <ele>8</ele>
        <time>2020-11-12T13:33:53.000Z</time>
        <extensions>
          <ns3:TrackPointExtension>
            <ns3:hr>116</ns3:hr>
            <ns3:cad>85</ns3:cad>
          </ns3:TrackPointExtension>
        </extensions>
      </trkpt>
      <trkpt lat="23.1862150132656097412109375" lon="113.261354081332683563232421875">
        <ele>8</ele>
        <time>2020-11-12T13:33:55.000Z</time>
        <extensions>
          <ns3:TrackPointExtension>
            <ns3:hr>120</ns3:hr>
            <ns3:cad>84</ns3:cad>
          </ns3:TrackPointExtension>
        </extensions>
      </trkpt>
      <trkpt lat="23.1861910410225391387939453125" lon="113.2614026963710784912109375">
        <ele>8</ele>
        <time>2020-11-12T13:33:57.000Z</time>
        <extensions>
          <ns3:TrackPointExtension>
            <ns3:hr>124</ns3:hr>
            <ns3:cad>84</ns3:cad>
          </ns3:TrackPointExtension>
        </extensions>
      </trkpt>
      <trkpt lat="23.18617218174040317535400390625" lon="113.2614561729133129119873046875">
        <ele>8</ele>
        <time>2020-11-12T13:33:59.000Z</time>
        <extensions>
          <ns3:TrackPointExtension>
            <ns3:hr>127</ns3:hr>
            <ns3:cad>84</ns3:cad>
          </ns3:TrackPointExtension>
        </extensions>
      </trkpt>
      <trkpt lat="23.18614820949733257293701171875" lon="113.2615074701607227325439453125">
        <ele>8.3999996185302734375</ele>
        <time>2020-11-12T13:34:01.000Z</time>
        <extensions>
          <ns3:TrackPointExtension>
            <ns3:hr>130</ns3:hr>
            <ns3:cad>83</ns3:cad>
          </ns3:TrackPointExtension>
        </extensions>
      </trkpt>
      <trkpt lat="23.1860931403934955596923828125" lon="113.26160277239978313446044921875">
        <ele>9.6000003814697265625</ele>
        <time>2020-11-12T13:34:05.000Z</time>
        <extensions>
          <ns3:TrackPointExtension>
            <ns3:hr>134</ns3:hr>
            <ns3:cad>83</ns3:cad>
          </ns3:TrackPointExtension>
        </extensions>
      </trkpt>
      <trkpt lat="23.18601451814174652099609375" lon="113.2617602683603763580322265625">
        <ele>10</ele>
        <time>2020-11-12T13:34:12.000Z</time>
        <extensions>
          <ns3:TrackPointExtension>
            <ns3:hr>137</ns3:hr>
            <ns3:cad>83</ns3:cad>
          </ns3:TrackPointExtension>
        </extensions>
      </trkpt>
      <trkpt lat="23.18592525087296962738037109375" lon="113.26193578541278839111328125">
        <ele>10.6000003814697265625</ele>
        <time>2020-11-12T13:34:19.000Z</time>
        <extensions>
          <ns3:TrackPointExtension>
            <ns3:hr>139</ns3:hr>
            <ns3:cad>83</ns3:cad>
          </ns3:TrackPointExtension>
        </extensions>
      </trkpt>
      <trkpt lat="23.18581595085561275482177734375" lon="113.26209093444049358367919921875">
        <ele>10.80000019073486328125</ele>
        <time>2020-11-12T13:34:26.000Z</time>
        <extensions>
          <ns3:TrackPointExtension>
            <ns3:hr>140</ns3:hr>
            <ns3:cad>83</ns3:cad>
          </ns3:TrackPointExtension>
        </extensions>
      </trkpt>
      <trkpt lat="23.185691647231578826904296875" lon="113.26225102879106998443603515625">
        <ele>9</ele>
        <time>2020-11-12T13:34:35.000Z</time>
        <extensions>
          <ns3:TrackPointExtension>
            <ns3:hr>140</ns3:hr>
            <ns3:cad>82</ns3:cad>
          </ns3:TrackPointExtension>
        </extensions>
      </trkpt>
      <trkpt lat="23.18560237996280193328857421875" lon="113.26242235489189624786376953125">
        <ele>8</ele>
        <time>2020-11-12T13:34:44.000Z</time>
        <extensions>
          <ns3:TrackPointExtension>
            <ns3:hr>140</ns3:hr>
            <ns3:cad>81</ns3:cad>
          </ns3:TrackPointExtension>
        </extensions>
      </trkpt>
      <trkpt lat="23.18549291230738162994384765625" lon="113.2626028172671794891357421875">
        <ele>9.19999980926513671875</ele>
        <time>2020-11-12T13:34:54.000Z</time>
        <extensions>
          <ns3:TrackPointExtension>
            <ns3:hr>140</ns3:hr>
            <ns3:cad>82</ns3:cad>
          </ns3:TrackPointExtension>
        </extensions>
      </trkpt>
      <trkpt lat="23.1854081712663173675537109375" lon="113.26278202235698699951171875">
        <ele>8.19999980926513671875</ele>
        <time>2020-11-12T13:35:02.000Z</time>
        <extensions>
          <ns3:TrackPointExtension>
            <ns3:hr>140</ns3:hr>
            <ns3:cad>78</ns3:cad>
          </ns3:TrackPointExtension>
        </extensions>
      </trkpt>
      <trkpt lat="23.18526911549270153045654296875" lon="113.26290682889521121978759765625">
        <ele>3</ele>
        <time>2020-11-12T13:35:10.000Z</time>
        <extensions>
          <ns3:TrackPointExtension>
            <ns3:hr>139</ns3:hr>
            <ns3:cad>81</ns3:cad>
          </ns3:TrackPointExtension>
        </extensions>
      </trkpt>
      <trkpt lat="23.1852576322853565216064453125" lon="113.26293147169053554534912109375">
        <ele>2.2000000476837158203125</ele>
        <time>2020-11-12T13:35:12.000Z</time>
        <extensions>
          <ns3:TrackPointExtension>
            <ns3:hr>138</ns3:hr>
            <ns3:cad>82</ns3:cad>
          </ns3:TrackPointExtension>
        </extensions>
      </trkpt>
      <trkpt lat="23.18525687791407108306884765625" lon="113.26294622384011745452880859375">
        <ele>1.7999999523162841796875</ele>
        <time>2020-11-12T13:35:14.000Z</time>
        <extensions>
          <ns3:TrackPointExtension>
            <ns3:hr>138</ns3:hr>
            <ns3:cad>82</ns3:cad>
          </ns3:TrackPointExtension>
        </extensions>
      </trkpt>
      <trkpt lat="23.1852512620389461517333984375" lon="113.26295125298202037811279296875">
        <ele>1.60000002384185791015625</ele>
        <time>2020-11-12T13:35:16.000Z</time>
        <extensions>
          <ns3:TrackPointExtension>
            <ns3:hr>137</ns3:hr>
            <ns3:cad>57</ns3:cad>
          </ns3:TrackPointExtension>
        </extensions>
      </trkpt>
      <trkpt lat="23.18510835058987140655517578125" lon="113.26334788464009761810302734375">
        <ele>-11.80000019073486328125</ele>
        <time>2020-11-12T13:36:12.000Z</time>
        <extensions>
          <ns3:TrackPointExtension>
            <ns3:hr>112</ns3:hr>
            <ns3:cad>61</ns3:cad>
          </ns3:TrackPointExtension>
        </extensions>
      </trkpt>
      <trkpt lat="23.18510483019053936004638671875" lon="113.2633679173886775970458984375">
        <ele>-10.80000019073486328125</ele>
        <time>2020-11-12T13:36:13.000Z</time>
        <extensions>
          <ns3:TrackPointExtension>
            <ns3:hr>112</ns3:hr>
            <ns3:cad>61</ns3:cad>
          </ns3:TrackPointExtension>
        </extensions>
      </trkpt>
      <trkpt lat="23.18501933477818965911865234375" lon="113.26358324848115444183349609375">
        <ele>2.400000095367431640625</ele>
        <time>2020-11-12T13:36:19.000Z</time>
        <extensions>
          <ns3:TrackPointExtension>
            <ns3:hr>111</ns3:hr>
            <ns3:cad>81</ns3:cad>
          </ns3:TrackPointExtension>
        </extensions>
      </trkpt>
      <trkpt lat="23.1849488429725170135498046875" lon="113.2637638784945011138916015625">
        <ele>3.400000095367431640625</ele>
        <time>2020-11-12T13:36:23.000Z</time>
        <extensions>
          <ns3:TrackPointExtension>
            <ns3:hr>110</ns3:hr>
            <ns3:cad>80</ns3:cad>
          </ns3:TrackPointExtension>
        </extensions>
      </trkpt>
      <trkpt lat="23.18480995483696460723876953125" lon="113.26390192843973636627197265625">
        <ele>6.80000019073486328125</ele>
        <time>2020-11-12T13:36:28.000Z</time>
        <extensions>
          <ns3:TrackPointExtension>
            <ns3:hr>109</ns3:hr>
            <ns3:cad>81</ns3:cad>
          </ns3:TrackPointExtension>
        </extensions>
      </trkpt>
      <trkpt lat="23.18475111387670040130615234375" lon="113.26400603167712688446044921875">
        <ele>7.599999904632568359375</ele>
        <time>2020-11-12T13:36:32.000Z</time>
        <extensions>
          <ns3:TrackPointExtension>
            <ns3:hr>104</ns3:hr>
            <ns3:cad>79</ns3:cad>
          </ns3:TrackPointExtension>
        </extensions>
      </trkpt>
      <trkpt lat="23.1847446598112583160400390625" lon="113.26403805054724216461181640625">
        <ele>7</ele>
        <time>2020-11-12T13:36:33.000Z</time>
        <extensions>
          <ns3:TrackPointExtension>
            <ns3:hr>104</ns3:hr>
            <ns3:cad>82</ns3:cad>
          </ns3:TrackPointExtension>
        </extensions>
      </trkpt>
      <trkpt lat="23.184701241552829742431640625" lon="113.264163024723529815673828125">
        <ele>5.80000019073486328125</ele>
        <time>2020-11-12T13:36:38.000Z</time>
        <extensions>
          <ns3:TrackPointExtension>
            <ns3:hr>108</ns3:hr>
            <ns3:cad>83</ns3:cad>
          </ns3:TrackPointExtension>
        </extensions>
      </trkpt>
      <trkpt lat="23.18468992598354816436767578125" lon="113.26420401223003864288330078125">
        <ele>4.80000019073486328125</ele>
        <time>2020-11-12T13:36:40.000Z</time>
        <extensions>
          <ns3:TrackPointExtension>
            <ns3:hr>112</ns3:hr>
            <ns3:cad>82</ns3:cad>
          </ns3:TrackPointExtension>
        </extensions>
      </trkpt>
      <trkpt lat="23.18467986769974231719970703125" lon="113.2642302475869655609130859375">
        <ele>4</ele>
        <time>2020-11-12T13:36:41.000Z</time>
        <extensions>
          <ns3:TrackPointExtension>
            <ns3:hr>115</ns3:hr>
            <ns3:cad>82</ns3:cad>
          </ns3:TrackPointExtension>
        </extensions>
      </trkpt>
      <trkpt lat="23.18466939032077789306640625" lon="113.26425514183938503265380859375">
        <ele>3.400000095367431640625</ele>
        <time>2020-11-12T13:36:42.000Z</time>
        <extensions>
          <ns3:TrackPointExtension>
            <ns3:hr>119</ns3:hr>
            <ns3:cad>83</ns3:cad>
          </ns3:TrackPointExtension>
        </extensions>
      </trkpt>
      <trkpt lat="23.18465732038021087646484375" lon="113.2642798684537410736083984375">
        <ele>2.599999904632568359375</ele>
        <time>2020-11-12T13:36:43.000Z</time>
        <extensions>
          <ns3:TrackPointExtension>
            <ns3:hr>123</ns3:hr>
            <ns3:cad>83</ns3:cad>
          </ns3:TrackPointExtension>
        </extensions>
      </trkpt>
      <trkpt lat="23.1846460886299610137939453125" lon="113.2643043436110019683837890625">
        <ele>1.7999999523162841796875</ele>
        <time>2020-11-12T13:36:44.000Z</time>
        <extensions>
          <ns3:TrackPointExtension>
            <ns3:hr>123</ns3:hr>
            <ns3:cad>83</ns3:cad>
          </ns3:TrackPointExtension>
        </extensions>
      </trkpt>
      <trkpt lat="23.18462538532912731170654296875" lon="113.2643544673919677734375">
        <ele>0.60000002384185791015625</ele>
        <time>2020-11-12T13:36:46.000Z</time>
        <extensions>
          <ns3:TrackPointExtension>
            <ns3:hr>127</ns3:hr>
            <ns3:cad>83</ns3:cad>
          </ns3:TrackPointExtension>
        </extensions>
      </trkpt>
      <trkpt lat="23.18458649329841136932373046875" lon="113.2644481770694255828857421875">
        <ele>0</ele>
        <time>2020-11-12T13:36:50.000Z</time>
        <extensions>
          <ns3:TrackPointExtension>
            <ns3:hr>130</ns3:hr>
            <ns3:cad>83</ns3:cad>
          </ns3:TrackPointExtension>
        </extensions>
      </trkpt>
      <trkpt lat="23.18456050939857959747314453125" lon="113.26449955813586711883544921875">
        <ele>-0.20000000298023223876953125</ele>
        <time>2020-11-12T13:36:52.000Z</time>
        <extensions>
          <ns3:TrackPointExtension>
            <ns3:hr>133</ns3:hr>
            <ns3:cad>82</ns3:cad>
          </ns3:TrackPointExtension>
        </extensions>
      </trkpt>
      <trkpt lat="23.18450803868472576141357421875" lon="113.2646201737225055694580078125">
        <ele>-0.4000000059604644775390625</ele>
        <time>2020-11-12T13:36:57.000Z</time>
        <extensions>
          <ns3:TrackPointExtension>
            <ns3:hr>136</ns3:hr>
            <ns3:cad>83</ns3:cad>
          </ns3:TrackPointExtension>
        </extensions>
      </trkpt>
      <trkpt lat="23.18441458046436309814453125" lon="113.2647945173084735870361328125">
        <ele>2.2000000476837158203125</ele>
        <time>2020-11-12T13:37:05.000Z</time>
        <extensions>
          <ns3:TrackPointExtension>
            <ns3:hr>138</ns3:hr>
            <ns3:cad>83</ns3:cad>
          </ns3:TrackPointExtension>
        </extensions>
      </trkpt>
      <trkpt lat="23.1842945516109466552734375" lon="113.264952264726161956787109375">
        <ele>1</ele>
        <time>2020-11-12T13:37:12.000Z</time>
        <extensions>
          <ns3:TrackPointExtension>
            <ns3:hr>139</ns3:hr>
            <ns3:cad>83</ns3:cad>
          </ns3:TrackPointExtension>
        </extensions>
      </trkpt>
      <trkpt lat="23.18420461378991603851318359375" lon="113.2651220820844173431396484375">
        <ele>-3</ele>
        <time>2020-11-12T13:37:20.000Z</time>
        <extensions>
          <ns3:TrackPointExtension>
            <ns3:hr>140</ns3:hr>
            <ns3:cad>82</ns3:cad>
          </ns3:TrackPointExtension>
        </extensions>
      </trkpt>
      <trkpt lat="23.1841790489852428436279296875" lon="113.2653242535889148712158203125">
        <ele>-9.6000003814697265625</ele>
        <time>2020-11-12T13:37:28.000Z</time>
        <extensions>
          <ns3:TrackPointExtension>
            <ns3:hr>140</ns3:hr>
            <ns3:cad>80</ns3:cad>
          </ns3:TrackPointExtension>
        </extensions>
      </trkpt>
      <trkpt lat="23.18408106453716754913330078125" lon="113.26550521887838840484619140625">
        <ele>-18.200000762939453125</ele>
        <time>2020-11-12T13:37:37.000Z</time>
        <extensions>
          <ns3:TrackPointExtension>
            <ns3:hr>140</ns3:hr>
            <ns3:cad>81</ns3:cad>
          </ns3:TrackPointExtension>
        </extensions>
      </trkpt>
      <trkpt lat="23.1839876063168048858642578125" lon="113.265695907175540924072265625">
        <ele>-4.19999980926513671875</ele>
        <time>2020-11-12T13:37:46.000Z</time>
        <extensions>
          <ns3:TrackPointExtension>
            <ns3:hr>140</ns3:hr>
            <ns3:cad>80</ns3:cad>
          </ns3:TrackPointExtension>
        </extensions>
      </trkpt>
      <trkpt lat="23.18390437401831150054931640625" lon="113.26588139869272708892822265625">
        <ele>1</ele>
        <time>2020-11-12T13:37:53.000Z</time>
        <extensions>
          <ns3:TrackPointExtension>
            <ns3:hr>140</ns3:hr>
            <ns3:cad>81</ns3:cad>
          </ns3:TrackPointExtension>
        </extensions>
      </trkpt>
      <trkpt lat="23.1838182918727397918701171875" lon="113.26605590991675853729248046875">
        <ele>7</ele>
        <time>2020-11-12T13:37:58.000Z</time>
        <extensions>
          <ns3:TrackPointExtension>
            <ns3:hr>140</ns3:hr>
            <ns3:cad>81</ns3:cad>
          </ns3:TrackPointExtension>
        </extensions>
      </trkpt>
      <trkpt lat="23.1837408430874347686767578125" lon="113.26626411639153957366943359375">
        <ele>13</ele>
        <time>2020-11-12T13:38:06.000Z</time>
        <extensions>
          <ns3:TrackPointExtension>
            <ns3:hr>140</ns3:hr>
            <ns3:cad>82</ns3:cad>
          </ns3:TrackPointExtension>
        </extensions>
      </trkpt>
      <trkpt lat="23.18367018364369869232177734375" lon="113.2664692215621471405029296875">
        <ele>14.19999980926513671875</ele>
        <time>2020-11-12T13:38:13.000Z</time>
        <extensions>
          <ns3:TrackPointExtension>
            <ns3:hr>140</ns3:hr>
            <ns3:cad>82</ns3:cad>
          </ns3:TrackPointExtension>
        </extensions>
      </trkpt>
      <trkpt lat="23.18359374068677425384521484375" lon="113.2666472531855106353759765625">
        <ele>14.6000003814697265625</ele>
        <time>2020-11-12T13:38:21.000Z</time>
        <extensions>
          <ns3:TrackPointExtension>
            <ns3:hr>140</ns3:hr>
            <ns3:cad>83</ns3:cad>
          </ns3:TrackPointExtension>
        </extensions>
      </trkpt>
      <trkpt lat="23.183500282466411590576171875" lon="113.26682570390403270721435546875">
        <ele>12.19999980926513671875</ele>
        <time>2020-11-12T13:38:29.000Z</time>
        <extensions>
          <ns3:TrackPointExtension>
            <ns3:hr>141</ns3:hr>
            <ns3:cad>82</ns3:cad>
          </ns3:TrackPointExtension>
        </extensions>
      </trkpt>
      <trkpt lat="23.18339726887643337249755859375" lon="113.26699920929968357086181640625">
        <ele>9</ele>
        <time>2020-11-12T13:38:38.000Z</time>
        <extensions>
          <ns3:TrackPointExtension>
            <ns3:hr>141</ns3:hr>
            <ns3:cad>82</ns3:cad>
          </ns3:TrackPointExtension>
        </extensions>
      </trkpt>
      <trkpt lat="23.183252178132534027099609375" lon="113.26712988317012786865234375">
        <ele>7.400000095367431640625</ele>
        <time>2020-11-12T13:38:46.000Z</time>
        <extensions>
          <ns3:TrackPointExtension>
            <ns3:hr>141</ns3:hr>
            <ns3:cad>81</ns3:cad>
          </ns3:TrackPointExtension>
        </extensions>
      </trkpt>
      <trkpt lat="23.18307372741401195526123046875" lon="113.2670938409864902496337890625">
        <ele>7.400000095367431640625</ele>
        <time>2020-11-12T13:38:53.000Z</time>
        <extensions>
          <ns3:TrackPointExtension>
            <ns3:hr>141</ns3:hr>
            <ns3:cad>81</ns3:cad>
          </ns3:TrackPointExtension>
        </extensions>
      </trkpt>
      <trkpt lat="23.1829167343676090240478515625" lon="113.26699334196746349334716796875">
        <ele>7.599999904632568359375</ele>
        <time>2020-11-12T13:39:00.000Z</time>
        <extensions>
          <ns3:TrackPointExtension>
            <ns3:hr>141</ns3:hr>
            <ns3:cad>82</ns3:cad>
          </ns3:TrackPointExtension>
        </extensions>
      </trkpt>
      <trkpt lat="23.18274850957095623016357421875" lon="113.2668717205524444580078125">
        <ele>6.599999904632568359375</ele>
        <time>2020-11-12T13:39:08.000Z</time>
        <extensions>
          <ns3:TrackPointExtension>
            <ns3:hr>141</ns3:hr>
            <ns3:cad>81</ns3:cad>
          </ns3:TrackPointExtension>
        </extensions>
      </trkpt>
      <trkpt lat="23.18258824758231639862060546875" lon="113.26676619239151477813720703125">
        <ele>6</ele>
        <time>2020-11-12T13:39:15.000Z</time>
        <extensions>
          <ns3:TrackPointExtension>
            <ns3:hr>141</ns3:hr>
            <ns3:cad>82</ns3:cad>
          </ns3:TrackPointExtension>
        </extensions>
      </trkpt>
      <trkpt lat="23.18241893313825130462646484375" lon="113.26666963286697864532470703125">
        <ele>5.80000019073486328125</ele>
        <time>2020-11-12T13:39:23.000Z</time>
        <extensions>
          <ns3:TrackPointExtension>
            <ns3:hr>141</ns3:hr>
            <ns3:cad>81</ns3:cad>
          </ns3:TrackPointExtension>
        </extensions>
      </trkpt>
      <trkpt lat="23.1822294183075428009033203125" lon="113.2666214369237422943115234375">
        <ele>8.6000003814697265625</ele>
        <time>2020-11-12T13:39:30.000Z</time>
        <extensions>
          <ns3:TrackPointExtension>
            <ns3:hr>141</ns3:hr>
            <ns3:cad>81</ns3:cad>
          </ns3:TrackPointExtension>
        </extensions>
      </trkpt>
      <trkpt lat="23.182042501866817474365234375" lon="113.2665510289371013641357421875">
        <ele>10.3999996185302734375</ele>
        <time>2020-11-12T13:39:37.000Z</time>
        <extensions>
          <ns3:TrackPointExtension>
            <ns3:hr>141</ns3:hr>
            <ns3:cad>82</ns3:cad>
          </ns3:TrackPointExtension>
        </extensions>
      </trkpt>
      <trkpt lat="23.18186371587216854095458984375" lon="113.2664987258613109588623046875">
        <ele>11.6000003814697265625</ele>
        <time>2020-11-12T13:39:44.000Z</time>
        <extensions>
          <ns3:TrackPointExtension>
            <ns3:hr>141</ns3:hr>
            <ns3:cad>80</ns3:cad>
          </ns3:TrackPointExtension>
        </extensions>
      </trkpt>
      <trkpt lat="23.18170152604579925537109375" lon="113.26637861318886280059814453125">
        <ele>11.19999980926513671875</ele>
        <time>2020-11-12T13:39:52.000Z</time>
        <extensions>
          <ns3:TrackPointExtension>
            <ns3:hr>141</ns3:hr>
            <ns3:cad>81</ns3:cad>
          </ns3:TrackPointExtension>
        </extensions>
      </trkpt>
      <trkpt lat="23.18156615830957889556884765625" lon="113.26623293571174144744873046875">
        <ele>10.6000003814697265625</ele>
        <time>2020-11-12T13:40:00.000Z</time>
        <extensions>
          <ns3:TrackPointExtension>
            <ns3:hr>141</ns3:hr>
            <ns3:cad>79</ns3:cad>
          </ns3:TrackPointExtension>
        </extensions>
      </trkpt>
      <trkpt lat="23.18146339617669582366943359375" lon="113.26613151468336582183837890625">
        <ele>9</ele>
        <time>2020-11-12T13:40:09.000Z</time>
        <extensions>
          <ns3:TrackPointExtension>
            <ns3:hr>142</ns3:hr>
            <ns3:cad>81</ns3:cad>
          </ns3:TrackPointExtension>
        </extensions>
      </trkpt>
      <trkpt lat="23.1814616359770298004150390625" lon="113.2661295868456363677978515625">
        <ele>9</ele>
        <time>2020-11-12T13:40:12.000Z</time>
        <extensions>
          <ns3:TrackPointExtension>
            <ns3:hr>142</ns3:hr>
            <ns3:cad>81</ns3:cad>
          </ns3:TrackPointExtension>
        </extensions>
      </trkpt>
      <trkpt lat="23.18137287162244319915771484375" lon="113.26605238951742649078369140625">
        <ele>7.80000019073486328125</ele>
        <time>2020-11-12T13:40:28.000Z</time>
        <extensions>
          <ns3:TrackPointExtension>
            <ns3:hr>142</ns3:hr>
            <ns3:cad>57</ns3:cad>
          </ns3:TrackPointExtension>
        </extensions>
      </trkpt>
      <trkpt lat="23.1813043914735317230224609375" lon="113.26598298735916614532470703125">
        <ele>7.80000019073486328125</ele>
        <time>2020-11-12T13:40:41.000Z</time>
        <extensions>
          <ns3:TrackPointExtension>
            <ns3:hr>139</ns3:hr>
            <ns3:cad>63</ns3:cad>
          </ns3:TrackPointExtension>
        </extensions>
      </trkpt>
      <trkpt lat="23.18127564154565334320068359375" lon="113.26596446335315704345703125">
        <ele>8</ele>
        <time>2020-11-12T13:40:47.000Z</time>
        <extensions>
          <ns3:TrackPointExtension>
            <ns3:hr>137</ns3:hr>
            <ns3:cad>0</ns3:cad>
          </ns3:TrackPointExtension>
        </extensions>
      </trkpt>
      <trkpt lat="23.17826963961124420166015625" lon="113.264072835445404052734375">
        <ele>8.80000019073486328125</ele>
        <time>2020-11-12T13:47:17.000Z</time>
        <extensions>
          <ns3:TrackPointExtension>
            <ns3:cad>61</ns3:cad>
          </ns3:TrackPointExtension>
        </extensions>
      </trkpt>
      <trkpt lat="23.178267292678356170654296875" lon="113.2640649564564228057861328125">
        <ele>8.80000019073486328125</ele>
        <time>2020-11-12T13:47:18.000Z</time>
        <extensions>
          <ns3:TrackPointExtension>
            <ns3:hr>87</ns3:hr>
            <ns3:cad>61</ns3:cad>
          </ns3:TrackPointExtension>
        </extensions>
      </trkpt>
      <trkpt lat="23.17826469428837299346923828125" lon="113.2640535570681095123291015625">
        <ele>8.80000019073486328125</ele>
        <time>2020-11-12T13:47:19.000Z</time>
        <extensions>
          <ns3:TrackPointExtension>
            <ns3:hr>87</ns3:hr>
            <ns3:cad>62</ns3:cad>
          </ns3:TrackPointExtension>
        </extensions>
      </trkpt>
      <trkpt lat="23.17826368845999240875244140625" lon="113.264004103839397430419921875">
        <ele>8.80000019073486328125</ele>
        <time>2020-11-12T13:47:22.000Z</time>
        <extensions>
          <ns3:TrackPointExtension>
            <ns3:hr>85</ns3:hr>
            <ns3:cad>79</ns3:cad>
          </ns3:TrackPointExtension>
        </extensions>
      </trkpt>
      <trkpt lat="23.17837826907634735107421875" lon="113.2638480328023433685302734375">
        <ele>8.3999996185302734375</ele>
        <time>2020-11-12T13:47:28.000Z</time>
        <extensions>
          <ns3:TrackPointExtension>
            <ns3:hr>85</ns3:hr>
            <ns3:cad>80</ns3:cad>
          </ns3:TrackPointExtension>
        </extensions>
      </trkpt>
      <trkpt lat="23.1784716434776782989501953125" lon="113.26367385685443878173828125">
        <ele>7.80000019073486328125</ele>
        <time>2020-11-12T13:47:34.000Z</time>
        <extensions>
          <ns3:TrackPointExtension>
            <ns3:hr>84</ns3:hr>
            <ns3:cad>81</ns3:cad>
          </ns3:TrackPointExtension>
        </extensions>
      </trkpt>
      <trkpt lat="23.178550936281681060791015625" lon="113.2634765468537807464599609375">
        <ele>7.599999904632568359375</ele>
        <time>2020-11-12T13:47:41.000Z</time>
        <extensions>
          <ns3:TrackPointExtension>
            <ns3:hr>85</ns3:hr>
            <ns3:cad>82</ns3:cad>
          </ns3:TrackPointExtension>
        </extensions>
      </trkpt>
      <trkpt lat="23.17858756519854068756103515625" lon="113.26337688602507114410400390625">
        <ele>7.19999980926513671875</ele>
        <time>2020-11-12T13:47:44.000Z</time>
        <extensions>
          <ns3:TrackPointExtension>
            <ns3:hr>89</ns3:hr>
            <ns3:cad>83</ns3:cad>
          </ns3:TrackPointExtension>
        </extensions>
      </trkpt>
      <trkpt lat="23.178633749485015869140625" lon="113.26322584412992000579833984375">
        <ele>6</ele>
        <time>2020-11-12T13:47:49.000Z</time>
        <extensions>
          <ns3:TrackPointExtension>
            <ns3:hr>93</ns3:hr>
            <ns3:cad>82</ns3:cad>
          </ns3:TrackPointExtension>
        </extensions>
      </trkpt>
      <trkpt lat="23.17864255048334598541259765625" lon="113.26319684274494647979736328125">
        <ele>5.400000095367431640625</ele>
        <time>2020-11-12T13:47:50.000Z</time>
        <extensions>
          <ns3:TrackPointExtension>
            <ns3:hr>97</ns3:hr>
            <ns3:cad>83</ns3:cad>
          </ns3:TrackPointExtension>
        </extensions>
      </trkpt>
      <trkpt lat="23.178652860224246978759765625" lon="113.26316582970321178436279296875">
        <ele>4.80000019073486328125</ele>
        <time>2020-11-12T13:47:51.000Z</time>
        <extensions>
          <ns3:TrackPointExtension>
            <ns3:hr>100</ns3:hr>
            <ns3:cad>83</ns3:cad>
          </ns3:TrackPointExtension>
        </extensions>
      </trkpt>
      <trkpt lat="23.17865679971873760223388671875" lon="113.2631392590701580047607421875">
        <ele>4.19999980926513671875</ele>
        <time>2020-11-12T13:47:52.000Z</time>
        <extensions>
          <ns3:TrackPointExtension>
            <ns3:hr>108</ns3:hr>
            <ns3:cad>82</ns3:cad>
          </ns3:TrackPointExtension>
        </extensions>
      </trkpt>
      <trkpt lat="23.1786644272506237030029296875" lon="113.26311285607516765594482421875">
        <ele>4</ele>
        <time>2020-11-12T13:47:53.000Z</time>
        <extensions>
          <ns3:TrackPointExtension>
            <ns3:hr>108</ns3:hr>
            <ns3:cad>82</ns3:cad>
          </ns3:TrackPointExtension>
        </extensions>
      </trkpt>
      <trkpt lat="23.17866685800254344940185546875" lon="113.2630871236324310302734375">
        <ele>4</ele>
        <time>2020-11-12T13:47:54.000Z</time>
        <extensions>
          <ns3:TrackPointExtension>
            <ns3:hr>111</ns3:hr>
            <ns3:cad>82</ns3:cad>
          </ns3:TrackPointExtension>
        </extensions>
      </trkpt>
      <trkpt lat="23.17867339588701725006103515625" lon="113.26306524686515331268310546875">
        <ele>4.19999980926513671875</ele>
        <time>2020-11-12T13:47:55.000Z</time>
        <extensions>
          <ns3:TrackPointExtension>
            <ns3:hr>114</ns3:hr>
            <ns3:cad>82</ns3:cad>
          </ns3:TrackPointExtension>
        </extensions>
      </trkpt>
      <trkpt lat="23.1786791794002056121826171875" lon="113.26303825713694095611572265625">
        <ele>4.400000095367431640625</ele>
        <time>2020-11-12T13:47:56.000Z</time>
        <extensions>
          <ns3:TrackPointExtension>
            <ns3:hr>114</ns3:hr>
            <ns3:cad>82</ns3:cad>
          </ns3:TrackPointExtension>
        </extensions>
      </trkpt>
      <trkpt lat="23.17868496291339397430419921875" lon="113.26301914639770984649658203125">
        <ele>4.599999904632568359375</ele>
        <time>2020-11-12T13:47:57.000Z</time>
        <extensions>
          <ns3:TrackPointExtension>
            <ns3:hr>119</ns3:hr>
            <ns3:cad>82</ns3:cad>
          </ns3:TrackPointExtension>
        </extensions>
      </trkpt>
      <trkpt lat="23.178694434463977813720703125" lon="113.26298058964312076568603515625">
        <ele>4.80000019073486328125</ele>
        <time>2020-11-12T13:47:59.000Z</time>
        <extensions>
          <ns3:TrackPointExtension>
            <ns3:hr>123</ns3:hr>
            <ns3:cad>82</ns3:cad>
          </ns3:TrackPointExtension>
        </extensions>
      </trkpt>
      <trkpt lat="23.17870575003325939178466796875" lon="113.2629447989165782928466796875">
        <ele>5.19999980926513671875</ele>
        <time>2020-11-12T13:48:01.000Z</time>
        <extensions>
          <ns3:TrackPointExtension>
            <ns3:hr>126</ns3:hr>
            <ns3:cad>81</ns3:cad>
          </ns3:TrackPointExtension>
        </extensions>
      </trkpt>
      <trkpt lat="23.17872050218284130096435546875" lon="113.262905739247798919677734375">
        <ele>5.599999904632568359375</ele>
        <time>2020-11-12T13:48:03.000Z</time>
        <extensions>
          <ns3:TrackPointExtension>
            <ns3:hr>129</ns3:hr>
            <ns3:cad>81</ns3:cad>
          </ns3:TrackPointExtension>
        </extensions>
      </trkpt>
      <trkpt lat="23.17874631844460964202880859375" lon="113.2628532685339450836181640625">
        <ele>6</ele>
        <time>2020-11-12T13:48:06.000Z</time>
        <extensions>
          <ns3:TrackPointExtension>
            <ns3:hr>132</ns3:hr>
            <ns3:cad>81</ns3:cad>
          </ns3:TrackPointExtension>
        </extensions>
      </trkpt>
      <trkpt lat="23.1787718832492828369140625" lon="113.2627734728157520294189453125">
        <ele>6.400000095367431640625</ele>
        <time>2020-11-12T13:48:10.000Z</time>
        <extensions>
          <ns3:TrackPointExtension>
            <ns3:hr>135</ns3:hr>
            <ns3:cad>80</ns3:cad>
          </ns3:TrackPointExtension>
        </extensions>
      </trkpt>
      <trkpt lat="23.17885846830904483795166015625" lon="113.2626400329172611236572265625">
        <ele>9.3999996185302734375</ele>
        <time>2020-11-12T13:48:19.000Z</time>
        <extensions>
          <ns3:TrackPointExtension>
            <ns3:hr>138</ns3:hr>
            <ns3:cad>61</ns3:cad>
          </ns3:TrackPointExtension>
        </extensions>
      </trkpt>
      <trkpt lat="23.17898201756179332733154296875" lon="113.2624730654060840606689453125">
        <ele>9</ele>
        <time>2020-11-12T13:48:33.000Z</time>
        <extensions>
          <ns3:TrackPointExtension>
            <ns3:hr>140</ns3:hr>
            <ns3:cad>61</ns3:cad>
          </ns3:TrackPointExtension>
        </extensions>
      </trkpt>
      <trkpt lat="23.179127611219882965087890625" lon="113.26234658248722553253173828125">
        <ele>4.19999980926513671875</ele>
        <time>2020-11-12T13:48:50.000Z</time>
        <extensions>
          <ns3:TrackPointExtension>
            <ns3:hr>137</ns3:hr>
            <ns3:cad>0</ns3:cad>
          </ns3:TrackPointExtension>
        </extensions>
      </trkpt>
      <trkpt lat="23.1791581213474273681640625" lon="113.26228153891861438751220703125">
        <ele>2.2000000476837158203125</ele>
        <time>2020-11-12T13:48:59.000Z</time>
        <extensions>
          <ns3:TrackPointExtension>
            <ns3:hr>134</ns3:hr>
            <ns3:cad>0</ns3:cad>
          </ns3:TrackPointExtension>
        </extensions>
      </trkpt>
      <trkpt lat="23.17918184213340282440185546875" lon="113.2622363604605197906494140625">
        <ele>1.2000000476837158203125</ele>
        <time>2020-11-12T13:49:05.000Z</time>
        <extensions>
          <ns3:TrackPointExtension>
            <ns3:hr>131</ns3:hr>
            <ns3:cad>0</ns3:cad>
          </ns3:TrackPointExtension>
        </extensions>
      </trkpt>
      <trkpt lat="23.17920841276645660400390625" lon="113.26215396635234355926513671875">
        <ele>0</ele>
        <time>2020-11-12T13:49:10.000Z</time>
        <extensions>
          <ns3:TrackPointExtension>
            <ns3:hr>128</ns3:hr>
            <ns3:cad>57</ns3:cad>
          </ns3:TrackPointExtension>
        </extensions>
      </trkpt>
      <trkpt lat="23.1792639009654521942138671875" lon="113.2620066963136196136474609375">
        <ele>1.7999999523162841796875</ele>
        <time>2020-11-12T13:49:14.000Z</time>
        <extensions>
          <ns3:TrackPointExtension>
            <ns3:hr>125</ns3:hr>
            <ns3:cad>83</ns3:cad>
          </ns3:TrackPointExtension>
        </extensions>
      </trkpt>
      <trkpt lat="23.17933523096144199371337890625" lon="113.26185724698007106781005859375">
        <ele>1.39999997615814208984375</ele>
        <time>2020-11-12T13:49:18.000Z</time>
        <extensions>
          <ns3:TrackPointExtension>
            <ns3:hr>122</ns3:hr>
            <ns3:cad>83</ns3:cad>
          </ns3:TrackPointExtension>
        </extensions>
      </trkpt>
      <trkpt lat="23.17940597422420978546142578125" lon="113.2617036066949367523193359375">
        <ele>1.60000002384185791015625</ele>
        <time>2020-11-12T13:49:22.000Z</time>
        <extensions>
          <ns3:TrackPointExtension>
            <ns3:hr>120</ns3:hr>
            <ns3:cad>82</ns3:cad>
          </ns3:TrackPointExtension>
        </extensions>
      </trkpt>
      <trkpt lat="23.1794799864292144775390625" lon="113.26155759394168853759765625">
        <ele>1</ele>
        <time>2020-11-12T13:49:27.000Z</time>
        <extensions>
          <ns3:TrackPointExtension>
            <ns3:hr>117</ns3:hr>
            <ns3:cad>82</ns3:cad>
          </ns3:TrackPointExtension>
        </extensions>
      </trkpt>
      <trkpt lat="23.1795170344412326812744140625" lon="113.261476792395114898681640625">
        <ele>0.4000000059604644775390625</ele>
        <time>2020-11-12T13:49:30.000Z</time>
        <extensions>
          <ns3:TrackPointExtension>
            <ns3:hr>114</ns3:hr>
            <ns3:cad>81</ns3:cad>
          </ns3:TrackPointExtension>
        </extensions>
      </trkpt>
      <trkpt lat="23.1795284338295459747314453125" lon="113.2614508084952831268310546875">
        <ele>0.4000000059604644775390625</ele>
        <time>2020-11-12T13:49:31.000Z</time>
        <extensions>
          <ns3:TrackPointExtension>
            <ns3:hr>109</ns3:hr>
            <ns3:cad>81</ns3:cad>
          </ns3:TrackPointExtension>
        </extensions>
      </trkpt>
      <trkpt lat="23.17953807301819324493408203125" lon="113.2614253275096416473388671875">
        <ele>0.60000002384185791015625</ele>
        <time>2020-11-12T13:49:32.000Z</time>
        <extensions>
          <ns3:TrackPointExtension>
            <ns3:hr>109</ns3:hr>
            <ns3:cad>81</ns3:cad>
          </ns3:TrackPointExtension>
        </extensions>
      </trkpt>
      <trkpt lat="23.17954913713037967681884765625" lon="113.26139892451465129852294921875">
        <ele>0.800000011920928955078125</ele>
        <time>2020-11-12T13:49:33.000Z</time>
        <extensions>
          <ns3:TrackPointExtension>
            <ns3:hr>100</ns3:hr>
            <ns3:cad>82</ns3:cad>
          </ns3:TrackPointExtension>
        </extensions>
      </trkpt>
      <trkpt lat="23.17956053651869297027587890625" lon="113.26137386262416839599609375">
        <ele>0.800000011920928955078125</ele>
        <time>2020-11-12T13:49:34.000Z</time>
        <extensions>
          <ns3:TrackPointExtension>
            <ns3:hr>100</ns3:hr>
            <ns3:cad>82</ns3:cad>
          </ns3:TrackPointExtension>
        </extensions>
      </trkpt>
      <trkpt lat="23.179572857916355133056640625" lon="113.26134930364787578582763671875">
        <ele>1</ele>
        <time>2020-11-12T13:49:35.000Z</time>
        <extensions>
          <ns3:TrackPointExtension>
            <ns3:hr>103</ns3:hr>
            <ns3:cad>82</ns3:cad>
          </ns3:TrackPointExtension>
        </extensions>
      </trkpt>
      <trkpt lat="23.17959641106426715850830078125" lon="113.26129649765789508819580078125">
        <ele>1</ele>
        <time>2020-11-12T13:49:37.000Z</time>
        <extensions>
          <ns3:TrackPointExtension>
            <ns3:hr>109</ns3:hr>
            <ns3:cad>81</ns3:cad>
          </ns3:TrackPointExtension>
        </extensions>
      </trkpt>
      <trkpt lat="23.179606385529041290283203125" lon="113.26126791536808013916015625">
        <ele>1</ele>
        <time>2020-11-12T13:49:38.000Z</time>
        <extensions>
          <ns3:TrackPointExtension>
            <ns3:hr>112</ns3:hr>
            <ns3:cad>81</ns3:cad>
          </ns3:TrackPointExtension>
        </extensions>
      </trkpt>
      <trkpt lat="23.17961568944156169891357421875" lon="113.261241428554058074951171875">
        <ele>1.2000000476837158203125</ele>
        <time>2020-11-12T13:49:39.000Z</time>
        <extensions>
          <ns3:TrackPointExtension>
            <ns3:hr>115</ns3:hr>
            <ns3:cad>81</ns3:cad>
          </ns3:TrackPointExtension>
        </extensions>
      </trkpt>
      <trkpt lat="23.1796246580779552459716796875" lon="113.261219300329685211181640625">
        <ele>1.39999997615814208984375</ele>
        <time>2020-11-12T13:49:40.000Z</time>
        <extensions>
          <ns3:TrackPointExtension>
            <ns3:hr>115</ns3:hr>
            <ns3:cad>82</ns3:cad>
          </ns3:TrackPointExtension>
        </extensions>
      </trkpt>
      <trkpt lat="23.1796367280185222625732421875" lon="113.26119826175272464752197265625">
        <ele>1.39999997615814208984375</ele>
        <time>2020-11-12T13:49:41.000Z</time>
        <extensions>
          <ns3:TrackPointExtension>
            <ns3:hr>120</ns3:hr>
            <ns3:cad>82</ns3:cad>
          </ns3:TrackPointExtension>
        </extensions>
      </trkpt>
      <trkpt lat="23.17964720539748668670654296875" lon="113.261179067194461822509765625">
        <ele>1.60000002384185791015625</ele>
        <time>2020-11-12T13:49:42.000Z</time>
        <extensions>
          <ns3:TrackPointExtension>
            <ns3:hr>120</ns3:hr>
            <ns3:cad>81</ns3:cad>
          </ns3:TrackPointExtension>
        </extensions>
      </trkpt>
      <trkpt lat="23.17965743131935596466064453125" lon="113.26116423122584819793701171875">
        <ele>1.7999999523162841796875</ele>
        <time>2020-11-12T13:49:43.000Z</time>
        <extensions>
          <ns3:TrackPointExtension>
            <ns3:hr>124</ns3:hr>
            <ns3:cad>80</ns3:cad>
          </ns3:TrackPointExtension>
        </extensions>
      </trkpt>
      <trkpt lat="23.17967067472636699676513671875" lon="113.26113891787827014923095703125">
        <ele>2</ele>
        <time>2020-11-12T13:49:45.000Z</time>
        <extensions>
          <ns3:TrackPointExtension>
            <ns3:hr>127</ns3:hr>
            <ns3:cad>80</ns3:cad>
          </ns3:TrackPointExtension>
        </extensions>
      </trkpt>
      <trkpt lat="23.17968961782753467559814453125" lon="113.2610969245433807373046875">
        <ele>2.400000095367431640625</ele>
        <time>2020-11-12T13:49:49.000Z</time>
        <extensions>
          <ns3:TrackPointExtension>
            <ns3:hr>130</ns3:hr>
            <ns3:cad>61</ns3:cad>
          </ns3:TrackPointExtension>
        </extensions>
      </trkpt>
      <trkpt lat="23.1796940602362155914306640625" lon="113.261079154908657073974609375">
        <ele>2.7999999523162841796875</ele>
        <time>2020-11-12T13:49:51.000Z</time>
        <extensions>
          <ns3:TrackPointExtension>
            <ns3:hr>133</ns3:hr>
            <ns3:cad>61</ns3:cad>
          </ns3:TrackPointExtension>
        </extensions>
      </trkpt>
      <trkpt lat="23.17969791591167449951171875" lon="113.261014781892299652099609375">
        <ele>6</ele>
        <time>2020-11-12T13:49:57.000Z</time>
        <extensions>
          <ns3:TrackPointExtension>
            <ns3:hr>136</ns3:hr>
            <ns3:cad>59</ns3:cad>
          </ns3:TrackPointExtension>
        </extensions>
      </trkpt>
      <trkpt lat="23.1796945631504058837890625" lon="113.26084856875240802764892578125">
        <ele>17.799999237060546875</ele>
        <time>2020-11-12T13:50:09.000Z</time>
        <extensions>
          <ns3:TrackPointExtension>
            <ns3:hr>138</ns3:hr>
            <ns3:cad>61</ns3:cad>
          </ns3:TrackPointExtension>
        </extensions>
      </trkpt>
      <trkpt lat="23.179802186787128448486328125" lon="113.2607924938201904296875">
        <ele>32.200000762939453125</ele>
        <time>2020-11-12T13:50:19.000Z</time>
        <extensions>
          <ns3:TrackPointExtension>
            <ns3:hr>136</ns3:hr>
            <ns3:cad>60</ns3:cad>
          </ns3:TrackPointExtension>
        </extensions>
      </trkpt>
      <trkpt lat="23.17985348403453826904296875" lon="113.26080380938947200775146484375">
        <ele>35</ele>
        <time>2020-11-12T13:50:22.000Z</time>
        <extensions>
          <ns3:TrackPointExtension>
            <ns3:hr>136</ns3:hr>
            <ns3:cad>60</ns3:cad>
          </ns3:TrackPointExtension>
        </extensions>
      </trkpt>
      <trkpt lat="23.1800380535423755645751953125" lon="113.2609187252819538116455078125">
        <ele>28.6000003814697265625</ele>
        <time>2020-11-12T13:50:29.000Z</time>
        <extensions>
          <ns3:TrackPointExtension>
            <ns3:hr>133</ns3:hr>
            <ns3:cad>83</ns3:cad>
          </ns3:TrackPointExtension>
        </extensions>
      </trkpt>
      <trkpt lat="23.1802177615463733673095703125" lon="113.26102123595774173736572265625">
        <ele>20.200000762939453125</ele>
        <time>2020-11-12T13:50:34.000Z</time>
        <extensions>
          <ns3:TrackPointExtension>
            <ns3:hr>131</ns3:hr>
            <ns3:cad>83</ns3:cad>
          </ns3:TrackPointExtension>
        </extensions>
      </trkpt>
      <trkpt lat="23.18029412068426609039306640625" lon="113.26106180436909198760986328125">
        <ele>25.799999237060546875</ele>
        <time>2020-11-12T13:50:36.000Z</time>
        <extensions>
          <ns3:TrackPointExtension>
            <ns3:hr>130</ns3:hr>
            <ns3:cad>85</ns3:cad>
          </ns3:TrackPointExtension>
        </extensions>
      </trkpt>
      <trkpt lat="23.18036268465220928192138671875" lon="113.2610927335917949676513671875">
        <ele>30.200000762939453125</ele>
        <time>2020-11-12T13:50:38.000Z</time>
        <extensions>
          <ns3:TrackPointExtension>
            <ns3:hr>130</ns3:hr>
            <ns3:cad>85</ns3:cad>
          </ns3:TrackPointExtension>
        </extensions>
      </trkpt>
      <trkpt lat="23.18043527193367481231689453125" lon="113.2610786519944667816162109375">
        <ele>37.799999237060546875</ele>
        <time>2020-11-12T13:50:41.000Z</time>
        <extensions>
          <ns3:TrackPointExtension>
            <ns3:hr>124</ns3:hr>
            <ns3:cad>81</ns3:cad>
          </ns3:TrackPointExtension>
        </extensions>
      </trkpt>
      <trkpt lat="23.1804501079022884368896484375" lon="113.26106281019747257232666015625">
        <ele>40.200000762939453125</ele>
        <time>2020-11-12T13:50:42.000Z</time>
        <extensions>
          <ns3:TrackPointExtension>
            <ns3:hr>124</ns3:hr>
            <ns3:cad>79</ns3:cad>
          </ns3:TrackPointExtension>
        </extensions>
      </trkpt>
      <trkpt lat="23.18046242929995059967041015625" lon="113.26104118488729000091552734375">
        <ele>42.59999847412109375</ele>
        <time>2020-11-12T13:50:43.000Z</time>
        <extensions>
          <ns3:TrackPointExtension>
            <ns3:hr>119</ns3:hr>
            <ns3:cad>79</ns3:cad>
          </ns3:TrackPointExtension>
        </extensions>
      </trkpt>
      <trkpt lat="23.18047332577407360076904296875" lon="113.261020146310329437255859375">
        <ele>42</ele>
        <time>2020-11-12T13:50:44.000Z</time>
        <extensions>
          <ns3:TrackPointExtension>
            <ns3:hr>119</ns3:hr>
            <ns3:cad>79</ns3:cad>
          </ns3:TrackPointExtension>
        </extensions>
      </trkpt>
      <trkpt lat="23.1804789416491985321044921875" lon="113.26097329147160053253173828125">
        <ele>39.59999847412109375</ele>
        <time>2020-11-12T13:50:47.000Z</time>
        <extensions>
          <ns3:TrackPointExtension>
            <ns3:hr>122</ns3:hr>
            <ns3:cad>81</ns3:cad>
          </ns3:TrackPointExtension>
        </extensions>
      </trkpt>
      <trkpt lat="23.1804779358208179473876953125" lon="113.260963819921016693115234375">
        <ele>38.799999237060546875</ele>
        <time>2020-11-12T13:50:48.000Z</time>
        <extensions>
          <ns3:TrackPointExtension>
            <ns3:hr>125</ns3:hr>
            <ns3:cad>80</ns3:cad>
          </ns3:TrackPointExtension>
        </extensions>
      </trkpt>
      <trkpt lat="23.18047919310629367828369140625" lon="113.26095468364655971527099609375">
        <ele>38.40000152587890625</ele>
        <time>2020-11-12T13:50:49.000Z</time>
        <extensions>
          <ns3:TrackPointExtension>
            <ns3:hr>126</ns3:hr>
            <ns3:cad>80</ns3:cad>
          </ns3:TrackPointExtension>
        </extensions>
      </trkpt>
      <trkpt lat="23.18049226887524127960205078125" lon="113.26093188486993312835693359375">
        <ele>38.200000762939453125</ele>
        <time>2020-11-12T13:50:51.000Z</time>
        <extensions>
          <ns3:TrackPointExtension>
            <ns3:hr>129</ns3:hr>
            <ns3:cad>64</ns3:cad>
          </ns3:TrackPointExtension>
        </extensions>
      </trkpt>
      <trkpt lat="23.18049511872231960296630859375" lon="113.26092735864222049713134765625">
        <ele>38.200000762939453125</ele>
        <time>2020-11-12T13:50:52.000Z</time>
        <extensions>
          <ns3:TrackPointExtension>
            <ns3:hr>129</ns3:hr>
            <ns3:cad>64</ns3:cad>
          </ns3:TrackPointExtension>
        </extensions>
      </trkpt>
      <trkpt lat="23.18051322363317012786865234375" lon="113.26088972389698028564453125">
        <ele>37.40000152587890625</ele>
        <time>2020-11-12T13:51:10.000Z</time>
        <extensions>
          <ns3:TrackPointExtension>
            <ns3:hr>135</ns3:hr>
            <ns3:cad>0</ns3:cad>
          </ns3:TrackPointExtension>
        </extensions>
      </trkpt>
      <trkpt lat="23.1805211864411830902099609375" lon="113.2608743011951446533203125">
        <ele>37.200000762939453125</ele>
        <time>2020-11-12T13:51:11.000Z</time>
        <extensions>
          <ns3:TrackPointExtension>
            <ns3:hr>135</ns3:hr>
            <ns3:cad>61</ns3:cad>
          </ns3:TrackPointExtension>
        </extensions>
      </trkpt>
      <trkpt lat="23.1805500201880931854248046875" lon="113.26079878024756908416748046875">
        <ele>31.799999237060546875</ele>
        <time>2020-11-12T13:51:14.000Z</time>
        <extensions>
          <ns3:TrackPointExtension>
            <ns3:hr>134</ns3:hr>
            <ns3:cad>70</ns3:cad>
          </ns3:TrackPointExtension>
        </extensions>
      </trkpt>
      <trkpt lat="23.18066460080444812774658203125" lon="113.26062561012804508209228515625">
        <ele>32.40000152587890625</ele>
        <time>2020-11-12T13:51:20.000Z</time>
        <extensions>
          <ns3:TrackPointExtension>
            <ns3:hr>132</ns3:hr>
            <ns3:cad>80</ns3:cad>
          </ns3:TrackPointExtension>
        </extensions>
      </trkpt>
      <trkpt lat="23.18078697659075260162353515625" lon="113.26043986715376377105712890625">
        <ele>35</ele>
        <time>2020-11-12T13:51:26.000Z</time>
        <extensions>
          <ns3:TrackPointExtension>
            <ns3:hr>131</ns3:hr>
            <ns3:cad>78</ns3:cad>
          </ns3:TrackPointExtension>
        </extensions>
      </trkpt>
      <trkpt lat="23.18086140789091587066650390625" lon="113.26022964902222156524658203125">
        <ele>43.40000152587890625</ele>
        <time>2020-11-12T13:51:32.000Z</time>
        <extensions>
          <ns3:TrackPointExtension>
            <ns3:hr>130</ns3:hr>
            <ns3:cad>84</ns3:cad>
          </ns3:TrackPointExtension>
        </extensions>
      </trkpt>
      <trkpt lat="23.1809238530695438385009765625" lon="113.2600979693233966827392578125">
        <ele>54.40000152587890625</ele>
        <time>2020-11-12T13:51:37.000Z</time>
        <extensions>
          <ns3:TrackPointExtension>
            <ns3:hr>127</ns3:hr>
            <ns3:cad>82</ns3:cad>
          </ns3:TrackPointExtension>
        </extensions>
      </trkpt>
      <trkpt lat="23.18093709647655487060546875" lon="113.26007357798516750335693359375">
        <ele>52.59999847412109375</ele>
        <time>2020-11-12T13:51:38.000Z</time>
        <extensions>
          <ns3:TrackPointExtension>
            <ns3:hr>122</ns3:hr>
            <ns3:cad>81</ns3:cad>
          </ns3:TrackPointExtension>
        </extensions>
      </trkpt>
      <trkpt lat="23.18094975315034389495849609375" lon="113.26004591770470142364501953125">
        <ele>50.40000152587890625</ele>
        <time>2020-11-12T13:51:39.000Z</time>
        <extensions>
          <ns3:TrackPointExtension>
            <ns3:hr>122</ns3:hr>
            <ns3:cad>81</ns3:cad>
          </ns3:TrackPointExtension>
        </extensions>
      </trkpt>
      <trkpt lat="23.1809771619737148284912109375" lon="113.25998975895345211029052734375">
        <ele>46.40000152587890625</ele>
        <time>2020-11-12T13:51:41.000Z</time>
        <extensions>
          <ns3:TrackPointExtension>
            <ns3:hr>125</ns3:hr>
            <ns3:cad>82</ns3:cad>
          </ns3:TrackPointExtension>
        </extensions>
      </trkpt>
      <trkpt lat="23.18101563490927219390869140625" lon="113.2599048502743244171142578125">
        <ele>38.799999237060546875</ele>
        <time>2020-11-12T13:51:44.000Z</time>
        <extensions>
          <ns3:TrackPointExtension>
            <ns3:hr>128</ns3:hr>
            <ns3:cad>82</ns3:cad>
          </ns3:TrackPointExtension>
        </extensions>
      </trkpt>
      <trkpt lat="23.18105067126452922821044921875" lon="113.2598170079290866851806640625">
        <ele>28.200000762939453125</ele>
        <time>2020-11-12T13:51:47.000Z</time>
        <extensions>
          <ns3:TrackPointExtension>
            <ns3:hr>131</ns3:hr>
            <ns3:cad>82</ns3:cad>
          </ns3:TrackPointExtension>
        </extensions>
      </trkpt>
      <trkpt lat="23.1810780800879001617431640625" lon="113.2597298361361026763916015625">
        <ele>17.3999996185302734375</ele>
        <time>2020-11-12T13:51:50.000Z</time>
        <extensions>
          <ns3:TrackPointExtension>
            <ns3:hr>134</ns3:hr>
            <ns3:cad>82</ns3:cad>
          </ns3:TrackPointExtension>
        </extensions>
      </trkpt>
      <trkpt lat="23.18112879060208797454833984375" lon="113.2595806382596492767333984375">
        <ele>14.19999980926513671875</ele>
        <time>2020-11-12T13:51:56.000Z</time>
        <extensions>
          <ns3:TrackPointExtension>
            <ns3:hr>137</ns3:hr>
            <ns3:cad>81</ns3:cad>
          </ns3:TrackPointExtension>
        </extensions>
      </trkpt>
      <trkpt lat="23.18121981807053089141845703125" lon="113.25938961468636989593505859375">
        <ele>10</ele>
        <time>2020-11-12T13:52:04.000Z</time>
        <extensions>
          <ns3:TrackPointExtension>
            <ns3:hr>138</ns3:hr>
            <ns3:cad>82</ns3:cad>
          </ns3:TrackPointExtension>
        </extensions>
      </trkpt>
      <trkpt lat="23.18125150166451930999755859375" lon="113.25918476097285747528076171875">
        <ele>7</ele>
        <time>2020-11-12T13:52:16.000Z</time>
        <extensions>
          <ns3:TrackPointExtension>
            <ns3:hr>140</ns3:hr>
            <ns3:cad>61</ns3:cad>
          </ns3:TrackPointExtension>
        </extensions>
      </trkpt>
      <trkpt lat="23.181321322917938232421875" lon="113.25900278985500335693359375">
        <ele>6.80000019073486328125</ele>
        <time>2020-11-12T13:52:32.000Z</time>
        <extensions>
          <ns3:TrackPointExtension>
            <ns3:hr>140</ns3:hr>
            <ns3:cad>61</ns3:cad>
          </ns3:TrackPointExtension>
        </extensions>
      </trkpt>
      <trkpt lat="23.1814009509980678558349609375" lon="113.25882132165133953094482421875">
        <ele>9.6000003814697265625</ele>
        <time>2020-11-12T13:52:48.000Z</time>
        <extensions>
          <ns3:TrackPointExtension>
            <ns3:hr>137</ns3:hr>
            <ns3:cad>61</ns3:cad>
          </ns3:TrackPointExtension>
        </extensions>
      </trkpt>
      <trkpt lat="23.18145484663546085357666015625" lon="113.2587437890470027923583984375">
        <ele>11.3999996185302734375</ele>
        <time>2020-11-12T13:52:56.000Z</time>
        <extensions>
          <ns3:TrackPointExtension>
            <ns3:hr>134</ns3:hr>
            <ns3:cad>61</ns3:cad>
          </ns3:TrackPointExtension>
        </extensions>
      </trkpt>
      <trkpt lat="23.18153313361108303070068359375" lon="113.25869492255151271820068359375">
        <ele>12.80000019073486328125</ele>
        <time>2020-11-12T13:53:03.000Z</time>
        <extensions>
          <ns3:TrackPointExtension>
            <ns3:hr>131</ns3:hr>
            <ns3:cad>61</ns3:cad>
          </ns3:TrackPointExtension>
        </extensions>
      </trkpt>
      <trkpt lat="23.18161712028086185455322265625" lon="113.25862267054617404937744140625">
        <ele>13.80000019073486328125</ele>
        <time>2020-11-12T13:53:11.000Z</time>
        <extensions>
          <ns3:TrackPointExtension>
            <ns3:hr>128</ns3:hr>
            <ns3:cad>61</ns3:cad>
          </ns3:TrackPointExtension>
        </extensions>
      </trkpt>
      <trkpt lat="23.18169356323778629302978515625" lon="113.2585546933114528656005859375">
        <ele>13.6000003814697265625</ele>
        <time>2020-11-12T13:53:18.000Z</time>
        <extensions>
          <ns3:TrackPointExtension>
            <ns3:hr>125</ns3:hr>
            <ns3:cad>61</ns3:cad>
          </ns3:TrackPointExtension>
        </extensions>
      </trkpt>
      <trkpt lat="23.18177101202309131622314453125" lon="113.25849409215152263641357421875">
        <ele>13.3999996185302734375</ele>
        <time>2020-11-12T13:53:25.000Z</time>
        <extensions>
          <ns3:TrackPointExtension>
            <ns3:hr>122</ns3:hr>
            <ns3:cad>61</ns3:cad>
          </ns3:TrackPointExtension>
        </extensions>
      </trkpt>
      <trkpt lat="23.18188332952558994293212890625" lon="113.2584480755031108856201171875">
        <ele>12.19999980926513671875</ele>
        <time>2020-11-12T13:53:35.000Z</time>
        <extensions>
          <ns3:TrackPointExtension>
            <ns3:hr>119</ns3:hr>
            <ns3:cad>61</ns3:cad>
          </ns3:TrackPointExtension>
        </extensions>
      </trkpt>
      <trkpt lat="23.1819782964885234832763671875" lon="113.25839317403733730316162109375">
        <ele>10.80000019073486328125</ele>
        <time>2020-11-12T13:53:44.000Z</time>
        <extensions>
          <ns3:TrackPointExtension>
            <ns3:hr>116</ns3:hr>
            <ns3:cad>61</ns3:cad>
          </ns3:TrackPointExtension>
        </extensions>
      </trkpt>
      <trkpt lat="23.18204887211322784423828125" lon="113.25834095478057861328125">
        <ele>9.19999980926513671875</ele>
        <time>2020-11-12T13:53:52.000Z</time>
        <extensions>
          <ns3:TrackPointExtension>
            <ns3:hr>113</ns3:hr>
            <ns3:cad>0</ns3:cad>
          </ns3:TrackPointExtension>
        </extensions>
      </trkpt>
      <trkpt lat="23.18212858401238918304443359375" lon="113.258307091891765594482421875">
        <ele>8</ele>
        <time>2020-11-12T13:53:59.000Z</time>
        <extensions>
          <ns3:TrackPointExtension>
            <ns3:hr>110</ns3:hr>
            <ns3:cad>61</ns3:cad>
          </ns3:TrackPointExtension>
        </extensions>
      </trkpt>
      <trkpt lat="23.1822005845606327056884765625" lon="113.25830667279660701751708984375">
        <ele>7.400000095367431640625</ele>
        <time>2020-11-12T13:54:05.000Z</time>
        <extensions>
          <ns3:TrackPointExtension>
            <ns3:hr>90</ns3:hr>
            <ns3:cad>0</ns3:cad>
          </ns3:TrackPointExtension>
        </extensions>
      </trkpt>
      <trkpt lat="23.18238540552556514739990234375" lon="113.2582618296146392822265625">
        <ele>6</ele>
        <time>2020-11-12T13:54:21.000Z</time>
        <extensions>
          <ns3:TrackPointExtension>
            <ns3:hr>87</ns3:hr>
            <ns3:cad>58</ns3:cad>
          </ns3:TrackPointExtension>
        </extensions>
      </trkpt>
      <trkpt lat="23.1825281493365764617919921875" lon="113.25814305804669857025146484375">
        <ele>6.400000095367431640625</ele>
        <time>2020-11-12T13:54:39.000Z</time>
        <extensions>
          <ns3:TrackPointExtension>
            <ns3:hr>85</ns3:hr>
            <ns3:cad>58</ns3:cad>
          </ns3:TrackPointExtension>
        </extensions>
      </trkpt>
      <trkpt lat="23.1825633533298969268798828125" lon="113.2579971291124820709228515625">
        <ele>7.400000095367431640625</ele>
        <time>2020-11-12T13:54:52.000Z</time>
        <extensions>
          <ns3:TrackPointExtension>
            <ns3:hr>83</ns3:hr>
            <ns3:cad>0</ns3:cad>
          </ns3:TrackPointExtension>
        </extensions>
      </trkpt>
      <trkpt lat="23.1826746650040149688720703125" lon="113.25785086490213871002197265625">
        <ele>9.3999996185302734375</ele>
        <time>2020-11-12T13:55:09.000Z</time>
        <extensions>
          <ns3:TrackPointExtension>
            <ns3:cad>0</ns3:cad>
          </ns3:TrackPointExtension>
        </extensions>
      </trkpt>
      <trkpt lat="23.18270509131252765655517578125" lon="113.25783795677125453948974609375">
        <ele>9.80000019073486328125</ele>
        <time>2020-11-12T13:55:12.000Z</time>
        <extensions>
          <ns3:TrackPointExtension>
            <ns3:hr>77</ns3:hr>
            <ns3:cad>0</ns3:cad>
          </ns3:TrackPointExtension>
        </extensions>
      </trkpt>
      <trkpt lat="23.18271414376795291900634765625" lon="113.25783225707709789276123046875">
        <ele>9.80000019073486328125</ele>
        <time>2020-11-12T13:55:13.000Z</time>
        <extensions>
          <ns3:TrackPointExtension>
            <ns3:hr>77</ns3:hr>
            <ns3:cad>0</ns3:cad>
          </ns3:TrackPointExtension>
        </extensions>
      </trkpt>
      <trkpt lat="23.182867281138896942138671875" lon="113.257724381983280181884765625">
        <ele>11.6000003814697265625</ele>
        <time>2020-11-12T13:55:29.000Z</time>
        <extensions>
          <ns3:TrackPointExtension>
            <ns3:hr>77</ns3:hr>
            <ns3:cad>59</ns3:cad>
          </ns3:TrackPointExtension>
        </extensions>
      </trkpt>
      <trkpt lat="23.18298722617328166961669921875" lon="113.25762949883937835693359375">
        <ele>12</ele>
        <time>2020-11-12T13:55:42.000Z</time>
        <extensions>
          <ns3:TrackPointExtension>
            <ns3:hr>80</ns3:hr>
            <ns3:cad>57</ns3:cad>
          </ns3:TrackPointExtension>
        </extensions>
      </trkpt>
      <trkpt lat="23.18300868384540081024169921875" lon="113.25761533342301845550537109375">
        <ele>12.19999980926513671875</ele>
        <time>2020-11-12T13:55:45.000Z</time>
        <extensions>
          <ns3:TrackPointExtension>
            <ns3:hr>84</ns3:hr>
            <ns3:cad>57</ns3:cad>
          </ns3:TrackPointExtension>
        </extensions>
      </trkpt>
      <trkpt lat="23.183014132082462310791015625" lon="113.25760862790048122406005859375">
        <ele>12.19999980926513671875</ele>
        <time>2020-11-12T13:55:48.000Z</time>
        <extensions>
          <ns3:TrackPointExtension>
            <ns3:hr>88</ns3:hr>
            <ns3:cad>57</ns3:cad>
          </ns3:TrackPointExtension>
        </extensions>
      </trkpt>
      <trkpt lat="23.183016143739223480224609375" lon="113.25760426931083202362060546875">
        <ele>12.19999980926513671875</ele>
        <time>2020-11-12T13:55:49.000Z</time>
        <extensions>
          <ns3:TrackPointExtension>
            <ns3:hr>90</ns3:hr>
            <ns3:cad>61</ns3:cad>
          </ns3:TrackPointExtension>
        </extensions>
      </trkpt>
      <trkpt lat="23.18304690532386302947998046875" lon="113.257592618465423583984375">
        <ele>12.19999980926513671875</ele>
        <time>2020-11-12T13:55:53.000Z</time>
        <extensions>
          <ns3:TrackPointExtension>
            <ns3:hr>92</ns3:hr>
            <ns3:cad>61</ns3:cad>
          </ns3:TrackPointExtension>
        </extensions>
      </trkpt>
      <trkpt lat="23.18307154811918735504150390625" lon="113.2575770281255245208740234375">
        <ele>12.3999996185302734375</ele>
        <time>2020-11-12T13:55:56.000Z</time>
        <extensions>
          <ns3:TrackPointExtension>
            <ns3:hr>94</ns3:hr>
            <ns3:cad>61</ns3:cad>
          </ns3:TrackPointExtension>
        </extensions>
      </trkpt>
      <trkpt lat="23.18312686868011951446533203125" lon="113.25754693709313869476318359375">
        <ele>12.3999996185302734375</ele>
        <time>2020-11-12T13:56:01.000Z</time>
        <extensions>
          <ns3:TrackPointExtension>
            <ns3:hr>97</ns3:hr>
            <ns3:cad>60</ns3:cad>
          </ns3:TrackPointExtension>
        </extensions>
      </trkpt>
      <trkpt lat="23.18327539600431919097900390625" lon="113.25743277557194232940673828125">
        <ele>12.3999996185302734375</ele>
        <time>2020-11-12T13:56:15.000Z</time>
        <extensions>
          <ns3:TrackPointExtension>
            <ns3:hr>99</ns3:hr>
            <ns3:cad>61</ns3:cad>
          </ns3:TrackPointExtension>
        </extensions>
      </trkpt>
      <trkpt lat="23.18337924778461456298828125" lon="113.25725725851953029632568359375">
        <ele>14.80000019073486328125</ele>
        <time>2020-11-12T13:56:32.000Z</time>
        <extensions>
          <ns3:TrackPointExtension>
            <ns3:hr>100</ns3:hr>
            <ns3:cad>61</ns3:cad>
          </ns3:TrackPointExtension>
        </extensions>
      </trkpt>
      <trkpt lat="23.18342912010848522186279296875" lon="113.2571887783706188201904296875">
        <ele>14.80000019073486328125</ele>
        <time>2020-11-12T13:56:39.000Z</time>
        <extensions>
          <ns3:TrackPointExtension>
            <ns3:hr>100</ns3:hr>
            <ns3:cad>0</ns3:cad>
          </ns3:TrackPointExtension>
        </extensions>
      </trkpt>
    </trkseg>
  </trk>
</gpx>
