<gpx xmlns:ns3="http://www.garmin.com/xmlschemas/TrackPointExtension/v1" xmlns="http://www.topografix.com/GPX/1/1" xmlns:xsi="http://www.w3.org/2001/XMLSchema-instance" xmlns:ns2="http://www.garmin.com/xmlschemas/GpxExtensions/v3" creator="Garmin Connect" version="1.1" xsi:schemaLocation="http://www.topografix.com/GPX/1/1 http://www.topografix.com/GPX/11.xsd">
  <extensions>
<distance>1.29</distance>
<average_hr></average_hr>
<average_speed>0.19599999487400058</average_speed>
<start_time>2020-08-27T15:03:58+00:00</start_time>
<end_time>2020-08-27T15:04:04.547000+00:00</end_time>
<moving_time>0.0</moving_time>
<elapsed_time>6.547</elapsed_time>
</extensions>
<metadata>
    <link href="connect.garmin.com">
      <text>Garmin Connect</text>
    </link>
    <time>2020-08-27T15:03:58.000Z</time>
  </metadata>
  <trk>
    <name>跑步</name>
    <type>running</type>
    <trkseg/>
  </trk>
</gpx>
