<gpx xmlns:ns3="http://www.garmin.com/xmlschemas/TrackPointExtension/v1" xmlns="http://www.topografix.com/GPX/1/1" xmlns:xsi="http://www.w3.org/2001/XMLSchema-instance" xmlns:ns2="http://www.garmin.com/xmlschemas/GpxExtensions/v3" creator="Garmin Connect" version="1.1" xsi:schemaLocation="http://www.topografix.com/GPX/1/1 http://www.topografix.com/GPX/11.xsd">
  <extensions>
<distance>2225.15</distance>
<average_hr>152.0</average_hr>
<average_speed>2.5280001163482666</average_speed>
<start_time>2020-12-01T13:22:02+00:00</start_time>
<end_time>2020-12-01T13:36:42.250000+00:00</end_time>
<moving_time>871.064</moving_time>
<elapsed_time>1168.393</elapsed_time>
</extensions>
<metadata>
    <link href="connect.garmin.com">
      <text>Garmin Connect</text>
    </link>
    <time>2020-12-01T13:22:02.000Z</time>
  </metadata>
  <trk>
    <name>广州市 跑步</name>
    <type>running</type>
    <trkseg>
      <trkpt lat="23.15757145173847675323486328125" lon="113.26142482459545135498046875">
        <ele>9</ele>
        <time>2020-12-01T13:23:40.000Z</time>
        <extensions>
          <ns3:TrackPointExtension>
            <ns3:hr>161</ns3:hr>
            <ns3:cad>83</ns3:cad>
          </ns3:TrackPointExtension>
        </extensions>
      </trkpt>
      <trkpt lat="23.15740817226469516754150390625" lon="113.2611460424959659576416015625">
        <ele>8.19999980926513671875</ele>
        <time>2020-12-01T13:23:41.000Z</time>
        <extensions>
          <ns3:TrackPointExtension>
            <ns3:hr>164</ns3:hr>
            <ns3:cad>83</ns3:cad>
          </ns3:TrackPointExtension>
        </extensions>
      </trkpt>
      <trkpt lat="23.15740817226469516754150390625" lon="113.2611460424959659576416015625">
        <ele>8.19999980926513671875</ele>
        <time>2020-12-01T13:23:42.000Z</time>
        <extensions>
          <ns3:TrackPointExtension>
            <ns3:hr>164</ns3:hr>
            <ns3:cad>83</ns3:cad>
          </ns3:TrackPointExtension>
        </extensions>
      </trkpt>
      <trkpt lat="23.1573505885899066925048828125" lon="113.26058168895542621612548828125">
        <ele>10</ele>
        <time>2020-12-01T13:23:44.000Z</time>
        <extensions>
          <ns3:TrackPointExtension>
            <ns3:hr>165</ns3:hr>
            <ns3:cad>83</ns3:cad>
          </ns3:TrackPointExtension>
        </extensions>
      </trkpt>
      <trkpt lat="23.1573093496263027191162109375" lon="113.26023836620151996612548828125">
        <ele>9.80000019073486328125</ele>
        <time>2020-12-01T13:23:45.000Z</time>
        <extensions>
          <ns3:TrackPointExtension>
            <ns3:hr>165</ns3:hr>
            <ns3:cad>83</ns3:cad>
          </ns3:TrackPointExtension>
        </extensions>
      </trkpt>
      <trkpt lat="23.157691396772861480712890625" lon="113.26088494621217250823974609375">
        <ele>11.80000019073486328125</ele>
        <time>2020-12-01T13:23:49.000Z</time>
        <extensions>
          <ns3:TrackPointExtension>
            <ns3:hr>164</ns3:hr>
            <ns3:cad>83</ns3:cad>
          </ns3:TrackPointExtension>
        </extensions>
      </trkpt>
      <trkpt lat="23.1578749604523181915283203125" lon="113.2612107507884502410888671875">
        <ele>11.3999996185302734375</ele>
        <time>2020-12-01T13:23:56.000Z</time>
        <extensions>
          <ns3:TrackPointExtension>
            <ns3:hr>162</ns3:hr>
            <ns3:cad>83</ns3:cad>
          </ns3:TrackPointExtension>
        </extensions>
      </trkpt>
      <trkpt lat="23.15795232541859149932861328125" lon="113.26143429614603519439697265625">
        <ele>13.80000019073486328125</ele>
        <time>2020-12-01T13:24:00.000Z</time>
        <extensions>
          <ns3:TrackPointExtension>
            <ns3:hr>161</ns3:hr>
            <ns3:cad>83</ns3:cad>
          </ns3:TrackPointExtension>
        </extensions>
      </trkpt>
      <trkpt lat="23.15803782083094120025634765625" lon="113.26166043989360332489013671875">
        <ele>17.799999237060546875</ele>
        <time>2020-12-01T13:24:04.000Z</time>
        <extensions>
          <ns3:TrackPointExtension>
            <ns3:hr>161</ns3:hr>
            <ns3:cad>82</ns3:cad>
          </ns3:TrackPointExtension>
        </extensions>
      </trkpt>
      <trkpt lat="23.1581430137157440185546875" lon="113.261819444596767425537109375">
        <ele>18.3999996185302734375</ele>
        <time>2020-12-01T13:24:07.000Z</time>
        <extensions>
          <ns3:TrackPointExtension>
            <ns3:hr>161</ns3:hr>
            <ns3:cad>81</ns3:cad>
          </ns3:TrackPointExtension>
        </extensions>
      </trkpt>
      <trkpt lat="23.1582850031554698944091796875" lon="113.26202555559575557708740234375">
        <ele>15.19999980926513671875</ele>
        <time>2020-12-01T13:24:10.000Z</time>
        <extensions>
          <ns3:TrackPointExtension>
            <ns3:hr>161</ns3:hr>
            <ns3:cad>82</ns3:cad>
          </ns3:TrackPointExtension>
        </extensions>
      </trkpt>
      <trkpt lat="23.1584003381431102752685546875" lon="113.262223787605762481689453125">
        <ele>11.6000003814697265625</ele>
        <time>2020-12-01T13:24:12.000Z</time>
        <extensions>
          <ns3:TrackPointExtension>
            <ns3:hr>156</ns3:hr>
            <ns3:cad>81</ns3:cad>
          </ns3:TrackPointExtension>
        </extensions>
      </trkpt>
      <trkpt lat="23.15848407335579395294189453125" lon="113.26237239874899387359619140625">
        <ele>11.80000019073486328125</ele>
        <time>2020-12-01T13:24:13.000Z</time>
        <extensions>
          <ns3:TrackPointExtension>
            <ns3:hr>156</ns3:hr>
            <ns3:cad>81</ns3:cad>
          </ns3:TrackPointExtension>
        </extensions>
      </trkpt>
      <trkpt lat="23.15860770642757415771484375" lon="113.26253316365182399749755859375">
        <ele>14.3999996185302734375</ele>
        <time>2020-12-01T13:24:17.000Z</time>
        <extensions>
          <ns3:TrackPointExtension>
            <ns3:hr>154</ns3:hr>
            <ns3:cad>80</ns3:cad>
          </ns3:TrackPointExtension>
        </extensions>
      </trkpt>
      <trkpt lat="23.15862053073942661285400390625" lon="113.262538276612758636474609375">
        <ele>14.6000003814697265625</ele>
        <time>2020-12-01T13:24:18.000Z</time>
        <extensions>
          <ns3:TrackPointExtension>
            <ns3:hr>154</ns3:hr>
            <ns3:cad>80</ns3:cad>
          </ns3:TrackPointExtension>
        </extensions>
      </trkpt>
      <trkpt lat="23.158667050302028656005859375" lon="113.262520171701908111572265625">
        <ele>15.19999980926513671875</ele>
        <time>2020-12-01T13:24:23.000Z</time>
        <extensions>
          <ns3:TrackPointExtension>
            <ns3:hr>154</ns3:hr>
            <ns3:cad>82</ns3:cad>
          </ns3:TrackPointExtension>
        </extensions>
      </trkpt>
      <trkpt lat="23.1587258912622928619384765625" lon="113.262501060962677001953125">
        <ele>15.80000019073486328125</ele>
        <time>2020-12-01T13:24:31.000Z</time>
        <extensions>
          <ns3:TrackPointExtension>
            <ns3:hr>157</ns3:hr>
            <ns3:cad>82</ns3:cad>
          </ns3:TrackPointExtension>
        </extensions>
      </trkpt>
      <trkpt lat="23.1587936170399188995361328125" lon="113.262271396815776824951171875">
        <ele>13.6000003814697265625</ele>
        <time>2020-12-01T13:24:35.000Z</time>
        <extensions>
          <ns3:TrackPointExtension>
            <ns3:hr>159</ns3:hr>
            <ns3:cad>83</ns3:cad>
          </ns3:TrackPointExtension>
        </extensions>
      </trkpt>
      <trkpt lat="23.15880945883691310882568359375" lon="113.26207383535802364349365234375">
        <ele>13</ele>
        <time>2020-12-01T13:24:42.000Z</time>
        <extensions>
          <ns3:TrackPointExtension>
            <ns3:hr>159</ns3:hr>
            <ns3:cad>84</ns3:cad>
          </ns3:TrackPointExtension>
        </extensions>
      </trkpt>
      <trkpt lat="23.158846087753772735595703125" lon="113.2618719153106212615966796875">
        <ele>15.19999980926513671875</ele>
        <time>2020-12-01T13:24:51.000Z</time>
        <extensions>
          <ns3:TrackPointExtension>
            <ns3:hr>159</ns3:hr>
            <ns3:cad>85</ns3:cad>
          </ns3:TrackPointExtension>
        </extensions>
      </trkpt>
      <trkpt lat="23.1588806211948394775390625" lon="113.2617247290909290313720703125">
        <ele>18.3999996185302734375</ele>
        <time>2020-12-01T13:24:55.000Z</time>
        <extensions>
          <ns3:TrackPointExtension>
            <ns3:hr>160</ns3:hr>
            <ns3:cad>85</ns3:cad>
          </ns3:TrackPointExtension>
        </extensions>
      </trkpt>
      <trkpt lat="23.159043900668621063232421875" lon="113.2615872658789157867431640625">
        <ele>18.200000762939453125</ele>
        <time>2020-12-01T13:25:06.000Z</time>
        <extensions>
          <ns3:TrackPointExtension>
            <ns3:hr>161</ns3:hr>
            <ns3:cad>83</ns3:cad>
          </ns3:TrackPointExtension>
        </extensions>
      </trkpt>
      <trkpt lat="23.15923861227929592132568359375" lon="113.26156388036906719207763671875">
        <ele>17.3999996185302734375</ele>
        <time>2020-12-01T13:25:15.000Z</time>
        <extensions>
          <ns3:TrackPointExtension>
            <ns3:hr>162</ns3:hr>
            <ns3:cad>83</ns3:cad>
          </ns3:TrackPointExtension>
        </extensions>
      </trkpt>
      <trkpt lat="23.1594085134565830230712890625" lon="113.26142750680446624755859375">
        <ele>17.3999996185302734375</ele>
        <time>2020-12-01T13:25:25.000Z</time>
        <extensions>
          <ns3:TrackPointExtension>
            <ns3:hr>160</ns3:hr>
            <ns3:cad>83</ns3:cad>
          </ns3:TrackPointExtension>
        </extensions>
      </trkpt>
      <trkpt lat="23.159583695232868194580078125" lon="113.261419124901294708251953125">
        <ele>16.799999237060546875</ele>
        <time>2020-12-01T13:25:33.000Z</time>
        <extensions>
          <ns3:TrackPointExtension>
            <ns3:hr>160</ns3:hr>
            <ns3:cad>81</ns3:cad>
          </ns3:TrackPointExtension>
        </extensions>
      </trkpt>
      <trkpt lat="23.1597769819200038909912109375" lon="113.261407725512981414794921875">
        <ele>17.3999996185302734375</ele>
        <time>2020-12-01T13:25:41.000Z</time>
        <extensions>
          <ns3:TrackPointExtension>
            <ns3:hr>160</ns3:hr>
            <ns3:cad>78</ns3:cad>
          </ns3:TrackPointExtension>
        </extensions>
      </trkpt>
      <trkpt lat="23.15997504629194736480712890625" lon="113.26141250319778919219970703125">
        <ele>17</ele>
        <time>2020-12-01T13:25:52.000Z</time>
        <extensions>
          <ns3:TrackPointExtension>
            <ns3:hr>161</ns3:hr>
            <ns3:cad>82</ns3:cad>
          </ns3:TrackPointExtension>
        </extensions>
      </trkpt>
      <trkpt lat="23.16003036685287952423095703125" lon="113.26140060089528560638427734375">
        <ele>17.200000762939453125</ele>
        <time>2020-12-01T13:25:56.000Z</time>
        <extensions>
          <ns3:TrackPointExtension>
            <ns3:hr>163</ns3:hr>
            <ns3:cad>83</ns3:cad>
          </ns3:TrackPointExtension>
        </extensions>
      </trkpt>
      <trkpt lat="23.160155676305294036865234375" lon="113.26125727035105228424072265625">
        <ele>17.799999237060546875</ele>
        <time>2020-12-01T13:26:07.000Z</time>
        <extensions>
          <ns3:TrackPointExtension>
            <ns3:hr>162</ns3:hr>
            <ns3:cad>83</ns3:cad>
          </ns3:TrackPointExtension>
        </extensions>
      </trkpt>
      <trkpt lat="23.16032675094902515411376953125" lon="113.26120513491332530975341796875">
        <ele>19.6000003814697265625</ele>
        <time>2020-12-01T13:26:17.000Z</time>
        <extensions>
          <ns3:TrackPointExtension>
            <ns3:hr>162</ns3:hr>
            <ns3:cad>83</ns3:cad>
          </ns3:TrackPointExtension>
        </extensions>
      </trkpt>
      <trkpt lat="23.16051475703716278076171875" lon="113.26125509105622768402099609375">
        <ele>22</ele>
        <time>2020-12-01T13:26:23.000Z</time>
        <extensions>
          <ns3:TrackPointExtension>
            <ns3:hr>162</ns3:hr>
            <ns3:cad>83</ns3:cad>
          </ns3:TrackPointExtension>
        </extensions>
      </trkpt>
      <trkpt lat="23.1606758572161197662353515625" lon="113.261461369693279266357421875">
        <ele>22.799999237060546875</ele>
        <time>2020-12-01T13:26:27.000Z</time>
        <extensions>
          <ns3:TrackPointExtension>
            <ns3:hr>161</ns3:hr>
            <ns3:cad>79</ns3:cad>
          </ns3:TrackPointExtension>
        </extensions>
      </trkpt>
      <trkpt lat="23.16081290133297443389892578125" lon="113.26161970384418964385986328125">
        <ele>23.3999996185302734375</ele>
        <time>2020-12-01T13:26:31.000Z</time>
        <extensions>
          <ns3:TrackPointExtension>
            <ns3:hr>160</ns3:hr>
            <ns3:cad>83</ns3:cad>
          </ns3:TrackPointExtension>
        </extensions>
      </trkpt>
      <trkpt lat="23.1609283201396465301513671875" lon="113.26180628500878810882568359375">
        <ele>24.3999996185302734375</ele>
        <time>2020-12-01T13:26:38.000Z</time>
        <extensions>
          <ns3:TrackPointExtension>
            <ns3:hr>160</ns3:hr>
            <ns3:cad>81</ns3:cad>
          </ns3:TrackPointExtension>
        </extensions>
      </trkpt>
      <trkpt lat="23.160967715084552764892578125" lon="113.26201365329325199127197265625">
        <ele>24.200000762939453125</ele>
        <time>2020-12-01T13:26:48.000Z</time>
        <extensions>
          <ns3:TrackPointExtension>
            <ns3:hr>160</ns3:hr>
            <ns3:cad>81</ns3:cad>
          </ns3:TrackPointExtension>
        </extensions>
      </trkpt>
      <trkpt lat="23.1607905216515064239501953125" lon="113.26207567937672138214111328125">
        <ele>23.799999237060546875</ele>
        <time>2020-12-01T13:26:59.000Z</time>
        <extensions>
          <ns3:TrackPointExtension>
            <ns3:hr>161</ns3:hr>
            <ns3:cad>83</ns3:cad>
          </ns3:TrackPointExtension>
        </extensions>
      </trkpt>
      <trkpt lat="23.1607409007847309112548828125" lon="113.26209210790693759918212890625">
        <ele>23.799999237060546875</ele>
        <time>2020-12-01T13:27:01.000Z</time>
        <extensions>
          <ns3:TrackPointExtension>
            <ns3:hr>165</ns3:hr>
            <ns3:cad>83</ns3:cad>
          </ns3:TrackPointExtension>
        </extensions>
      </trkpt>
      <trkpt lat="23.16054157912731170654296875" lon="113.262117169797420501708984375">
        <ele>21.3999996185302734375</ele>
        <time>2020-12-01T13:27:08.000Z</time>
        <extensions>
          <ns3:TrackPointExtension>
            <ns3:hr>162</ns3:hr>
            <ns3:cad>83</ns3:cad>
          </ns3:TrackPointExtension>
        </extensions>
      </trkpt>
      <trkpt lat="23.16032222472131252288818359375" lon="113.26198481954634189605712890625">
        <ele>20.799999237060546875</ele>
        <time>2020-12-01T13:27:17.000Z</time>
        <extensions>
          <ns3:TrackPointExtension>
            <ns3:hr>161</ns3:hr>
            <ns3:cad>82</ns3:cad>
          </ns3:TrackPointExtension>
        </extensions>
      </trkpt>
      <trkpt lat="23.1601545028388500213623046875" lon="113.2618796266615390777587890625">
        <ele>20.799999237060546875</ele>
        <time>2020-12-01T13:27:23.000Z</time>
        <extensions>
          <ns3:TrackPointExtension>
            <ns3:hr>162</ns3:hr>
            <ns3:cad>82</ns3:cad>
          </ns3:TrackPointExtension>
        </extensions>
      </trkpt>
      <trkpt lat="23.16004796884953975677490234375" lon="113.26196252368390560150146484375">
        <ele>19.3999996185302734375</ele>
        <time>2020-12-01T13:27:28.000Z</time>
        <extensions>
          <ns3:TrackPointExtension>
            <ns3:hr>164</ns3:hr>
            <ns3:cad>81</ns3:cad>
          </ns3:TrackPointExtension>
        </extensions>
      </trkpt>
      <trkpt lat="23.1600039638578891754150390625" lon="113.26203276403248310089111328125">
        <ele>18.6000003814697265625</ele>
        <time>2020-12-01T13:27:34.000Z</time>
        <extensions>
          <ns3:TrackPointExtension>
            <ns3:hr>162</ns3:hr>
            <ns3:cad>79</ns3:cad>
          </ns3:TrackPointExtension>
        </extensions>
      </trkpt>
      <trkpt lat="23.15994805656373500823974609375" lon="113.26223426498472690582275390625">
        <ele>16.200000762939453125</ele>
        <time>2020-12-01T13:27:44.000Z</time>
        <extensions>
          <ns3:TrackPointExtension>
            <ns3:hr>163</ns3:hr>
            <ns3:cad>81</ns3:cad>
          </ns3:TrackPointExtension>
        </extensions>
      </trkpt>
      <trkpt lat="23.15982987172901630401611328125" lon="113.26239176094532012939453125">
        <ele>13.3999996185302734375</ele>
        <time>2020-12-01T13:27:54.000Z</time>
        <extensions>
          <ns3:TrackPointExtension>
            <ns3:hr>162</ns3:hr>
            <ns3:cad>80</ns3:cad>
          </ns3:TrackPointExtension>
        </extensions>
      </trkpt>
      <trkpt lat="23.15982920117676258087158203125" lon="113.26239134185016155242919921875">
        <ele>13.3999996185302734375</ele>
        <time>2020-12-01T13:27:55.000Z</time>
        <extensions>
          <ns3:TrackPointExtension>
            <ns3:hr>161</ns3:hr>
            <ns3:cad>80</ns3:cad>
          </ns3:TrackPointExtension>
        </extensions>
      </trkpt>
      <trkpt lat="23.1598098389804363250732421875" lon="113.26233032159507274627685546875">
        <ele>13.3999996185302734375</ele>
        <time>2020-12-01T13:28:00.000Z</time>
        <extensions>
          <ns3:TrackPointExtension>
            <ns3:hr>161</ns3:hr>
            <ns3:cad>77</ns3:cad>
          </ns3:TrackPointExtension>
        </extensions>
      </trkpt>
      <trkpt lat="23.15978628583252429962158203125" lon="113.26237306930124759674072265625">
        <ele>13</ele>
        <time>2020-12-01T13:28:13.000Z</time>
        <extensions>
          <ns3:TrackPointExtension>
            <ns3:hr>163</ns3:hr>
            <ns3:cad>83</ns3:cad>
          </ns3:TrackPointExtension>
        </extensions>
      </trkpt>
      <trkpt lat="23.159786202013492584228515625" lon="113.26237306930124759674072265625">
        <ele>13</ele>
        <time>2020-12-01T13:28:20.000Z</time>
        <extensions>
          <ns3:TrackPointExtension>
            <ns3:hr>164</ns3:hr>
            <ns3:cad>82</ns3:cad>
          </ns3:TrackPointExtension>
        </extensions>
      </trkpt>
      <trkpt lat="23.159786202013492584228515625" lon="113.26237306930124759674072265625">
        <ele>13</ele>
        <time>2020-12-01T13:28:24.000Z</time>
        <extensions>
          <ns3:TrackPointExtension>
            <ns3:hr>165</ns3:hr>
            <ns3:cad>83</ns3:cad>
          </ns3:TrackPointExtension>
        </extensions>
      </trkpt>
      <trkpt lat="23.1597860343754291534423828125" lon="113.2623731531202793121337890625">
        <ele>13</ele>
        <time>2020-12-01T13:28:28.000Z</time>
        <extensions>
          <ns3:TrackPointExtension>
            <ns3:hr>166</ns3:hr>
            <ns3:cad>83</ns3:cad>
          </ns3:TrackPointExtension>
        </extensions>
      </trkpt>
      <trkpt lat="23.15978611819446086883544921875" lon="113.2623731531202793121337890625">
        <ele>13</ele>
        <time>2020-12-01T13:28:29.000Z</time>
        <extensions>
          <ns3:TrackPointExtension>
            <ns3:hr>166</ns3:hr>
            <ns3:cad>83</ns3:cad>
          </ns3:TrackPointExtension>
        </extensions>
      </trkpt>
      <trkpt lat="23.1597934104502201080322265625" lon="113.2623843848705291748046875">
        <ele>13</ele>
        <time>2020-12-01T13:28:34.000Z</time>
        <extensions>
          <ns3:TrackPointExtension>
            <ns3:hr>166</ns3:hr>
            <ns3:cad>83</ns3:cad>
          </ns3:TrackPointExtension>
        </extensions>
      </trkpt>
      <trkpt lat="23.15982081927359104156494140625" lon="113.26237558387219905853271484375">
        <ele>13.19999980926513671875</ele>
        <time>2020-12-01T13:28:37.000Z</time>
        <extensions>
          <ns3:TrackPointExtension>
            <ns3:hr>166</ns3:hr>
            <ns3:cad>83</ns3:cad>
          </ns3:TrackPointExtension>
        </extensions>
      </trkpt>
      <trkpt lat="23.15983238629996776580810546875" lon="113.26234809122979640960693359375">
        <ele>13.6000003814697265625</ele>
        <time>2020-12-01T13:28:39.000Z</time>
        <extensions>
          <ns3:TrackPointExtension>
            <ns3:hr>167</ns3:hr>
            <ns3:cad>84</ns3:cad>
          </ns3:TrackPointExtension>
        </extensions>
      </trkpt>
      <trkpt lat="23.15982970409095287322998046875" lon="113.26235932298004627227783203125">
        <ele>13.3999996185302734375</ele>
        <time>2020-12-01T13:28:41.000Z</time>
        <extensions>
          <ns3:TrackPointExtension>
            <ns3:hr>167</ns3:hr>
            <ns3:cad>83</ns3:cad>
          </ns3:TrackPointExtension>
        </extensions>
      </trkpt>
      <trkpt lat="23.1598597951233386993408203125" lon="113.26229863800108432769775390625">
        <ele>14.6000003814697265625</ele>
        <time>2020-12-01T13:28:44.000Z</time>
        <extensions>
          <ns3:TrackPointExtension>
            <ns3:hr>167</ns3:hr>
            <ns3:cad>83</ns3:cad>
          </ns3:TrackPointExtension>
        </extensions>
      </trkpt>
      <trkpt lat="23.15992659889161586761474609375" lon="113.26207953505218029022216796875">
        <ele>17.799999237060546875</ele>
        <time>2020-12-01T13:28:47.000Z</time>
        <extensions>
          <ns3:TrackPointExtension>
            <ns3:hr>165</ns3:hr>
            <ns3:cad>82</ns3:cad>
          </ns3:TrackPointExtension>
        </extensions>
      </trkpt>
      <trkpt lat="23.159906566143035888671875" lon="113.26189446263015270233154296875">
        <ele>18.799999237060546875</ele>
        <time>2020-12-01T13:28:50.000Z</time>
        <extensions>
          <ns3:TrackPointExtension>
            <ns3:hr>169</ns3:hr>
            <ns3:cad>83</ns3:cad>
          </ns3:TrackPointExtension>
        </extensions>
      </trkpt>
      <trkpt lat="23.159899525344371795654296875" lon="113.2618075422942638397216796875">
        <ele>19</ele>
        <time>2020-12-01T13:28:51.000Z</time>
        <extensions>
          <ns3:TrackPointExtension>
            <ns3:hr>180</ns3:hr>
            <ns3:cad>83</ns3:cad>
          </ns3:TrackPointExtension>
        </extensions>
      </trkpt>
      <trkpt lat="23.159899525344371795654296875" lon="113.2618075422942638397216796875">
        <ele>19</ele>
        <time>2020-12-01T13:28:52.000Z</time>
        <extensions>
          <ns3:TrackPointExtension>
            <ns3:hr>180</ns3:hr>
            <ns3:cad>83</ns3:cad>
          </ns3:TrackPointExtension>
        </extensions>
      </trkpt>
      <trkpt lat="23.1598701886832714080810546875" lon="113.2616016827523708343505859375">
        <ele>18.6000003814697265625</ele>
        <time>2020-12-01T13:28:57.000Z</time>
        <extensions>
          <ns3:TrackPointExtension>
            <ns3:hr>179</ns3:hr>
            <ns3:cad>83</ns3:cad>
          </ns3:TrackPointExtension>
        </extensions>
      </trkpt>
      <trkpt lat="23.15983741544187068939208984375" lon="113.2615435123443603515625">
        <ele>18.3999996185302734375</ele>
        <time>2020-12-01T13:29:03.000Z</time>
        <extensions>
          <ns3:TrackPointExtension>
            <ns3:hr>176</ns3:hr>
            <ns3:cad>82</ns3:cad>
          </ns3:TrackPointExtension>
        </extensions>
      </trkpt>
      <trkpt lat="23.159828446805477142333984375" lon="113.2615570910274982452392578125">
        <ele>18.3999996185302734375</ele>
        <time>2020-12-01T13:29:04.000Z</time>
        <extensions>
          <ns3:TrackPointExtension>
            <ns3:hr>173</ns3:hr>
            <ns3:cad>82</ns3:cad>
          </ns3:TrackPointExtension>
        </extensions>
      </trkpt>
      <trkpt lat="23.159828446805477142333984375" lon="113.2615570910274982452392578125">
        <ele>18.3999996185302734375</ele>
        <time>2020-12-01T13:29:05.000Z</time>
        <extensions>
          <ns3:TrackPointExtension>
            <ns3:hr>173</ns3:hr>
            <ns3:cad>82</ns3:cad>
          </ns3:TrackPointExtension>
        </extensions>
      </trkpt>
      <trkpt lat="23.15876436419785022735595703125" lon="113.25974978506565093994140625">
        <ele>9.19999980926513671875</ele>
        <time>2020-12-01T13:33:25.000Z</time>
        <extensions>
          <ns3:TrackPointExtension>
            <ns3:hr>118</ns3:hr>
            <ns3:cad>61</ns3:cad>
          </ns3:TrackPointExtension>
        </extensions>
      </trkpt>
      <trkpt lat="23.158760257065296173095703125" lon="113.2597450911998748779296875">
        <ele>9.19999980926513671875</ele>
        <time>2020-12-01T13:33:26.000Z</time>
        <extensions>
          <ns3:TrackPointExtension>
            <ns3:hr>118</ns3:hr>
            <ns3:cad>61</ns3:cad>
          </ns3:TrackPointExtension>
        </extensions>
      </trkpt>
      <trkpt lat="23.15874206833541393280029296875" lon="113.25974366627633571624755859375">
        <ele>9</ele>
        <time>2020-12-01T13:33:28.000Z</time>
        <extensions>
          <ns3:TrackPointExtension>
            <ns3:hr>118</ns3:hr>
            <ns3:cad>61</ns3:cad>
          </ns3:TrackPointExtension>
        </extensions>
      </trkpt>
      <trkpt lat="23.1585954688489437103271484375" lon="113.2597625255584716796875">
        <ele>7.80000019073486328125</ele>
        <time>2020-12-01T13:33:35.000Z</time>
        <extensions>
          <ns3:TrackPointExtension>
            <ns3:hr>115</ns3:hr>
            <ns3:cad>82</ns3:cad>
          </ns3:TrackPointExtension>
        </extensions>
      </trkpt>
      <trkpt lat="23.1585468538105487823486328125" lon="113.259763531386852264404296875">
        <ele>7.80000019073486328125</ele>
        <time>2020-12-01T13:33:36.000Z</time>
        <extensions>
          <ns3:TrackPointExtension>
            <ns3:hr>118</ns3:hr>
            <ns3:cad>82</ns3:cad>
          </ns3:TrackPointExtension>
        </extensions>
      </trkpt>
      <trkpt lat="23.1584647111594676971435546875" lon="113.25975724495947360992431640625">
        <ele>7.80000019073486328125</ele>
        <time>2020-12-01T13:33:40.000Z</time>
        <extensions>
          <ns3:TrackPointExtension>
            <ns3:hr>128</ns3:hr>
            <ns3:cad>81</ns3:cad>
          </ns3:TrackPointExtension>
        </extensions>
      </trkpt>
      <trkpt lat="23.158404529094696044921875" lon="113.2597638666629791259765625">
        <ele>8</ele>
        <time>2020-12-01T13:33:41.000Z</time>
        <extensions>
          <ns3:TrackPointExtension>
            <ns3:hr>126</ns3:hr>
            <ns3:cad>81</ns3:cad>
          </ns3:TrackPointExtension>
        </extensions>
      </trkpt>
      <trkpt lat="23.15834644250571727752685546875" lon="113.25978021137416362762451171875">
        <ele>8.19999980926513671875</ele>
        <time>2020-12-01T13:33:44.000Z</time>
        <extensions>
          <ns3:TrackPointExtension>
            <ns3:hr>133</ns3:hr>
            <ns3:cad>83</ns3:cad>
          </ns3:TrackPointExtension>
        </extensions>
      </trkpt>
      <trkpt lat="23.15828810445964336395263671875" lon="113.25978959910571575164794921875">
        <ele>8.6000003814697265625</ele>
        <time>2020-12-01T13:33:45.000Z</time>
        <extensions>
          <ns3:TrackPointExtension>
            <ns3:hr>138</ns3:hr>
            <ns3:cad>83</ns3:cad>
          </ns3:TrackPointExtension>
        </extensions>
      </trkpt>
      <trkpt lat="23.15828810445964336395263671875" lon="113.25978959910571575164794921875">
        <ele>8.6000003814697265625</ele>
        <time>2020-12-01T13:33:46.000Z</time>
        <extensions>
          <ns3:TrackPointExtension>
            <ns3:hr>138</ns3:hr>
            <ns3:cad>83</ns3:cad>
          </ns3:TrackPointExtension>
        </extensions>
      </trkpt>
      <trkpt lat="23.15826010890305042266845703125" lon="113.259792029857635498046875">
        <ele>8.80000019073486328125</ele>
        <time>2020-12-01T13:33:47.000Z</time>
        <extensions>
          <ns3:TrackPointExtension>
            <ns3:hr>142</ns3:hr>
            <ns3:cad>83</ns3:cad>
          </ns3:TrackPointExtension>
        </extensions>
      </trkpt>
      <trkpt lat="23.15823127515614032745361328125" lon="113.2597952149808406829833984375">
        <ele>9</ele>
        <time>2020-12-01T13:33:48.000Z</time>
        <extensions>
          <ns3:TrackPointExtension>
            <ns3:hr>145</ns3:hr>
            <ns3:cad>83</ns3:cad>
          </ns3:TrackPointExtension>
        </extensions>
      </trkpt>
      <trkpt lat="23.15811996348202228546142578125" lon="113.25979965738952159881591796875">
        <ele>9.80000019073486328125</ele>
        <time>2020-12-01T13:33:52.000Z</time>
        <extensions>
          <ns3:TrackPointExtension>
            <ns3:hr>140</ns3:hr>
            <ns3:cad>83</ns3:cad>
          </ns3:TrackPointExtension>
        </extensions>
      </trkpt>
      <trkpt lat="23.15807386301457881927490234375" lon="113.25976311229169368743896484375">
        <ele>10.19999980926513671875</ele>
        <time>2020-12-01T13:33:55.000Z</time>
        <extensions>
          <ns3:TrackPointExtension>
            <ns3:hr>143</ns3:hr>
            <ns3:cad>83</ns3:cad>
          </ns3:TrackPointExtension>
        </extensions>
      </trkpt>
      <trkpt lat="23.15807017497718334197998046875" lon="113.259733021259307861328125">
        <ele>10.19999980926513671875</ele>
        <time>2020-12-01T13:33:56.000Z</time>
        <extensions>
          <ns3:TrackPointExtension>
            <ns3:hr>152</ns3:hr>
            <ns3:cad>83</ns3:cad>
          </ns3:TrackPointExtension>
        </extensions>
      </trkpt>
      <trkpt lat="23.15807017497718334197998046875" lon="113.259733021259307861328125">
        <ele>10.19999980926513671875</ele>
        <time>2020-12-01T13:33:57.000Z</time>
        <extensions>
          <ns3:TrackPointExtension>
            <ns3:hr>152</ns3:hr>
            <ns3:cad>83</ns3:cad>
          </ns3:TrackPointExtension>
        </extensions>
      </trkpt>
      <trkpt lat="23.15807704813778400421142578125" lon="113.259481899440288543701171875">
        <ele>12</ele>
        <time>2020-12-01T13:34:04.000Z</time>
        <extensions>
          <ns3:TrackPointExtension>
            <ns3:hr>154</ns3:hr>
            <ns3:cad>84</ns3:cad>
          </ns3:TrackPointExtension>
        </extensions>
      </trkpt>
      <trkpt lat="23.15806816332042217254638671875" lon="113.259395398199558258056640625">
        <ele>12.80000019073486328125</ele>
        <time>2020-12-01T13:34:05.000Z</time>
        <extensions>
          <ns3:TrackPointExtension>
            <ns3:hr>150</ns3:hr>
            <ns3:cad>84</ns3:cad>
          </ns3:TrackPointExtension>
        </extensions>
      </trkpt>
      <trkpt lat="23.1580482982099056243896484375" lon="113.25922432355582714080810546875">
        <ele>15.19999980926513671875</ele>
        <time>2020-12-01T13:34:10.000Z</time>
        <extensions>
          <ns3:TrackPointExtension>
            <ns3:hr>154</ns3:hr>
            <ns3:cad>83</ns3:cad>
          </ns3:TrackPointExtension>
        </extensions>
      </trkpt>
      <trkpt lat="23.15803782083094120025634765625" lon="113.2590539194643497467041015625">
        <ele>18.3999996185302734375</ele>
        <time>2020-12-01T13:34:14.000Z</time>
        <extensions>
          <ns3:TrackPointExtension>
            <ns3:hr>151</ns3:hr>
            <ns3:cad>83</ns3:cad>
          </ns3:TrackPointExtension>
        </extensions>
      </trkpt>
      <trkpt lat="23.15803413279354572296142578125" lon="113.258842192590236663818359375">
        <ele>22.799999237060546875</ele>
        <time>2020-12-01T13:34:20.000Z</time>
        <extensions>
          <ns3:TrackPointExtension>
            <ns3:hr>149</ns3:hr>
            <ns3:cad>82</ns3:cad>
          </ns3:TrackPointExtension>
        </extensions>
      </trkpt>
      <trkpt lat="23.158036731183528900146484375" lon="113.258792571723461151123046875">
        <ele>23.3999996185302734375</ele>
        <time>2020-12-01T13:34:21.000Z</time>
        <extensions>
          <ns3:TrackPointExtension>
            <ns3:hr>144</ns3:hr>
            <ns3:cad>82</ns3:cad>
          </ns3:TrackPointExtension>
        </extensions>
      </trkpt>
      <trkpt lat="23.158036731183528900146484375" lon="113.258792571723461151123046875">
        <ele>23.3999996185302734375</ele>
        <time>2020-12-01T13:34:22.000Z</time>
        <extensions>
          <ns3:TrackPointExtension>
            <ns3:hr>144</ns3:hr>
            <ns3:cad>82</ns3:cad>
          </ns3:TrackPointExtension>
        </extensions>
      </trkpt>
      <trkpt lat="23.15803916193544864654541015625" lon="113.2587722875177860260009765625">
        <ele>23.6000003814697265625</ele>
        <time>2020-12-01T13:34:23.000Z</time>
        <extensions>
          <ns3:TrackPointExtension>
            <ns3:hr>151</ns3:hr>
            <ns3:cad>82</ns3:cad>
          </ns3:TrackPointExtension>
        </extensions>
      </trkpt>
      <trkpt lat="23.15803907811641693115234375" lon="113.25871956534683704376220703125">
        <ele>24.200000762939453125</ele>
        <time>2020-12-01T13:34:25.000Z</time>
        <extensions>
          <ns3:TrackPointExtension>
            <ns3:hr>155</ns3:hr>
            <ns3:cad>81</ns3:cad>
          </ns3:TrackPointExtension>
        </extensions>
      </trkpt>
      <trkpt lat="23.15804335288703441619873046875" lon="113.25869056396186351776123046875">
        <ele>24.6000003814697265625</ele>
        <time>2020-12-01T13:34:26.000Z</time>
        <extensions>
          <ns3:TrackPointExtension>
            <ns3:hr>159</ns3:hr>
            <ns3:cad>81</ns3:cad>
          </ns3:TrackPointExtension>
        </extensions>
      </trkpt>
      <trkpt lat="23.1580462865531444549560546875" lon="113.2586331479251384735107421875">
        <ele>25.200000762939453125</ele>
        <time>2020-12-01T13:34:28.000Z</time>
        <extensions>
          <ns3:TrackPointExtension>
            <ns3:hr>164</ns3:hr>
            <ns3:cad>80</ns3:cad>
          </ns3:TrackPointExtension>
        </extensions>
      </trkpt>
      <trkpt lat="23.1580638885498046875" lon="113.2585691101849079132080078125">
        <ele>25.3999996185302734375</ele>
        <time>2020-12-01T13:34:29.000Z</time>
        <extensions>
          <ns3:TrackPointExtension>
            <ns3:hr>161</ns3:hr>
            <ns3:cad>81</ns3:cad>
          </ns3:TrackPointExtension>
        </extensions>
      </trkpt>
      <trkpt lat="23.15809733234345912933349609375" lon="113.2585184834897518157958984375">
        <ele>25.200000762939453125</ele>
        <time>2020-12-01T13:34:32.000Z</time>
        <extensions>
          <ns3:TrackPointExtension>
            <ns3:hr>159</ns3:hr>
            <ns3:cad>83</ns3:cad>
          </ns3:TrackPointExtension>
        </extensions>
      </trkpt>
      <trkpt lat="23.15814242698252201080322265625" lon="113.2584926672279834747314453125">
        <ele>24.6000003814697265625</ele>
        <time>2020-12-01T13:34:34.000Z</time>
        <extensions>
          <ns3:TrackPointExtension>
            <ns3:hr>155</ns3:hr>
            <ns3:cad>80</ns3:cad>
          </ns3:TrackPointExtension>
        </extensions>
      </trkpt>
      <trkpt lat="23.15822138451039791107177734375" lon="113.2584004662930965423583984375">
        <ele>22.3999996185302734375</ele>
        <time>2020-12-01T13:34:39.000Z</time>
        <extensions>
          <ns3:TrackPointExtension>
            <ns3:hr>152</ns3:hr>
            <ns3:cad>81</ns3:cad>
          </ns3:TrackPointExtension>
        </extensions>
      </trkpt>
      <trkpt lat="23.1583897769451141357421875" lon="113.2583159767091274261474609375">
        <ele>18.200000762939453125</ele>
        <time>2020-12-01T13:34:46.000Z</time>
        <extensions>
          <ns3:TrackPointExtension>
            <ns3:hr>152</ns3:hr>
            <ns3:cad>82</ns3:cad>
          </ns3:TrackPointExtension>
        </extensions>
      </trkpt>
      <trkpt lat="23.15854928456246852874755859375" lon="113.25824816711246967315673828125">
        <ele>14.6000003814697265625</ele>
        <time>2020-12-01T13:34:54.000Z</time>
        <extensions>
          <ns3:TrackPointExtension>
            <ns3:hr>155</ns3:hr>
            <ns3:cad>82</ns3:cad>
          </ns3:TrackPointExtension>
        </extensions>
      </trkpt>
      <trkpt lat="23.1586045213043689727783203125" lon="113.25819519348442554473876953125">
        <ele>13.80000019073486328125</ele>
        <time>2020-12-01T13:35:00.000Z</time>
        <extensions>
          <ns3:TrackPointExtension>
            <ns3:hr>156</ns3:hr>
            <ns3:cad>80</ns3:cad>
          </ns3:TrackPointExtension>
        </extensions>
      </trkpt>
      <trkpt lat="23.15878146328032016754150390625" lon="113.25809662230312824249267578125">
        <ele>13</ele>
        <time>2020-12-01T13:35:07.000Z</time>
        <extensions>
          <ns3:TrackPointExtension>
            <ns3:hr>157</ns3:hr>
            <ns3:cad>81</ns3:cad>
          </ns3:TrackPointExtension>
        </extensions>
      </trkpt>
      <trkpt lat="23.15898648463189601898193359375" lon="113.25804783962666988372802734375">
        <ele>13.3999996185302734375</ele>
        <time>2020-12-01T13:35:14.000Z</time>
        <extensions>
          <ns3:TrackPointExtension>
            <ns3:hr>157</ns3:hr>
            <ns3:cad>82</ns3:cad>
          </ns3:TrackPointExtension>
        </extensions>
      </trkpt>
      <trkpt lat="23.15920324064791202545166015625" lon="113.25811254791915416717529296875">
        <ele>14.3999996185302734375</ele>
        <time>2020-12-01T13:35:19.000Z</time>
        <extensions>
          <ns3:TrackPointExtension>
            <ns3:hr>159</ns3:hr>
            <ns3:cad>82</ns3:cad>
          </ns3:TrackPointExtension>
        </extensions>
      </trkpt>
      <trkpt lat="23.15938529558479785919189453125" lon="113.25816082768142223358154296875">
        <ele>15.19999980926513671875</ele>
        <time>2020-12-01T13:35:23.000Z</time>
        <extensions>
          <ns3:TrackPointExtension>
            <ns3:hr>159</ns3:hr>
            <ns3:cad>81</ns3:cad>
          </ns3:TrackPointExtension>
        </extensions>
      </trkpt>
      <trkpt lat="23.1595882214605808258056640625" lon="113.25818463228642940521240234375">
        <ele>16.799999237060546875</ele>
        <time>2020-12-01T13:35:28.000Z</time>
        <extensions>
          <ns3:TrackPointExtension>
            <ns3:hr>159</ns3:hr>
            <ns3:cad>81</ns3:cad>
          </ns3:TrackPointExtension>
        </extensions>
      </trkpt>
      <trkpt lat="23.15981226973235607147216796875" lon="113.25815512798726558685302734375">
        <ele>15.6000003814697265625</ele>
        <time>2020-12-01T13:35:33.000Z</time>
        <extensions>
          <ns3:TrackPointExtension>
            <ns3:hr>159</ns3:hr>
            <ns3:cad>82</ns3:cad>
          </ns3:TrackPointExtension>
        </extensions>
      </trkpt>
      <trkpt lat="23.1599982641637325286865234375" lon="113.258175663650035858154296875">
        <ele>13.6000003814697265625</ele>
        <time>2020-12-01T13:35:41.000Z</time>
        <extensions>
          <ns3:TrackPointExtension>
            <ns3:hr>160</ns3:hr>
            <ns3:cad>80</ns3:cad>
          </ns3:TrackPointExtension>
        </extensions>
      </trkpt>
      <trkpt lat="23.1600291095674037933349609375" lon="113.258169628679752349853515625">
        <ele>13.19999980926513671875</ele>
        <time>2020-12-01T13:35:44.000Z</time>
        <extensions>
          <ns3:TrackPointExtension>
            <ns3:hr>157</ns3:hr>
            <ns3:cad>80</ns3:cad>
          </ns3:TrackPointExtension>
        </extensions>
      </trkpt>
      <trkpt lat="23.1602024473249912261962890625" lon="113.25812780298292636871337890625">
        <ele>10.80000019073486328125</ele>
        <time>2020-12-01T13:36:00.000Z</time>
        <extensions>
          <ns3:TrackPointExtension>
            <ns3:hr>156</ns3:hr>
            <ns3:cad>61</ns3:cad>
          </ns3:TrackPointExtension>
        </extensions>
      </trkpt>
      <trkpt lat="23.16022449173033237457275390625" lon="113.25797743164002895355224609375">
        <ele>10.80000019073486328125</ele>
        <time>2020-12-01T13:36:08.000Z</time>
        <extensions>
          <ns3:TrackPointExtension>
            <ns3:hr>153</ns3:hr>
            <ns3:cad>61</ns3:cad>
          </ns3:TrackPointExtension>
        </extensions>
      </trkpt>
      <trkpt lat="23.16024460829794406890869140625" lon="113.25796687044203281402587890625">
        <ele>10.80000019073486328125</ele>
        <time>2020-12-01T13:36:09.000Z</time>
        <extensions>
          <ns3:TrackPointExtension>
            <ns3:hr>153</ns3:hr>
            <ns3:cad>61</ns3:cad>
          </ns3:TrackPointExtension>
        </extensions>
      </trkpt>
      <trkpt lat="23.1602782197296619415283203125" lon="113.25795178301632404327392578125">
        <ele>10.80000019073486328125</ele>
        <time>2020-12-01T13:36:14.000Z</time>
        <extensions>
          <ns3:TrackPointExtension>
            <ns3:hr>147</ns3:hr>
            <ns3:cad>61</ns3:cad>
          </ns3:TrackPointExtension>
        </extensions>
      </trkpt>
      <trkpt lat="23.1603037007153034210205078125" lon="113.2579374499619007110595703125">
        <ele>10.80000019073486328125</ele>
        <time>2020-12-01T13:36:17.000Z</time>
        <extensions>
          <ns3:TrackPointExtension>
            <ns3:hr>155</ns3:hr>
            <ns3:cad>0</ns3:cad>
          </ns3:TrackPointExtension>
        </extensions>
      </trkpt>
      <trkpt lat="23.16032205708324909210205078125" lon="113.2579317502677440643310546875">
        <ele>10.80000019073486328125</ele>
        <time>2020-12-01T13:36:19.000Z</time>
        <extensions>
          <ns3:TrackPointExtension>
            <ns3:hr>162</ns3:hr>
            <ns3:cad>0</ns3:cad>
          </ns3:TrackPointExtension>
        </extensions>
      </trkpt>
      <trkpt lat="23.16032976843416690826416015625" lon="113.25792881660163402557373046875">
        <ele>10.80000019073486328125</ele>
        <time>2020-12-01T13:36:20.000Z</time>
        <extensions>
          <ns3:TrackPointExtension>
            <ns3:hr>162</ns3:hr>
            <ns3:cad>0</ns3:cad>
          </ns3:TrackPointExtension>
        </extensions>
      </trkpt>
      <trkpt lat="23.16033982671797275543212890625" lon="113.2579119689762592315673828125">
        <ele>11</ele>
        <time>2020-12-01T13:36:21.000Z</time>
        <extensions>
          <ns3:TrackPointExtension>
            <ns3:hr>159</ns3:hr>
            <ns3:cad>0</ns3:cad>
          </ns3:TrackPointExtension>
        </extensions>
      </trkpt>
      <trkpt lat="23.1603335402905941009521484375" lon="113.25779554434120655059814453125">
        <ele>13</ele>
        <time>2020-12-01T13:36:27.000Z</time>
        <extensions>
          <ns3:TrackPointExtension>
            <ns3:hr>159</ns3:hr>
            <ns3:cad>58</ns3:cad>
          </ns3:TrackPointExtension>
        </extensions>
      </trkpt>
      <trkpt lat="23.16029079258441925048828125" lon="113.25757308863103389739990234375">
        <ele>18.6000003814697265625</ele>
        <time>2020-12-01T13:36:32.000Z</time>
        <extensions>
          <ns3:TrackPointExtension>
            <ns3:hr>158</ns3:hr>
            <ns3:cad>0</ns3:cad>
          </ns3:TrackPointExtension>
        </extensions>
      </trkpt>
      <trkpt lat="23.16030093468725681304931640625" lon="113.25757007114589214324951171875">
        <ele>18.6000003814697265625</ele>
        <time>2020-12-01T13:36:33.000Z</time>
        <extensions>
          <ns3:TrackPointExtension>
            <ns3:hr>157</ns3:hr>
            <ns3:cad>0</ns3:cad>
          </ns3:TrackPointExtension>
        </extensions>
      </trkpt>
      <trkpt lat="23.16034980118274688720703125" lon="113.25759873725473880767822265625">
        <ele>17.6000003814697265625</ele>
        <time>2020-12-01T13:36:36.000Z</time>
        <extensions>
          <ns3:TrackPointExtension>
            <ns3:hr>154</ns3:hr>
            <ns3:cad>0</ns3:cad>
          </ns3:TrackPointExtension>
        </extensions>
      </trkpt>
      <trkpt lat="23.16037151031196117401123046875" lon="113.257587589323520660400390625">
        <ele>18.200000762939453125</ele>
        <time>2020-12-01T13:36:39.000Z</time>
        <extensions>
          <ns3:TrackPointExtension>
            <ns3:hr>151</ns3:hr>
            <ns3:cad>0</ns3:cad>
          </ns3:TrackPointExtension>
        </extensions>
      </trkpt>
      <trkpt lat="23.16038173623383045196533203125" lon="113.2575844042003154754638671875">
        <ele>18.200000762939453125</ele>
        <time>2020-12-01T13:36:40.000Z</time>
        <extensions>
          <ns3:TrackPointExtension>
            <ns3:hr>151</ns3:hr>
            <ns3:cad>0</ns3:cad>
          </ns3:TrackPointExtension>
        </extensions>
      </trkpt>
      <trkpt lat="23.16068172454833984375" lon="113.2579522021114826202392578125">
        <ele>10.3999996185302734375</ele>
        <time>2020-12-01T13:37:08.000Z</time>
        <extensions>
          <ns3:TrackPointExtension>
            <ns3:hr>134</ns3:hr>
            <ns3:cad>0</ns3:cad>
          </ns3:TrackPointExtension>
        </extensions>
      </trkpt>
      <trkpt lat="23.16074140369892120361328125" lon="113.25802403502166271209716796875">
        <ele>10.19999980926513671875</ele>
        <time>2020-12-01T13:37:09.000Z</time>
        <extensions>
          <ns3:TrackPointExtension>
            <ns3:hr>134</ns3:hr>
            <ns3:cad>0</ns3:cad>
          </ns3:TrackPointExtension>
        </extensions>
      </trkpt>
      <trkpt lat="23.16083603538572788238525390625" lon="113.2581781782209873199462890625">
        <ele>12.3999996185302734375</ele>
        <time>2020-12-01T13:37:10.000Z</time>
        <extensions>
          <ns3:TrackPointExtension>
            <ns3:hr>133</ns3:hr>
            <ns3:cad>0</ns3:cad>
          </ns3:TrackPointExtension>
        </extensions>
      </trkpt>
      <trkpt lat="23.16097249276936054229736328125" lon="113.25834942050278186798095703125">
        <ele>15</ele>
        <time>2020-12-01T13:37:15.000Z</time>
        <extensions>
          <ns3:TrackPointExtension>
            <ns3:hr>132</ns3:hr>
            <ns3:cad>61</ns3:cad>
          </ns3:TrackPointExtension>
        </extensions>
      </trkpt>
      <trkpt lat="23.16104114055633544921875" lon="113.25842150487005710601806640625">
        <ele>15.6000003814697265625</ele>
        <time>2020-12-01T13:37:19.000Z</time>
        <extensions>
          <ns3:TrackPointExtension>
            <ns3:hr>131</ns3:hr>
            <ns3:cad>61</ns3:cad>
          </ns3:TrackPointExtension>
        </extensions>
      </trkpt>
      <trkpt lat="23.1611767597496509552001953125" lon="113.25851035304367542266845703125">
        <ele>16.200000762939453125</ele>
        <time>2020-12-01T13:37:29.000Z</time>
        <extensions>
          <ns3:TrackPointExtension>
            <ns3:hr>130</ns3:hr>
            <ns3:cad>56</ns3:cad>
          </ns3:TrackPointExtension>
        </extensions>
      </trkpt>
      <trkpt lat="23.1612892448902130126953125" lon="113.25843709520995616912841796875">
        <ele>17.3999996185302734375</ele>
        <time>2020-12-01T13:37:37.000Z</time>
        <extensions>
          <ns3:TrackPointExtension>
            <ns3:hr>128</ns3:hr>
            <ns3:cad>0</ns3:cad>
          </ns3:TrackPointExtension>
        </extensions>
      </trkpt>
      <trkpt lat="23.16137515939772129058837890625" lon="113.25826493091881275177001953125">
        <ele>17.799999237060546875</ele>
        <time>2020-12-01T13:37:49.000Z</time>
        <extensions>
          <ns3:TrackPointExtension>
            <ns3:hr>128</ns3:hr>
            <ns3:cad>0</ns3:cad>
          </ns3:TrackPointExtension>
        </extensions>
      </trkpt>
      <trkpt lat="23.16138136200606822967529296875" lon="113.25819251127541065216064453125">
        <ele>17.3999996185302734375</ele>
        <time>2020-12-01T13:37:54.000Z</time>
        <extensions>
          <ns3:TrackPointExtension>
            <ns3:hr>125</ns3:hr>
            <ns3:cad>0</ns3:cad>
          </ns3:TrackPointExtension>
        </extensions>
      </trkpt>
      <trkpt lat="23.16143919713795185089111328125" lon="113.2580967061221599578857421875">
        <ele>16.799999237060546875</ele>
        <time>2020-12-01T13:38:06.000Z</time>
        <extensions>
          <ns3:TrackPointExtension>
            <ns3:hr>125</ns3:hr>
            <ns3:cad>0</ns3:cad>
          </ns3:TrackPointExtension>
        </extensions>
      </trkpt>
      <trkpt lat="23.161462582647800445556640625" lon="113.258069716393947601318359375">
        <ele>16.3999996185302734375</ele>
        <time>2020-12-01T13:38:09.000Z</time>
        <extensions>
          <ns3:TrackPointExtension>
            <ns3:hr>123</ns3:hr>
            <ns3:cad>0</ns3:cad>
          </ns3:TrackPointExtension>
        </extensions>
      </trkpt>
      <trkpt lat="23.16150180995464324951171875" lon="113.25800593011081218719482421875">
        <ele>15.6000003814697265625</ele>
        <time>2020-12-01T13:38:18.000Z</time>
        <extensions>
          <ns3:TrackPointExtension>
            <ns3:hr>123</ns3:hr>
            <ns3:cad>0</ns3:cad>
          </ns3:TrackPointExtension>
        </extensions>
      </trkpt>
      <trkpt lat="23.1615127064287662506103515625" lon="113.257963769137859344482421875">
        <ele>15</ele>
        <time>2020-12-01T13:38:23.000Z</time>
        <extensions>
          <ns3:TrackPointExtension>
            <ns3:hr>123</ns3:hr>
            <ns3:cad>59</ns3:cad>
          </ns3:TrackPointExtension>
        </extensions>
      </trkpt>
      <trkpt lat="23.1616687774658203125" lon="113.25782706029713153839111328125">
        <ele>11</ele>
        <time>2020-12-01T13:38:34.000Z</time>
        <extensions>
          <ns3:TrackPointExtension>
            <ns3:hr>123</ns3:hr>
            <ns3:cad>79</ns3:cad>
          </ns3:TrackPointExtension>
        </extensions>
      </trkpt>
      <trkpt lat="23.16181252710521221160888671875" lon="113.257700242102146148681640625">
        <ele>10</ele>
        <time>2020-12-01T13:38:40.000Z</time>
        <extensions>
          <ns3:TrackPointExtension>
            <ns3:hr>124</ns3:hr>
            <ns3:cad>84</ns3:cad>
          </ns3:TrackPointExtension>
        </extensions>
      </trkpt>
      <trkpt lat="23.16187120042741298675537109375" lon="113.25769093818962574005126953125">
        <ele>9.3999996185302734375</ele>
        <time>2020-12-01T13:38:42.000Z</time>
        <extensions>
          <ns3:TrackPointExtension>
            <ns3:hr>121</ns3:hr>
            <ns3:cad>84</ns3:cad>
          </ns3:TrackPointExtension>
        </extensions>
      </trkpt>
      <trkpt lat="23.1618979386985301971435546875" lon="113.2576903514564037322998046875">
        <ele>9.19999980926513671875</ele>
        <time>2020-12-01T13:38:43.000Z</time>
        <extensions>
          <ns3:TrackPointExtension>
            <ns3:hr>117</ns3:hr>
            <ns3:cad>84</ns3:cad>
          </ns3:TrackPointExtension>
        </extensions>
      </trkpt>
      <trkpt lat="23.16195518709719181060791015625" lon="113.25772312469780445098876953125">
        <ele>9</ele>
        <time>2020-12-01T13:38:44.000Z</time>
        <extensions>
          <ns3:TrackPointExtension>
            <ns3:hr>124</ns3:hr>
            <ns3:cad>84</ns3:cad>
          </ns3:TrackPointExtension>
        </extensions>
      </trkpt>
      <trkpt lat="23.16198083572089672088623046875" lon="113.25774139724671840667724609375">
        <ele>9</ele>
        <time>2020-12-01T13:38:46.000Z</time>
        <extensions>
          <ns3:TrackPointExtension>
            <ns3:hr>128</ns3:hr>
            <ns3:cad>83</ns3:cad>
          </ns3:TrackPointExtension>
        </extensions>
      </trkpt>
      <trkpt lat="23.16200514324009418487548828125" lon="113.2577624358236789703369140625">
        <ele>8.80000019073486328125</ele>
        <time>2020-12-01T13:38:47.000Z</time>
        <extensions>
          <ns3:TrackPointExtension>
            <ns3:hr>134</ns3:hr>
            <ns3:cad>83</ns3:cad>
          </ns3:TrackPointExtension>
        </extensions>
      </trkpt>
      <trkpt lat="23.1620300374925136566162109375" lon="113.25778079219162464141845703125">
        <ele>8.80000019073486328125</ele>
        <time>2020-12-01T13:38:48.000Z</time>
        <extensions>
          <ns3:TrackPointExtension>
            <ns3:hr>139</ns3:hr>
            <ns3:cad>83</ns3:cad>
          </ns3:TrackPointExtension>
        </extensions>
      </trkpt>
      <trkpt lat="23.16205057315528392791748046875" lon="113.25779219157993793487548828125">
        <ele>8.80000019073486328125</ele>
        <time>2020-12-01T13:38:49.000Z</time>
        <extensions>
          <ns3:TrackPointExtension>
            <ns3:hr>146</ns3:hr>
            <ns3:cad>83</ns3:cad>
          </ns3:TrackPointExtension>
        </extensions>
      </trkpt>
      <trkpt lat="23.1620965898036956787109375" lon="113.25781364925205707550048828125">
        <ele>8.3999996185302734375</ele>
        <time>2020-12-01T13:38:50.000Z</time>
        <extensions>
          <ns3:TrackPointExtension>
            <ns3:hr>151</ns3:hr>
            <ns3:cad>84</ns3:cad>
          </ns3:TrackPointExtension>
        </extensions>
      </trkpt>
      <trkpt lat="23.1620965898036956787109375" lon="113.25781364925205707550048828125">
        <ele>8.3999996185302734375</ele>
        <time>2020-12-01T13:38:51.000Z</time>
        <extensions>
          <ns3:TrackPointExtension>
            <ns3:hr>151</ns3:hr>
            <ns3:cad>84</ns3:cad>
          </ns3:TrackPointExtension>
        </extensions>
      </trkpt>
      <trkpt lat="23.16214696504175662994384765625" lon="113.25782773084938526153564453125">
        <ele>8.3999996185302734375</ele>
        <time>2020-12-01T13:38:53.000Z</time>
        <extensions>
          <ns3:TrackPointExtension>
            <ns3:hr>147</ns3:hr>
            <ns3:cad>85</ns3:cad>
          </ns3:TrackPointExtension>
        </extensions>
      </trkpt>
      <trkpt lat="23.1622214801609516143798828125" lon="113.25785237364470958709716796875">
        <ele>9.6000003814697265625</ele>
        <time>2020-12-01T13:38:56.000Z</time>
        <extensions>
          <ns3:TrackPointExtension>
            <ns3:hr>151</ns3:hr>
            <ns3:cad>86</ns3:cad>
          </ns3:TrackPointExtension>
        </extensions>
      </trkpt>
      <trkpt lat="23.162325918674468994140625" lon="113.2578536309301853179931640625">
        <ele>9.80000019073486328125</ele>
        <time>2020-12-01T13:39:00.000Z</time>
        <extensions>
          <ns3:TrackPointExtension>
            <ns3:hr>154</ns3:hr>
            <ns3:cad>86</ns3:cad>
          </ns3:TrackPointExtension>
        </extensions>
      </trkpt>
      <trkpt lat="23.162359781563282012939453125" lon="113.2578479312360286712646484375">
        <ele>9.6000003814697265625</ele>
        <time>2020-12-01T13:39:02.000Z</time>
        <extensions>
          <ns3:TrackPointExtension>
            <ns3:hr>158</ns3:hr>
            <ns3:cad>84</ns3:cad>
          </ns3:TrackPointExtension>
        </extensions>
      </trkpt>
      <trkpt lat="23.1625701673328876495361328125" lon="113.257869891822338104248046875">
        <ele>11.80000019073486328125</ele>
        <time>2020-12-01T13:39:10.000Z</time>
        <extensions>
          <ns3:TrackPointExtension>
            <ns3:hr>158</ns3:hr>
            <ns3:cad>85</ns3:cad>
          </ns3:TrackPointExtension>
        </extensions>
      </trkpt>
      <trkpt lat="23.1626021862030029296875" lon="113.25787567533552646636962890625">
        <ele>12.19999980926513671875</ele>
        <time>2020-12-01T13:39:11.000Z</time>
        <extensions>
          <ns3:TrackPointExtension>
            <ns3:hr>162</ns3:hr>
            <ns3:cad>85</ns3:cad>
          </ns3:TrackPointExtension>
        </extensions>
      </trkpt>
      <trkpt lat="23.1626331992447376251220703125" lon="113.25788573361933231353759765625">
        <ele>12.80000019073486328125</ele>
        <time>2020-12-01T13:39:12.000Z</time>
        <extensions>
          <ns3:TrackPointExtension>
            <ns3:hr>165</ns3:hr>
            <ns3:cad>85</ns3:cad>
          </ns3:TrackPointExtension>
        </extensions>
      </trkpt>
      <trkpt lat="23.1627150066196918487548828125" lon="113.25789160095155239105224609375">
        <ele>13.6000003814697265625</ele>
        <time>2020-12-01T13:39:15.000Z</time>
        <extensions>
          <ns3:TrackPointExtension>
            <ns3:hr>161</ns3:hr>
            <ns3:cad>85</ns3:cad>
          </ns3:TrackPointExtension>
        </extensions>
      </trkpt>
      <trkpt lat="23.162847273051738739013671875" lon="113.2579180039465427398681640625">
        <ele>14.80000019073486328125</ele>
        <time>2020-12-01T13:39:20.000Z</time>
        <extensions>
          <ns3:TrackPointExtension>
            <ns3:hr>157</ns3:hr>
            <ns3:cad>84</ns3:cad>
          </ns3:TrackPointExtension>
        </extensions>
      </trkpt>
      <trkpt lat="23.16292899660766124725341796875" lon="113.25795010663568973541259765625">
        <ele>16</ele>
        <time>2020-12-01T13:39:23.000Z</time>
        <extensions>
          <ns3:TrackPointExtension>
            <ns3:hr>161</ns3:hr>
            <ns3:cad>83</ns3:cad>
          </ns3:TrackPointExtension>
        </extensions>
      </trkpt>
      <trkpt lat="23.16306226886808872222900390625" lon="113.257909119129180908203125">
        <ele>15.19999980926513671875</ele>
        <time>2020-12-01T13:39:34.000Z</time>
        <extensions>
          <ns3:TrackPointExtension>
            <ns3:hr>164</ns3:hr>
            <ns3:cad>64</ns3:cad>
          </ns3:TrackPointExtension>
        </extensions>
      </trkpt>
      <trkpt lat="23.16308942623436450958251953125" lon="113.257874585688114166259765625">
        <ele>14.3999996185302734375</ele>
        <time>2020-12-01T13:39:36.000Z</time>
        <extensions>
          <ns3:TrackPointExtension>
            <ns3:hr>160</ns3:hr>
            <ns3:cad>64</ns3:cad>
          </ns3:TrackPointExtension>
        </extensions>
      </trkpt>
      <trkpt lat="23.1631431542336940765380859375" lon="113.25780493207275867462158203125">
        <ele>13.3999996185302734375</ele>
        <time>2020-12-01T13:39:40.000Z</time>
        <extensions>
          <ns3:TrackPointExtension>
            <ns3:hr>163</ns3:hr>
            <ns3:cad>82</ns3:cad>
          </ns3:TrackPointExtension>
        </extensions>
      </trkpt>
      <trkpt lat="23.1632068566977977752685546875" lon="113.25778950937092304229736328125">
        <ele>13.19999980926513671875</ele>
        <time>2020-12-01T13:39:47.000Z</time>
        <extensions>
          <ns3:TrackPointExtension>
            <ns3:hr>163</ns3:hr>
            <ns3:cad>81</ns3:cad>
          </ns3:TrackPointExtension>
        </extensions>
      </trkpt>
      <trkpt lat="23.16320492886006832122802734375" lon="113.25780560262501239776611328125">
        <ele>13.3999996185302734375</ele>
        <time>2020-12-01T13:39:50.000Z</time>
        <extensions>
          <ns3:TrackPointExtension>
            <ns3:hr>163</ns3:hr>
            <ns3:cad>81</ns3:cad>
          </ns3:TrackPointExtension>
        </extensions>
      </trkpt>
      <trkpt lat="23.16318380646407604217529296875" lon="113.25779470615088939666748046875">
        <ele>13.19999980926513671875</ele>
        <time>2020-12-01T13:39:52.000Z</time>
        <extensions>
          <ns3:TrackPointExtension>
            <ns3:hr>162</ns3:hr>
            <ns3:cad>83</ns3:cad>
          </ns3:TrackPointExtension>
        </extensions>
      </trkpt>
      <trkpt lat="23.1632889993488788604736328125" lon="113.25801481492817401885986328125">
        <ele>16</ele>
        <time>2020-12-01T13:39:57.000Z</time>
        <extensions>
          <ns3:TrackPointExtension>
            <ns3:hr>160</ns3:hr>
            <ns3:cad>81</ns3:cad>
          </ns3:TrackPointExtension>
        </extensions>
      </trkpt>
      <trkpt lat="23.16337960772216320037841796875" lon="113.25805722735822200775146484375">
        <ele>15.80000019073486328125</ele>
        <time>2020-12-01T13:40:00.000Z</time>
        <extensions>
          <ns3:TrackPointExtension>
            <ns3:hr>160</ns3:hr>
            <ns3:cad>82</ns3:cad>
          </ns3:TrackPointExtension>
        </extensions>
      </trkpt>
      <trkpt lat="23.16344238817691802978515625" lon="113.25804800726473331451416015625">
        <ele>15.19999980926513671875</ele>
        <time>2020-12-01T13:40:07.000Z</time>
        <extensions>
          <ns3:TrackPointExtension>
            <ns3:hr>162</ns3:hr>
            <ns3:cad>61</ns3:cad>
          </ns3:TrackPointExtension>
        </extensions>
      </trkpt>
      <trkpt lat="23.16362251527607440948486328125" lon="113.25796619988977909088134765625">
        <ele>14.6000003814697265625</ele>
        <time>2020-12-01T13:40:22.000Z</time>
        <extensions>
          <ns3:TrackPointExtension>
            <ns3:hr>162</ns3:hr>
            <ns3:cad>61</ns3:cad>
          </ns3:TrackPointExtension>
        </extensions>
      </trkpt>
      <trkpt lat="23.163639865815639495849609375" lon="113.25796770863234996795654296875">
        <ele>14.80000019073486328125</ele>
        <time>2020-12-01T13:40:23.000Z</time>
        <extensions>
          <ns3:TrackPointExtension>
            <ns3:hr>161</ns3:hr>
            <ns3:cad>61</ns3:cad>
          </ns3:TrackPointExtension>
        </extensions>
      </trkpt>
      <trkpt lat="23.163704574108123779296875" lon="113.25797055847942829132080078125">
        <ele>15.19999980926513671875</ele>
        <time>2020-12-01T13:40:28.000Z</time>
        <extensions>
          <ns3:TrackPointExtension>
            <ns3:hr>158</ns3:hr>
            <ns3:cad>61</ns3:cad>
          </ns3:TrackPointExtension>
        </extensions>
      </trkpt>
      <trkpt lat="23.163721002638339996337890625" lon="113.25795144774019718170166015625">
        <ele>15.19999980926513671875</ele>
        <time>2020-12-01T13:40:30.000Z</time>
        <extensions>
          <ns3:TrackPointExtension>
            <ns3:hr>157</ns3:hr>
            <ns3:cad>61</ns3:cad>
          </ns3:TrackPointExtension>
        </extensions>
      </trkpt>
      <trkpt lat="23.16374505870044231414794921875" lon="113.257925547659397125244140625">
        <ele>15.19999980926513671875</ele>
        <time>2020-12-01T13:40:33.000Z</time>
        <extensions>
          <ns3:TrackPointExtension>
            <ns3:hr>155</ns3:hr>
            <ns3:cad>61</ns3:cad>
          </ns3:TrackPointExtension>
        </extensions>
      </trkpt>
      <trkpt lat="23.16376031376421451568603515625" lon="113.2579123042523860931396484375">
        <ele>15.19999980926513671875</ele>
        <time>2020-12-01T13:40:35.000Z</time>
        <extensions>
          <ns3:TrackPointExtension>
            <ns3:hr>154</ns3:hr>
            <ns3:cad>61</ns3:cad>
          </ns3:TrackPointExtension>
        </extensions>
      </trkpt>
      <trkpt lat="23.16380314528942108154296875" lon="113.2578807882964611053466796875">
        <ele>15.19999980926513671875</ele>
        <time>2020-12-01T13:40:39.000Z</time>
        <extensions>
          <ns3:TrackPointExtension>
            <ns3:hr>153</ns3:hr>
            <ns3:cad>61</ns3:cad>
          </ns3:TrackPointExtension>
        </extensions>
      </trkpt>
      <trkpt lat="23.1638391874730587005615234375" lon="113.25785405002534389495849609375">
        <ele>14.80000019073486328125</ele>
        <time>2020-12-01T13:40:43.000Z</time>
        <extensions>
          <ns3:TrackPointExtension>
            <ns3:hr>150</ns3:hr>
            <ns3:cad>61</ns3:cad>
          </ns3:TrackPointExtension>
        </extensions>
      </trkpt>
      <trkpt lat="23.1638455577194690704345703125" lon="113.25785572640597820281982421875">
        <ele>14.80000019073486328125</ele>
        <time>2020-12-01T13:40:44.000Z</time>
        <extensions>
          <ns3:TrackPointExtension>
            <ns3:hr>149</ns3:hr>
            <ns3:cad>61</ns3:cad>
          </ns3:TrackPointExtension>
        </extensions>
      </trkpt>
      <trkpt lat="23.16386424936354160308837890625" lon="113.25784742832183837890625">
        <ele>14.80000019073486328125</ele>
        <time>2020-12-01T13:40:46.000Z</time>
        <extensions>
          <ns3:TrackPointExtension>
            <ns3:hr>147</ns3:hr>
            <ns3:cad>61</ns3:cad>
          </ns3:TrackPointExtension>
        </extensions>
      </trkpt>
      <trkpt lat="23.1639712862670421600341796875" lon="113.25778213329613208770751953125">
        <ele>13.80000019073486328125</ele>
        <time>2020-12-01T13:40:55.000Z</time>
        <extensions>
          <ns3:TrackPointExtension>
            <ns3:hr>144</ns3:hr>
            <ns3:cad>61</ns3:cad>
          </ns3:TrackPointExtension>
        </extensions>
      </trkpt>
      <trkpt lat="23.1639800034463405609130859375" lon="113.25777743943035602569580078125">
        <ele>13.80000019073486328125</ele>
        <time>2020-12-01T13:40:56.000Z</time>
        <extensions>
          <ns3:TrackPointExtension>
            <ns3:hr>143</ns3:hr>
            <ns3:cad>63</ns3:cad>
          </ns3:TrackPointExtension>
        </extensions>
      </trkpt>
      <trkpt lat="23.163989223539829254150390625" lon="113.25775128789246082305908203125">
        <ele>13.6000003814697265625</ele>
        <time>2020-12-01T13:40:58.000Z</time>
        <extensions>
          <ns3:TrackPointExtension>
            <ns3:hr>142</ns3:hr>
            <ns3:cad>63</ns3:cad>
          </ns3:TrackPointExtension>
        </extensions>
      </trkpt>
      <trkpt lat="23.1640812568366527557373046875" lon="113.25771675445139408111572265625">
        <ele>13</ele>
        <time>2020-12-01T13:41:05.000Z</time>
        <extensions>
          <ns3:TrackPointExtension>
            <ns3:hr>139</ns3:hr>
            <ns3:cad>60</ns3:cad>
          </ns3:TrackPointExtension>
        </extensions>
      </trkpt>
      <trkpt lat="23.164105899631977081298828125" lon="113.2577057741582393646240234375">
        <ele>12.6000003814697265625</ele>
        <time>2020-12-01T13:41:08.000Z</time>
        <extensions>
          <ns3:TrackPointExtension>
            <ns3:hr>137</ns3:hr>
            <ns3:cad>59</ns3:cad>
          </ns3:TrackPointExtension>
        </extensions>
      </trkpt>
      <trkpt lat="23.1641747988760471343994140625" lon="113.2576635293662548065185546875">
        <ele>12</ele>
        <time>2020-12-01T13:41:14.000Z</time>
        <extensions>
          <ns3:TrackPointExtension>
            <ns3:hr>134</ns3:hr>
            <ns3:cad>61</ns3:cad>
          </ns3:TrackPointExtension>
        </extensions>
      </trkpt>
      <trkpt lat="23.16421595402061939239501953125" lon="113.2576330192387104034423828125">
        <ele>11.3999996185302734375</ele>
        <time>2020-12-01T13:41:17.000Z</time>
        <extensions>
          <ns3:TrackPointExtension>
            <ns3:hr>137</ns3:hr>
            <ns3:cad>61</ns3:cad>
          </ns3:TrackPointExtension>
        </extensions>
      </trkpt>
      <trkpt lat="23.16426314413547515869140625" lon="113.25757375918328762054443359375">
        <ele>11.19999980926513671875</ele>
        <time>2020-12-01T13:41:22.000Z</time>
        <extensions>
          <ns3:TrackPointExtension>
            <ns3:hr>135</ns3:hr>
            <ns3:cad>61</ns3:cad>
          </ns3:TrackPointExtension>
        </extensions>
      </trkpt>
      <trkpt lat="23.16434369422495365142822265625" lon="113.25752086937427520751953125">
        <ele>10.80000019073486328125</ele>
        <time>2020-12-01T13:41:29.000Z</time>
        <extensions>
          <ns3:TrackPointExtension>
            <ns3:hr>132</ns3:hr>
            <ns3:cad>61</ns3:cad>
          </ns3:TrackPointExtension>
        </extensions>
      </trkpt>
      <trkpt lat="23.16439515911042690277099609375" lon="113.257499076426029205322265625">
        <ele>10.80000019073486328125</ele>
        <time>2020-12-01T13:41:32.000Z</time>
        <extensions>
          <ns3:TrackPointExtension>
            <ns3:hr>131</ns3:hr>
            <ns3:cad>61</ns3:cad>
          </ns3:TrackPointExtension>
        </extensions>
      </trkpt>
    </trkseg>
  </trk>
</gpx>
