<gpx xmlns:ns3="http://www.garmin.com/xmlschemas/TrackPointExtension/v1" xmlns="http://www.topografix.com/GPX/1/1" xmlns:xsi="http://www.w3.org/2001/XMLSchema-instance" xmlns:ns2="http://www.garmin.com/xmlschemas/GpxExtensions/v3" creator="Garmin Connect" version="1.1" xsi:schemaLocation="http://www.topografix.com/GPX/1/1 http://www.topografix.com/GPX/11.xsd">
  <extensions>
<distance>2288.57</distance>
<average_hr>80.0</average_hr>
<average_speed>0.8080000281333923</average_speed>
<start_time>2020-02-15T16:03:14+00:00</start_time>
<end_time>2020-02-15T16:50:27.127000+00:00</end_time>
<moving_time>1949.0</moving_time>
<elapsed_time>133748.125</elapsed_time>
</extensions>
<metadata>
    <link href="connect.garmin.com">
      <text>Garmin Connect</text>
    </link>
    <time>2020-02-15T16:03:14.000Z</time>
  </metadata>
  <trk>
    <name>云浮市 跑步</name>
    <type>running</type>
    <trkseg>
      <trkpt lat="22.81207359395921230316162109375" lon="111.8157089687883853912353515625">
        <ele>151.600006103515625</ele>
        <time>2020-02-15T16:19:40.000Z</time>
        <extensions>
          <ns3:TrackPointExtension>
            <ns3:hr>79</ns3:hr>
            <ns3:cad>0</ns3:cad>
          </ns3:TrackPointExtension>
        </extensions>
      </trkpt>
      <trkpt lat="22.81208574771881103515625" lon="111.81578650139272212982177734375">
        <ele>150.600006103515625</ele>
        <time>2020-02-15T16:19:42.000Z</time>
        <extensions>
          <ns3:TrackPointExtension>
            <ns3:hr>82</ns3:hr>
            <ns3:cad>0</ns3:cad>
          </ns3:TrackPointExtension>
        </extensions>
      </trkpt>
      <trkpt lat="22.812112905085086822509765625" lon="111.8160331808030605316162109375">
        <ele>148.600006103515625</ele>
        <time>2020-02-15T16:19:51.000Z</time>
        <extensions>
          <ns3:TrackPointExtension>
            <ns3:hr>76</ns3:hr>
            <ns3:cad>0</ns3:cad>
          </ns3:TrackPointExtension>
        </extensions>
      </trkpt>
      <trkpt lat="22.81211433000862598419189453125" lon="111.81605212390422821044921875">
        <ele>148.600006103515625</ele>
        <time>2020-02-15T16:19:52.000Z</time>
        <extensions>
          <ns3:TrackPointExtension>
            <ns3:hr>76</ns3:hr>
            <ns3:cad>0</ns3:cad>
          </ns3:TrackPointExtension>
        </extensions>
      </trkpt>
      <trkpt lat="22.81211667694151401519775390625" lon="111.81607282720506191253662109375">
        <ele>148.399993896484375</ele>
        <time>2020-02-15T16:19:53.000Z</time>
        <extensions>
          <ns3:TrackPointExtension>
            <ns3:hr>70</ns3:hr>
            <ns3:cad>0</ns3:cad>
          </ns3:TrackPointExtension>
        </extensions>
      </trkpt>
      <trkpt lat="22.81210695393383502960205078125" lon="111.816112808883190155029296875">
        <ele>148.600006103515625</ele>
        <time>2020-02-15T16:19:55.000Z</time>
        <extensions>
          <ns3:TrackPointExtension>
            <ns3:hr>66</ns3:hr>
            <ns3:cad>0</ns3:cad>
          </ns3:TrackPointExtension>
        </extensions>
      </trkpt>
      <trkpt lat="22.81209857203066349029541015625" lon="111.816232167184352874755859375">
        <ele>148.600006103515625</ele>
        <time>2020-02-15T16:20:02.000Z</time>
        <extensions>
          <ns3:TrackPointExtension>
            <ns3:hr>69</ns3:hr>
            <ns3:cad>0</ns3:cad>
          </ns3:TrackPointExtension>
        </extensions>
      </trkpt>
      <trkpt lat="22.812098823487758636474609375" lon="111.8162672035396099090576171875">
        <ele>148.1999969482421875</ele>
        <time>2020-02-15T16:20:05.000Z</time>
        <extensions>
          <ns3:TrackPointExtension>
            <ns3:hr>70</ns3:hr>
            <ns3:cad>0</ns3:cad>
          </ns3:TrackPointExtension>
        </extensions>
      </trkpt>
      <trkpt lat="22.8120996616780757904052734375" lon="111.81628279387950897216796875">
        <ele>148.1999969482421875</ele>
        <time>2020-02-15T16:20:06.000Z</time>
        <extensions>
          <ns3:TrackPointExtension>
            <ns3:hr>70</ns3:hr>
            <ns3:cad>0</ns3:cad>
          </ns3:TrackPointExtension>
        </extensions>
      </trkpt>
      <trkpt lat="22.8120897710323333740234375" lon="111.81632730178534984588623046875">
        <ele>148</ele>
        <time>2020-02-15T16:20:09.000Z</time>
        <extensions>
          <ns3:TrackPointExtension>
            <ns3:hr>70</ns3:hr>
            <ns3:cad>61</ns3:cad>
          </ns3:TrackPointExtension>
        </extensions>
      </trkpt>
      <trkpt lat="22.81208935193717479705810546875" lon="111.8163500167429447174072265625">
        <ele>147.8000030517578125</ele>
        <time>2020-02-15T16:20:12.000Z</time>
        <extensions>
          <ns3:TrackPointExtension>
            <ns3:hr>71</ns3:hr>
            <ns3:cad>0</ns3:cad>
          </ns3:TrackPointExtension>
        </extensions>
      </trkpt>
      <trkpt lat="22.81209982931613922119140625" lon="111.816342808306217193603515625">
        <ele>147.8000030517578125</ele>
        <time>2020-02-15T16:20:14.000Z</time>
        <extensions>
          <ns3:TrackPointExtension>
            <ns3:hr>74</ns3:hr>
            <ns3:cad>0</ns3:cad>
          </ns3:TrackPointExtension>
        </extensions>
      </trkpt>
      <trkpt lat="22.81210024841129779815673828125" lon="111.8163355998694896697998046875">
        <ele>147.8000030517578125</ele>
        <time>2020-02-15T16:20:16.000Z</time>
        <extensions>
          <ns3:TrackPointExtension>
            <ns3:hr>77</ns3:hr>
            <ns3:cad>0</ns3:cad>
          </ns3:TrackPointExtension>
        </extensions>
      </trkpt>
      <trkpt lat="22.8120976500213146209716796875" lon="111.81634373031556606292724609375">
        <ele>147.8000030517578125</ele>
        <time>2020-02-15T16:20:18.000Z</time>
        <extensions>
          <ns3:TrackPointExtension>
            <ns3:hr>81</ns3:hr>
            <ns3:cad>0</ns3:cad>
          </ns3:TrackPointExtension>
        </extensions>
      </trkpt>
      <trkpt lat="22.812089435756206512451171875" lon="111.81635496206581592559814453125">
        <ele>147.8000030517578125</ele>
        <time>2020-02-15T16:20:22.000Z</time>
        <extensions>
          <ns3:TrackPointExtension>
            <ns3:hr>84</ns3:hr>
            <ns3:cad>0</ns3:cad>
          </ns3:TrackPointExtension>
        </extensions>
      </trkpt>
      <trkpt lat="22.8122149966657161712646484375" lon="111.81665704585611820220947265625">
        <ele>144</ele>
        <time>2020-02-15T16:22:10.000Z</time>
        <extensions>
          <ns3:TrackPointExtension>
            <ns3:hr>76</ns3:hr>
            <ns3:cad>0</ns3:cad>
          </ns3:TrackPointExtension>
        </extensions>
      </trkpt>
      <trkpt lat="22.8122186847031116485595703125" lon="111.81665469892323017120361328125">
        <ele>144</ele>
        <time>2020-02-15T16:22:13.000Z</time>
        <extensions>
          <ns3:TrackPointExtension>
            <ns3:hr>76</ns3:hr>
            <ns3:cad>0</ns3:cad>
          </ns3:TrackPointExtension>
        </extensions>
      </trkpt>
      <trkpt lat="22.81199195422232151031494140625" lon="111.8164511024951934814453125">
        <ele>149</ele>
        <time>2020-02-15T16:22:33.000Z</time>
        <extensions>
          <ns3:TrackPointExtension>
            <ns3:hr>77</ns3:hr>
            <ns3:cad>61</ns3:cad>
          </ns3:TrackPointExtension>
        </extensions>
      </trkpt>
      <trkpt lat="22.8120808862149715423583984375" lon="111.81652444414794445037841796875">
        <ele>147</ele>
        <time>2020-02-15T16:22:51.000Z</time>
        <extensions>
          <ns3:TrackPointExtension>
            <ns3:hr>73</ns3:hr>
            <ns3:cad>0</ns3:cad>
          </ns3:TrackPointExtension>
        </extensions>
      </trkpt>
      <trkpt lat="22.81209102831780910491943359375" lon="111.81652796454727649688720703125">
        <ele>146.8000030517578125</ele>
        <time>2020-02-15T16:22:52.000Z</time>
        <extensions>
          <ns3:TrackPointExtension>
            <ns3:hr>73</ns3:hr>
            <ns3:cad>0</ns3:cad>
          </ns3:TrackPointExtension>
        </extensions>
      </trkpt>
      <trkpt lat="22.8121734224259853363037109375" lon="111.8165557086467742919921875">
        <ele>145.1999969482421875</ele>
        <time>2020-02-15T16:23:00.000Z</time>
        <extensions>
          <ns3:TrackPointExtension>
            <ns3:hr>70</ns3:hr>
            <ns3:cad>0</ns3:cad>
          </ns3:TrackPointExtension>
        </extensions>
      </trkpt>
      <trkpt lat="22.81218834221363067626953125" lon="111.81663139723241329193115234375">
        <ele>144.600006103515625</ele>
        <time>2020-02-15T16:23:10.000Z</time>
        <extensions>
          <ns3:TrackPointExtension>
            <ns3:hr>73</ns3:hr>
            <ns3:cad>0</ns3:cad>
          </ns3:TrackPointExtension>
        </extensions>
      </trkpt>
      <trkpt lat="22.81217048875987529754638671875" lon="111.8166980333626270294189453125">
        <ele>144.1999969482421875</ele>
        <time>2020-02-15T16:23:19.000Z</time>
        <extensions>
          <ns3:TrackPointExtension>
            <ns3:hr>76</ns3:hr>
            <ns3:cad>0</ns3:cad>
          </ns3:TrackPointExtension>
        </extensions>
      </trkpt>
      <trkpt lat="22.8121807985007762908935546875" lon="111.81673164479434490203857421875">
        <ele>143.600006103515625</ele>
        <time>2020-02-15T16:23:24.000Z</time>
        <extensions>
          <ns3:TrackPointExtension>
            <ns3:hr>73</ns3:hr>
            <ns3:cad>0</ns3:cad>
          </ns3:TrackPointExtension>
        </extensions>
      </trkpt>
      <trkpt lat="22.8122089616954326629638671875" lon="111.81692291982471942901611328125">
        <ele>141.1999969482421875</ele>
        <time>2020-02-15T16:23:43.000Z</time>
        <extensions>
          <ns3:TrackPointExtension>
            <ns3:hr>76</ns3:hr>
            <ns3:cad>0</ns3:cad>
          </ns3:TrackPointExtension>
        </extensions>
      </trkpt>
      <trkpt lat="22.81209982931613922119140625" lon="111.81643710471689701080322265625">
        <ele>147</ele>
        <time>2020-02-15T16:28:26.000Z</time>
        <extensions>
          <ns3:TrackPointExtension>
            <ns3:hr>82</ns3:hr>
            <ns3:cad>0</ns3:cad>
          </ns3:TrackPointExtension>
        </extensions>
      </trkpt>
      <trkpt lat="22.8120602667331695556640625" lon="111.81645873002707958221435546875">
        <ele>147.600006103515625</ele>
        <time>2020-02-15T16:28:29.000Z</time>
        <extensions>
          <ns3:TrackPointExtension>
            <ns3:hr>79</ns3:hr>
            <ns3:cad>0</ns3:cad>
          </ns3:TrackPointExtension>
        </extensions>
      </trkpt>
      <trkpt lat="22.81202740967273712158203125" lon="111.8165659345686435699462890625">
        <ele>147</ele>
        <time>2020-02-15T16:28:49.000Z</time>
        <extensions>
          <ns3:TrackPointExtension>
            <ns3:hr>78</ns3:hr>
            <ns3:cad>0</ns3:cad>
          </ns3:TrackPointExtension>
        </extensions>
      </trkpt>
      <trkpt lat="22.81212799251079559326171875" lon="111.81666123680770397186279296875">
        <ele>145</ele>
        <time>2020-02-15T16:29:09.000Z</time>
        <extensions>
          <ns3:TrackPointExtension>
            <ns3:hr>81</ns3:hr>
            <ns3:cad>0</ns3:cad>
          </ns3:TrackPointExtension>
        </extensions>
      </trkpt>
      <trkpt lat="22.81216688454151153564453125" lon="111.81668587960302829742431640625">
        <ele>144.1999969482421875</ele>
        <time>2020-02-15T16:29:24.000Z</time>
        <extensions>
          <ns3:TrackPointExtension>
            <ns3:hr>84</ns3:hr>
            <ns3:cad>0</ns3:cad>
          </ns3:TrackPointExtension>
        </extensions>
      </trkpt>
      <trkpt lat="22.81219345517456531524658203125" lon="111.8166695348918437957763671875">
        <ele>144.1999969482421875</ele>
        <time>2020-02-15T16:29:33.000Z</time>
        <extensions>
          <ns3:TrackPointExtension>
            <ns3:hr>78</ns3:hr>
            <ns3:cad>0</ns3:cad>
          </ns3:TrackPointExtension>
        </extensions>
      </trkpt>
      <trkpt lat="22.812196724116802215576171875" lon="111.8166871368885040283203125">
        <ele>144</ele>
        <time>2020-02-15T16:29:39.000Z</time>
        <extensions>
          <ns3:TrackPointExtension>
            <ns3:hr>73</ns3:hr>
            <ns3:cad>0</ns3:cad>
          </ns3:TrackPointExtension>
        </extensions>
      </trkpt>
      <trkpt lat="22.8121264837682247161865234375" lon="111.8166856281459331512451171875">
        <ele>144.8000030517578125</ele>
        <time>2020-02-15T16:29:59.000Z</time>
        <extensions>
          <ns3:TrackPointExtension>
            <ns3:hr>75</ns3:hr>
            <ns3:cad>0</ns3:cad>
          </ns3:TrackPointExtension>
        </extensions>
      </trkpt>
      <trkpt lat="22.81217359006404876708984375" lon="111.8167178146541118621826171875">
        <ele>143.8000030517578125</ele>
        <time>2020-02-15T16:30:19.000Z</time>
        <extensions>
          <ns3:TrackPointExtension>
            <ns3:hr>76</ns3:hr>
            <ns3:cad>0</ns3:cad>
          </ns3:TrackPointExtension>
        </extensions>
      </trkpt>
      <trkpt lat="22.8122802078723907470703125" lon="111.81675276719033718109130859375">
        <ele>142.399993896484375</ele>
        <time>2020-02-15T16:31:37.000Z</time>
        <extensions>
          <ns3:TrackPointExtension>
            <ns3:hr>78</ns3:hr>
            <ns3:cad>0</ns3:cad>
          </ns3:TrackPointExtension>
        </extensions>
      </trkpt>
      <trkpt lat="22.8122667968273162841796875" lon="111.81663952767848968505859375">
        <ele>143.1999969482421875</ele>
        <time>2020-02-15T16:31:57.000Z</time>
        <extensions>
          <ns3:TrackPointExtension>
            <ns3:hr>80</ns3:hr>
            <ns3:cad>0</ns3:cad>
          </ns3:TrackPointExtension>
        </extensions>
      </trkpt>
      <trkpt lat="22.81223268248140811920166015625" lon="111.81670163758099079132080078125">
        <ele>143.399993896484375</ele>
        <time>2020-02-15T16:32:18.000Z</time>
        <extensions>
          <ns3:TrackPointExtension>
            <ns3:hr>76</ns3:hr>
            <ns3:cad>0</ns3:cad>
          </ns3:TrackPointExtension>
        </extensions>
      </trkpt>
      <trkpt lat="22.8122364543378353118896484375" lon="111.8167332373559474945068359375">
        <ele>143</ele>
        <time>2020-02-15T16:32:28.000Z</time>
        <extensions>
          <ns3:TrackPointExtension>
            <ns3:hr>73</ns3:hr>
            <ns3:cad>0</ns3:cad>
          </ns3:TrackPointExtension>
        </extensions>
      </trkpt>
      <trkpt lat="22.81226486898958683013916015625" lon="111.8167248554527759552001953125">
        <ele>142.8000030517578125</ele>
        <time>2020-02-15T16:32:37.000Z</time>
        <extensions>
          <ns3:TrackPointExtension>
            <ns3:hr>76</ns3:hr>
            <ns3:cad>0</ns3:cad>
          </ns3:TrackPointExtension>
        </extensions>
      </trkpt>
      <trkpt lat="22.8121338598430156707763671875" lon="111.8166919983923435211181640625">
        <ele>144.600006103515625</ele>
        <time>2020-02-15T16:36:16.000Z</time>
        <extensions>
          <ns3:TrackPointExtension>
            <ns3:hr>85</ns3:hr>
            <ns3:cad>0</ns3:cad>
          </ns3:TrackPointExtension>
        </extensions>
      </trkpt>
      <trkpt lat="22.812089435756206512451171875" lon="111.81664916686713695526123046875">
        <ele>145.600006103515625</ele>
        <time>2020-02-15T16:36:28.000Z</time>
        <extensions>
          <ns3:TrackPointExtension>
            <ns3:hr>82</ns3:hr>
            <ns3:cad>0</ns3:cad>
          </ns3:TrackPointExtension>
        </extensions>
      </trkpt>
      <trkpt lat="22.8120822273194789886474609375" lon="111.81663676165044307708740234375">
        <ele>145.8000030517578125</ele>
        <time>2020-02-15T16:36:32.000Z</time>
        <extensions>
          <ns3:TrackPointExtension>
            <ns3:hr>79</ns3:hr>
            <ns3:cad>0</ns3:cad>
          </ns3:TrackPointExtension>
        </extensions>
      </trkpt>
      <trkpt lat="22.812198065221309661865234375" lon="111.816481612622737884521484375">
        <ele>145</ele>
        <time>2020-02-15T16:37:39.000Z</time>
        <extensions>
          <ns3:TrackPointExtension>
            <ns3:hr>81</ns3:hr>
            <ns3:cad>0</ns3:cad>
          </ns3:TrackPointExtension>
        </extensions>
      </trkpt>
      <trkpt lat="22.81218037940561771392822265625" lon="111.8164807744324207305908203125">
        <ele>145.1999969482421875</ele>
        <time>2020-02-15T16:37:50.000Z</time>
        <extensions>
          <ns3:TrackPointExtension>
            <ns3:hr>78</ns3:hr>
            <ns3:cad>0</ns3:cad>
          </ns3:TrackPointExtension>
        </extensions>
      </trkpt>
      <trkpt lat="22.81212472356855869293212890625" lon="111.81653198786079883575439453125">
        <ele>146.1999969482421875</ele>
        <time>2020-02-15T16:38:10.000Z</time>
        <extensions>
          <ns3:TrackPointExtension>
            <ns3:hr>81</ns3:hr>
            <ns3:cad>0</ns3:cad>
          </ns3:TrackPointExtension>
        </extensions>
      </trkpt>
      <trkpt lat="22.81213377602398395538330078125" lon="111.81652746163308620452880859375">
        <ele>146</ele>
        <time>2020-02-15T16:38:18.000Z</time>
        <extensions>
          <ns3:TrackPointExtension>
            <ns3:hr>81</ns3:hr>
            <ns3:cad>61</ns3:cad>
          </ns3:TrackPointExtension>
        </extensions>
      </trkpt>
      <trkpt lat="22.812133692204952239990234375" lon="111.81652746163308620452880859375">
        <ele>146</ele>
        <time>2020-02-15T16:38:25.000Z</time>
        <extensions>
          <ns3:TrackPointExtension>
            <ns3:hr>82</ns3:hr>
            <ns3:cad>0</ns3:cad>
          </ns3:TrackPointExtension>
        </extensions>
      </trkpt>
      <trkpt lat="22.812136374413967132568359375" lon="111.816504411399364471435546875">
        <ele>146</ele>
        <time>2020-02-15T16:38:43.000Z</time>
        <extensions>
          <ns3:TrackPointExtension>
            <ns3:hr>85</ns3:hr>
            <ns3:cad>0</ns3:cad>
          </ns3:TrackPointExtension>
        </extensions>
      </trkpt>
      <trkpt lat="22.81213595531880855560302734375" lon="111.816499717533588409423828125">
        <ele>146</ele>
        <time>2020-02-15T16:38:47.000Z</time>
        <extensions>
          <ns3:TrackPointExtension>
            <ns3:hr>89</ns3:hr>
            <ns3:cad>0</ns3:cad>
          </ns3:TrackPointExtension>
        </extensions>
      </trkpt>
      <trkpt lat="22.812123633921146392822265625" lon="111.81650139391422271728515625">
        <ele>146.1999969482421875</ele>
        <time>2020-02-15T16:39:39.000Z</time>
        <extensions>
          <ns3:TrackPointExtension>
            <ns3:hr>92</ns3:hr>
            <ns3:cad>0</ns3:cad>
          </ns3:TrackPointExtension>
        </extensions>
      </trkpt>
      <trkpt lat="22.812123633921146392822265625" lon="111.81650139391422271728515625">
        <ele>146.1999969482421875</ele>
        <time>2020-02-15T16:39:55.000Z</time>
        <extensions>
          <ns3:TrackPointExtension>
            <ns3:hr>87</ns3:hr>
            <ns3:cad>0</ns3:cad>
          </ns3:TrackPointExtension>
        </extensions>
      </trkpt>
      <trkpt lat="22.812123633921146392822265625" lon="111.81650139391422271728515625">
        <ele>146.1999969482421875</ele>
        <time>2020-02-15T16:40:05.000Z</time>
        <extensions>
          <ns3:TrackPointExtension>
            <ns3:hr>72</ns3:hr>
            <ns3:cad>0</ns3:cad>
          </ns3:TrackPointExtension>
        </extensions>
      </trkpt>
      <trkpt lat="22.81212539412081241607666015625" lon="111.81649846024811267852783203125">
        <ele>146.1999969482421875</ele>
        <time>2020-02-15T16:42:44.000Z</time>
        <extensions>
          <ns3:TrackPointExtension>
            <ns3:hr>77</ns3:hr>
            <ns3:cad>0</ns3:cad>
          </ns3:TrackPointExtension>
        </extensions>
      </trkpt>
      <trkpt lat="22.81212036497890949249267578125" lon="111.81645470671355724334716796875">
        <ele>146.600006103515625</ele>
        <time>2020-02-15T16:43:08.000Z</time>
        <extensions>
          <ns3:TrackPointExtension>
            <ns3:hr>80</ns3:hr>
            <ns3:cad>0</ns3:cad>
          </ns3:TrackPointExtension>
        </extensions>
      </trkpt>
      <trkpt lat="22.8121271543204784393310546875" lon="111.8164623342454433441162109375">
        <ele>146.399993896484375</ele>
        <time>2020-02-15T16:43:12.000Z</time>
        <extensions>
          <ns3:TrackPointExtension>
            <ns3:hr>83</ns3:hr>
            <ns3:cad>0</ns3:cad>
          </ns3:TrackPointExtension>
        </extensions>
      </trkpt>
      <trkpt lat="22.8121331892907619476318359375" lon="111.81647297926247119903564453125">
        <ele>146.1999969482421875</ele>
        <time>2020-02-15T16:43:20.000Z</time>
        <extensions>
          <ns3:TrackPointExtension>
            <ns3:hr>80</ns3:hr>
            <ns3:cad>0</ns3:cad>
          </ns3:TrackPointExtension>
        </extensions>
      </trkpt>
      <trkpt lat="22.81212807632982730865478515625" lon="111.8164720572531223297119140625">
        <ele>146.1999969482421875</ele>
        <time>2020-02-15T16:43:21.000Z</time>
        <extensions>
          <ns3:TrackPointExtension>
            <ns3:hr>76</ns3:hr>
            <ns3:cad>0</ns3:cad>
          </ns3:TrackPointExtension>
        </extensions>
      </trkpt>
      <trkpt lat="22.81211726367473602294921875" lon="111.81647364981472492218017578125">
        <ele>146.399993896484375</ele>
        <time>2020-02-15T16:43:23.000Z</time>
        <extensions>
          <ns3:TrackPointExtension>
            <ns3:hr>73</ns3:hr>
            <ns3:cad>0</ns3:cad>
          </ns3:TrackPointExtension>
        </extensions>
      </trkpt>
      <trkpt lat="22.81210091896355152130126953125" lon="111.81647197343409061431884765625">
        <ele>146.8000030517578125</ele>
        <time>2020-02-15T16:43:28.000Z</time>
        <extensions>
          <ns3:TrackPointExtension>
            <ns3:hr>70</ns3:hr>
            <ns3:cad>0</ns3:cad>
          </ns3:TrackPointExtension>
        </extensions>
      </trkpt>
      <trkpt lat="22.81208298169076442718505859375" lon="111.81647364981472492218017578125">
        <ele>147</ele>
        <time>2020-02-15T16:43:31.000Z</time>
        <extensions>
          <ns3:TrackPointExtension>
            <ns3:hr>67</ns3:hr>
            <ns3:cad>0</ns3:cad>
          </ns3:TrackPointExtension>
        </extensions>
      </trkpt>
      <trkpt lat="22.8120674751698970794677734375" lon="111.81650868616998195648193359375">
        <ele>147.1999969482421875</ele>
        <time>2020-02-15T16:43:34.000Z</time>
        <extensions>
          <ns3:TrackPointExtension>
            <ns3:hr>64</ns3:hr>
            <ns3:cad>0</ns3:cad>
          </ns3:TrackPointExtension>
        </extensions>
      </trkpt>
      <trkpt lat="22.81206018291413784027099609375" lon="111.8165149725973606109619140625">
        <ele>147.1999969482421875</ele>
        <time>2020-02-15T16:43:48.000Z</time>
        <extensions>
          <ns3:TrackPointExtension>
            <ns3:hr>70</ns3:hr>
            <ns3:cad>0</ns3:cad>
          </ns3:TrackPointExtension>
        </extensions>
      </trkpt>
      <trkpt lat="22.81204140745103359222412109375" lon="111.8165194988250732421875">
        <ele>147.399993896484375</ele>
        <time>2020-02-15T16:43:58.000Z</time>
        <extensions>
          <ns3:TrackPointExtension>
            <ns3:hr>73</ns3:hr>
            <ns3:cad>0</ns3:cad>
          </ns3:TrackPointExtension>
        </extensions>
      </trkpt>
      <trkpt lat="22.81207510270178318023681640625" lon="111.8165498413145542144775390625">
        <ele>146.8000030517578125</ele>
        <time>2020-02-15T16:44:45.000Z</time>
        <extensions>
          <ns3:TrackPointExtension>
            <ns3:hr>70</ns3:hr>
            <ns3:cad>0</ns3:cad>
          </ns3:TrackPointExtension>
        </extensions>
      </trkpt>
      <trkpt lat="22.81214383430778980255126953125" lon="111.81659585796296596527099609375">
        <ele>145.399993896484375</ele>
        <time>2020-02-15T16:45:15.000Z</time>
        <extensions>
          <ns3:TrackPointExtension>
            <ns3:hr>73</ns3:hr>
            <ns3:cad>0</ns3:cad>
          </ns3:TrackPointExtension>
        </extensions>
      </trkpt>
      <trkpt lat="22.8121425770223140716552734375" lon="111.8165974505245685577392578125">
        <ele>145.399993896484375</ele>
        <time>2020-02-15T16:45:26.000Z</time>
        <extensions>
          <ns3:TrackPointExtension>
            <ns3:hr>76</ns3:hr>
            <ns3:cad>0</ns3:cad>
          </ns3:TrackPointExtension>
        </extensions>
      </trkpt>
      <trkpt lat="22.81212891452014446258544921875" lon="111.81657725013792514801025390625">
        <ele>145.8000030517578125</ele>
        <time>2020-02-15T16:45:47.000Z</time>
        <extensions>
          <ns3:TrackPointExtension>
            <ns3:hr>73</ns3:hr>
            <ns3:cad>0</ns3:cad>
          </ns3:TrackPointExtension>
        </extensions>
      </trkpt>
      <trkpt lat="22.81212304718792438507080078125" lon="111.81657674722373485565185546875">
        <ele>146</ele>
        <time>2020-02-15T16:45:59.000Z</time>
        <extensions>
          <ns3:TrackPointExtension>
            <ns3:hr>76</ns3:hr>
            <ns3:cad>0</ns3:cad>
          </ns3:TrackPointExtension>
        </extensions>
      </trkpt>
      <trkpt lat="22.8122659586369991302490234375" lon="111.81668856181204319000244140625">
        <ele>143</ele>
        <time>2020-02-17T05:08:55.000Z</time>
        <extensions>
          <ns3:TrackPointExtension>
            <ns3:hr>91</ns3:hr>
            <ns3:cad>0</ns3:cad>
          </ns3:TrackPointExtension>
        </extensions>
      </trkpt>
      <trkpt lat="22.8122569061815738677978515625" lon="111.81669778190553188323974609375">
        <ele>143.1999969482421875</ele>
        <time>2020-02-17T05:09:01.000Z</time>
        <extensions>
          <ns3:TrackPointExtension>
            <ns3:hr>92</ns3:hr>
            <ns3:cad>61</ns3:cad>
          </ns3:TrackPointExtension>
        </extensions>
      </trkpt>
      <trkpt lat="22.81224911101162433624267578125" lon="111.8166978657245635986328125">
        <ele>143.1999969482421875</ele>
        <time>2020-02-17T05:09:02.000Z</time>
        <extensions>
          <ns3:TrackPointExtension>
            <ns3:hr>95</ns3:hr>
            <ns3:cad>61</ns3:cad>
          </ns3:TrackPointExtension>
        </extensions>
      </trkpt>
      <trkpt lat="22.8122346103191375732421875" lon="111.8166913278400897979736328125">
        <ele>143.399993896484375</ele>
        <time>2020-02-17T05:09:04.000Z</time>
        <extensions>
          <ns3:TrackPointExtension>
            <ns3:hr>102</ns3:hr>
            <ns3:cad>123</ns3:cad>
          </ns3:TrackPointExtension>
        </extensions>
      </trkpt>
      <trkpt lat="22.812228910624980926513671875" lon="111.8166899867355823516845703125">
        <ele>143.600006103515625</ele>
        <time>2020-02-17T05:09:05.000Z</time>
        <extensions>
          <ns3:TrackPointExtension>
            <ns3:hr>103</ns3:hr>
            <ns3:cad>123</ns3:cad>
          </ns3:TrackPointExtension>
        </extensions>
      </trkpt>
      <trkpt lat="22.81221516430377960205078125" lon="111.81668487377464771270751953125">
        <ele>143.8000030517578125</ele>
        <time>2020-02-17T05:09:08.000Z</time>
        <extensions>
          <ns3:TrackPointExtension>
            <ns3:hr>106</ns3:hr>
            <ns3:cad>98</ns3:cad>
          </ns3:TrackPointExtension>
        </extensions>
      </trkpt>
      <trkpt lat="22.812211476266384124755859375" lon="111.8166836164891719818115234375">
        <ele>143.8000030517578125</ele>
        <time>2020-02-17T05:09:09.000Z</time>
        <extensions>
          <ns3:TrackPointExtension>
            <ns3:hr>109</ns3:hr>
            <ns3:cad>98</ns3:cad>
          </ns3:TrackPointExtension>
        </extensions>
      </trkpt>
      <trkpt lat="22.8122072853147983551025390625" lon="111.8166802637279033660888671875">
        <ele>144</ele>
        <time>2020-02-17T05:09:10.000Z</time>
        <extensions>
          <ns3:TrackPointExtension>
            <ns3:hr>108</ns3:hr>
            <ns3:cad>98</ns3:cad>
          </ns3:TrackPointExtension>
        </extensions>
      </trkpt>
      <trkpt lat="22.812179625034332275390625" lon="111.816655285656452178955078125">
        <ele>144.399993896484375</ele>
        <time>2020-02-17T05:09:20.000Z</time>
        <extensions>
          <ns3:TrackPointExtension>
            <ns3:hr>111</ns3:hr>
            <ns3:cad>0</ns3:cad>
          </ns3:TrackPointExtension>
        </extensions>
      </trkpt>
      <trkpt lat="22.8121744282543659210205078125" lon="111.81665319018065929412841796875">
        <ele>144.600006103515625</ele>
        <time>2020-02-17T05:09:23.000Z</time>
        <extensions>
          <ns3:TrackPointExtension>
            <ns3:hr>114</ns3:hr>
            <ns3:cad>0</ns3:cad>
          </ns3:TrackPointExtension>
        </extensions>
      </trkpt>
      <trkpt lat="22.8121784515678882598876953125" lon="111.81663818657398223876953125">
        <ele>144.600006103515625</ele>
        <time>2020-02-17T05:09:28.000Z</time>
        <extensions>
          <ns3:TrackPointExtension>
            <ns3:hr>122</ns3:hr>
            <ns3:cad>61</ns3:cad>
          </ns3:TrackPointExtension>
        </extensions>
      </trkpt>
      <trkpt lat="22.812179625034332275390625" lon="111.81663424707949161529541015625">
        <ele>144.600006103515625</ele>
        <time>2020-02-17T05:09:29.000Z</time>
        <extensions>
          <ns3:TrackPointExtension>
            <ns3:hr>127</ns3:hr>
            <ns3:cad>61</ns3:cad>
          </ns3:TrackPointExtension>
        </extensions>
      </trkpt>
      <trkpt lat="22.8121787868440151214599609375" lon="111.8166334927082061767578125">
        <ele>144.8000030517578125</ele>
        <time>2020-02-17T05:09:30.000Z</time>
        <extensions>
          <ns3:TrackPointExtension>
            <ns3:hr>127</ns3:hr>
            <ns3:cad>61</ns3:cad>
          </ns3:TrackPointExtension>
        </extensions>
      </trkpt>
      <trkpt lat="22.8121864981949329376220703125" lon="111.81662938557565212249755859375">
        <ele>144.600006103515625</ele>
        <time>2020-02-17T05:09:31.000Z</time>
        <extensions>
          <ns3:TrackPointExtension>
            <ns3:hr>130</ns3:hr>
            <ns3:cad>61</ns3:cad>
          </ns3:TrackPointExtension>
        </extensions>
      </trkpt>
      <trkpt lat="22.8121828101575374603271484375" lon="111.8166370131075382232666015625">
        <ele>144.600006103515625</ele>
        <time>2020-02-17T05:09:32.000Z</time>
        <extensions>
          <ns3:TrackPointExtension>
            <ns3:hr>133</ns3:hr>
            <ns3:cad>61</ns3:cad>
          </ns3:TrackPointExtension>
        </extensions>
      </trkpt>
      <trkpt lat="22.81218037940561771392822265625" lon="111.8166467361152172088623046875">
        <ele>144.600006103515625</ele>
        <time>2020-02-17T05:09:33.000Z</time>
        <extensions>
          <ns3:TrackPointExtension>
            <ns3:hr>136</ns3:hr>
            <ns3:cad>61</ns3:cad>
          </ns3:TrackPointExtension>
        </extensions>
      </trkpt>
      <trkpt lat="22.81217920593917369842529296875" lon="111.8166373483836650848388671875">
        <ele>144.600006103515625</ele>
        <time>2020-02-17T05:09:34.000Z</time>
        <extensions>
          <ns3:TrackPointExtension>
            <ns3:hr>139</ns3:hr>
            <ns3:cad>61</ns3:cad>
          </ns3:TrackPointExtension>
        </extensions>
      </trkpt>
      <trkpt lat="22.812173925340175628662109375" lon="111.81661597453057765960693359375">
        <ele>145</ele>
        <time>2020-02-17T05:09:36.000Z</time>
        <extensions>
          <ns3:TrackPointExtension>
            <ns3:hr>139</ns3:hr>
            <ns3:cad>61</ns3:cad>
          </ns3:TrackPointExtension>
        </extensions>
      </trkpt>
      <trkpt lat="22.81216730363667011260986328125" lon="111.8166018091142177581787109375">
        <ele>145</ele>
        <time>2020-02-17T05:09:39.000Z</time>
        <extensions>
          <ns3:TrackPointExtension>
            <ns3:hr>144</ns3:hr>
            <ns3:cad>61</ns3:cad>
          </ns3:TrackPointExtension>
        </extensions>
      </trkpt>
      <trkpt lat="22.8121667169034481048583984375" lon="111.81660608388483524322509765625">
        <ele>145</ele>
        <time>2020-02-17T05:09:40.000Z</time>
        <extensions>
          <ns3:TrackPointExtension>
            <ns3:hr>147</ns3:hr>
            <ns3:cad>61</ns3:cad>
          </ns3:TrackPointExtension>
        </extensions>
      </trkpt>
      <trkpt lat="22.812249697744846343994140625" lon="111.81671605445444583892822265625">
        <ele>143</ele>
        <time>2020-02-17T05:09:48.000Z</time>
        <extensions>
          <ns3:TrackPointExtension>
            <ns3:hr>150</ns3:hr>
            <ns3:cad>0</ns3:cad>
          </ns3:TrackPointExtension>
        </extensions>
      </trkpt>
      <trkpt lat="22.81225782819092273712158203125" lon="111.8167302198708057403564453125">
        <ele>142.8000030517578125</ele>
        <time>2020-02-17T05:09:49.000Z</time>
        <extensions>
          <ns3:TrackPointExtension>
            <ns3:hr>153</ns3:hr>
            <ns3:cad>0</ns3:cad>
          </ns3:TrackPointExtension>
        </extensions>
      </trkpt>
      <trkpt lat="22.8122595883905887603759765625" lon="111.81671856902539730072021484375">
        <ele>143</ele>
        <time>2020-02-17T05:09:54.000Z</time>
        <extensions>
          <ns3:TrackPointExtension>
            <ns3:hr>150</ns3:hr>
            <ns3:cad>0</ns3:cad>
          </ns3:TrackPointExtension>
        </extensions>
      </trkpt>
      <trkpt lat="22.812259756028652191162109375" lon="111.81671873666346073150634765625">
        <ele>143</ele>
        <time>2020-02-17T05:09:55.000Z</time>
        <extensions>
          <ns3:TrackPointExtension>
            <ns3:hr>153</ns3:hr>
            <ns3:cad>0</ns3:cad>
          </ns3:TrackPointExtension>
        </extensions>
      </trkpt>
      <trkpt lat="22.81225942075252532958984375" lon="111.81671756319701671600341796875">
        <ele>143</ele>
        <time>2020-02-17T05:09:58.000Z</time>
        <extensions>
          <ns3:TrackPointExtension>
            <ns3:hr>150</ns3:hr>
            <ns3:cad>0</ns3:cad>
          </ns3:TrackPointExtension>
        </extensions>
      </trkpt>
      <trkpt lat="22.81224810518324375152587890625" lon="111.8167090974748134613037109375">
        <ele>143.1999969482421875</ele>
        <time>2020-02-17T05:10:09.000Z</time>
        <extensions>
          <ns3:TrackPointExtension>
            <ns3:hr>147</ns3:hr>
            <ns3:cad>0</ns3:cad>
          </ns3:TrackPointExtension>
        </extensions>
      </trkpt>
      <trkpt lat="22.81224274076521396636962890625" lon="111.81670465506613254547119140625">
        <ele>143.1999969482421875</ele>
        <time>2020-02-17T05:10:11.000Z</time>
        <extensions>
          <ns3:TrackPointExtension>
            <ns3:hr>144</ns3:hr>
            <ns3:cad>0</ns3:cad>
          </ns3:TrackPointExtension>
        </extensions>
      </trkpt>
      <trkpt lat="22.81223385594785213470458984375" lon="111.81670817546546459197998046875">
        <ele>143.399993896484375</ele>
        <time>2020-02-17T05:10:14.000Z</time>
        <extensions>
          <ns3:TrackPointExtension>
            <ns3:hr>141</ns3:hr>
            <ns3:cad>61</ns3:cad>
          </ns3:TrackPointExtension>
        </extensions>
      </trkpt>
      <trkpt lat="22.812230587005615234375" lon="111.8167000450193881988525390625">
        <ele>143.399993896484375</ele>
        <time>2020-02-17T05:10:17.000Z</time>
        <extensions>
          <ns3:TrackPointExtension>
            <ns3:hr>138</ns3:hr>
            <ns3:cad>0</ns3:cad>
          </ns3:TrackPointExtension>
        </extensions>
      </trkpt>
      <trkpt lat="22.81223603524267673492431640625" lon="111.81667163036763668060302734375">
        <ele>143.600006103515625</ele>
        <time>2020-02-17T05:10:20.000Z</time>
        <extensions>
          <ns3:TrackPointExtension>
            <ns3:hr>135</ns3:hr>
            <ns3:cad>0</ns3:cad>
          </ns3:TrackPointExtension>
        </extensions>
      </trkpt>
      <trkpt lat="22.81223117373883724212646484375" lon="111.8166688643395900726318359375">
        <ele>143.8000030517578125</ele>
        <time>2020-02-17T05:10:23.000Z</time>
        <extensions>
          <ns3:TrackPointExtension>
            <ns3:hr>132</ns3:hr>
            <ns3:cad>0</ns3:cad>
          </ns3:TrackPointExtension>
        </extensions>
      </trkpt>
      <trkpt lat="22.8122314251959323883056640625" lon="111.816661991178989410400390625">
        <ele>143.8000030517578125</ele>
        <time>2020-02-17T05:10:27.000Z</time>
        <extensions>
          <ns3:TrackPointExtension>
            <ns3:hr>129</ns3:hr>
            <ns3:cad>0</ns3:cad>
          </ns3:TrackPointExtension>
        </extensions>
      </trkpt>
      <trkpt lat="22.81222932972013950347900390625" lon="111.81665587238967418670654296875">
        <ele>143.8000030517578125</ele>
        <time>2020-02-17T05:10:30.000Z</time>
        <extensions>
          <ns3:TrackPointExtension>
            <ns3:hr>126</ns3:hr>
            <ns3:cad>0</ns3:cad>
          </ns3:TrackPointExtension>
        </extensions>
      </trkpt>
      <trkpt lat="22.812230251729488372802734375" lon="111.8166571296751499176025390625">
        <ele>143.8000030517578125</ele>
        <time>2020-02-17T05:10:34.000Z</time>
        <extensions>
          <ns3:TrackPointExtension>
            <ns3:hr>122</ns3:hr>
            <ns3:cad>0</ns3:cad>
          </ns3:TrackPointExtension>
        </extensions>
      </trkpt>
      <trkpt lat="22.81223167665302753448486328125" lon="111.81665587238967418670654296875">
        <ele>143.8000030517578125</ele>
        <time>2020-02-17T05:10:38.000Z</time>
        <extensions>
          <ns3:TrackPointExtension>
            <ns3:hr>119</ns3:hr>
            <ns3:cad>0</ns3:cad>
          </ns3:TrackPointExtension>
        </extensions>
      </trkpt>
      <trkpt lat="22.81222061254084110260009765625" lon="111.8166591413319110870361328125">
        <ele>144</ele>
        <time>2020-02-17T05:10:44.000Z</time>
        <extensions>
          <ns3:TrackPointExtension>
            <ns3:hr>116</ns3:hr>
            <ns3:cad>0</ns3:cad>
          </ns3:TrackPointExtension>
        </extensions>
      </trkpt>
      <trkpt lat="22.81222522258758544921875" lon="111.81666366755962371826171875">
        <ele>143.8000030517578125</ele>
        <time>2020-02-17T05:10:50.000Z</time>
        <extensions>
          <ns3:TrackPointExtension>
            <ns3:hr>113</ns3:hr>
            <ns3:cad>0</ns3:cad>
          </ns3:TrackPointExtension>
        </extensions>
      </trkpt>
      <trkpt lat="22.812223546206951141357421875" lon="111.81666475720703601837158203125">
        <ele>143.8000030517578125</ele>
        <time>2020-02-17T05:10:56.000Z</time>
        <extensions>
          <ns3:TrackPointExtension>
            <ns3:hr>110</ns3:hr>
            <ns3:cad>0</ns3:cad>
          </ns3:TrackPointExtension>
        </extensions>
      </trkpt>
      <trkpt lat="22.8122240491211414337158203125" lon="111.81667917408049106597900390625">
        <ele>143.8000030517578125</ele>
        <time>2020-02-17T05:11:07.000Z</time>
        <extensions>
          <ns3:TrackPointExtension>
            <ns3:hr>113</ns3:hr>
            <ns3:cad>0</ns3:cad>
          </ns3:TrackPointExtension>
        </extensions>
      </trkpt>
      <trkpt lat="22.8122265636920928955078125" lon="111.816692836582660675048828125">
        <ele>143.600006103515625</ele>
        <time>2020-02-17T05:11:15.000Z</time>
        <extensions>
          <ns3:TrackPointExtension>
            <ns3:hr>108</ns3:hr>
            <ns3:cad>0</ns3:cad>
          </ns3:TrackPointExtension>
        </extensions>
      </trkpt>
      <trkpt lat="22.81222413294017314910888671875" lon="111.8166916631162166595458984375">
        <ele>143.600006103515625</ele>
        <time>2020-02-17T05:11:21.000Z</time>
        <extensions>
          <ns3:TrackPointExtension>
            <ns3:hr>105</ns3:hr>
            <ns3:cad>61</ns3:cad>
          </ns3:TrackPointExtension>
        </extensions>
      </trkpt>
      <trkpt lat="22.81222723424434661865234375" lon="111.81669987738132476806640625">
        <ele>143.399993896484375</ele>
        <time>2020-02-17T05:11:28.000Z</time>
        <extensions>
          <ns3:TrackPointExtension>
            <ns3:hr>108</ns3:hr>
            <ns3:cad>0</ns3:cad>
          </ns3:TrackPointExtension>
        </extensions>
      </trkpt>
      <trkpt lat="22.8122310899198055267333984375" lon="111.81670649908483028411865234375">
        <ele>143.399993896484375</ele>
        <time>2020-02-17T05:11:35.000Z</time>
        <extensions>
          <ns3:TrackPointExtension>
            <ns3:hr>111</ns3:hr>
            <ns3:cad>0</ns3:cad>
          </ns3:TrackPointExtension>
        </extensions>
      </trkpt>
      <trkpt lat="22.812230922281742095947265625" lon="111.81670649908483028411865234375">
        <ele>143.399993896484375</ele>
        <time>2020-02-17T05:11:49.000Z</time>
        <extensions>
          <ns3:TrackPointExtension>
            <ns3:hr>102</ns3:hr>
            <ns3:cad>0</ns3:cad>
          </ns3:TrackPointExtension>
        </extensions>
      </trkpt>
      <trkpt lat="22.8122364543378353118896484375" lon="111.81671001948416233062744140625">
        <ele>143.1999969482421875</ele>
        <time>2020-02-17T05:12:02.000Z</time>
        <extensions>
          <ns3:TrackPointExtension>
            <ns3:hr>102</ns3:hr>
            <ns3:cad>0</ns3:cad>
          </ns3:TrackPointExtension>
        </extensions>
      </trkpt>
      <trkpt lat="22.81223201192915439605712890625" lon="111.81671001948416233062744140625">
        <ele>143.399993896484375</ele>
        <time>2020-02-17T05:12:14.000Z</time>
        <extensions>
          <ns3:TrackPointExtension>
            <ns3:hr>103</ns3:hr>
            <ns3:cad>0</ns3:cad>
          </ns3:TrackPointExtension>
        </extensions>
      </trkpt>
      <trkpt lat="22.81223033554852008819580078125" lon="111.8167085945606231689453125">
        <ele>143.399993896484375</ele>
        <time>2020-02-17T05:12:16.000Z</time>
        <extensions>
          <ns3:TrackPointExtension>
            <ns3:hr>103</ns3:hr>
            <ns3:cad>0</ns3:cad>
          </ns3:TrackPointExtension>
        </extensions>
      </trkpt>
      <trkpt lat="22.81223033554852008819580078125" lon="111.81670884601771831512451171875">
        <ele>143.399993896484375</ele>
        <time>2020-02-17T05:12:18.000Z</time>
        <extensions>
          <ns3:TrackPointExtension>
            <ns3:hr>103</ns3:hr>
            <ns3:cad>61</ns3:cad>
          </ns3:TrackPointExtension>
        </extensions>
      </trkpt>
      <trkpt lat="22.8122399747371673583984375" lon="111.816714294254779815673828125">
        <ele>143.1999969482421875</ele>
        <time>2020-02-17T05:12:23.000Z</time>
        <extensions>
          <ns3:TrackPointExtension>
            <ns3:hr>100</ns3:hr>
            <ns3:cad>0</ns3:cad>
          </ns3:TrackPointExtension>
        </extensions>
      </trkpt>
      <trkpt lat="22.81224173493683338165283203125" lon="111.81671999394893646240234375">
        <ele>143</ele>
        <time>2020-02-17T05:12:26.000Z</time>
        <extensions>
          <ns3:TrackPointExtension>
            <ns3:hr>99</ns3:hr>
            <ns3:cad>0</ns3:cad>
          </ns3:TrackPointExtension>
        </extensions>
      </trkpt>
    </trkseg>
  </trk>
</gpx>
