<gpx xmlns:ns3="http://www.garmin.com/xmlschemas/TrackPointExtension/v1" xmlns="http://www.topografix.com/GPX/1/1" xmlns:xsi="http://www.w3.org/2001/XMLSchema-instance" xmlns:ns2="http://www.garmin.com/xmlschemas/GpxExtensions/v3" creator="Garmin Connect" version="1.1" xsi:schemaLocation="http://www.topografix.com/GPX/1/1 http://www.topografix.com/GPX/11.xsd">
  <extensions>
<distance>5203.85</distance>
<average_hr>179.0</average_hr>
<average_speed>2.5769999027252197</average_speed>
<start_time>2018-09-06T12:05:35+00:00</start_time>
<end_time>2018-09-06T12:39:14.394000+00:00</end_time>
<moving_time>1984.766</moving_time>
<elapsed_time>2249.261</elapsed_time>
</extensions>
<metadata>
    <link href="connect.garmin.com">
      <text>Garmin Connect</text>
    </link>
    <time>2018-09-06T12:05:35.000Z</time>
  </metadata>
  <trk>
    <name>广州市 跑步</name>
    <type>running</type>
    <trkseg>
      <trkpt lat="23.14440113492310047149658203125" lon="113.2569453679025173187255859375">
        <ele>14</ele>
        <time>2018-09-06T12:41:48.000Z</time>
        <extensions>
          <ns3:TrackPointExtension>
            <ns3:hr>146</ns3:hr>
            <ns3:cad>0</ns3:cad>
          </ns3:TrackPointExtension>
        </extensions>
      </trkpt>
      <trkpt lat="23.144403398036956787109375" lon="113.2569500617682933807373046875">
        <ele>14</ele>
        <time>2018-09-06T12:41:49.000Z</time>
        <extensions>
          <ns3:TrackPointExtension>
            <ns3:hr>147</ns3:hr>
            <ns3:cad>61</ns3:cad>
          </ns3:TrackPointExtension>
        </extensions>
      </trkpt>
      <trkpt lat="23.144386969506740570068359375" lon="113.256919048726558685302734375">
        <ele>14</ele>
        <time>2018-09-06T12:42:03.000Z</time>
        <extensions>
          <ns3:TrackPointExtension>
            <ns3:hr>151</ns3:hr>
            <ns3:cad>78</ns3:cad>
          </ns3:TrackPointExtension>
        </extensions>
      </trkpt>
      <trkpt lat="23.1443894840776920318603515625" lon="113.2568514905869960784912109375">
        <ele>13.6000003814697265625</ele>
        <time>2018-09-06T12:42:08.000Z</time>
        <extensions>
          <ns3:TrackPointExtension>
            <ns3:hr>155</ns3:hr>
            <ns3:cad>81</ns3:cad>
          </ns3:TrackPointExtension>
        </extensions>
      </trkpt>
      <trkpt lat="23.14436811022460460662841796875" lon="113.25683179311454296112060546875">
        <ele>13.6000003814697265625</ele>
        <time>2018-09-06T12:42:11.000Z</time>
        <extensions>
          <ns3:TrackPointExtension>
            <ns3:hr>161</ns3:hr>
            <ns3:cad>81</ns3:cad>
          </ns3:TrackPointExtension>
        </extensions>
      </trkpt>
      <trkpt lat="23.1443217583000659942626953125" lon="113.25677546672523021697998046875">
        <ele>14</ele>
        <time>2018-09-06T12:42:15.000Z</time>
        <extensions>
          <ns3:TrackPointExtension>
            <ns3:hr>155</ns3:hr>
            <ns3:cad>82</ns3:cad>
          </ns3:TrackPointExtension>
        </extensions>
      </trkpt>
      <trkpt lat="23.14431077800691127777099609375" lon="113.25675903819501399993896484375">
        <ele>14.19999980926513671875</ele>
        <time>2018-09-06T12:42:16.000Z</time>
        <extensions>
          <ns3:TrackPointExtension>
            <ns3:hr>155</ns3:hr>
            <ns3:cad>82</ns3:cad>
          </ns3:TrackPointExtension>
        </extensions>
      </trkpt>
      <trkpt lat="23.144302479922771453857421875" lon="113.25673942454159259796142578125">
        <ele>14.19999980926513671875</ele>
        <time>2018-09-06T12:42:17.000Z</time>
        <extensions>
          <ns3:TrackPointExtension>
            <ns3:hr>159</ns3:hr>
            <ns3:cad>82</ns3:cad>
          </ns3:TrackPointExtension>
        </extensions>
      </trkpt>
      <trkpt lat="23.1442905776202678680419921875" lon="113.25672215782105922698974609375">
        <ele>14.3999996185302734375</ele>
        <time>2018-09-06T12:42:18.000Z</time>
        <extensions>
          <ns3:TrackPointExtension>
            <ns3:hr>164</ns3:hr>
            <ns3:cad>82</ns3:cad>
          </ns3:TrackPointExtension>
        </extensions>
      </trkpt>
      <trkpt lat="23.14428110606968402862548828125" lon="113.25670455582439899444580078125">
        <ele>14.6000003814697265625</ele>
        <time>2018-09-06T12:42:19.000Z</time>
        <extensions>
          <ns3:TrackPointExtension>
            <ns3:hr>164</ns3:hr>
            <ns3:cad>82</ns3:cad>
          </ns3:TrackPointExtension>
        </extensions>
      </trkpt>
      <trkpt lat="23.14426149241626262664794921875" lon="113.25667941011488437652587890625">
        <ele>14.80000019073486328125</ele>
        <time>2018-09-06T12:42:21.000Z</time>
        <extensions>
          <ns3:TrackPointExtension>
            <ns3:hr>161</ns3:hr>
            <ns3:cad>81</ns3:cad>
          </ns3:TrackPointExtension>
        </extensions>
      </trkpt>
      <trkpt lat="23.1442540325224399566650390625" lon="113.256701119244098663330078125">
        <ele>15</ele>
        <time>2018-09-06T12:42:23.000Z</time>
        <extensions>
          <ns3:TrackPointExtension>
            <ns3:hr>161</ns3:hr>
            <ns3:cad>80</ns3:cad>
          </ns3:TrackPointExtension>
        </extensions>
      </trkpt>
      <trkpt lat="23.144264258444309234619140625" lon="113.25672634877264499664306640625">
        <ele>15</ele>
        <time>2018-09-06T12:42:25.000Z</time>
        <extensions>
          <ns3:TrackPointExtension>
            <ns3:hr>158</ns3:hr>
            <ns3:cad>79</ns3:cad>
          </ns3:TrackPointExtension>
        </extensions>
      </trkpt>
      <trkpt lat="23.14424254931509494781494140625" lon="113.2567928172647953033447265625">
        <ele>15.6000003814697265625</ele>
        <time>2018-09-06T12:42:28.000Z</time>
        <extensions>
          <ns3:TrackPointExtension>
            <ns3:hr>162</ns3:hr>
            <ns3:cad>79</ns3:cad>
          </ns3:TrackPointExtension>
        </extensions>
      </trkpt>
      <trkpt lat="23.1442305631935596466064453125" lon="113.25683916918933391571044921875">
        <ele>16.3999996185302734375</ele>
        <time>2018-09-06T12:42:30.000Z</time>
        <extensions>
          <ns3:TrackPointExtension>
            <ns3:hr>167</ns3:hr>
            <ns3:cad>82</ns3:cad>
          </ns3:TrackPointExtension>
        </extensions>
      </trkpt>
      <trkpt lat="23.14422226510941982269287109375" lon="113.25694310478866100311279296875">
        <ele>17.3999996185302734375</ele>
        <time>2018-09-06T12:42:35.000Z</time>
        <extensions>
          <ns3:TrackPointExtension>
            <ns3:hr>170</ns3:hr>
            <ns3:cad>81</ns3:cad>
          </ns3:TrackPointExtension>
        </extensions>
      </trkpt>
      <trkpt lat="23.14420600421726703643798828125" lon="113.25697847642004489898681640625">
        <ele>17.799999237060546875</ele>
        <time>2018-09-06T12:42:38.000Z</time>
        <extensions>
          <ns3:TrackPointExtension>
            <ns3:hr>173</ns3:hr>
            <ns3:cad>80</ns3:cad>
          </ns3:TrackPointExtension>
        </extensions>
      </trkpt>
      <trkpt lat="23.1441933475434780120849609375" lon="113.25703203678131103515625">
        <ele>18.3999996185302734375</ele>
        <time>2018-09-06T12:42:41.000Z</time>
        <extensions>
          <ns3:TrackPointExtension>
            <ns3:hr>178</ns3:hr>
            <ns3:cad>82</ns3:cad>
          </ns3:TrackPointExtension>
        </extensions>
      </trkpt>
      <trkpt lat="23.144167363643646240234375" lon="113.25712868012487888336181640625">
        <ele>19.3999996185302734375</ele>
        <time>2018-09-06T12:42:47.000Z</time>
        <extensions>
          <ns3:TrackPointExtension>
            <ns3:hr>183</ns3:hr>
            <ns3:cad>81</ns3:cad>
          </ns3:TrackPointExtension>
        </extensions>
      </trkpt>
      <trkpt lat="23.1441604904830455780029296875" lon="113.25719355605542659759521484375">
        <ele>20</ele>
        <time>2018-09-06T12:42:52.000Z</time>
        <extensions>
          <ns3:TrackPointExtension>
            <ns3:hr>178</ns3:hr>
            <ns3:cad>0</ns3:cad>
          </ns3:TrackPointExtension>
        </extensions>
      </trkpt>
      <trkpt lat="23.14416795037686824798583984375" lon="113.2571887783706188201904296875">
        <ele>19.799999237060546875</ele>
        <time>2018-09-06T12:42:54.000Z</time>
        <extensions>
          <ns3:TrackPointExtension>
            <ns3:hr>176</ns3:hr>
            <ns3:cad>0</ns3:cad>
          </ns3:TrackPointExtension>
        </extensions>
      </trkpt>
      <trkpt lat="23.14417113550007343292236328125" lon="113.257184922695159912109375">
        <ele>19.6000003814697265625</ele>
        <time>2018-09-06T12:42:55.000Z</time>
        <extensions>
          <ns3:TrackPointExtension>
            <ns3:hr>171</ns3:hr>
            <ns3:cad>61</ns3:cad>
          </ns3:TrackPointExtension>
        </extensions>
      </trkpt>
      <trkpt lat="23.14421170391142368316650390625" lon="113.25717888772487640380859375">
        <ele>18.6000003814697265625</ele>
        <time>2018-09-06T12:42:59.000Z</time>
        <extensions>
          <ns3:TrackPointExtension>
            <ns3:hr>169</ns3:hr>
            <ns3:cad>61</ns3:cad>
          </ns3:TrackPointExtension>
        </extensions>
      </trkpt>
      <trkpt lat="23.144267611205577850341796875" lon="113.2571562565863132476806640625">
        <ele>17</ele>
        <time>2018-09-06T12:43:05.000Z</time>
        <extensions>
          <ns3:TrackPointExtension>
            <ns3:hr>169</ns3:hr>
            <ns3:cad>61</ns3:cad>
          </ns3:TrackPointExtension>
        </extensions>
      </trkpt>
    </trkseg>
  </trk>
</gpx>
