<gpx xmlns:ns3="http://www.garmin.com/xmlschemas/TrackPointExtension/v1" xmlns="http://www.topografix.com/GPX/1/1" xmlns:xsi="http://www.w3.org/2001/XMLSchema-instance" xmlns:ns2="http://www.garmin.com/xmlschemas/GpxExtensions/v3" creator="Garmin Connect" version="1.1" xsi:schemaLocation="http://www.topografix.com/GPX/1/1 http://www.topografix.com/GPX/11.xsd">
  <extensions>
<distance>146.05</distance>
<average_hr>119.0</average_hr>
<average_speed>1.4670000076293945</average_speed>
<start_time>2021-06-19T22:39:45+00:00</start_time>
<end_time>2021-06-19T22:41:24.525000+00:00</end_time>
<moving_time>99.525</moving_time>
<elapsed_time>99.525</elapsed_time>
</extensions>
<metadata>
    <link href="connect.garmin.com">
      <text>Garmin Connect</text>
    </link>
    <time>2021-06-19T22:39:45.000Z</time>
  </metadata>
  <trk>
    <name>广州市 跑步</name>
    <type>running</type>
    <trkseg>
      <trkpt lat="23.17953891120851039886474609375" lon="113.252119235694408416748046875">
        <ele>19.3999996185302734375</ele>
        <time>2021-06-19T22:40:07.000Z</time>
        <extensions>
          <ns3:TrackPointExtension>
            <ns3:hr>119</ns3:hr>
            <ns3:cad>0</ns3:cad>
          </ns3:TrackPointExtension>
        </extensions>
      </trkpt>
      <trkpt lat="23.1793490611016750335693359375" lon="113.25127844698727130889892578125">
        <ele>16.200000762939453125</ele>
        <time>2021-06-19T22:40:09.000Z</time>
        <extensions>
          <ns3:TrackPointExtension>
            <ns3:hr>119</ns3:hr>
            <ns3:cad>0</ns3:cad>
          </ns3:TrackPointExtension>
        </extensions>
      </trkpt>
      <trkpt lat="23.17934847436845302581787109375" lon="113.2513368688523769378662109375">
        <ele>16</ele>
        <time>2021-06-19T22:40:11.000Z</time>
        <extensions>
          <ns3:TrackPointExtension>
            <ns3:hr>119</ns3:hr>
            <ns3:cad>0</ns3:cad>
          </ns3:TrackPointExtension>
        </extensions>
      </trkpt>
      <trkpt lat="23.17934730090200901031494140625" lon="113.251417838037014007568359375">
        <ele>16</ele>
        <time>2021-06-19T22:40:15.000Z</time>
        <extensions>
          <ns3:TrackPointExtension>
            <ns3:hr>119</ns3:hr>
            <ns3:cad>61</ns3:cad>
          </ns3:TrackPointExtension>
        </extensions>
      </trkpt>
      <trkpt lat="23.17920883186161518096923828125" lon="113.25155203230679035186767578125">
        <ele>14.3999996185302734375</ele>
        <time>2021-06-19T22:40:40.000Z</time>
        <extensions>
          <ns3:TrackPointExtension>
            <ns3:hr>118</ns3:hr>
            <ns3:cad>61</ns3:cad>
          </ns3:TrackPointExtension>
        </extensions>
      </trkpt>
      <trkpt lat="23.17922173999249935150146484375" lon="113.2515863142907619476318359375">
        <ele>14.19999980926513671875</ele>
        <time>2021-06-19T22:40:44.000Z</time>
        <extensions>
          <ns3:TrackPointExtension>
            <ns3:hr>118</ns3:hr>
            <ns3:cad>61</ns3:cad>
          </ns3:TrackPointExtension>
        </extensions>
      </trkpt>
      <trkpt lat="23.1791589595377445220947265625" lon="113.25163736008107662200927734375">
        <ele>13.3999996185302734375</ele>
        <time>2021-06-19T22:40:46.000Z</time>
        <extensions>
          <ns3:TrackPointExtension>
            <ns3:hr>118</ns3:hr>
            <ns3:cad>61</ns3:cad>
          </ns3:TrackPointExtension>
        </extensions>
      </trkpt>
      <trkpt lat="23.17914261482656002044677734375" lon="113.251686058938503265380859375">
        <ele>13.3999996185302734375</ele>
        <time>2021-06-19T22:40:49.000Z</time>
        <extensions>
          <ns3:TrackPointExtension>
            <ns3:hr>118</ns3:hr>
            <ns3:cad>61</ns3:cad>
          </ns3:TrackPointExtension>
        </extensions>
      </trkpt>
      <trkpt lat="23.17911378107964992523193359375" lon="113.25172838754951953887939453125">
        <ele>13.3999996185302734375</ele>
        <time>2021-06-19T22:40:52.000Z</time>
        <extensions>
          <ns3:TrackPointExtension>
            <ns3:hr>118</ns3:hr>
            <ns3:cad>59</ns3:cad>
          </ns3:TrackPointExtension>
        </extensions>
      </trkpt>
      <trkpt lat="23.17909550853073596954345703125" lon="113.2517713867127895355224609375">
        <ele>13.3999996185302734375</ele>
        <time>2021-06-19T22:40:56.000Z</time>
        <extensions>
          <ns3:TrackPointExtension>
            <ns3:hr>119</ns3:hr>
            <ns3:cad>0</ns3:cad>
          </ns3:TrackPointExtension>
        </extensions>
      </trkpt>
      <trkpt lat="23.17910154350101947784423828125" lon="113.2519524358212947845458984375">
        <ele>15.3999996185302734375</ele>
        <time>2021-06-19T22:41:11.000Z</time>
        <extensions>
          <ns3:TrackPointExtension>
            <ns3:hr>119</ns3:hr>
            <ns3:cad>59</ns3:cad>
          </ns3:TrackPointExtension>
        </extensions>
      </trkpt>
      <trkpt lat="23.17905418574810028076171875" lon="113.252152092754840850830078125">
        <ele>19.200000762939453125</ele>
        <time>2021-06-19T22:41:23.000Z</time>
        <extensions>
          <ns3:TrackPointExtension>
            <ns3:hr>119</ns3:hr>
            <ns3:cad>61</ns3:cad>
          </ns3:TrackPointExtension>
        </extensions>
      </trkpt>
      <trkpt lat="23.1790481507778167724609375" lon="113.25218805111944675445556640625">
        <ele>19.3999996185302734375</ele>
        <time>2021-06-19T22:41:25.000Z</time>
        <extensions>
          <ns3:TrackPointExtension>
            <ns3:hr>119</ns3:hr>
            <ns3:cad>60</ns3:cad>
          </ns3:TrackPointExtension>
        </extensions>
      </trkpt>
    </trkseg>
  </trk>
</gpx>
