<gpx xmlns:ns3="http://www.garmin.com/xmlschemas/TrackPointExtension/v1" xmlns="http://www.topografix.com/GPX/1/1" xmlns:xsi="http://www.w3.org/2001/XMLSchema-instance" xmlns:ns2="http://www.garmin.com/xmlschemas/GpxExtensions/v3" creator="Garmin Connect" version="1.1" xsi:schemaLocation="http://www.topografix.com/GPX/1/1 http://www.topografix.com/GPX/11.xsd">
  <extensions>
<distance>2202.34</distance>
<average_hr>160.0</average_hr>
<average_speed>2.8519999980926514</average_speed>
<start_time>2017-10-03T11:38:15+00:00</start_time>
<end_time>2017-10-03T11:51:07.273000+00:00</end_time>
<moving_time>766.763</moving_time>
<elapsed_time>2341.544</elapsed_time>
</extensions>
<metadata>
    <link href="connect.garmin.com">
      <text>Garmin Connect</text>
    </link>
    <time>2017-10-03T11:38:15.000Z</time>
  </metadata>
  <trk>
    <name>广州市 跑步</name>
    <type>running</type>
    <trkseg>
      <trkpt lat="23.17519473843276500701904296875" lon="113.25439743697643280029296875">
        <ele>9</ele>
        <time>2017-10-03T11:38:15.000Z</time>
        <extensions>
          <ns3:TrackPointExtension>
            <ns3:hr>83</ns3:hr>
            <ns3:cad>0</ns3:cad>
          </ns3:TrackPointExtension>
        </extensions>
      </trkpt>
      <trkpt lat="23.17519825883209705352783203125" lon="113.254402466118335723876953125">
        <ele>9</ele>
        <time>2017-10-03T11:38:16.000Z</time>
        <extensions>
          <ns3:TrackPointExtension>
            <ns3:hr>83</ns3:hr>
            <ns3:cad>0</ns3:cad>
          </ns3:TrackPointExtension>
        </extensions>
      </trkpt>
      <trkpt lat="23.1751911342144012451171875" lon="113.25443121604621410369873046875">
        <ele>8.6000003814697265625</ele>
        <time>2017-10-03T11:38:17.000Z</time>
        <extensions>
          <ns3:TrackPointExtension>
            <ns3:hr>83</ns3:hr>
            <ns3:cad>0</ns3:cad>
          </ns3:TrackPointExtension>
        </extensions>
      </trkpt>
      <trkpt lat="23.1752479635179042816162109375" lon="113.25455945916473865509033203125">
        <ele>8.6000003814697265625</ele>
        <time>2017-10-03T11:38:24.000Z</time>
        <extensions>
          <ns3:TrackPointExtension>
            <ns3:hr>89</ns3:hr>
            <ns3:cad>82</ns3:cad>
          </ns3:TrackPointExtension>
        </extensions>
      </trkpt>
      <trkpt lat="23.17526883445680141448974609375" lon="113.2545692659914493560791015625">
        <ele>8.80000019073486328125</ele>
        <time>2017-10-03T11:38:25.000Z</time>
        <extensions>
          <ns3:TrackPointExtension>
            <ns3:hr>92</ns3:hr>
            <ns3:cad>85</ns3:cad>
          </ns3:TrackPointExtension>
        </extensions>
      </trkpt>
      <trkpt lat="23.17530152387917041778564453125" lon="113.254577815532684326171875">
        <ele>9.19999980926513671875</ele>
        <time>2017-10-03T11:38:27.000Z</time>
        <extensions>
          <ns3:TrackPointExtension>
            <ns3:hr>89</ns3:hr>
            <ns3:cad>85</ns3:cad>
          </ns3:TrackPointExtension>
        </extensions>
      </trkpt>
      <trkpt lat="23.1753569282591342926025390625" lon="113.25458561070263385772705078125">
        <ele>10</ele>
        <time>2017-10-03T11:38:30.000Z</time>
        <extensions>
          <ns3:TrackPointExtension>
            <ns3:hr>93</ns3:hr>
            <ns3:cad>87</ns3:cad>
          </ns3:TrackPointExtension>
        </extensions>
      </trkpt>
      <trkpt lat="23.17539087496697902679443359375" lon="113.2545833475887775421142578125">
        <ele>10.3999996185302734375</ele>
        <time>2017-10-03T11:38:32.000Z</time>
        <extensions>
          <ns3:TrackPointExtension>
            <ns3:hr>96</ns3:hr>
            <ns3:cad>86</ns3:cad>
          </ns3:TrackPointExtension>
        </extensions>
      </trkpt>
      <trkpt lat="23.175471089780330657958984375" lon="113.254559375345706939697265625">
        <ele>12.80000019073486328125</ele>
        <time>2017-10-03T11:38:35.000Z</time>
        <extensions>
          <ns3:TrackPointExtension>
            <ns3:hr>99</ns3:hr>
            <ns3:cad>86</ns3:cad>
          </ns3:TrackPointExtension>
        </extensions>
      </trkpt>
      <trkpt lat="23.17549648694694042205810546875" lon="113.25455292128026485443115234375">
        <ele>13</ele>
        <time>2017-10-03T11:38:36.000Z</time>
        <extensions>
          <ns3:TrackPointExtension>
            <ns3:hr>104</ns3:hr>
            <ns3:cad>86</ns3:cad>
          </ns3:TrackPointExtension>
        </extensions>
      </trkpt>
      <trkpt lat="23.17554652690887451171875" lon="113.254545293748378753662109375">
        <ele>13.6000003814697265625</ele>
        <time>2017-10-03T11:38:38.000Z</time>
        <extensions>
          <ns3:TrackPointExtension>
            <ns3:hr>107</ns3:hr>
            <ns3:cad>87</ns3:cad>
          </ns3:TrackPointExtension>
        </extensions>
      </trkpt>
      <trkpt lat="23.17557930015027523040771484375" lon="113.2545367442071437835693359375">
        <ele>14</ele>
        <time>2017-10-03T11:38:39.000Z</time>
        <extensions>
          <ns3:TrackPointExtension>
            <ns3:hr>112</ns3:hr>
            <ns3:cad>87</ns3:cad>
          </ns3:TrackPointExtension>
        </extensions>
      </trkpt>
      <trkpt lat="23.175628669559955596923828125" lon="113.2545250095427036285400390625">
        <ele>14.3999996185302734375</ele>
        <time>2017-10-03T11:38:41.000Z</time>
        <extensions>
          <ns3:TrackPointExtension>
            <ns3:hr>116</ns3:hr>
            <ns3:cad>86</ns3:cad>
          </ns3:TrackPointExtension>
        </extensions>
      </trkpt>
      <trkpt lat="23.1756523065268993377685546875" lon="113.25452056713402271270751953125">
        <ele>14.3999996185302734375</ele>
        <time>2017-10-03T11:38:42.000Z</time>
        <extensions>
          <ns3:TrackPointExtension>
            <ns3:hr>120</ns3:hr>
            <ns3:cad>87</ns3:cad>
          </ns3:TrackPointExtension>
        </extensions>
      </trkpt>
      <trkpt lat="23.17570536397397518157958984375" lon="113.25449491851031780242919921875">
        <ele>14.80000019073486328125</ele>
        <time>2017-10-03T11:38:44.000Z</time>
        <extensions>
          <ns3:TrackPointExtension>
            <ns3:hr>124</ns3:hr>
            <ns3:cad>88</ns3:cad>
          </ns3:TrackPointExtension>
        </extensions>
      </trkpt>
      <trkpt lat="23.17572682164609432220458984375" lon="113.25448569841682910919189453125">
        <ele>14.80000019073486328125</ele>
        <time>2017-10-03T11:38:45.000Z</time>
        <extensions>
          <ns3:TrackPointExtension>
            <ns3:hr>129</ns3:hr>
            <ns3:cad>88</ns3:cad>
          </ns3:TrackPointExtension>
        </extensions>
      </trkpt>
      <trkpt lat="23.17574492655694484710693359375" lon="113.25447564013302326202392578125">
        <ele>15</ele>
        <time>2017-10-03T11:38:46.000Z</time>
        <extensions>
          <ns3:TrackPointExtension>
            <ns3:hr>133</ns3:hr>
            <ns3:cad>88</ns3:cad>
          </ns3:TrackPointExtension>
        </extensions>
      </trkpt>
      <trkpt lat="23.1757649593055248260498046875" lon="113.25446373783051967620849609375">
        <ele>15</ele>
        <time>2017-10-03T11:38:47.000Z</time>
        <extensions>
          <ns3:TrackPointExtension>
            <ns3:hr>138</ns3:hr>
            <ns3:cad>88</ns3:cad>
          </ns3:TrackPointExtension>
        </extensions>
      </trkpt>
      <trkpt lat="23.175812065601348876953125" lon="113.2544423639774322509765625">
        <ele>15.19999980926513671875</ele>
        <time>2017-10-03T11:38:49.000Z</time>
        <extensions>
          <ns3:TrackPointExtension>
            <ns3:hr>141</ns3:hr>
            <ns3:cad>87</ns3:cad>
          </ns3:TrackPointExtension>
        </extensions>
      </trkpt>
      <trkpt lat="23.1758380495011806488037109375" lon="113.2544343173503875732421875">
        <ele>15</ele>
        <time>2017-10-03T11:38:50.000Z</time>
        <extensions>
          <ns3:TrackPointExtension>
            <ns3:hr>144</ns3:hr>
            <ns3:cad>88</ns3:cad>
          </ns3:TrackPointExtension>
        </extensions>
      </trkpt>
      <trkpt lat="23.17586864344775676727294921875" lon="113.25442694127559661865234375">
        <ele>14.6000003814697265625</ele>
        <time>2017-10-03T11:38:51.000Z</time>
        <extensions>
          <ns3:TrackPointExtension>
            <ns3:hr>148</ns3:hr>
            <ns3:cad>88</ns3:cad>
          </ns3:TrackPointExtension>
        </extensions>
      </trkpt>
      <trkpt lat="23.175934441387653350830078125" lon="113.25440757907927036285400390625">
        <ele>14</ele>
        <time>2017-10-03T11:38:53.000Z</time>
        <extensions>
          <ns3:TrackPointExtension>
            <ns3:hr>153</ns3:hr>
            <ns3:cad>86</ns3:cad>
          </ns3:TrackPointExtension>
        </extensions>
      </trkpt>
      <trkpt lat="23.17596470005810260772705078125" lon="113.2544086687266826629638671875">
        <ele>13.6000003814697265625</ele>
        <time>2017-10-03T11:38:54.000Z</time>
        <extensions>
          <ns3:TrackPointExtension>
            <ns3:hr>153</ns3:hr>
            <ns3:cad>86</ns3:cad>
          </ns3:TrackPointExtension>
        </extensions>
      </trkpt>
      <trkpt lat="23.1759931147098541259765625" lon="113.25441629625856876373291015625">
        <ele>13.3999996185302734375</ele>
        <time>2017-10-03T11:38:55.000Z</time>
        <extensions>
          <ns3:TrackPointExtension>
            <ns3:hr>150</ns3:hr>
            <ns3:cad>86</ns3:cad>
          </ns3:TrackPointExtension>
        </extensions>
      </trkpt>
      <trkpt lat="23.17607014440000057220458984375" lon="113.254413865506649017333984375">
        <ele>13.19999980926513671875</ele>
        <time>2017-10-03T11:38:58.000Z</time>
        <extensions>
          <ns3:TrackPointExtension>
            <ns3:hr>155</ns3:hr>
            <ns3:cad>86</ns3:cad>
          </ns3:TrackPointExtension>
        </extensions>
      </trkpt>
      <trkpt lat="23.17616838030517101287841796875" lon="113.25440372340381145477294921875">
        <ele>12.80000019073486328125</ele>
        <time>2017-10-03T11:39:02.000Z</time>
        <extensions>
          <ns3:TrackPointExtension>
            <ns3:hr>149</ns3:hr>
            <ns3:cad>87</ns3:cad>
          </ns3:TrackPointExtension>
        </extensions>
      </trkpt>
      <trkpt lat="23.17636518739163875579833984375" lon="113.254383690655231475830078125">
        <ele>12.19999980926513671875</ele>
        <time>2017-10-03T11:39:08.000Z</time>
        <extensions>
          <ns3:TrackPointExtension>
            <ns3:hr>150</ns3:hr>
            <ns3:cad>87</ns3:cad>
          </ns3:TrackPointExtension>
        </extensions>
      </trkpt>
      <trkpt lat="23.17649762146174907684326171875" lon="113.25434002093970775604248046875">
        <ele>12.3999996185302734375</ele>
        <time>2017-10-03T11:39:13.000Z</time>
        <extensions>
          <ns3:TrackPointExtension>
            <ns3:hr>154</ns3:hr>
            <ns3:cad>85</ns3:cad>
          </ns3:TrackPointExtension>
        </extensions>
      </trkpt>
      <trkpt lat="23.17661597393453121185302734375" lon="113.25427346862852573394775390625">
        <ele>12.6000003814697265625</ele>
        <time>2017-10-03T11:39:19.000Z</time>
        <extensions>
          <ns3:TrackPointExtension>
            <ns3:hr>157</ns3:hr>
            <ns3:cad>85</ns3:cad>
          </ns3:TrackPointExtension>
        </extensions>
      </trkpt>
      <trkpt lat="23.17679920233786106109619140625" lon="113.2542849518358707427978515625">
        <ele>13.19999980926513671875</ele>
        <time>2017-10-03T11:39:27.000Z</time>
        <extensions>
          <ns3:TrackPointExtension>
            <ns3:hr>159</ns3:hr>
            <ns3:cad>86</ns3:cad>
          </ns3:TrackPointExtension>
        </extensions>
      </trkpt>
      <trkpt lat="23.17683138884603977203369140625" lon="113.25429794378578662872314453125">
        <ele>13.19999980926513671875</ele>
        <time>2017-10-03T11:39:28.000Z</time>
        <extensions>
          <ns3:TrackPointExtension>
            <ns3:hr>153</ns3:hr>
            <ns3:cad>86</ns3:cad>
          </ns3:TrackPointExtension>
        </extensions>
      </trkpt>
      <trkpt lat="23.17686013877391815185546875" lon="113.25429559685289859771728515625">
        <ele>13</ele>
        <time>2017-10-03T11:39:29.000Z</time>
        <extensions>
          <ns3:TrackPointExtension>
            <ns3:hr>153</ns3:hr>
            <ns3:cad>85</ns3:cad>
          </ns3:TrackPointExtension>
        </extensions>
      </trkpt>
      <trkpt lat="23.17692945711314678192138671875" lon="113.254297189414501190185546875">
        <ele>13.19999980926513671875</ele>
        <time>2017-10-03T11:39:31.000Z</time>
        <extensions>
          <ns3:TrackPointExtension>
            <ns3:hr>149</ns3:hr>
            <ns3:cad>85</ns3:cad>
          </ns3:TrackPointExtension>
        </extensions>
      </trkpt>
      <trkpt lat="23.17712525837123394012451171875" lon="113.25426743365824222564697265625">
        <ele>14.3999996185302734375</ele>
        <time>2017-10-03T11:39:38.000Z</time>
        <extensions>
          <ns3:TrackPointExtension>
            <ns3:hr>154</ns3:hr>
            <ns3:cad>85</ns3:cad>
          </ns3:TrackPointExtension>
        </extensions>
      </trkpt>
      <trkpt lat="23.17724771797657012939453125" lon="113.2542728818953037261962890625">
        <ele>15.80000019073486328125</ele>
        <time>2017-10-03T11:39:43.000Z</time>
        <extensions>
          <ns3:TrackPointExtension>
            <ns3:hr>157</ns3:hr>
            <ns3:cad>86</ns3:cad>
          </ns3:TrackPointExtension>
        </extensions>
      </trkpt>
      <trkpt lat="23.1773970834910869598388671875" lon="113.254275061190128326416015625">
        <ele>19</ele>
        <time>2017-10-03T11:39:49.000Z</time>
        <extensions>
          <ns3:TrackPointExtension>
            <ns3:hr>158</ns3:hr>
            <ns3:cad>84</ns3:cad>
          </ns3:TrackPointExtension>
        </extensions>
      </trkpt>
      <trkpt lat="23.18375349976122379302978515625" lon="113.25540955178439617156982421875">
        <ele>10</ele>
        <time>2017-10-03T11:52:34.000Z</time>
        <extensions>
          <ns3:TrackPointExtension>
            <ns3:hr>115</ns3:hr>
            <ns3:cad>83</ns3:cad>
          </ns3:TrackPointExtension>
        </extensions>
      </trkpt>
      <trkpt lat="23.18393848836421966552734375" lon="113.25565312989056110382080078125">
        <ele>9.19999980926513671875</ele>
        <time>2017-10-03T11:52:42.000Z</time>
        <extensions>
          <ns3:TrackPointExtension>
            <ns3:hr>120</ns3:hr>
            <ns3:cad>86</ns3:cad>
          </ns3:TrackPointExtension>
        </extensions>
      </trkpt>
      <trkpt lat="23.18395986221730709075927734375" lon="113.2556800357997417449951171875">
        <ele>9.19999980926513671875</ele>
        <time>2017-10-03T11:52:43.000Z</time>
        <extensions>
          <ns3:TrackPointExtension>
            <ns3:hr>125</ns3:hr>
            <ns3:cad>85</ns3:cad>
          </ns3:TrackPointExtension>
        </extensions>
      </trkpt>
      <trkpt lat="23.1839929707348346710205078125" lon="113.255747258663177490234375">
        <ele>9.19999980926513671875</ele>
        <time>2017-10-03T11:52:46.000Z</time>
        <extensions>
          <ns3:TrackPointExtension>
            <ns3:hr>130</ns3:hr>
            <ns3:cad>85</ns3:cad>
          </ns3:TrackPointExtension>
        </extensions>
      </trkpt>
      <trkpt lat="23.184007890522480010986328125" lon="113.25579025782644748687744140625">
        <ele>9.19999980926513671875</ele>
        <time>2017-10-03T11:52:48.000Z</time>
        <extensions>
          <ns3:TrackPointExtension>
            <ns3:hr>134</ns3:hr>
            <ns3:cad>86</ns3:cad>
          </ns3:TrackPointExtension>
        </extensions>
      </trkpt>
      <trkpt lat="23.18401350639760494232177734375" lon="113.25581096112728118896484375">
        <ele>9</ele>
        <time>2017-10-03T11:52:49.000Z</time>
        <extensions>
          <ns3:TrackPointExtension>
            <ns3:hr>138</ns3:hr>
            <ns3:cad>85</ns3:cad>
          </ns3:TrackPointExtension>
        </extensions>
      </trkpt>
      <trkpt lat="23.18402021192014217376708984375" lon="113.25583267025649547576904296875">
        <ele>9</ele>
        <time>2017-10-03T11:52:50.000Z</time>
        <extensions>
          <ns3:TrackPointExtension>
            <ns3:hr>142</ns3:hr>
            <ns3:cad>85</ns3:cad>
          </ns3:TrackPointExtension>
        </extensions>
      </trkpt>
      <trkpt lat="23.184030354022979736328125" lon="113.25589721091091632843017578125">
        <ele>8.80000019073486328125</ele>
        <time>2017-10-03T11:52:53.000Z</time>
        <extensions>
          <ns3:TrackPointExtension>
            <ns3:hr>145</ns3:hr>
            <ns3:cad>85</ns3:cad>
          </ns3:TrackPointExtension>
        </extensions>
      </trkpt>
      <trkpt lat="23.184039406478404998779296875" lon="113.25594532303512096405029296875">
        <ele>8.3999996185302734375</ele>
        <time>2017-10-03T11:52:55.000Z</time>
        <extensions>
          <ns3:TrackPointExtension>
            <ns3:hr>150</ns3:hr>
            <ns3:cad>85</ns3:cad>
          </ns3:TrackPointExtension>
        </extensions>
      </trkpt>
      <trkpt lat="23.184049464762210845947265625" lon="113.2559687085449695587158203125">
        <ele>8.3999996185302734375</ele>
        <time>2017-10-03T11:52:56.000Z</time>
        <extensions>
          <ns3:TrackPointExtension>
            <ns3:hr>150</ns3:hr>
            <ns3:cad>85</ns3:cad>
          </ns3:TrackPointExtension>
        </extensions>
      </trkpt>
      <trkpt lat="23.18405809812247753143310546875" lon="113.255988992750644683837890625">
        <ele>8.19999980926513671875</ele>
        <time>2017-10-03T11:52:57.000Z</time>
        <extensions>
          <ns3:TrackPointExtension>
            <ns3:hr>154</ns3:hr>
            <ns3:cad>85</ns3:cad>
          </ns3:TrackPointExtension>
        </extensions>
      </trkpt>
      <trkpt lat="23.18410872481763362884521484375" lon="113.25606401078402996063232421875">
        <ele>8.6000003814697265625</ele>
        <time>2017-10-03T11:53:01.000Z</time>
        <extensions>
          <ns3:TrackPointExtension>
            <ns3:hr>150</ns3:hr>
            <ns3:cad>84</ns3:cad>
          </ns3:TrackPointExtension>
        </extensions>
      </trkpt>
      <trkpt lat="23.18412096239626407623291015625" lon="113.25608597137033939361572265625">
        <ele>9</ele>
        <time>2017-10-03T11:53:02.000Z</time>
        <extensions>
          <ns3:TrackPointExtension>
            <ns3:hr>154</ns3:hr>
            <ns3:cad>83</ns3:cad>
          </ns3:TrackPointExtension>
        </extensions>
      </trkpt>
      <trkpt lat="23.1841455213725566864013671875" lon="113.25612721033394336700439453125">
        <ele>9.3999996185302734375</ele>
        <time>2017-10-03T11:53:04.000Z</time>
        <extensions>
          <ns3:TrackPointExtension>
            <ns3:hr>151</ns3:hr>
            <ns3:cad>84</ns3:cad>
          </ns3:TrackPointExtension>
        </extensions>
      </trkpt>
      <trkpt lat="23.184185922145843505859375" lon="113.25617800466716289520263671875">
        <ele>10.3999996185302734375</ele>
        <time>2017-10-03T11:53:07.000Z</time>
        <extensions>
          <ns3:TrackPointExtension>
            <ns3:hr>148</ns3:hr>
            <ns3:cad>84</ns3:cad>
          </ns3:TrackPointExtension>
        </extensions>
      </trkpt>
      <trkpt lat="23.184197656810283660888671875" lon="113.2561938464641571044921875">
        <ele>10.6000003814697265625</ele>
        <time>2017-10-03T11:53:08.000Z</time>
        <extensions>
          <ns3:TrackPointExtension>
            <ns3:hr>151</ns3:hr>
            <ns3:cad>84</ns3:cad>
          </ns3:TrackPointExtension>
        </extensions>
      </trkpt>
      <trkpt lat="23.18424132652580738067626953125" lon="113.25625092722475528717041015625">
        <ele>11.6000003814697265625</ele>
        <time>2017-10-03T11:53:11.000Z</time>
        <extensions>
          <ns3:TrackPointExtension>
            <ns3:hr>154</ns3:hr>
            <ns3:cad>84</ns3:cad>
          </ns3:TrackPointExtension>
        </extensions>
      </trkpt>
      <trkpt lat="23.18432933650910854339599609375" lon="113.25639559887349605560302734375">
        <ele>13.80000019073486328125</ele>
        <time>2017-10-03T11:53:18.000Z</time>
        <extensions>
          <ns3:TrackPointExtension>
            <ns3:hr>158</ns3:hr>
            <ns3:cad>83</ns3:cad>
          </ns3:TrackPointExtension>
        </extensions>
      </trkpt>
      <trkpt lat="23.1844807974994182586669921875" lon="113.25655787251889705657958984375">
        <ele>15.80000019073486328125</ele>
        <time>2017-10-03T11:53:26.000Z</time>
        <extensions>
          <ns3:TrackPointExtension>
            <ns3:hr>156</ns3:hr>
            <ns3:cad>83</ns3:cad>
          </ns3:TrackPointExtension>
        </extensions>
      </trkpt>
      <trkpt lat="23.18459101952612400054931640625" lon="113.2567321322858333587646484375">
        <ele>15.80000019073486328125</ele>
        <time>2017-10-03T11:53:32.000Z</time>
        <extensions>
          <ns3:TrackPointExtension>
            <ns3:hr>160</ns3:hr>
            <ns3:cad>84</ns3:cad>
          </ns3:TrackPointExtension>
        </extensions>
      </trkpt>
      <trkpt lat="23.18460769951343536376953125" lon="113.25676406733691692352294921875">
        <ele>15.6000003814697265625</ele>
        <time>2017-10-03T11:53:33.000Z</time>
        <extensions>
          <ns3:TrackPointExtension>
            <ns3:hr>164</ns3:hr>
            <ns3:cad>84</ns3:cad>
          </ns3:TrackPointExtension>
        </extensions>
      </trkpt>
      <trkpt lat="23.18462806753814220428466796875" lon="113.25679591856896877288818359375">
        <ele>15.6000003814697265625</ele>
        <time>2017-10-03T11:53:34.000Z</time>
        <extensions>
          <ns3:TrackPointExtension>
            <ns3:hr>163</ns3:hr>
            <ns3:cad>84</ns3:cad>
          </ns3:TrackPointExtension>
        </extensions>
      </trkpt>
      <trkpt lat="23.18464868701994419097900390625" lon="113.256827183067798614501953125">
        <ele>15.3999996185302734375</ele>
        <time>2017-10-03T11:53:35.000Z</time>
        <extensions>
          <ns3:TrackPointExtension>
            <ns3:hr>160</ns3:hr>
            <ns3:cad>84</ns3:cad>
          </ns3:TrackPointExtension>
        </extensions>
      </trkpt>
      <trkpt lat="23.18466779775917530059814453125" lon="113.25685911811888217926025390625">
        <ele>15.19999980926513671875</ele>
        <time>2017-10-03T11:53:36.000Z</time>
        <extensions>
          <ns3:TrackPointExtension>
            <ns3:hr>157</ns3:hr>
            <ns3:cad>85</ns3:cad>
          </ns3:TrackPointExtension>
        </extensions>
      </trkpt>
      <trkpt lat="23.18468682467937469482421875" lon="113.2568903826177120208740234375">
        <ele>15</ele>
        <time>2017-10-03T11:53:37.000Z</time>
        <extensions>
          <ns3:TrackPointExtension>
            <ns3:hr>157</ns3:hr>
            <ns3:cad>85</ns3:cad>
          </ns3:TrackPointExtension>
        </extensions>
      </trkpt>
      <trkpt lat="23.1847290694713592529296875" lon="113.2569537498056888580322265625">
        <ele>15.6000003814697265625</ele>
        <time>2017-10-03T11:53:39.000Z</time>
        <extensions>
          <ns3:TrackPointExtension>
            <ns3:hr>152</ns3:hr>
            <ns3:cad>84</ns3:cad>
          </ns3:TrackPointExtension>
        </extensions>
      </trkpt>
      <trkpt lat="23.18485320545732975006103515625" lon="113.2571299374103546142578125">
        <ele>17</ele>
        <time>2017-10-03T11:53:45.000Z</time>
        <extensions>
          <ns3:TrackPointExtension>
            <ns3:hr>154</ns3:hr>
            <ns3:cad>85</ns3:cad>
          </ns3:TrackPointExtension>
        </extensions>
      </trkpt>
      <trkpt lat="23.1849444843828678131103515625" lon="113.25729983858764171600341796875">
        <ele>17</ele>
        <time>2017-10-03T11:53:50.000Z</time>
        <extensions>
          <ns3:TrackPointExtension>
            <ns3:hr>154</ns3:hr>
            <ns3:cad>84</ns3:cad>
          </ns3:TrackPointExtension>
        </extensions>
      </trkpt>
      <trkpt lat="23.18500139750540256500244140625" lon="113.25749530456960201263427734375">
        <ele>17</ele>
        <time>2017-10-03T11:53:55.000Z</time>
        <extensions>
          <ns3:TrackPointExtension>
            <ns3:hr>154</ns3:hr>
            <ns3:cad>85</ns3:cad>
          </ns3:TrackPointExtension>
        </extensions>
      </trkpt>
      <trkpt lat="23.18505638279020786285400390625" lon="113.25766461901366710662841796875">
        <ele>17</ele>
        <time>2017-10-03T11:54:00.000Z</time>
        <extensions>
          <ns3:TrackPointExtension>
            <ns3:hr>157</ns3:hr>
            <ns3:cad>86</ns3:cad>
          </ns3:TrackPointExtension>
        </extensions>
      </trkpt>
      <trkpt lat="23.1851087696850299835205078125" lon="113.257887326180934906005859375">
        <ele>19.200000762939453125</ele>
        <time>2017-10-03T11:54:07.000Z</time>
        <extensions>
          <ns3:TrackPointExtension>
            <ns3:hr>159</ns3:hr>
            <ns3:cad>83</ns3:cad>
          </ns3:TrackPointExtension>
        </extensions>
      </trkpt>
      <trkpt lat="23.1851583905518054962158203125" lon="113.2581000588834285736083984375">
        <ele>20.3999996185302734375</ele>
        <time>2017-10-03T11:54:13.000Z</time>
        <extensions>
          <ns3:TrackPointExtension>
            <ns3:hr>158</ns3:hr>
            <ns3:cad>84</ns3:cad>
          </ns3:TrackPointExtension>
        </extensions>
      </trkpt>
      <trkpt lat="23.18518579937517642974853515625" lon="113.25830784626305103302001953125">
        <ele>22.3999996185302734375</ele>
        <time>2017-10-03T11:54:19.000Z</time>
        <extensions>
          <ns3:TrackPointExtension>
            <ns3:hr>157</ns3:hr>
            <ns3:cad>85</ns3:cad>
          </ns3:TrackPointExtension>
        </extensions>
      </trkpt>
      <trkpt lat="23.185198120772838592529296875" lon="113.25851052068173885345458984375">
        <ele>24.6000003814697265625</ele>
        <time>2017-10-03T11:54:25.000Z</time>
        <extensions>
          <ns3:TrackPointExtension>
            <ns3:hr>156</ns3:hr>
            <ns3:cad>84</ns3:cad>
          </ns3:TrackPointExtension>
        </extensions>
      </trkpt>
      <trkpt lat="23.18520775996148586273193359375" lon="113.2587112672626972198486328125">
        <ele>23.6000003814697265625</ele>
        <time>2017-10-03T11:54:31.000Z</time>
        <extensions>
          <ns3:TrackPointExtension>
            <ns3:hr>157</ns3:hr>
            <ns3:cad>83</ns3:cad>
          </ns3:TrackPointExtension>
        </extensions>
      </trkpt>
      <trkpt lat="23.18524648435413837432861328125" lon="113.25891503132879734039306640625">
        <ele>20.200000762939453125</ele>
        <time>2017-10-03T11:54:38.000Z</time>
        <extensions>
          <ns3:TrackPointExtension>
            <ns3:hr>158</ns3:hr>
            <ns3:cad>83</ns3:cad>
          </ns3:TrackPointExtension>
        </extensions>
      </trkpt>
      <trkpt lat="23.18532007746398448944091796875" lon="113.25910345651209354400634765625">
        <ele>14.3999996185302734375</ele>
        <time>2017-10-03T11:54:45.000Z</time>
        <extensions>
          <ns3:TrackPointExtension>
            <ns3:hr>157</ns3:hr>
            <ns3:cad>84</ns3:cad>
          </ns3:TrackPointExtension>
        </extensions>
      </trkpt>
      <trkpt lat="23.18539048545062541961669921875" lon="113.2592976652085781097412109375">
        <ele>10.80000019073486328125</ele>
        <time>2017-10-03T11:54:53.000Z</time>
        <extensions>
          <ns3:TrackPointExtension>
            <ns3:hr>159</ns3:hr>
            <ns3:cad>85</ns3:cad>
          </ns3:TrackPointExtension>
        </extensions>
      </trkpt>
      <trkpt lat="23.18547413684427738189697265625" lon="113.2594911195337772369384765625">
        <ele>9.3999996185302734375</ele>
        <time>2017-10-03T11:55:01.000Z</time>
        <extensions>
          <ns3:TrackPointExtension>
            <ns3:hr>159</ns3:hr>
            <ns3:cad>85</ns3:cad>
          </ns3:TrackPointExtension>
        </extensions>
      </trkpt>
      <trkpt lat="23.185566253960132598876953125" lon="113.25967870652675628662109375">
        <ele>9.6000003814697265625</ele>
        <time>2017-10-03T11:55:09.000Z</time>
        <extensions>
          <ns3:TrackPointExtension>
            <ns3:hr>160</ns3:hr>
            <ns3:cad>84</ns3:cad>
          </ns3:TrackPointExtension>
        </extensions>
      </trkpt>
      <trkpt lat="23.1856629811227321624755859375" lon="113.2598604261875152587890625">
        <ele>8.6000003814697265625</ele>
        <time>2017-10-03T11:55:17.000Z</time>
        <extensions>
          <ns3:TrackPointExtension>
            <ns3:hr>161</ns3:hr>
            <ns3:cad>85</ns3:cad>
          </ns3:TrackPointExtension>
        </extensions>
      </trkpt>
      <trkpt lat="23.18577119149267673492431640625" lon="113.2600359432399272918701171875">
        <ele>7.599999904632568359375</ele>
        <time>2017-10-03T11:55:25.000Z</time>
        <extensions>
          <ns3:TrackPointExtension>
            <ns3:hr>160</ns3:hr>
            <ns3:cad>84</ns3:cad>
          </ns3:TrackPointExtension>
        </extensions>
      </trkpt>
      <trkpt lat="23.1858698464930057525634765625" lon="113.260194696485996246337890625">
        <ele>7</ele>
        <time>2017-10-03T11:55:33.000Z</time>
        <extensions>
          <ns3:TrackPointExtension>
            <ns3:hr>162</ns3:hr>
            <ns3:cad>83</ns3:cad>
          </ns3:TrackPointExtension>
        </extensions>
      </trkpt>
      <trkpt lat="23.1857427768409252166748046875" lon="113.2639060355722904205322265625">
        <ele>16.6000003814697265625</ele>
        <time>2017-10-03T12:01:06.000Z</time>
        <extensions>
          <ns3:TrackPointExtension>
            <ns3:hr>125</ns3:hr>
            <ns3:cad>0</ns3:cad>
          </ns3:TrackPointExtension>
        </extensions>
      </trkpt>
      <trkpt lat="23.18575375713407993316650390625" lon="113.2639043591916561126708984375">
        <ele>16.6000003814697265625</ele>
        <time>2017-10-03T12:01:07.000Z</time>
        <extensions>
          <ns3:TrackPointExtension>
            <ns3:hr>125</ns3:hr>
            <ns3:cad>0</ns3:cad>
          </ns3:TrackPointExtension>
        </extensions>
      </trkpt>
      <trkpt lat="23.18511488847434520721435546875" lon="113.2634326256811618804931640625">
        <ele>-8.6000003814697265625</ele>
        <time>2017-10-03T12:01:10.000Z</time>
        <extensions>
          <ns3:TrackPointExtension>
            <ns3:hr>126</ns3:hr>
            <ns3:cad>0</ns3:cad>
          </ns3:TrackPointExtension>
        </extensions>
      </trkpt>
      <trkpt lat="23.18508789874613285064697265625" lon="113.263481073081493377685546875">
        <ele>-5.19999980926513671875</ele>
        <time>2017-10-03T12:01:12.000Z</time>
        <extensions>
          <ns3:TrackPointExtension>
            <ns3:hr>127</ns3:hr>
            <ns3:cad>81</ns3:cad>
          </ns3:TrackPointExtension>
        </extensions>
      </trkpt>
      <trkpt lat="23.1849729828536510467529296875" lon="113.263607136905193328857421875">
        <ele>4.80000019073486328125</ele>
        <time>2017-10-03T12:01:19.000Z</time>
        <extensions>
          <ns3:TrackPointExtension>
            <ns3:hr>124</ns3:hr>
            <ns3:cad>83</ns3:cad>
          </ns3:TrackPointExtension>
        </extensions>
      </trkpt>
      <trkpt lat="23.1849475018680095672607421875" lon="113.263653405010700225830078125">
        <ele>4.599999904632568359375</ele>
        <time>2017-10-03T12:01:21.000Z</time>
        <extensions>
          <ns3:TrackPointExtension>
            <ns3:hr>130</ns3:hr>
            <ns3:cad>84</ns3:cad>
          </ns3:TrackPointExtension>
        </extensions>
      </trkpt>
      <trkpt lat="23.1849273853003978729248046875" lon="113.263705708086490631103515625">
        <ele>4.19999980926513671875</ele>
        <time>2017-10-03T12:01:23.000Z</time>
        <extensions>
          <ns3:TrackPointExtension>
            <ns3:hr>136</ns3:hr>
            <ns3:cad>83</ns3:cad>
          </ns3:TrackPointExtension>
        </extensions>
      </trkpt>
      <trkpt lat="23.18491539917886257171630859375" lon="113.26373278163373470306396484375">
        <ele>4</ele>
        <time>2017-10-03T12:01:24.000Z</time>
        <extensions>
          <ns3:TrackPointExtension>
            <ns3:hr>139</ns3:hr>
            <ns3:cad>81</ns3:cad>
          </ns3:TrackPointExtension>
        </extensions>
      </trkpt>
      <trkpt lat="23.18490215577185153961181640625" lon="113.26375859789550304412841796875">
        <ele>4.19999980926513671875</ele>
        <time>2017-10-03T12:01:25.000Z</time>
        <extensions>
          <ns3:TrackPointExtension>
            <ns3:hr>143</ns3:hr>
            <ns3:cad>81</ns3:cad>
          </ns3:TrackPointExtension>
        </extensions>
      </trkpt>
      <trkpt lat="23.18488505668938159942626953125" lon="113.26378156431019306182861328125">
        <ele>4.599999904632568359375</ele>
        <time>2017-10-03T12:01:26.000Z</time>
        <extensions>
          <ns3:TrackPointExtension>
            <ns3:hr>148</ns3:hr>
            <ns3:cad>81</ns3:cad>
          </ns3:TrackPointExtension>
        </extensions>
      </trkpt>
      <trkpt lat="23.18486913107335567474365234375" lon="113.2637984119355678558349609375">
        <ele>5</ele>
        <time>2017-10-03T12:01:27.000Z</time>
        <extensions>
          <ns3:TrackPointExtension>
            <ns3:hr>154</ns3:hr>
            <ns3:cad>81</ns3:cad>
          </ns3:TrackPointExtension>
        </extensions>
      </trkpt>
      <trkpt lat="23.18485605530440807342529296875" lon="113.26380796730518341064453125">
        <ele>5.19999980926513671875</ele>
        <time>2017-10-03T12:01:28.000Z</time>
        <extensions>
          <ns3:TrackPointExtension>
            <ns3:hr>158</ns3:hr>
            <ns3:cad>82</ns3:cad>
          </ns3:TrackPointExtension>
        </extensions>
      </trkpt>
      <trkpt lat="23.1848459132015705108642578125" lon="113.26381173916161060333251953125">
        <ele>5.400000095367431640625</ele>
        <time>2017-10-03T12:01:29.000Z</time>
        <extensions>
          <ns3:TrackPointExtension>
            <ns3:hr>162</ns3:hr>
            <ns3:cad>82</ns3:cad>
          </ns3:TrackPointExtension>
        </extensions>
      </trkpt>
      <trkpt lat="23.1848405487835407257080078125" lon="113.2638161815702915191650390625">
        <ele>5.400000095367431640625</ele>
        <time>2017-10-03T12:01:30.000Z</time>
        <extensions>
          <ns3:TrackPointExtension>
            <ns3:hr>158</ns3:hr>
            <ns3:cad>83</ns3:cad>
          </ns3:TrackPointExtension>
        </extensions>
      </trkpt>
      <trkpt lat="23.18483627401292324066162109375" lon="113.26381743885576725006103515625">
        <ele>5.599999904632568359375</ele>
        <time>2017-10-03T12:01:31.000Z</time>
        <extensions>
          <ns3:TrackPointExtension>
            <ns3:hr>153</ns3:hr>
            <ns3:cad>82</ns3:cad>
          </ns3:TrackPointExtension>
        </extensions>
      </trkpt>
      <trkpt lat="23.1848321668803691864013671875" lon="113.2638175226747989654541015625">
        <ele>5.80000019073486328125</ele>
        <time>2017-10-03T12:01:32.000Z</time>
        <extensions>
          <ns3:TrackPointExtension>
            <ns3:hr>155</ns3:hr>
            <ns3:cad>0</ns3:cad>
          </ns3:TrackPointExtension>
        </extensions>
      </trkpt>
      <trkpt lat="23.18483040668070316314697265625" lon="113.26381861232221126556396484375">
        <ele>5.80000019073486328125</ele>
        <time>2017-10-03T12:01:35.000Z</time>
        <extensions>
          <ns3:TrackPointExtension>
            <ns3:hr>155</ns3:hr>
            <ns3:cad>0</ns3:cad>
          </ns3:TrackPointExtension>
        </extensions>
      </trkpt>
      <trkpt lat="23.18474792875349521636962890625" lon="113.263933695852756500244140625">
        <ele>9.19999980926513671875</ele>
        <time>2017-10-03T12:01:47.000Z</time>
        <extensions>
          <ns3:TrackPointExtension>
            <ns3:hr>159</ns3:hr>
            <ns3:cad>61</ns3:cad>
          </ns3:TrackPointExtension>
        </extensions>
      </trkpt>
      <trkpt lat="23.18472747690975666046142578125" lon="113.26395372860133647918701171875">
        <ele>8.80000019073486328125</ele>
        <time>2017-10-03T12:01:48.000Z</time>
        <extensions>
          <ns3:TrackPointExtension>
            <ns3:hr>156</ns3:hr>
            <ns3:cad>81</ns3:cad>
          </ns3:TrackPointExtension>
        </extensions>
      </trkpt>
      <trkpt lat="23.1846548058092594146728515625" lon="113.2640512101352214813232421875">
        <ele>7</ele>
        <time>2017-10-03T12:01:53.000Z</time>
        <extensions>
          <ns3:TrackPointExtension>
            <ns3:hr>161</ns3:hr>
            <ns3:cad>81</ns3:cad>
          </ns3:TrackPointExtension>
        </extensions>
      </trkpt>
      <trkpt lat="23.18464097566902637481689453125" lon="113.26407224871218204498291015625">
        <ele>6.599999904632568359375</ele>
        <time>2017-10-03T12:01:54.000Z</time>
        <extensions>
          <ns3:TrackPointExtension>
            <ns3:hr>165</ns3:hr>
            <ns3:cad>81</ns3:cad>
          </ns3:TrackPointExtension>
        </extensions>
      </trkpt>
      <trkpt lat="23.18454994820058345794677734375" lon="113.26427022926509380340576171875">
        <ele>3.2000000476837158203125</ele>
        <time>2017-10-03T12:02:02.000Z</time>
        <extensions>
          <ns3:TrackPointExtension>
            <ns3:hr>166</ns3:hr>
            <ns3:cad>82</ns3:cad>
          </ns3:TrackPointExtension>
        </extensions>
      </trkpt>
      <trkpt lat="23.18453469313681125640869140625" lon="113.26429403387010097503662109375">
        <ele>3</ele>
        <time>2017-10-03T12:02:03.000Z</time>
        <extensions>
          <ns3:TrackPointExtension>
            <ns3:hr>170</ns3:hr>
            <ns3:cad>82</ns3:cad>
          </ns3:TrackPointExtension>
        </extensions>
      </trkpt>
      <trkpt lat="23.18452186882495880126953125" lon="113.2643182575702667236328125">
        <ele>2.7999999523162841796875</ele>
        <time>2017-10-03T12:02:04.000Z</time>
        <extensions>
          <ns3:TrackPointExtension>
            <ns3:hr>167</ns3:hr>
            <ns3:cad>83</ns3:cad>
          </ns3:TrackPointExtension>
        </extensions>
      </trkpt>
      <trkpt lat="23.1845116429030895233154296875" lon="113.26434382237493991851806640625">
        <ele>2.400000095367431640625</ele>
        <time>2017-10-03T12:02:05.000Z</time>
        <extensions>
          <ns3:TrackPointExtension>
            <ns3:hr>172</ns3:hr>
            <ns3:cad>83</ns3:cad>
          </ns3:TrackPointExtension>
        </extensions>
      </trkpt>
      <trkpt lat="23.18449244834482669830322265625" lon="113.26439729891717433929443359375">
        <ele>1.7999999523162841796875</ele>
        <time>2017-10-03T12:02:07.000Z</time>
        <extensions>
          <ns3:TrackPointExtension>
            <ns3:hr>169</ns3:hr>
            <ns3:cad>83</ns3:cad>
          </ns3:TrackPointExtension>
        </extensions>
      </trkpt>
      <trkpt lat="23.18447819910943508148193359375" lon="113.2644523680210113525390625">
        <ele>1.39999997615814208984375</ele>
        <time>2017-10-03T12:02:09.000Z</time>
        <extensions>
          <ns3:TrackPointExtension>
            <ns3:hr>166</ns3:hr>
            <ns3:cad>84</ns3:cad>
          </ns3:TrackPointExtension>
        </extensions>
      </trkpt>
      <trkpt lat="23.18445858545601367950439453125" lon="113.26450408436357975006103515625">
        <ele>1.2000000476837158203125</ele>
        <time>2017-10-03T12:02:11.000Z</time>
        <extensions>
          <ns3:TrackPointExtension>
            <ns3:hr>161</ns3:hr>
            <ns3:cad>83</ns3:cad>
          </ns3:TrackPointExtension>
        </extensions>
      </trkpt>
      <trkpt lat="23.18445104174315929412841796875" lon="113.264528810977935791015625">
        <ele>1.2000000476837158203125</ele>
        <time>2017-10-03T12:02:12.000Z</time>
        <extensions>
          <ns3:TrackPointExtension>
            <ns3:hr>157</ns3:hr>
            <ns3:cad>83</ns3:cad>
          </ns3:TrackPointExtension>
        </extensions>
      </trkpt>
      <trkpt lat="23.18444140255451202392578125" lon="113.26455504633486270904541015625">
        <ele>1.2000000476837158203125</ele>
        <time>2017-10-03T12:02:13.000Z</time>
        <extensions>
          <ns3:TrackPointExtension>
            <ns3:hr>153</ns3:hr>
            <ns3:cad>83</ns3:cad>
          </ns3:TrackPointExtension>
        </extensions>
      </trkpt>
      <trkpt lat="23.18443310447037220001220703125" lon="113.264582455158233642578125">
        <ele>1.2000000476837158203125</ele>
        <time>2017-10-03T12:02:14.000Z</time>
        <extensions>
          <ns3:TrackPointExtension>
            <ns3:hr>154</ns3:hr>
            <ns3:cad>83</ns3:cad>
          </ns3:TrackPointExtension>
        </extensions>
      </trkpt>
      <trkpt lat="23.18441458046436309814453125" lon="113.264637775719165802001953125">
        <ele>1</ele>
        <time>2017-10-03T12:02:16.000Z</time>
        <extensions>
          <ns3:TrackPointExtension>
            <ns3:hr>158</ns3:hr>
            <ns3:cad>83</ns3:cad>
          </ns3:TrackPointExtension>
        </extensions>
      </trkpt>
      <trkpt lat="23.184373341500759124755859375" lon="113.26474715955555438995361328125">
        <ele>1.7999999523162841796875</ele>
        <time>2017-10-03T12:02:20.000Z</time>
        <extensions>
          <ns3:TrackPointExtension>
            <ns3:hr>155</ns3:hr>
            <ns3:cad>83</ns3:cad>
          </ns3:TrackPointExtension>
        </extensions>
      </trkpt>
      <trkpt lat="23.18435900844633579254150390625" lon="113.2647744007408618927001953125">
        <ele>1.60000002384185791015625</ele>
        <time>2017-10-03T12:02:21.000Z</time>
        <extensions>
          <ns3:TrackPointExtension>
            <ns3:hr>160</ns3:hr>
            <ns3:cad>83</ns3:cad>
          </ns3:TrackPointExtension>
        </extensions>
      </trkpt>
      <trkpt lat="23.18432229571044445037841796875" lon="113.26488378457725048065185546875">
        <ele>1.2000000476837158203125</ele>
        <time>2017-10-03T12:02:25.000Z</time>
        <extensions>
          <ns3:TrackPointExtension>
            <ns3:hr>163</ns3:hr>
            <ns3:cad>83</ns3:cad>
          </ns3:TrackPointExtension>
        </extensions>
      </trkpt>
      <trkpt lat="23.18421752192080020904541015625" lon="113.26506818644702434539794921875">
        <ele>-1.7999999523162841796875</ele>
        <time>2017-10-03T12:02:32.000Z</time>
        <extensions>
          <ns3:TrackPointExtension>
            <ns3:hr>164</ns3:hr>
            <ns3:cad>82</ns3:cad>
          </ns3:TrackPointExtension>
        </extensions>
      </trkpt>
      <trkpt lat="23.18416270427405834197998046875" lon="113.2652035541832447052001953125">
        <ele>-4.599999904632568359375</ele>
        <time>2017-10-03T12:02:37.000Z</time>
        <extensions>
          <ns3:TrackPointExtension>
            <ns3:hr>163</ns3:hr>
            <ns3:cad>82</ns3:cad>
          </ns3:TrackPointExtension>
        </extensions>
      </trkpt>
      <trkpt lat="23.1841482035815715789794921875" lon="113.2653279416263103485107421875">
        <ele>-10</ele>
        <time>2017-10-03T12:02:42.000Z</time>
        <extensions>
          <ns3:TrackPointExtension>
            <ns3:hr>163</ns3:hr>
            <ns3:cad>81</ns3:cad>
          </ns3:TrackPointExtension>
        </extensions>
      </trkpt>
      <trkpt lat="23.184105791151523590087890625" lon="113.2655284367501735687255859375">
        <ele>-17</ele>
        <time>2017-10-03T12:02:49.000Z</time>
        <extensions>
          <ns3:TrackPointExtension>
            <ns3:hr>163</ns3:hr>
            <ns3:cad>81</ns3:cad>
          </ns3:TrackPointExtension>
        </extensions>
      </trkpt>
      <trkpt lat="23.184022642672061920166015625" lon="113.26571225188672542572021484375">
        <ele>-4.19999980926513671875</ele>
        <time>2017-10-03T12:02:55.000Z</time>
        <extensions>
          <ns3:TrackPointExtension>
            <ns3:hr>163</ns3:hr>
            <ns3:cad>82</ns3:cad>
          </ns3:TrackPointExtension>
        </extensions>
      </trkpt>
      <trkpt lat="23.18394184112548828125" lon="113.26589195989072322845458984375">
        <ele>1</ele>
        <time>2017-10-03T12:03:01.000Z</time>
        <extensions>
          <ns3:TrackPointExtension>
            <ns3:hr>163</ns3:hr>
            <ns3:cad>83</ns3:cad>
          </ns3:TrackPointExtension>
        </extensions>
      </trkpt>
      <trkpt lat="23.1838830001652240753173828125" lon="113.2660829834640026092529296875">
        <ele>7</ele>
        <time>2017-10-03T12:03:08.000Z</time>
        <extensions>
          <ns3:TrackPointExtension>
            <ns3:hr>163</ns3:hr>
            <ns3:cad>82</ns3:cad>
          </ns3:TrackPointExtension>
        </extensions>
      </trkpt>
      <trkpt lat="23.1838037073612213134765625" lon="113.26626277528703212738037109375">
        <ele>12.3999996185302734375</ele>
        <time>2017-10-03T12:03:15.000Z</time>
        <extensions>
          <ns3:TrackPointExtension>
            <ns3:hr>164</ns3:hr>
            <ns3:cad>83</ns3:cad>
          </ns3:TrackPointExtension>
        </extensions>
      </trkpt>
      <trkpt lat="23.1836985982954502105712890625" lon="113.26645019464194774627685546875">
        <ele>14.19999980926513671875</ele>
        <time>2017-10-03T12:03:23.000Z</time>
        <extensions>
          <ns3:TrackPointExtension>
            <ns3:hr>163</ns3:hr>
            <ns3:cad>83</ns3:cad>
          </ns3:TrackPointExtension>
        </extensions>
      </trkpt>
      <trkpt lat="23.1836000271141529083251953125" lon="113.26664750464260578155517578125">
        <ele>14.6000003814697265625</ele>
        <time>2017-10-03T12:03:30.000Z</time>
        <extensions>
          <ns3:TrackPointExtension>
            <ns3:hr>162</ns3:hr>
            <ns3:cad>82</ns3:cad>
          </ns3:TrackPointExtension>
        </extensions>
      </trkpt>
      <trkpt lat="23.18351964466273784637451171875" lon="113.26683819293975830078125">
        <ele>12.3999996185302734375</ele>
        <time>2017-10-03T12:03:38.000Z</time>
        <extensions>
          <ns3:TrackPointExtension>
            <ns3:hr>162</ns3:hr>
            <ns3:cad>81</ns3:cad>
          </ns3:TrackPointExtension>
        </extensions>
      </trkpt>
      <trkpt lat="23.183429874479770660400390625" lon="113.26702452264726161956787109375">
        <ele>8.6000003814697265625</ele>
        <time>2017-10-03T12:03:46.000Z</time>
        <extensions>
          <ns3:TrackPointExtension>
            <ns3:hr>164</ns3:hr>
            <ns3:cad>83</ns3:cad>
          </ns3:TrackPointExtension>
        </extensions>
      </trkpt>
      <trkpt lat="23.18331697024405002593994140625" lon="113.2672071643173694610595703125">
        <ele>7</ele>
        <time>2017-10-03T12:03:54.000Z</time>
        <extensions>
          <ns3:TrackPointExtension>
            <ns3:hr>166</ns3:hr>
            <ns3:cad>82</ns3:cad>
          </ns3:TrackPointExtension>
        </extensions>
      </trkpt>
      <trkpt lat="23.1831380166113376617431640625" lon="113.26728939078748226165771484375">
        <ele>6.599999904632568359375</ele>
        <time>2017-10-03T12:04:02.000Z</time>
        <extensions>
          <ns3:TrackPointExtension>
            <ns3:hr>166</ns3:hr>
            <ns3:cad>81</ns3:cad>
          </ns3:TrackPointExtension>
        </extensions>
      </trkpt>
      <trkpt lat="23.1829547882080078125" lon="113.2672138698399066925048828125">
        <ele>6.80000019073486328125</ele>
        <time>2017-10-03T12:04:09.000Z</time>
        <extensions>
          <ns3:TrackPointExtension>
            <ns3:hr>166</ns3:hr>
            <ns3:cad>83</ns3:cad>
          </ns3:TrackPointExtension>
        </extensions>
      </trkpt>
      <trkpt lat="23.182786814868450164794921875" lon="113.26709174551069736480712890625">
        <ele>6.80000019073486328125</ele>
        <time>2017-10-03T12:04:16.000Z</time>
        <extensions>
          <ns3:TrackPointExtension>
            <ns3:hr>166</ns3:hr>
            <ns3:cad>84</ns3:cad>
          </ns3:TrackPointExtension>
        </extensions>
      </trkpt>
      <trkpt lat="23.18260735832154750823974609375" lon="113.26699133031070232391357421875">
        <ele>6.19999980926513671875</ele>
        <time>2017-10-03T12:04:23.000Z</time>
        <extensions>
          <ns3:TrackPointExtension>
            <ns3:hr>165</ns3:hr>
            <ns3:cad>83</ns3:cad>
          </ns3:TrackPointExtension>
        </extensions>
      </trkpt>
      <trkpt lat="23.18244609050452709197998046875" lon="113.2668749056756496429443359375">
        <ele>5.19999980926513671875</ele>
        <time>2017-10-03T12:04:31.000Z</time>
        <extensions>
          <ns3:TrackPointExtension>
            <ns3:hr>165</ns3:hr>
            <ns3:cad>83</ns3:cad>
          </ns3:TrackPointExtension>
        </extensions>
      </trkpt>
      <trkpt lat="23.18240703083574771881103515625" lon="113.26684649102389812469482421875">
        <ele>5.19999980926513671875</ele>
        <time>2017-10-03T12:04:33.000Z</time>
        <extensions>
          <ns3:TrackPointExtension>
            <ns3:hr>168</ns3:hr>
            <ns3:cad>83</ns3:cad>
          </ns3:TrackPointExtension>
        </extensions>
      </trkpt>
      <trkpt lat="23.18227694369852542877197265625" lon="113.26675144024193286895751953125">
        <ele>7.400000095367431640625</ele>
        <time>2017-10-03T12:04:39.000Z</time>
        <extensions>
          <ns3:TrackPointExtension>
            <ns3:hr>170</ns3:hr>
            <ns3:cad>83</ns3:cad>
          </ns3:TrackPointExtension>
        </extensions>
      </trkpt>
      <trkpt lat="23.18134604953229427337646484375" lon="113.26618113555014133453369140625">
        <ele>8.6000003814697265625</ele>
        <time>2017-10-03T12:06:16.000Z</time>
        <extensions>
          <ns3:TrackPointExtension>
            <ns3:hr>132</ns3:hr>
            <ns3:cad>58</ns3:cad>
          </ns3:TrackPointExtension>
        </extensions>
      </trkpt>
      <trkpt lat="23.18133615888655185699462890625" lon="113.26617677696049213409423828125">
        <ele>8.6000003814697265625</ele>
        <time>2017-10-03T12:06:17.000Z</time>
        <extensions>
          <ns3:TrackPointExtension>
            <ns3:hr>129</ns3:hr>
            <ns3:cad>58</ns3:cad>
          </ns3:TrackPointExtension>
        </extensions>
      </trkpt>
      <trkpt lat="23.18132308311760425567626953125" lon="113.2661714963614940643310546875">
        <ele>8.3999996185302734375</ele>
        <time>2017-10-03T12:06:18.000Z</time>
        <extensions>
          <ns3:TrackPointExtension>
            <ns3:hr>129</ns3:hr>
            <ns3:cad>61</ns3:cad>
          </ns3:TrackPointExtension>
        </extensions>
      </trkpt>
      <trkpt lat="23.18122182972729206085205078125" lon="113.26608516275882720947265625">
        <ele>8.19999980926513671875</ele>
        <time>2017-10-03T12:06:24.000Z</time>
        <extensions>
          <ns3:TrackPointExtension>
            <ns3:hr>132</ns3:hr>
            <ns3:cad>82</ns3:cad>
          </ns3:TrackPointExtension>
        </extensions>
      </trkpt>
      <trkpt lat="23.18113415502011775970458984375" lon="113.266026489436626434326171875">
        <ele>8.80000019073486328125</ele>
        <time>2017-10-03T12:06:28.000Z</time>
        <extensions>
          <ns3:TrackPointExtension>
            <ns3:hr>136</ns3:hr>
            <ns3:cad>81</ns3:cad>
          </ns3:TrackPointExtension>
        </extensions>
      </trkpt>
      <trkpt lat="23.1810948438942432403564453125" lon="113.2659971527755260467529296875">
        <ele>9.3999996185302734375</ele>
        <time>2017-10-03T12:06:30.000Z</time>
        <extensions>
          <ns3:TrackPointExtension>
            <ns3:hr>139</ns3:hr>
            <ns3:cad>82</ns3:cad>
          </ns3:TrackPointExtension>
        </extensions>
      </trkpt>
      <trkpt lat="23.1810485757887363433837890625" lon="113.26597058214247226715087890625">
        <ele>10</ele>
        <time>2017-10-03T12:06:32.000Z</time>
        <extensions>
          <ns3:TrackPointExtension>
            <ns3:hr>146</ns3:hr>
            <ns3:cad>83</ns3:cad>
          </ns3:TrackPointExtension>
        </extensions>
      </trkpt>
      <trkpt lat="23.1810247711837291717529296875" lon="113.2659569196403026580810546875">
        <ele>10.19999980926513671875</ele>
        <time>2017-10-03T12:06:33.000Z</time>
        <extensions>
          <ns3:TrackPointExtension>
            <ns3:hr>150</ns3:hr>
            <ns3:cad>83</ns3:cad>
          </ns3:TrackPointExtension>
        </extensions>
      </trkpt>
      <trkpt lat="23.18097640760242938995361328125" lon="113.26592967845499515533447265625">
        <ele>10.80000019073486328125</ele>
        <time>2017-10-03T12:06:35.000Z</time>
        <extensions>
          <ns3:TrackPointExtension>
            <ns3:hr>153</ns3:hr>
            <ns3:cad>82</ns3:cad>
          </ns3:TrackPointExtension>
        </extensions>
      </trkpt>
      <trkpt lat="23.1808613240718841552734375" lon="113.26588056050240993499755859375">
        <ele>11.80000019073486328125</ele>
        <time>2017-10-03T12:06:39.000Z</time>
        <extensions>
          <ns3:TrackPointExtension>
            <ns3:hr>150</ns3:hr>
            <ns3:cad>83</ns3:cad>
          </ns3:TrackPointExtension>
        </extensions>
      </trkpt>
      <trkpt lat="23.180808015167713165283203125" lon="113.26585038565099239349365234375">
        <ele>12.3999996185302734375</ele>
        <time>2017-10-03T12:06:41.000Z</time>
        <extensions>
          <ns3:TrackPointExtension>
            <ns3:hr>153</ns3:hr>
            <ns3:cad>83</ns3:cad>
          </ns3:TrackPointExtension>
        </extensions>
      </trkpt>
      <trkpt lat="23.18076275289058685302734375" lon="113.26581937260925769805908203125">
        <ele>12.80000019073486328125</ele>
        <time>2017-10-03T12:06:43.000Z</time>
        <extensions>
          <ns3:TrackPointExtension>
            <ns3:hr>158</ns3:hr>
            <ns3:cad>83</ns3:cad>
          </ns3:TrackPointExtension>
        </extensions>
      </trkpt>
      <trkpt lat="23.18074406124651432037353515625" lon="113.26580378226935863494873046875">
        <ele>13</ele>
        <time>2017-10-03T12:06:44.000Z</time>
        <extensions>
          <ns3:TrackPointExtension>
            <ns3:hr>161</ns3:hr>
            <ns3:cad>82</ns3:cad>
          </ns3:TrackPointExtension>
        </extensions>
      </trkpt>
      <trkpt lat="23.18072520196437835693359375" lon="113.26578802429139614105224609375">
        <ele>13</ele>
        <time>2017-10-03T12:06:45.000Z</time>
        <extensions>
          <ns3:TrackPointExtension>
            <ns3:hr>164</ns3:hr>
            <ns3:cad>81</ns3:cad>
          </ns3:TrackPointExtension>
        </extensions>
      </trkpt>
      <trkpt lat="23.1806267984211444854736328125" lon="113.26571409590542316436767578125">
        <ele>13.19999980926513671875</ele>
        <time>2017-10-03T12:06:50.000Z</time>
        <extensions>
          <ns3:TrackPointExtension>
            <ns3:hr>160</ns3:hr>
            <ns3:cad>82</ns3:cad>
          </ns3:TrackPointExtension>
        </extensions>
      </trkpt>
      <trkpt lat="23.18058304488658905029296875" lon="113.2656848430633544921875">
        <ele>13.3999996185302734375</ele>
        <time>2017-10-03T12:06:52.000Z</time>
        <extensions>
          <ns3:TrackPointExtension>
            <ns3:hr>164</ns3:hr>
            <ns3:cad>82</ns3:cad>
          </ns3:TrackPointExtension>
        </extensions>
      </trkpt>
      <trkpt lat="23.1805134750902652740478515625" lon="113.2656417600810527801513671875">
        <ele>13.3999996185302734375</ele>
        <time>2017-10-03T12:06:55.000Z</time>
        <extensions>
          <ns3:TrackPointExtension>
            <ns3:hr>167</ns3:hr>
            <ns3:cad>83</ns3:cad>
          </ns3:TrackPointExtension>
        </extensions>
      </trkpt>
      <trkpt lat="23.1804175861179828643798828125" lon="113.26558585278689861297607421875">
        <ele>13.6000003814697265625</ele>
        <time>2017-10-03T12:06:59.000Z</time>
        <extensions>
          <ns3:TrackPointExtension>
            <ns3:hr>164</ns3:hr>
            <ns3:cad>83</ns3:cad>
          </ns3:TrackPointExtension>
        </extensions>
      </trkpt>
      <trkpt lat="23.180243410170078277587890625" lon="113.26548828743398189544677734375">
        <ele>14</ele>
        <time>2017-10-03T12:07:06.000Z</time>
        <extensions>
          <ns3:TrackPointExtension>
            <ns3:hr>168</ns3:hr>
            <ns3:cad>83</ns3:cad>
          </ns3:TrackPointExtension>
        </extensions>
      </trkpt>
      <trkpt lat="23.1802202761173248291015625" lon="113.26547252945601940155029296875">
        <ele>14</ele>
        <time>2017-10-03T12:07:07.000Z</time>
        <extensions>
          <ns3:TrackPointExtension>
            <ns3:hr>171</ns3:hr>
            <ns3:cad>82</ns3:cad>
          </ns3:TrackPointExtension>
        </extensions>
      </trkpt>
      <trkpt lat="23.1800471059978008270263671875" lon="113.26535853557288646697998046875">
        <ele>14</ele>
        <time>2017-10-03T12:07:15.000Z</time>
        <extensions>
          <ns3:TrackPointExtension>
            <ns3:hr>171</ns3:hr>
            <ns3:cad>83</ns3:cad>
          </ns3:TrackPointExtension>
        </extensions>
      </trkpt>
      <trkpt lat="23.1798787973821163177490234375" lon="113.265258707106113433837890625">
        <ele>14.19999980926513671875</ele>
        <time>2017-10-03T12:07:23.000Z</time>
        <extensions>
          <ns3:TrackPointExtension>
            <ns3:hr>170</ns3:hr>
            <ns3:cad>83</ns3:cad>
          </ns3:TrackPointExtension>
        </extensions>
      </trkpt>
      <trkpt lat="23.17971132695674896240234375" lon="113.26514412648975849151611328125">
        <ele>13.80000019073486328125</ele>
        <time>2017-10-03T12:07:31.000Z</time>
        <extensions>
          <ns3:TrackPointExtension>
            <ns3:hr>169</ns3:hr>
            <ns3:cad>82</ns3:cad>
          </ns3:TrackPointExtension>
        </extensions>
      </trkpt>
      <trkpt lat="23.179535977542400360107421875" lon="113.26505385339260101318359375">
        <ele>13.80000019073486328125</ele>
        <time>2017-10-03T12:07:38.000Z</time>
        <extensions>
          <ns3:TrackPointExtension>
            <ns3:hr>170</ns3:hr>
            <ns3:cad>82</ns3:cad>
          </ns3:TrackPointExtension>
        </extensions>
      </trkpt>
      <trkpt lat="23.17936263978481292724609375" lon="113.2649376802146434783935546875">
        <ele>14</ele>
        <time>2017-10-03T12:07:46.000Z</time>
        <extensions>
          <ns3:TrackPointExtension>
            <ns3:hr>171</ns3:hr>
            <ns3:cad>83</ns3:cad>
          </ns3:TrackPointExtension>
        </extensions>
      </trkpt>
      <trkpt lat="23.17919709719717502593994140625" lon="113.2648471556603908538818359375">
        <ele>15.80000019073486328125</ele>
        <time>2017-10-03T12:07:54.000Z</time>
        <extensions>
          <ns3:TrackPointExtension>
            <ns3:hr>171</ns3:hr>
            <ns3:cad>83</ns3:cad>
          </ns3:TrackPointExtension>
        </extensions>
      </trkpt>
      <trkpt lat="23.17904219962656497955322265625" lon="113.26474674046039581298828125">
        <ele>17.3999996185302734375</ele>
        <time>2017-10-03T12:08:01.000Z</time>
        <extensions>
          <ns3:TrackPointExtension>
            <ns3:hr>172</ns3:hr>
            <ns3:cad>83</ns3:cad>
          </ns3:TrackPointExtension>
        </extensions>
      </trkpt>
      <trkpt lat="23.178862743079662322998046875" lon="113.26464272104203701019287109375">
        <ele>17.6000003814697265625</ele>
        <time>2017-10-03T12:08:08.000Z</time>
        <extensions>
          <ns3:TrackPointExtension>
            <ns3:hr>173</ns3:hr>
            <ns3:cad>83</ns3:cad>
          </ns3:TrackPointExtension>
        </extensions>
      </trkpt>
      <trkpt lat="23.178685046732425689697265625" lon="113.26454113237559795379638671875">
        <ele>14.6000003814697265625</ele>
        <time>2017-10-03T12:08:15.000Z</time>
        <extensions>
          <ns3:TrackPointExtension>
            <ns3:hr>174</ns3:hr>
            <ns3:cad>81</ns3:cad>
          </ns3:TrackPointExtension>
        </extensions>
      </trkpt>
      <trkpt lat="23.17865076474845409393310546875" lon="113.26447139494121074676513671875">
        <ele>13</ele>
        <time>2017-10-03T12:08:18.000Z</time>
        <extensions>
          <ns3:TrackPointExtension>
            <ns3:hr>177</ns3:hr>
            <ns3:cad>81</ns3:cad>
          </ns3:TrackPointExtension>
        </extensions>
      </trkpt>
      <trkpt lat="23.1784907542169094085693359375" lon="113.26436595059931278228759765625">
        <ele>10</ele>
        <time>2017-10-03T12:08:25.000Z</time>
        <extensions>
          <ns3:TrackPointExtension>
            <ns3:hr>177</ns3:hr>
            <ns3:cad>82</ns3:cad>
          </ns3:TrackPointExtension>
        </extensions>
      </trkpt>
      <trkpt lat="23.17833711393177509307861328125" lon="113.2642537169158458709716796875">
        <ele>10</ele>
        <time>2017-10-03T12:08:32.000Z</time>
        <extensions>
          <ns3:TrackPointExtension>
            <ns3:hr>179</ns3:hr>
            <ns3:cad>82</ns3:cad>
          </ns3:TrackPointExtension>
        </extensions>
      </trkpt>
      <trkpt lat="23.17819177173078060150146484375" lon="113.26411248184740543365478515625">
        <ele>9.80000019073486328125</ele>
        <time>2017-10-03T12:08:40.000Z</time>
        <extensions>
          <ns3:TrackPointExtension>
            <ns3:hr>179</ns3:hr>
            <ns3:cad>82</ns3:cad>
          </ns3:TrackPointExtension>
        </extensions>
      </trkpt>
      <trkpt lat="23.1781232915818691253662109375" lon="113.2639972306787967681884765625">
        <ele>10.3999996185302734375</ele>
        <time>2017-10-03T12:08:45.000Z</time>
        <extensions>
          <ns3:TrackPointExtension>
            <ns3:hr>178</ns3:hr>
            <ns3:cad>83</ns3:cad>
          </ns3:TrackPointExtension>
        </extensions>
      </trkpt>
      <trkpt lat="23.17795372568070888519287109375" lon="113.2639352045953273773193359375">
        <ele>12.3999996185302734375</ele>
        <time>2017-10-03T12:08:52.000Z</time>
        <extensions>
          <ns3:TrackPointExtension>
            <ns3:hr>182</ns3:hr>
            <ns3:cad>81</ns3:cad>
          </ns3:TrackPointExtension>
        </extensions>
      </trkpt>
      <trkpt lat="23.177845515310764312744140625" lon="113.263883404433727264404296875">
        <ele>13</ele>
        <time>2017-10-03T12:08:57.000Z</time>
        <extensions>
          <ns3:TrackPointExtension>
            <ns3:hr>177</ns3:hr>
            <ns3:cad>81</ns3:cad>
          </ns3:TrackPointExtension>
        </extensions>
      </trkpt>
      <trkpt lat="23.1776612810790538787841796875" lon="113.26379430480301380157470703125">
        <ele>13.80000019073486328125</ele>
        <time>2017-10-03T12:09:05.000Z</time>
        <extensions>
          <ns3:TrackPointExtension>
            <ns3:hr>179</ns3:hr>
            <ns3:cad>82</ns3:cad>
          </ns3:TrackPointExtension>
        </extensions>
      </trkpt>
      <trkpt lat="23.177586682140827178955078125" lon="113.26376681216061115264892578125">
        <ele>13.80000019073486328125</ele>
        <time>2017-10-03T12:09:08.000Z</time>
        <extensions>
          <ns3:TrackPointExtension>
            <ns3:hr>182</ns3:hr>
            <ns3:cad>83</ns3:cad>
          </ns3:TrackPointExtension>
        </extensions>
      </trkpt>
      <trkpt lat="23.1774098239839076995849609375" lon="113.2636825740337371826171875">
        <ele>13.3999996185302734375</ele>
        <time>2017-10-03T12:09:15.000Z</time>
        <extensions>
          <ns3:TrackPointExtension>
            <ns3:hr>182</ns3:hr>
            <ns3:cad>83</ns3:cad>
          </ns3:TrackPointExtension>
        </extensions>
      </trkpt>
      <trkpt lat="23.17723103798925876617431640625" lon="113.26360638253390789031982421875">
        <ele>12</ele>
        <time>2017-10-03T12:09:22.000Z</time>
        <extensions>
          <ns3:TrackPointExtension>
            <ns3:hr>182</ns3:hr>
            <ns3:cad>83</ns3:cad>
          </ns3:TrackPointExtension>
        </extensions>
      </trkpt>
      <trkpt lat="23.1770517490804195404052734375" lon="113.26352692209184169769287109375">
        <ele>10</ele>
        <time>2017-10-03T12:09:29.000Z</time>
        <extensions>
          <ns3:TrackPointExtension>
            <ns3:hr>181</ns3:hr>
            <ns3:cad>83</ns3:cad>
          </ns3:TrackPointExtension>
        </extensions>
      </trkpt>
      <trkpt lat="23.1769729591906070709228515625" lon="113.2634849287569522857666015625">
        <ele>9</ele>
        <time>2017-10-03T12:09:32.000Z</time>
        <extensions>
          <ns3:TrackPointExtension>
            <ns3:hr>184</ns3:hr>
            <ns3:cad>83</ns3:cad>
          </ns3:TrackPointExtension>
        </extensions>
      </trkpt>
      <trkpt lat="23.1768009625375270843505859375" lon="113.26338308863341808319091796875">
        <ele>7.599999904632568359375</ele>
        <time>2017-10-03T12:09:39.000Z</time>
        <extensions>
          <ns3:TrackPointExtension>
            <ns3:hr>182</ns3:hr>
            <ns3:cad>83</ns3:cad>
          </ns3:TrackPointExtension>
        </extensions>
      </trkpt>
      <trkpt lat="23.176625110208988189697265625" lon="113.2632693462073802947998046875">
        <ele>7.80000019073486328125</ele>
        <time>2017-10-03T12:09:47.000Z</time>
        <extensions>
          <ns3:TrackPointExtension>
            <ns3:hr>183</ns3:hr>
            <ns3:cad>83</ns3:cad>
          </ns3:TrackPointExtension>
        </extensions>
      </trkpt>
      <trkpt lat="23.1764770857989788055419921875" lon="113.26313045807182788848876953125">
        <ele>8.19999980926513671875</ele>
        <time>2017-10-03T12:09:54.000Z</time>
        <extensions>
          <ns3:TrackPointExtension>
            <ns3:hr>183</ns3:hr>
            <ns3:cad>83</ns3:cad>
          </ns3:TrackPointExtension>
        </extensions>
      </trkpt>
      <trkpt lat="23.17641614936292171478271484375" lon="113.26306164264678955078125">
        <ele>8.19999980926513671875</ele>
        <time>2017-10-03T12:09:57.000Z</time>
        <extensions>
          <ns3:TrackPointExtension>
            <ns3:hr>184</ns3:hr>
            <ns3:cad>82</ns3:cad>
          </ns3:TrackPointExtension>
        </extensions>
      </trkpt>
      <trkpt lat="23.1762759201228618621826171875" lon="113.262919485569000244140625">
        <ele>8.6000003814697265625</ele>
        <time>2017-10-03T12:10:04.000Z</time>
        <extensions>
          <ns3:TrackPointExtension>
            <ns3:hr>185</ns3:hr>
            <ns3:cad>83</ns3:cad>
          </ns3:TrackPointExtension>
        </extensions>
      </trkpt>
      <trkpt lat="23.17618749104440212249755859375" lon="113.2627223432064056396484375">
        <ele>10</ele>
        <time>2017-10-03T12:10:12.000Z</time>
        <extensions>
          <ns3:TrackPointExtension>
            <ns3:hr>184</ns3:hr>
            <ns3:cad>83</ns3:cad>
          </ns3:TrackPointExtension>
        </extensions>
      </trkpt>
      <trkpt lat="23.176059164106845855712890625" lon="113.262595944106578826904296875">
        <ele>9.6000003814697265625</ele>
        <time>2017-10-03T12:10:20.000Z</time>
        <extensions>
          <ns3:TrackPointExtension>
            <ns3:hr>186</ns3:hr>
            <ns3:cad>83</ns3:cad>
          </ns3:TrackPointExtension>
        </extensions>
      </trkpt>
      <trkpt lat="23.17589194513857364654541015625" lon="113.2625421322882175445556640625">
        <ele>10.6000003814697265625</ele>
        <time>2017-10-03T12:10:27.000Z</time>
        <extensions>
          <ns3:TrackPointExtension>
            <ns3:hr>183</ns3:hr>
            <ns3:cad>82</ns3:cad>
          </ns3:TrackPointExtension>
        </extensions>
      </trkpt>
      <trkpt lat="23.17571542225778102874755859375" lon="113.26247499324381351470947265625">
        <ele>11.19999980926513671875</ele>
        <time>2017-10-03T12:10:34.000Z</time>
        <extensions>
          <ns3:TrackPointExtension>
            <ns3:hr>184</ns3:hr>
            <ns3:cad>83</ns3:cad>
          </ns3:TrackPointExtension>
        </extensions>
      </trkpt>
      <trkpt lat="23.17553889937698841094970703125" lon="113.26243693940341472625732421875">
        <ele>9</ele>
        <time>2017-10-03T12:10:41.000Z</time>
        <extensions>
          <ns3:TrackPointExtension>
            <ns3:hr>185</ns3:hr>
            <ns3:cad>83</ns3:cad>
          </ns3:TrackPointExtension>
        </extensions>
      </trkpt>
      <trkpt lat="23.17538567818701267242431640625" lon="113.26232663355767726898193359375">
        <ele>5.19999980926513671875</ele>
        <time>2017-10-03T12:10:48.000Z</time>
        <extensions>
          <ns3:TrackPointExtension>
            <ns3:hr>186</ns3:hr>
            <ns3:cad>83</ns3:cad>
          </ns3:TrackPointExtension>
        </extensions>
      </trkpt>
      <trkpt lat="23.17520043812692165374755859375" lon="113.26224080286920070648193359375">
        <ele>2.2000000476837158203125</ele>
        <time>2017-10-03T12:10:56.000Z</time>
        <extensions>
          <ns3:TrackPointExtension>
            <ns3:hr>187</ns3:hr>
            <ns3:cad>82</ns3:cad>
          </ns3:TrackPointExtension>
        </extensions>
      </trkpt>
      <trkpt lat="23.17503078840672969818115234375" lon="113.262130916118621826171875">
        <ele>4.400000095367431640625</ele>
        <time>2017-10-03T12:11:04.000Z</time>
        <extensions>
          <ns3:TrackPointExtension>
            <ns3:hr>185</ns3:hr>
            <ns3:cad>83</ns3:cad>
          </ns3:TrackPointExtension>
        </extensions>
      </trkpt>
      <trkpt lat="23.175021149218082427978515625" lon="113.26212010346353054046630859375">
        <ele>4.599999904632568359375</ele>
        <time>2017-10-03T12:11:05.000Z</time>
        <extensions>
          <ns3:TrackPointExtension>
            <ns3:hr>185</ns3:hr>
            <ns3:cad>83</ns3:cad>
          </ns3:TrackPointExtension>
        </extensions>
      </trkpt>
      <trkpt lat="23.17385028116405010223388671875" lon="113.25979538261890411376953125">
        <ele>15.6000003814697265625</ele>
        <time>2017-10-03T12:17:12.000Z</time>
        <extensions>
          <ns3:TrackPointExtension>
            <ns3:hr>127</ns3:hr>
            <ns3:cad>0</ns3:cad>
          </ns3:TrackPointExtension>
        </extensions>
      </trkpt>
      <trkpt lat="23.1738538853824138641357421875" lon="113.25976596213877201080322265625">
        <ele>15.19999980926513671875</ele>
        <time>2017-10-03T12:17:13.000Z</time>
        <extensions>
          <ns3:TrackPointExtension>
            <ns3:hr>127</ns3:hr>
            <ns3:cad>0</ns3:cad>
          </ns3:TrackPointExtension>
        </extensions>
      </trkpt>
      <trkpt lat="23.1738609261810779571533203125" lon="113.25970393605530261993408203125">
        <ele>14.19999980926513671875</ele>
        <time>2017-10-03T12:17:16.000Z</time>
        <extensions>
          <ns3:TrackPointExtension>
            <ns3:hr>128</ns3:hr>
            <ns3:cad>0</ns3:cad>
          </ns3:TrackPointExtension>
        </extensions>
      </trkpt>
    </trkseg>
  </trk>
</gpx>
