<gpx xmlns:ns3="http://www.garmin.com/xmlschemas/TrackPointExtension/v1" xmlns="http://www.topografix.com/GPX/1/1" xmlns:xsi="http://www.w3.org/2001/XMLSchema-instance" xmlns:ns2="http://www.garmin.com/xmlschemas/GpxExtensions/v3" creator="Garmin Connect" version="1.1" xsi:schemaLocation="http://www.topografix.com/GPX/1/1 http://www.topografix.com/GPX/11.xsd">
  <extensions>
<distance>2002.48</distance>
<average_hr>135.0</average_hr>
<average_speed>1.6169999837875366</average_speed>
<start_time>2019-09-03T10:57:14+00:00</start_time>
<end_time>2019-09-03T11:17:52.263000+00:00</end_time>
<moving_time>1180.0</moving_time>
<elapsed_time>2366.432</elapsed_time>
</extensions>
<metadata>
    <link href="connect.garmin.com">
      <text>Garmin Connect</text>
    </link>
    <time>2019-09-03T10:57:14.000Z</time>
  </metadata>
  <trk>
    <name>广州市 跑步</name>
    <type>running</type>
    <trkseg>
      <trkpt lat="23.18273845128715038299560546875" lon="113.26144468970596790313720703125">
        <ele>-21.799999237060546875</ele>
        <time>2019-09-03T10:58:30.000Z</time>
        <extensions>
          <ns3:TrackPointExtension>
            <ns3:hr>157</ns3:hr>
            <ns3:cad>83</ns3:cad>
          </ns3:TrackPointExtension>
        </extensions>
      </trkpt>
      <trkpt lat="23.18265111185610294342041015625" lon="113.2615477032959461212158203125">
        <ele>-18.6000003814697265625</ele>
        <time>2019-09-03T10:58:36.000Z</time>
        <extensions>
          <ns3:TrackPointExtension>
            <ns3:hr>153</ns3:hr>
            <ns3:cad>84</ns3:cad>
          </ns3:TrackPointExtension>
        </extensions>
      </trkpt>
      <trkpt lat="23.18263334222137928009033203125" lon="113.26158198527991771697998046875">
        <ele>-16.799999237060546875</ele>
        <time>2019-09-03T10:58:38.000Z</time>
        <extensions>
          <ns3:TrackPointExtension>
            <ns3:hr>156</ns3:hr>
            <ns3:cad>84</ns3:cad>
          </ns3:TrackPointExtension>
        </extensions>
      </trkpt>
      <trkpt lat="23.1826267205178737640380859375" lon="113.261620961129665374755859375">
        <ele>-13.3999996185302734375</ele>
        <time>2019-09-03T10:58:40.000Z</time>
        <extensions>
          <ns3:TrackPointExtension>
            <ns3:hr>160</ns3:hr>
            <ns3:cad>84</ns3:cad>
          </ns3:TrackPointExtension>
        </extensions>
      </trkpt>
      <trkpt lat="23.18263619206845760345458984375" lon="113.2616730965673923492431640625">
        <ele>-6.400000095367431640625</ele>
        <time>2019-09-03T10:58:45.000Z</time>
        <extensions>
          <ns3:TrackPointExtension>
            <ns3:hr>158</ns3:hr>
            <ns3:cad>83</ns3:cad>
          </ns3:TrackPointExtension>
        </extensions>
      </trkpt>
      <trkpt lat="23.18263887427747249603271484375" lon="113.2616653852164745330810546875">
        <ele>-7.80000019073486328125</ele>
        <time>2019-09-03T10:58:47.000Z</time>
        <extensions>
          <ns3:TrackPointExtension>
            <ns3:hr>158</ns3:hr>
            <ns3:cad>0</ns3:cad>
          </ns3:TrackPointExtension>
        </extensions>
      </trkpt>
      <trkpt lat="23.18266041576862335205078125" lon="113.26170503161847591400146484375">
        <ele>-4</ele>
        <time>2019-09-03T11:00:28.000Z</time>
        <extensions>
          <ns3:TrackPointExtension>
            <ns3:hr>95</ns3:hr>
            <ns3:cad>0</ns3:cad>
          </ns3:TrackPointExtension>
        </extensions>
      </trkpt>
      <trkpt lat="23.18266041576862335205078125" lon="113.26170503161847591400146484375">
        <ele>-4</ele>
        <time>2019-09-03T11:00:29.000Z</time>
        <extensions>
          <ns3:TrackPointExtension>
            <ns3:hr>95</ns3:hr>
            <ns3:cad>0</ns3:cad>
          </ns3:TrackPointExtension>
        </extensions>
      </trkpt>
      <trkpt lat="23.182707019150257110595703125" lon="113.26173218898475170135498046875">
        <ele>-2.599999904632568359375</ele>
        <time>2019-09-03T11:00:33.000Z</time>
        <extensions>
          <ns3:TrackPointExtension>
            <ns3:hr>92</ns3:hr>
            <ns3:cad>0</ns3:cad>
          </ns3:TrackPointExtension>
        </extensions>
      </trkpt>
      <trkpt lat="23.18276409991085529327392578125" lon="113.26179957948625087738037109375">
        <ele>6.80000019073486328125</ele>
        <time>2019-09-03T11:00:37.000Z</time>
        <extensions>
          <ns3:TrackPointExtension>
            <ns3:hr>99</ns3:hr>
            <ns3:cad>81</ns3:cad>
          </ns3:TrackPointExtension>
        </extensions>
      </trkpt>
      <trkpt lat="23.18278438411653041839599609375" lon="113.2618122361600399017333984375">
        <ele>8.6000003814697265625</ele>
        <time>2019-09-03T11:00:38.000Z</time>
        <extensions>
          <ns3:TrackPointExtension>
            <ns3:hr>99</ns3:hr>
            <ns3:cad>81</ns3:cad>
          </ns3:TrackPointExtension>
        </extensions>
      </trkpt>
      <trkpt lat="23.18280466832220554351806640625" lon="113.2618219591677188873291015625">
        <ele>9.80000019073486328125</ele>
        <time>2019-09-03T11:00:39.000Z</time>
        <extensions>
          <ns3:TrackPointExtension>
            <ns3:hr>102</ns3:hr>
            <ns3:cad>79</ns3:cad>
          </ns3:TrackPointExtension>
        </extensions>
      </trkpt>
      <trkpt lat="23.1829790957272052764892578125" lon="113.26190686784684658050537109375">
        <ele>18</ele>
        <time>2019-09-03T11:00:46.000Z</time>
        <extensions>
          <ns3:TrackPointExtension>
            <ns3:hr>104</ns3:hr>
            <ns3:cad>81</ns3:cad>
          </ns3:TrackPointExtension>
        </extensions>
      </trkpt>
      <trkpt lat="23.183002062141895294189453125" lon="113.2619178481400012969970703125">
        <ele>18</ele>
        <time>2019-09-03T11:00:47.000Z</time>
        <extensions>
          <ns3:TrackPointExtension>
            <ns3:hr>111</ns3:hr>
            <ns3:cad>80</ns3:cad>
          </ns3:TrackPointExtension>
        </extensions>
      </trkpt>
      <trkpt lat="23.1830233521759510040283203125" lon="113.26192799024283885955810546875">
        <ele>18.200000762939453125</ele>
        <time>2019-09-03T11:00:48.000Z</time>
        <extensions>
          <ns3:TrackPointExtension>
            <ns3:hr>118</ns3:hr>
            <ns3:cad>80</ns3:cad>
          </ns3:TrackPointExtension>
        </extensions>
      </trkpt>
      <trkpt lat="23.18304489366710186004638671875" lon="113.2619379647076129913330078125">
        <ele>18.3999996185302734375</ele>
        <time>2019-09-03T11:00:49.000Z</time>
        <extensions>
          <ns3:TrackPointExtension>
            <ns3:hr>123</ns3:hr>
            <ns3:cad>80</ns3:cad>
          </ns3:TrackPointExtension>
        </extensions>
      </trkpt>
      <trkpt lat="23.18306484259665012359619140625" lon="113.26194307766854763031005859375">
        <ele>18.6000003814697265625</ele>
        <time>2019-09-03T11:00:50.000Z</time>
        <extensions>
          <ns3:TrackPointExtension>
            <ns3:hr>127</ns3:hr>
            <ns3:cad>80</ns3:cad>
          </ns3:TrackPointExtension>
        </extensions>
      </trkpt>
      <trkpt lat="23.18307925947010517120361328125" lon="113.26194324530661106109619140625">
        <ele>18.3999996185302734375</ele>
        <time>2019-09-03T11:00:51.000Z</time>
        <extensions>
          <ns3:TrackPointExtension>
            <ns3:hr>133</ns3:hr>
            <ns3:cad>81</ns3:cad>
          </ns3:TrackPointExtension>
        </extensions>
      </trkpt>
      <trkpt lat="23.1836932338774204254150390625" lon="113.26231841929256916046142578125">
        <ele>8</ele>
        <time>2019-09-03T11:16:45.000Z</time>
        <extensions>
          <ns3:TrackPointExtension>
            <ns3:hr>88</ns3:hr>
            <ns3:cad>0</ns3:cad>
          </ns3:TrackPointExtension>
        </extensions>
      </trkpt>
      <trkpt lat="23.18373640067875385284423828125" lon="113.26233275234699249267578125">
        <ele>7.19999980926513671875</ele>
        <time>2019-09-03T11:16:49.000Z</time>
        <extensions>
          <ns3:TrackPointExtension>
            <ns3:hr>85</ns3:hr>
            <ns3:cad>0</ns3:cad>
          </ns3:TrackPointExtension>
        </extensions>
      </trkpt>
      <trkpt lat="23.183780573308467864990234375" lon="113.2623637653887271881103515625">
        <ele>6.400000095367431640625</ele>
        <time>2019-09-03T11:16:52.000Z</time>
        <extensions>
          <ns3:TrackPointExtension>
            <ns3:hr>88</ns3:hr>
            <ns3:cad>79</ns3:cad>
          </ns3:TrackPointExtension>
        </extensions>
      </trkpt>
      <trkpt lat="23.183795325458049774169921875" lon="113.262380026280879974365234375">
        <ele>6.19999980926513671875</ele>
        <time>2019-09-03T11:16:53.000Z</time>
        <extensions>
          <ns3:TrackPointExtension>
            <ns3:hr>91</ns3:hr>
            <ns3:cad>79</ns3:cad>
          </ns3:TrackPointExtension>
        </extensions>
      </trkpt>
      <trkpt lat="23.1838105805218219757080078125" lon="113.26239150948822498321533203125">
        <ele>6</ele>
        <time>2019-09-03T11:16:54.000Z</time>
        <extensions>
          <ns3:TrackPointExtension>
            <ns3:hr>95</ns3:hr>
            <ns3:cad>79</ns3:cad>
          </ns3:TrackPointExtension>
        </extensions>
      </trkpt>
      <trkpt lat="23.183827511966228485107421875" lon="113.26239980757236480712890625">
        <ele>6</ele>
        <time>2019-09-03T11:16:55.000Z</time>
        <extensions>
          <ns3:TrackPointExtension>
            <ns3:hr>98</ns3:hr>
            <ns3:cad>79</ns3:cad>
          </ns3:TrackPointExtension>
        </extensions>
      </trkpt>
      <trkpt lat="23.18386531434953212738037109375" lon="113.2624060101807117462158203125">
        <ele>6.19999980926513671875</ele>
        <time>2019-09-03T11:16:57.000Z</time>
        <extensions>
          <ns3:TrackPointExtension>
            <ns3:hr>103</ns3:hr>
            <ns3:cad>80</ns3:cad>
          </ns3:TrackPointExtension>
        </extensions>
      </trkpt>
      <trkpt lat="23.18391459994018077850341796875" lon="113.262437693774700164794921875">
        <ele>6.400000095367431640625</ele>
        <time>2019-09-03T11:16:59.000Z</time>
        <extensions>
          <ns3:TrackPointExtension>
            <ns3:hr>108</ns3:hr>
            <ns3:cad>81</ns3:cad>
          </ns3:TrackPointExtension>
        </extensions>
      </trkpt>
      <trkpt lat="23.18393580615520477294921875" lon="113.262447752058506011962890625">
        <ele>6.599999904632568359375</ele>
        <time>2019-09-03T11:17:01.000Z</time>
        <extensions>
          <ns3:TrackPointExtension>
            <ns3:hr>115</ns3:hr>
            <ns3:cad>81</ns3:cad>
          </ns3:TrackPointExtension>
        </extensions>
      </trkpt>
      <trkpt lat="23.18395592272281646728515625" lon="113.26245873235166072845458984375">
        <ele>6.599999904632568359375</ele>
        <time>2019-09-03T11:17:02.000Z</time>
        <extensions>
          <ns3:TrackPointExtension>
            <ns3:hr>122</ns3:hr>
            <ns3:cad>81</ns3:cad>
          </ns3:TrackPointExtension>
        </extensions>
      </trkpt>
      <trkpt lat="23.18397847004234790802001953125" lon="113.2624702155590057373046875">
        <ele>6.80000019073486328125</ele>
        <time>2019-09-03T11:17:03.000Z</time>
        <extensions>
          <ns3:TrackPointExtension>
            <ns3:hr>127</ns3:hr>
            <ns3:cad>80</ns3:cad>
          </ns3:TrackPointExtension>
        </extensions>
      </trkpt>
      <trkpt lat="23.1839986704289913177490234375" lon="113.2624824531376361846923828125">
        <ele>6.80000019073486328125</ele>
        <time>2019-09-03T11:17:04.000Z</time>
        <extensions>
          <ns3:TrackPointExtension>
            <ns3:hr>130</ns3:hr>
            <ns3:cad>81</ns3:cad>
          </ns3:TrackPointExtension>
        </extensions>
      </trkpt>
      <trkpt lat="23.18402105011045932769775390625" lon="113.26249309815466403961181640625">
        <ele>7</ele>
        <time>2019-09-03T11:17:05.000Z</time>
        <extensions>
          <ns3:TrackPointExtension>
            <ns3:hr>135</ns3:hr>
            <ns3:cad>82</ns3:cad>
          </ns3:TrackPointExtension>
        </extensions>
      </trkpt>
      <trkpt lat="23.18406723439693450927734375" lon="113.26251371763646602630615234375">
        <ele>7.19999980926513671875</ele>
        <time>2019-09-03T11:17:06.000Z</time>
        <extensions>
          <ns3:TrackPointExtension>
            <ns3:hr>139</ns3:hr>
            <ns3:cad>82</ns3:cad>
          </ns3:TrackPointExtension>
        </extensions>
      </trkpt>
      <trkpt lat="23.18406723439693450927734375" lon="113.26251371763646602630615234375">
        <ele>7.19999980926513671875</ele>
        <time>2019-09-03T11:17:07.000Z</time>
        <extensions>
          <ns3:TrackPointExtension>
            <ns3:hr>142</ns3:hr>
            <ns3:cad>80</ns3:cad>
          </ns3:TrackPointExtension>
        </extensions>
      </trkpt>
      <trkpt lat="23.184123896062374114990234375" lon="113.26255294494330883026123046875">
        <ele>7.19999980926513671875</ele>
        <time>2019-09-03T11:17:10.000Z</time>
        <extensions>
          <ns3:TrackPointExtension>
            <ns3:hr>147</ns3:hr>
            <ns3:cad>79</ns3:cad>
          </ns3:TrackPointExtension>
        </extensions>
      </trkpt>
      <trkpt lat="23.18414107896387577056884765625" lon="113.26256350614130496978759765625">
        <ele>7</ele>
        <time>2019-09-03T11:17:11.000Z</time>
        <extensions>
          <ns3:TrackPointExtension>
            <ns3:hr>147</ns3:hr>
            <ns3:cad>80</ns3:cad>
          </ns3:TrackPointExtension>
        </extensions>
      </trkpt>
      <trkpt lat="23.18417544476687908172607421875" lon="113.26258110813796520233154296875">
        <ele>6.80000019073486328125</ele>
        <time>2019-09-03T11:17:13.000Z</time>
        <extensions>
          <ns3:TrackPointExtension>
            <ns3:hr>150</ns3:hr>
            <ns3:cad>80</ns3:cad>
          </ns3:TrackPointExtension>
        </extensions>
      </trkpt>
      <trkpt lat="23.18424291908740997314453125" lon="113.26261572539806365966796875">
        <ele>6.400000095367431640625</ele>
        <time>2019-09-03T11:17:17.000Z</time>
        <extensions>
          <ns3:TrackPointExtension>
            <ns3:hr>153</ns3:hr>
            <ns3:cad>81</ns3:cad>
          </ns3:TrackPointExtension>
        </extensions>
      </trkpt>
      <trkpt lat="23.18439085967838764190673828125" lon="113.26269744895398616790771484375">
        <ele>5.80000019073486328125</ele>
        <time>2019-09-03T11:17:23.000Z</time>
        <extensions>
          <ns3:TrackPointExtension>
            <ns3:hr>156</ns3:hr>
            <ns3:cad>81</ns3:cad>
          </ns3:TrackPointExtension>
        </extensions>
      </trkpt>
      <trkpt lat="23.18457660265266895294189453125" lon="113.2627902366220951080322265625">
        <ele>2.7999999523162841796875</ele>
        <time>2019-09-03T11:17:30.000Z</time>
        <extensions>
          <ns3:TrackPointExtension>
            <ns3:hr>156</ns3:hr>
            <ns3:cad>79</ns3:cad>
          </ns3:TrackPointExtension>
        </extensions>
      </trkpt>
      <trkpt lat="23.18460091017186641693115234375" lon="113.26280339621007442474365234375">
        <ele>2.2000000476837158203125</ele>
        <time>2019-09-03T11:17:31.000Z</time>
        <extensions>
          <ns3:TrackPointExtension>
            <ns3:hr>160</ns3:hr>
            <ns3:cad>79</ns3:cad>
          </ns3:TrackPointExtension>
        </extensions>
      </trkpt>
      <trkpt lat="23.18462605588138103485107421875" lon="113.2628167234361171722412109375">
        <ele>1.7999999523162841796875</ele>
        <time>2019-09-03T11:17:32.000Z</time>
        <extensions>
          <ns3:TrackPointExtension>
            <ns3:hr>159</ns3:hr>
            <ns3:cad>79</ns3:cad>
          </ns3:TrackPointExtension>
        </extensions>
      </trkpt>
      <trkpt lat="23.18471758626401424407958984375" lon="113.26286257244646549224853515625">
        <ele>-0.800000011920928955078125</ele>
        <time>2019-09-03T11:17:36.000Z</time>
        <extensions>
          <ns3:TrackPointExtension>
            <ns3:hr>155</ns3:hr>
            <ns3:cad>80</ns3:cad>
          </ns3:TrackPointExtension>
        </extensions>
      </trkpt>
      <trkpt lat="23.1847617588937282562255859375" lon="113.26288704760372638702392578125">
        <ele>-2</ele>
        <time>2019-09-03T11:17:38.000Z</time>
        <extensions>
          <ns3:TrackPointExtension>
            <ns3:hr>160</ns3:hr>
            <ns3:cad>80</ns3:cad>
          </ns3:TrackPointExtension>
        </extensions>
      </trkpt>
      <trkpt lat="23.18477877415716648101806640625" lon="113.26289710588753223419189453125">
        <ele>-2.599999904632568359375</ele>
        <time>2019-09-03T11:17:39.000Z</time>
        <extensions>
          <ns3:TrackPointExtension>
            <ns3:hr>164</ns3:hr>
            <ns3:cad>80</ns3:cad>
          </ns3:TrackPointExtension>
        </extensions>
      </trkpt>
      <trkpt lat="23.184925876557826995849609375" lon="113.26297002844512462615966796875">
        <ele>-6</ele>
        <time>2019-09-03T11:17:45.000Z</time>
        <extensions>
          <ns3:TrackPointExtension>
            <ns3:hr>167</ns3:hr>
            <ns3:cad>80</ns3:cad>
          </ns3:TrackPointExtension>
        </extensions>
      </trkpt>
      <trkpt lat="23.185112960636615753173828125" lon="113.2630192302167415618896484375">
        <ele>-4.400000095367431640625</ele>
        <time>2019-09-03T11:17:53.000Z</time>
        <extensions>
          <ns3:TrackPointExtension>
            <ns3:hr>166</ns3:hr>
            <ns3:cad>80</ns3:cad>
          </ns3:TrackPointExtension>
        </extensions>
      </trkpt>
      <trkpt lat="23.185156546533107757568359375" lon="113.2630313001573085784912109375">
        <ele>-4.19999980926513671875</ele>
        <time>2019-09-03T11:17:55.000Z</time>
        <extensions>
          <ns3:TrackPointExtension>
            <ns3:hr>167</ns3:hr>
            <ns3:cad>80</ns3:cad>
          </ns3:TrackPointExtension>
        </extensions>
      </trkpt>
      <trkpt lat="23.18520449101924896240234375" lon="113.26310791075229644775390625">
        <ele>-8</ele>
        <time>2019-09-03T11:17:58.000Z</time>
        <extensions>
          <ns3:TrackPointExtension>
            <ns3:hr>168</ns3:hr>
            <ns3:cad>80</ns3:cad>
          </ns3:TrackPointExtension>
        </extensions>
      </trkpt>
      <trkpt lat="23.1851738132536411285400390625" lon="113.2632039673626422882080078125">
        <ele>-13.6000003814697265625</ele>
        <time>2019-09-03T11:18:01.000Z</time>
        <extensions>
          <ns3:TrackPointExtension>
            <ns3:hr>165</ns3:hr>
            <ns3:cad>78</ns3:cad>
          </ns3:TrackPointExtension>
        </extensions>
      </trkpt>
      <trkpt lat="23.18514875136315822601318359375" lon="113.2632641494274139404296875">
        <ele>-16</ele>
        <time>2019-09-03T11:18:03.000Z</time>
        <extensions>
          <ns3:TrackPointExtension>
            <ns3:hr>168</ns3:hr>
            <ns3:cad>80</ns3:cad>
          </ns3:TrackPointExtension>
        </extensions>
      </trkpt>
      <trkpt lat="23.18507566116750240325927734375" lon="113.26345869340002536773681640625">
        <ele>-6</ele>
        <time>2019-09-03T11:18:09.000Z</time>
        <extensions>
          <ns3:TrackPointExtension>
            <ns3:hr>168</ns3:hr>
            <ns3:cad>81</ns3:cad>
          </ns3:TrackPointExtension>
        </extensions>
      </trkpt>
      <trkpt lat="23.18500340916216373443603515625" lon="113.2636502198874950408935546875">
        <ele>4.19999980926513671875</ele>
        <time>2019-09-03T11:18:15.000Z</time>
        <extensions>
          <ns3:TrackPointExtension>
            <ns3:hr>168</ns3:hr>
            <ns3:cad>81</ns3:cad>
          </ns3:TrackPointExtension>
        </extensions>
      </trkpt>
      <trkpt lat="23.18490819074213504791259765625" lon="113.263849876821041107177734375">
        <ele>3.400000095367431640625</ele>
        <time>2019-09-03T11:18:21.000Z</time>
        <extensions>
          <ns3:TrackPointExtension>
            <ns3:hr>166</ns3:hr>
            <ns3:cad>79</ns3:cad>
          </ns3:TrackPointExtension>
        </extensions>
      </trkpt>
      <trkpt lat="23.18488933145999908447265625" lon="113.263880722224712371826171875">
        <ele>4.19999980926513671875</ele>
        <time>2019-09-03T11:18:23.000Z</time>
        <extensions>
          <ns3:TrackPointExtension>
            <ns3:hr>166</ns3:hr>
            <ns3:cad>75</ns3:cad>
          </ns3:TrackPointExtension>
        </extensions>
      </trkpt>
      <trkpt lat="23.18487868644297122955322265625" lon="113.26389069668948650360107421875">
        <ele>4.599999904632568359375</ele>
        <time>2019-09-03T11:18:26.000Z</time>
        <extensions>
          <ns3:TrackPointExtension>
            <ns3:hr>166</ns3:hr>
            <ns3:cad>75</ns3:cad>
          </ns3:TrackPointExtension>
        </extensions>
      </trkpt>
      <trkpt lat="23.18487164564430713653564453125" lon="113.26384954154491424560546875">
        <ele>4.599999904632568359375</ele>
        <time>2019-09-03T11:18:55.000Z</time>
        <extensions>
          <ns3:TrackPointExtension>
            <ns3:hr>167</ns3:hr>
            <ns3:cad>0</ns3:cad>
          </ns3:TrackPointExtension>
        </extensions>
      </trkpt>
      <trkpt lat="23.18477936089038848876953125" lon="113.2639025151729583740234375">
        <ele>7.80000019073486328125</ele>
        <time>2019-09-03T11:19:01.000Z</time>
        <extensions>
          <ns3:TrackPointExtension>
            <ns3:hr>168</ns3:hr>
            <ns3:cad>51</ns3:cad>
          </ns3:TrackPointExtension>
        </extensions>
      </trkpt>
      <trkpt lat="23.18471021018922328948974609375" lon="113.26408599503338336944580078125">
        <ele>6</ele>
        <time>2019-09-03T11:19:06.000Z</time>
        <extensions>
          <ns3:TrackPointExtension>
            <ns3:hr>167</ns3:hr>
            <ns3:cad>78</ns3:cad>
          </ns3:TrackPointExtension>
        </extensions>
      </trkpt>
      <trkpt lat="23.1846206076443195343017578125" lon="113.2642671279609203338623046875">
        <ele>2.599999904632568359375</ele>
        <time>2019-09-03T11:19:11.000Z</time>
        <extensions>
          <ns3:TrackPointExtension>
            <ns3:hr>166</ns3:hr>
            <ns3:cad>77</ns3:cad>
          </ns3:TrackPointExtension>
        </extensions>
      </trkpt>
      <trkpt lat="23.1845331005752086639404296875" lon="113.26444976963102817535400390625">
        <ele>0.60000002384185791015625</ele>
        <time>2019-09-03T11:19:16.000Z</time>
        <extensions>
          <ns3:TrackPointExtension>
            <ns3:hr>168</ns3:hr>
            <ns3:cad>78</ns3:cad>
          </ns3:TrackPointExtension>
        </extensions>
      </trkpt>
      <trkpt lat="23.18443494848906993865966796875" lon="113.26465831138193607330322265625">
        <ele>0.60000002384185791015625</ele>
        <time>2019-09-03T11:19:22.000Z</time>
        <extensions>
          <ns3:TrackPointExtension>
            <ns3:hr>168</ns3:hr>
            <ns3:cad>78</ns3:cad>
          </ns3:TrackPointExtension>
        </extensions>
      </trkpt>
      <trkpt lat="23.18435096181929111480712890625" lon="113.2648488320410251617431640625">
        <ele>1.39999997615814208984375</ele>
        <time>2019-09-03T11:19:27.000Z</time>
        <extensions>
          <ns3:TrackPointExtension>
            <ns3:hr>169</ns3:hr>
            <ns3:cad>79</ns3:cad>
          </ns3:TrackPointExtension>
        </extensions>
      </trkpt>
      <trkpt lat="23.18426345475018024444580078125" lon="113.26503231190145015716552734375">
        <ele>-1.2000000476837158203125</ele>
        <time>2019-09-03T11:19:32.000Z</time>
        <extensions>
          <ns3:TrackPointExtension>
            <ns3:hr>167</ns3:hr>
            <ns3:cad>78</ns3:cad>
          </ns3:TrackPointExtension>
        </extensions>
      </trkpt>
      <trkpt lat="23.1841653026640415191650390625" lon="113.26519626192748546600341796875">
        <ele>-4.599999904632568359375</ele>
        <time>2019-09-03T11:19:37.000Z</time>
        <extensions>
          <ns3:TrackPointExtension>
            <ns3:hr>167</ns3:hr>
            <ns3:cad>80</ns3:cad>
          </ns3:TrackPointExtension>
        </extensions>
      </trkpt>
      <trkpt lat="23.18414711393415927886962890625" lon="113.26533758081495761871337890625">
        <ele>-10.6000003814697265625</ele>
        <time>2019-09-03T11:19:43.000Z</time>
        <extensions>
          <ns3:TrackPointExtension>
            <ns3:hr>165</ns3:hr>
            <ns3:cad>76</ns3:cad>
          </ns3:TrackPointExtension>
        </extensions>
      </trkpt>
      <trkpt lat="23.18410076200962066650390625" lon="113.26554042287170886993408203125">
        <ele>-16.3999996185302734375</ele>
        <time>2019-09-03T11:19:49.000Z</time>
        <extensions>
          <ns3:TrackPointExtension>
            <ns3:hr>163</ns3:hr>
            <ns3:cad>79</ns3:cad>
          </ns3:TrackPointExtension>
        </extensions>
      </trkpt>
      <trkpt lat="23.1840325333178043365478515625" lon="113.26573438011109828948974609375">
        <ele>-4</ele>
        <time>2019-09-03T11:19:54.000Z</time>
        <extensions>
          <ns3:TrackPointExtension>
            <ns3:hr>165</ns3:hr>
            <ns3:cad>78</ns3:cad>
          </ns3:TrackPointExtension>
        </extensions>
      </trkpt>
      <trkpt lat="23.1839594431221485137939453125" lon="113.26591459102928638458251953125">
        <ele>1.60000002384185791015625</ele>
        <time>2019-09-03T11:19:59.000Z</time>
        <extensions>
          <ns3:TrackPointExtension>
            <ns3:hr>166</ns3:hr>
            <ns3:cad>80</ns3:cad>
          </ns3:TrackPointExtension>
        </extensions>
      </trkpt>
      <trkpt lat="23.183869421482086181640625" lon="113.26609429903328418731689453125">
        <ele>7.19999980926513671875</ele>
        <time>2019-09-03T11:20:07.000Z</time>
        <extensions>
          <ns3:TrackPointExtension>
            <ns3:hr>165</ns3:hr>
            <ns3:cad>79</ns3:cad>
          </ns3:TrackPointExtension>
        </extensions>
      </trkpt>
      <trkpt lat="23.183791972696781158447265625" lon="113.266279287636280059814453125">
        <ele>13</ele>
        <time>2019-09-03T11:20:15.000Z</time>
        <extensions>
          <ns3:TrackPointExtension>
            <ns3:hr>167</ns3:hr>
            <ns3:cad>81</ns3:cad>
          </ns3:TrackPointExtension>
        </extensions>
      </trkpt>
      <trkpt lat="23.18371393717825412750244140625" lon="113.26644650660455226898193359375">
        <ele>14.19999980926513671875</ele>
        <time>2019-09-03T11:20:22.000Z</time>
        <extensions>
          <ns3:TrackPointExtension>
            <ns3:hr>170</ns3:hr>
            <ns3:cad>82</ns3:cad>
          </ns3:TrackPointExtension>
        </extensions>
      </trkpt>
      <trkpt lat="23.1836159527301788330078125" lon="113.2666345126926898956298828125">
        <ele>14.80000019073486328125</ele>
        <time>2019-09-03T11:20:31.000Z</time>
        <extensions>
          <ns3:TrackPointExtension>
            <ns3:hr>170</ns3:hr>
            <ns3:cad>82</ns3:cad>
          </ns3:TrackPointExtension>
        </extensions>
      </trkpt>
      <trkpt lat="23.183520399034023284912109375" lon="113.266814388334751129150390625">
        <ele>12.6000003814697265625</ele>
        <time>2019-09-03T11:20:39.000Z</time>
        <extensions>
          <ns3:TrackPointExtension>
            <ns3:hr>167</ns3:hr>
            <ns3:cad>82</ns3:cad>
          </ns3:TrackPointExtension>
        </extensions>
      </trkpt>
      <trkpt lat="23.1834228336811065673828125" lon="113.26699485071003437042236328125">
        <ele>9.19999980926513671875</ele>
        <time>2019-09-03T11:20:47.000Z</time>
        <extensions>
          <ns3:TrackPointExtension>
            <ns3:hr>165</ns3:hr>
            <ns3:cad>82</ns3:cad>
          </ns3:TrackPointExtension>
        </extensions>
      </trkpt>
      <trkpt lat="23.18331495858728885650634765625" lon="113.26715997420251369476318359375">
        <ele>6.80000019073486328125</ele>
        <time>2019-09-03T11:20:55.000Z</time>
        <extensions>
          <ns3:TrackPointExtension>
            <ns3:hr>167</ns3:hr>
            <ns3:cad>82</ns3:cad>
          </ns3:TrackPointExtension>
        </extensions>
      </trkpt>
      <trkpt lat="23.18314497359097003936767578125" lon="113.26722443103790283203125">
        <ele>6.80000019073486328125</ele>
        <time>2019-09-03T11:21:02.000Z</time>
        <extensions>
          <ns3:TrackPointExtension>
            <ns3:hr>168</ns3:hr>
            <ns3:cad>81</ns3:cad>
          </ns3:TrackPointExtension>
        </extensions>
      </trkpt>
      <trkpt lat="23.1829666905105113983154296875" lon="113.26715427450835704803466796875">
        <ele>7</ele>
        <time>2019-09-03T11:21:09.000Z</time>
        <extensions>
          <ns3:TrackPointExtension>
            <ns3:hr>170</ns3:hr>
            <ns3:cad>82</ns3:cad>
          </ns3:TrackPointExtension>
        </extensions>
      </trkpt>
      <trkpt lat="23.18280148319900035858154296875" lon="113.26705235056579113006591796875">
        <ele>6.599999904632568359375</ele>
        <time>2019-09-03T11:21:16.000Z</time>
        <extensions>
          <ns3:TrackPointExtension>
            <ns3:hr>171</ns3:hr>
            <ns3:cad>81</ns3:cad>
          </ns3:TrackPointExtension>
        </extensions>
      </trkpt>
      <trkpt lat="23.1826354376971721649169921875" lon="113.26693802140653133392333984375">
        <ele>6</ele>
        <time>2019-09-03T11:21:24.000Z</time>
        <extensions>
          <ns3:TrackPointExtension>
            <ns3:hr>171</ns3:hr>
            <ns3:cad>81</ns3:cad>
          </ns3:TrackPointExtension>
        </extensions>
      </trkpt>
      <trkpt lat="23.18247240968048572540283203125" lon="113.26682570390403270721435546875">
        <ele>5.400000095367431640625</ele>
        <time>2019-09-03T11:21:32.000Z</time>
        <extensions>
          <ns3:TrackPointExtension>
            <ns3:hr>171</ns3:hr>
            <ns3:cad>81</ns3:cad>
          </ns3:TrackPointExtension>
        </extensions>
      </trkpt>
      <trkpt lat="23.18231315352022647857666015625" lon="113.26672361232340335845947265625">
        <ele>7</ele>
        <time>2019-09-03T11:21:39.000Z</time>
        <extensions>
          <ns3:TrackPointExtension>
            <ns3:hr>170</ns3:hr>
            <ns3:cad>80</ns3:cad>
          </ns3:TrackPointExtension>
        </extensions>
      </trkpt>
      <trkpt lat="23.18216378800570964813232421875" lon="113.26660023070871829986572265625">
        <ele>9.6000003814697265625</ele>
        <time>2019-09-03T11:21:47.000Z</time>
        <extensions>
          <ns3:TrackPointExtension>
            <ns3:hr>168</ns3:hr>
            <ns3:cad>82</ns3:cad>
          </ns3:TrackPointExtension>
        </extensions>
      </trkpt>
      <trkpt lat="23.18197653628885746002197265625" lon="113.26653719879686832427978515625">
        <ele>11</ele>
        <time>2019-09-03T11:21:55.000Z</time>
        <extensions>
          <ns3:TrackPointExtension>
            <ns3:hr>170</ns3:hr>
            <ns3:cad>81</ns3:cad>
          </ns3:TrackPointExtension>
        </extensions>
      </trkpt>
      <trkpt lat="23.181795068085193634033203125" lon="113.266467042267322540283203125">
        <ele>11.6000003814697265625</ele>
        <time>2019-09-03T11:22:02.000Z</time>
        <extensions>
          <ns3:TrackPointExtension>
            <ns3:hr>169</ns3:hr>
            <ns3:cad>79</ns3:cad>
          </ns3:TrackPointExtension>
        </extensions>
      </trkpt>
      <trkpt lat="23.18163539282977581024169921875" lon="113.26633050106465816497802734375">
        <ele>11</ele>
        <time>2019-09-03T11:22:10.000Z</time>
        <extensions>
          <ns3:TrackPointExtension>
            <ns3:hr>168</ns3:hr>
            <ns3:cad>79</ns3:cad>
          </ns3:TrackPointExtension>
        </extensions>
      </trkpt>
      <trkpt lat="23.181482255458831787109375" lon="113.2662217877805233001708984375">
        <ele>9.6000003814697265625</ele>
        <time>2019-09-03T11:22:18.000Z</time>
        <extensions>
          <ns3:TrackPointExtension>
            <ns3:hr>167</ns3:hr>
            <ns3:cad>81</ns3:cad>
          </ns3:TrackPointExtension>
        </extensions>
      </trkpt>
      <trkpt lat="23.1813392601907253265380859375" lon="113.26610016636550426483154296875">
        <ele>7.80000019073486328125</ele>
        <time>2019-09-03T11:22:28.000Z</time>
        <extensions>
          <ns3:TrackPointExtension>
            <ns3:hr>168</ns3:hr>
            <ns3:cad>76</ns3:cad>
          </ns3:TrackPointExtension>
        </extensions>
      </trkpt>
      <trkpt lat="23.18123524077236652374267578125" lon="113.26603461988270282745361328125">
        <ele>7.80000019073486328125</ele>
        <time>2019-09-03T11:22:46.000Z</time>
        <extensions>
          <ns3:TrackPointExtension>
            <ns3:hr>171</ns3:hr>
            <ns3:cad>56</ns3:cad>
          </ns3:TrackPointExtension>
        </extensions>
      </trkpt>
      <trkpt lat="23.18112879060208797454833984375" lon="113.265985585749149322509765625">
        <ele>9</ele>
        <time>2019-09-03T11:23:08.000Z</time>
        <extensions>
          <ns3:TrackPointExtension>
            <ns3:hr>167</ns3:hr>
            <ns3:cad>49</ns3:cad>
          </ns3:TrackPointExtension>
        </extensions>
      </trkpt>
      <trkpt lat="23.18110045976936817169189453125" lon="113.26598030515015125274658203125">
        <ele>9.3999996185302734375</ele>
        <time>2019-09-03T11:23:10.000Z</time>
        <extensions>
          <ns3:TrackPointExtension>
            <ns3:hr>163</ns3:hr>
            <ns3:cad>55</ns3:cad>
          </ns3:TrackPointExtension>
        </extensions>
      </trkpt>
      <trkpt lat="23.18106047809123992919921875" lon="113.2659740187227725982666015625">
        <ele>9.80000019073486328125</ele>
        <time>2019-09-03T11:23:13.000Z</time>
        <extensions>
          <ns3:TrackPointExtension>
            <ns3:hr>160</ns3:hr>
            <ns3:cad>55</ns3:cad>
          </ns3:TrackPointExtension>
        </extensions>
      </trkpt>
      <trkpt lat="23.1810133717954158782958984375" lon="113.2659552432596683502197265625">
        <ele>10.3999996185302734375</ele>
        <time>2019-09-03T11:23:17.000Z</time>
        <extensions>
          <ns3:TrackPointExtension>
            <ns3:hr>160</ns3:hr>
            <ns3:cad>0</ns3:cad>
          </ns3:TrackPointExtension>
        </extensions>
      </trkpt>
      <trkpt lat="23.1809439696371555328369140625" lon="113.265909813344478607177734375">
        <ele>11</ele>
        <time>2019-09-03T11:23:24.000Z</time>
        <extensions>
          <ns3:TrackPointExtension>
            <ns3:hr>158</ns3:hr>
            <ns3:cad>60</ns3:cad>
          </ns3:TrackPointExtension>
        </extensions>
      </trkpt>
      <trkpt lat="23.18092863075435161590576171875" lon="113.2658975757658481597900390625">
        <ele>11.19999980926513671875</ele>
        <time>2019-09-03T11:23:26.000Z</time>
        <extensions>
          <ns3:TrackPointExtension>
            <ns3:hr>155</ns3:hr>
            <ns3:cad>61</ns3:cad>
          </ns3:TrackPointExtension>
        </extensions>
      </trkpt>
      <trkpt lat="23.1808775849640369415283203125" lon="113.26586932875216007232666015625">
        <ele>11.6000003814697265625</ele>
        <time>2019-09-03T11:23:31.000Z</time>
        <extensions>
          <ns3:TrackPointExtension>
            <ns3:hr>151</ns3:hr>
            <ns3:cad>61</ns3:cad>
          </ns3:TrackPointExtension>
        </extensions>
      </trkpt>
      <trkpt lat="23.18084883503615856170654296875" lon="113.26583035290241241455078125">
        <ele>12</ele>
        <time>2019-09-03T11:23:37.000Z</time>
        <extensions>
          <ns3:TrackPointExtension>
            <ns3:hr>148</ns3:hr>
            <ns3:cad>0</ns3:cad>
          </ns3:TrackPointExtension>
        </extensions>
      </trkpt>
      <trkpt lat="23.18079284392297267913818359375" lon="113.2658368907868862152099609375">
        <ele>12.3999996185302734375</ele>
        <time>2019-09-03T11:23:45.000Z</time>
        <extensions>
          <ns3:TrackPointExtension>
            <ns3:hr>144</ns3:hr>
            <ns3:cad>0</ns3:cad>
          </ns3:TrackPointExtension>
        </extensions>
      </trkpt>
      <trkpt lat="23.1807800196111202239990234375" lon="113.26584787108004093170166015625">
        <ele>12.6000003814697265625</ele>
        <time>2019-09-03T11:23:47.000Z</time>
        <extensions>
          <ns3:TrackPointExtension>
            <ns3:hr>140</ns3:hr>
            <ns3:cad>0</ns3:cad>
          </ns3:TrackPointExtension>
        </extensions>
      </trkpt>
      <trkpt lat="23.18068052642047405242919921875" lon="113.2656850107014179229736328125">
        <ele>13.19999980926513671875</ele>
        <time>2019-09-03T11:24:07.000Z</time>
        <extensions>
          <ns3:TrackPointExtension>
            <ns3:hr>140</ns3:hr>
            <ns3:cad>57</ns3:cad>
          </ns3:TrackPointExtension>
        </extensions>
      </trkpt>
      <trkpt lat="23.1804913468658924102783203125" lon="113.26563178561627864837646484375">
        <ele>13.3999996185302734375</ele>
        <time>2019-09-03T11:24:20.000Z</time>
        <extensions>
          <ns3:TrackPointExtension>
            <ns3:hr>139</ns3:hr>
            <ns3:cad>61</ns3:cad>
          </ns3:TrackPointExtension>
        </extensions>
      </trkpt>
      <trkpt lat="23.1803850643336772918701171875" lon="113.26555986888706684112548828125">
        <ele>13.80000019073486328125</ele>
        <time>2019-09-03T11:24:31.000Z</time>
        <extensions>
          <ns3:TrackPointExtension>
            <ns3:hr>136</ns3:hr>
            <ns3:cad>61</ns3:cad>
          </ns3:TrackPointExtension>
        </extensions>
      </trkpt>
      <trkpt lat="23.180361427366733551025390625" lon="113.26554897241294384002685546875">
        <ele>13.80000019073486328125</ele>
        <time>2019-09-03T11:24:33.000Z</time>
        <extensions>
          <ns3:TrackPointExtension>
            <ns3:hr>133</ns3:hr>
            <ns3:cad>58</ns3:cad>
          </ns3:TrackPointExtension>
        </extensions>
      </trkpt>
      <trkpt lat="23.18032077513635158538818359375" lon="113.26550488360226154327392578125">
        <ele>14</ele>
        <time>2019-09-03T11:24:42.000Z</time>
        <extensions>
          <ns3:TrackPointExtension>
            <ns3:hr>130</ns3:hr>
            <ns3:cad>61</ns3:cad>
          </ns3:TrackPointExtension>
        </extensions>
      </trkpt>
      <trkpt lat="23.18024600856006145477294921875" lon="113.2654724456369876861572265625">
        <ele>14</ele>
        <time>2019-09-03T11:24:49.000Z</time>
        <extensions>
          <ns3:TrackPointExtension>
            <ns3:hr>127</ns3:hr>
            <ns3:cad>61</ns3:cad>
          </ns3:TrackPointExtension>
        </extensions>
      </trkpt>
      <trkpt lat="23.18009488284587860107421875" lon="113.26536222361028194427490234375">
        <ele>13.80000019073486328125</ele>
        <time>2019-09-03T11:25:04.000Z</time>
        <extensions>
          <ns3:TrackPointExtension>
            <ns3:hr>125</ns3:hr>
            <ns3:cad>61</ns3:cad>
          </ns3:TrackPointExtension>
        </extensions>
      </trkpt>
      <trkpt lat="23.18008490838110446929931640625" lon="113.26535887084901332855224609375">
        <ele>14</ele>
        <time>2019-09-03T11:25:05.000Z</time>
        <extensions>
          <ns3:TrackPointExtension>
            <ns3:hr>121</ns3:hr>
            <ns3:cad>0</ns3:cad>
          </ns3:TrackPointExtension>
        </extensions>
      </trkpt>
      <trkpt lat="23.18007786758244037628173828125" lon="113.26535157859325408935546875">
        <ele>14</ele>
        <time>2019-09-03T11:25:06.000Z</time>
        <extensions>
          <ns3:TrackPointExtension>
            <ns3:hr>121</ns3:hr>
            <ns3:cad>0</ns3:cad>
          </ns3:TrackPointExtension>
        </extensions>
      </trkpt>
      <trkpt lat="23.18003495223820209503173828125" lon="113.265332467854022979736328125">
        <ele>14</ele>
        <time>2019-09-03T11:25:11.000Z</time>
        <extensions>
          <ns3:TrackPointExtension>
            <ns3:hr>125</ns3:hr>
            <ns3:cad>0</ns3:cad>
          </ns3:TrackPointExtension>
        </extensions>
      </trkpt>
      <trkpt lat="23.18000444211065769195556640625" lon="113.26531277038156986236572265625">
        <ele>14</ele>
        <time>2019-09-03T11:25:15.000Z</time>
        <extensions>
          <ns3:TrackPointExtension>
            <ns3:hr>128</ns3:hr>
            <ns3:cad>0</ns3:cad>
          </ns3:TrackPointExtension>
        </extensions>
      </trkpt>
      <trkpt lat="23.17993353120982646942138671875" lon="113.26527589000761508941650390625">
        <ele>14.19999980926513671875</ele>
        <time>2019-09-03T11:25:21.000Z</time>
        <extensions>
          <ns3:TrackPointExtension>
            <ns3:hr>125</ns3:hr>
            <ns3:cad>61</ns3:cad>
          </ns3:TrackPointExtension>
        </extensions>
      </trkpt>
      <trkpt lat="23.179768659174442291259765625" lon="113.265185616910457611083984375">
        <ele>14.19999980926513671875</ele>
        <time>2019-09-03T11:25:36.000Z</time>
        <extensions>
          <ns3:TrackPointExtension>
            <ns3:hr>123</ns3:hr>
            <ns3:cad>61</ns3:cad>
          </ns3:TrackPointExtension>
        </extensions>
      </trkpt>
      <trkpt lat="23.17959909327328205108642578125" lon="113.26508427970111370086669921875">
        <ele>13.6000003814697265625</ele>
        <time>2019-09-03T11:25:52.000Z</time>
        <extensions>
          <ns3:TrackPointExtension>
            <ns3:hr>124</ns3:hr>
            <ns3:cad>56</ns3:cad>
          </ns3:TrackPointExtension>
        </extensions>
      </trkpt>
      <trkpt lat="23.17946615628898143768310546875" lon="113.26497548259794712066650390625">
        <ele>13.3999996185302734375</ele>
        <time>2019-09-03T11:26:07.000Z</time>
        <extensions>
          <ns3:TrackPointExtension>
            <ns3:hr>121</ns3:hr>
            <ns3:cad>60</ns3:cad>
          </ns3:TrackPointExtension>
        </extensions>
      </trkpt>
      <trkpt lat="23.1794218160212039947509765625" lon="113.26493181288242340087890625">
        <ele>13.19999980926513671875</ele>
        <time>2019-09-03T11:26:13.000Z</time>
        <extensions>
          <ns3:TrackPointExtension>
            <ns3:hr>124</ns3:hr>
            <ns3:cad>60</ns3:cad>
          </ns3:TrackPointExtension>
        </extensions>
      </trkpt>
      <trkpt lat="23.1792627274990081787109375" lon="113.2648159749805927276611328125">
        <ele>15.3999996185302734375</ele>
        <time>2019-09-03T11:26:31.000Z</time>
        <extensions>
          <ns3:TrackPointExtension>
            <ns3:hr>123</ns3:hr>
            <ns3:cad>58</ns3:cad>
          </ns3:TrackPointExtension>
        </extensions>
      </trkpt>
      <trkpt lat="23.17915971390902996063232421875" lon="113.2647621631622314453125">
        <ele>16.6000003814697265625</ele>
        <time>2019-09-03T11:26:41.000Z</time>
        <extensions>
          <ns3:TrackPointExtension>
            <ns3:hr>126</ns3:hr>
            <ns3:cad>61</ns3:cad>
          </ns3:TrackPointExtension>
        </extensions>
      </trkpt>
      <trkpt lat="23.1790499947965145111083984375" lon="113.2646694593131542205810546875">
        <ele>18</ele>
        <time>2019-09-03T11:26:54.000Z</time>
        <extensions>
          <ns3:TrackPointExtension>
            <ns3:hr>127</ns3:hr>
            <ns3:cad>56</ns3:cad>
          </ns3:TrackPointExtension>
        </extensions>
      </trkpt>
      <trkpt lat="23.1789715401828289031982421875" lon="113.2644899189472198486328125">
        <ele>15</ele>
        <time>2019-09-03T11:27:11.000Z</time>
        <extensions>
          <ns3:TrackPointExtension>
            <ns3:hr>126</ns3:hr>
            <ns3:cad>56</ns3:cad>
          </ns3:TrackPointExtension>
        </extensions>
      </trkpt>
      <trkpt lat="23.17894019186496734619140625" lon="113.2644585706293582916259765625">
        <ele>14.3999996185302734375</ele>
        <time>2019-09-03T11:27:15.000Z</time>
        <extensions>
          <ns3:TrackPointExtension>
            <ns3:hr>126</ns3:hr>
            <ns3:cad>57</ns3:cad>
          </ns3:TrackPointExtension>
        </extensions>
      </trkpt>
      <trkpt lat="23.1787549518048763275146484375" lon="113.26443652622401714324951171875">
        <ele>13</ele>
        <time>2019-09-03T11:27:30.000Z</time>
        <extensions>
          <ns3:TrackPointExtension>
            <ns3:hr>125</ns3:hr>
            <ns3:cad>61</ns3:cad>
          </ns3:TrackPointExtension>
        </extensions>
      </trkpt>
      <trkpt lat="23.1785953603684902191162109375" lon="113.26435589231550693511962890625">
        <ele>10.19999980926513671875</ele>
        <time>2019-09-03T11:27:47.000Z</time>
        <extensions>
          <ns3:TrackPointExtension>
            <ns3:hr>121</ns3:hr>
            <ns3:cad>61</ns3:cad>
          </ns3:TrackPointExtension>
        </extensions>
      </trkpt>
      <trkpt lat="23.17845144309103488922119140625" lon="113.26425447128713130950927734375">
        <ele>9.19999980926513671875</ele>
        <time>2019-09-03T11:28:03.000Z</time>
        <extensions>
          <ns3:TrackPointExtension>
            <ns3:hr>124</ns3:hr>
            <ns3:cad>0</ns3:cad>
          </ns3:TrackPointExtension>
        </extensions>
      </trkpt>
      <trkpt lat="23.17828363738954067230224609375" lon="113.26416344381868839263916015625">
        <ele>9.3999996185302734375</ele>
        <time>2019-09-03T11:28:20.000Z</time>
        <extensions>
          <ns3:TrackPointExtension>
            <ns3:hr>124</ns3:hr>
            <ns3:cad>57</ns3:cad>
          </ns3:TrackPointExtension>
        </extensions>
      </trkpt>
      <trkpt lat="23.17817718721926212310791015625" lon="113.2640072889626026153564453125">
        <ele>9.80000019073486328125</ele>
        <time>2019-09-03T11:28:36.000Z</time>
        <extensions>
          <ns3:TrackPointExtension>
            <ns3:hr>123</ns3:hr>
            <ns3:cad>59</ns3:cad>
          </ns3:TrackPointExtension>
        </extensions>
      </trkpt>
      <trkpt lat="23.17801072262227535247802734375" lon="113.26393260620534420013427734375">
        <ele>11.80000019073486328125</ele>
        <time>2019-09-03T11:28:55.000Z</time>
        <extensions>
          <ns3:TrackPointExtension>
            <ns3:hr>123</ns3:hr>
            <ns3:cad>59</ns3:cad>
          </ns3:TrackPointExtension>
        </extensions>
      </trkpt>
      <trkpt lat="23.17784140817821025848388671875" lon="113.26384593732655048370361328125">
        <ele>13</ele>
        <time>2019-09-03T11:29:15.000Z</time>
        <extensions>
          <ns3:TrackPointExtension>
            <ns3:hr>123</ns3:hr>
            <ns3:cad>58</ns3:cad>
          </ns3:TrackPointExtension>
        </extensions>
      </trkpt>
      <trkpt lat="23.1776827387511730194091796875" lon="113.2637521438300609588623046875">
        <ele>13</ele>
        <time>2019-09-03T11:29:30.000Z</time>
        <extensions>
          <ns3:TrackPointExtension>
            <ns3:hr>123</ns3:hr>
            <ns3:cad>59</ns3:cad>
          </ns3:TrackPointExtension>
        </extensions>
      </trkpt>
      <trkpt lat="23.1775090657174587249755859375" lon="113.2636807300150394439697265625">
        <ele>13.3999996185302734375</ele>
        <time>2019-09-03T11:29:52.000Z</time>
        <extensions>
          <ns3:TrackPointExtension>
            <ns3:hr>123</ns3:hr>
            <ns3:cad>58</ns3:cad>
          </ns3:TrackPointExtension>
        </extensions>
      </trkpt>
      <trkpt lat="23.1774721853435039520263671875" lon="113.2636461965739727020263671875">
        <ele>13.3999996185302734375</ele>
        <time>2019-09-03T11:29:58.000Z</time>
        <extensions>
          <ns3:TrackPointExtension>
            <ns3:hr>126</ns3:hr>
            <ns3:cad>0</ns3:cad>
          </ns3:TrackPointExtension>
        </extensions>
      </trkpt>
      <trkpt lat="23.17728459835052490234375" lon="113.26361593790352344512939453125">
        <ele>12.3999996185302734375</ele>
        <time>2019-09-03T11:30:14.000Z</time>
        <extensions>
          <ns3:TrackPointExtension>
            <ns3:hr>125</ns3:hr>
            <ns3:cad>61</ns3:cad>
          </ns3:TrackPointExtension>
        </extensions>
      </trkpt>
      <trkpt lat="23.1771332211792469024658203125" lon="113.2635020278394222259521484375">
        <ele>10.80000019073486328125</ele>
        <time>2019-09-03T11:30:30.000Z</time>
        <extensions>
          <ns3:TrackPointExtension>
            <ns3:hr>124</ns3:hr>
            <ns3:cad>0</ns3:cad>
          </ns3:TrackPointExtension>
        </extensions>
      </trkpt>
      <trkpt lat="23.1770084984600543975830078125" lon="113.26334469951689243316650390625">
        <ele>9</ele>
        <time>2019-09-03T11:30:47.000Z</time>
        <extensions>
          <ns3:TrackPointExtension>
            <ns3:hr>122</ns3:hr>
            <ns3:cad>0</ns3:cad>
          </ns3:TrackPointExtension>
        </extensions>
      </trkpt>
      <trkpt lat="23.1768433749675750732421875" lon="113.26324344612658023834228515625">
        <ele>7.19999980926513671875</ele>
        <time>2019-09-03T11:31:03.000Z</time>
        <extensions>
          <ns3:TrackPointExtension>
            <ns3:hr>120</ns3:hr>
            <ns3:cad>0</ns3:cad>
          </ns3:TrackPointExtension>
        </extensions>
      </trkpt>
      <trkpt lat="23.17668537609279155731201171875" lon="113.26314521022140979766845703125">
        <ele>8</ele>
        <time>2019-09-03T11:31:21.000Z</time>
        <extensions>
          <ns3:TrackPointExtension>
            <ns3:hr>119</ns3:hr>
            <ns3:cad>0</ns3:cad>
          </ns3:TrackPointExtension>
        </extensions>
      </trkpt>
      <trkpt lat="23.1765129603445529937744140625" lon="113.2630681805312633514404296875">
        <ele>8.3999996185302734375</ele>
        <time>2019-09-03T11:31:39.000Z</time>
        <extensions>
          <ns3:TrackPointExtension>
            <ns3:hr>118</ns3:hr>
            <ns3:cad>59</ns3:cad>
          </ns3:TrackPointExtension>
        </extensions>
      </trkpt>
      <trkpt lat="23.1764693744480609893798828125" lon="113.2630413584411144256591796875">
        <ele>8.3999996185302734375</ele>
        <time>2019-09-03T11:31:44.000Z</time>
        <extensions>
          <ns3:TrackPointExtension>
            <ns3:hr>122</ns3:hr>
            <ns3:cad>61</ns3:cad>
          </ns3:TrackPointExtension>
        </extensions>
      </trkpt>
      <trkpt lat="23.17640692926943302154541015625" lon="113.26297220773994922637939453125">
        <ele>8.6000003814697265625</ele>
        <time>2019-09-03T11:31:54.000Z</time>
        <extensions>
          <ns3:TrackPointExtension>
            <ns3:hr>118</ns3:hr>
            <ns3:cad>52</ns3:cad>
          </ns3:TrackPointExtension>
        </extensions>
      </trkpt>
      <trkpt lat="23.17634054459631443023681640625" lon="113.26288252137601375579833984375">
        <ele>9.3999996185302734375</ele>
        <time>2019-09-03T11:32:04.000Z</time>
        <extensions>
          <ns3:TrackPointExtension>
            <ns3:hr>121</ns3:hr>
            <ns3:cad>52</ns3:cad>
          </ns3:TrackPointExtension>
        </extensions>
      </trkpt>
      <trkpt lat="23.17628706805408000946044921875" lon="113.26281689107418060302734375">
        <ele>9.80000019073486328125</ele>
        <time>2019-09-03T11:32:14.000Z</time>
        <extensions>
          <ns3:TrackPointExtension>
            <ns3:hr>118</ns3:hr>
            <ns3:cad>0</ns3:cad>
          </ns3:TrackPointExtension>
        </extensions>
      </trkpt>
      <trkpt lat="23.176264353096485137939453125" lon="113.262779675424098968505859375">
        <ele>10</ele>
        <time>2019-09-03T11:32:38.000Z</time>
        <extensions>
          <ns3:TrackPointExtension>
            <ns3:hr>114</ns3:hr>
            <ns3:cad>0</ns3:cad>
          </ns3:TrackPointExtension>
        </extensions>
      </trkpt>
      <trkpt lat="23.1762645207345485687255859375" lon="113.262779675424098968505859375">
        <ele>10</ele>
        <time>2019-09-03T11:32:39.000Z</time>
        <extensions>
          <ns3:TrackPointExtension>
            <ns3:hr>111</ns3:hr>
            <ns3:cad>0</ns3:cad>
          </ns3:TrackPointExtension>
        </extensions>
      </trkpt>
      <trkpt lat="23.17626460455358028411865234375" lon="113.2627798430621623992919921875">
        <ele>10</ele>
        <time>2019-09-03T11:32:40.000Z</time>
        <extensions>
          <ns3:TrackPointExtension>
            <ns3:hr>111</ns3:hr>
            <ns3:cad>0</ns3:cad>
          </ns3:TrackPointExtension>
        </extensions>
      </trkpt>
      <trkpt lat="23.17625664174556732177734375" lon="113.26277556829154491424560546875">
        <ele>10</ele>
        <time>2019-09-03T11:32:58.000Z</time>
        <extensions>
          <ns3:TrackPointExtension>
            <ns3:hr>108</ns3:hr>
            <ns3:cad>0</ns3:cad>
          </ns3:TrackPointExtension>
        </extensions>
      </trkpt>
      <trkpt lat="23.17621112801134586334228515625" lon="113.26272309757769107818603515625">
        <ele>10.19999980926513671875</ele>
        <time>2019-09-03T11:33:10.000Z</time>
        <extensions>
          <ns3:TrackPointExtension>
            <ns3:hr>113</ns3:hr>
            <ns3:cad>0</ns3:cad>
          </ns3:TrackPointExtension>
        </extensions>
      </trkpt>
      <trkpt lat="23.1760747544467449188232421875" lon="113.262599296867847442626953125">
        <ele>9.80000019073486328125</ele>
        <time>2019-09-03T11:33:27.000Z</time>
        <extensions>
          <ns3:TrackPointExtension>
            <ns3:hr>110</ns3:hr>
            <ns3:cad>0</ns3:cad>
          </ns3:TrackPointExtension>
        </extensions>
      </trkpt>
      <trkpt lat="23.17596830427646636962890625" lon="113.26256811618804931640625">
        <ele>9.80000019073486328125</ele>
        <time>2019-09-03T11:33:42.000Z</time>
        <extensions>
          <ns3:TrackPointExtension>
            <ns3:hr>113</ns3:hr>
            <ns3:cad>0</ns3:cad>
          </ns3:TrackPointExtension>
        </extensions>
      </trkpt>
      <trkpt lat="23.17593955434858798980712890625" lon="113.2625560462474822998046875">
        <ele>10.19999980926513671875</ele>
        <time>2019-09-03T11:33:46.000Z</time>
        <extensions>
          <ns3:TrackPointExtension>
            <ns3:hr>116</ns3:hr>
            <ns3:cad>0</ns3:cad>
          </ns3:TrackPointExtension>
        </extensions>
      </trkpt>
      <trkpt lat="23.17580913193523883819580078125" lon="113.2624140568077564239501953125">
        <ele>11</ele>
        <time>2019-09-03T11:34:13.000Z</time>
        <extensions>
          <ns3:TrackPointExtension>
            <ns3:hr>115</ns3:hr>
            <ns3:cad>0</ns3:cad>
          </ns3:TrackPointExtension>
        </extensions>
      </trkpt>
      <trkpt lat="23.175758086144924163818359375" lon="113.26237499713897705078125">
        <ele>10.3999996185302734375</ele>
        <time>2019-09-03T11:34:20.000Z</time>
        <extensions>
          <ns3:TrackPointExtension>
            <ns3:hr>111</ns3:hr>
            <ns3:cad>61</ns3:cad>
          </ns3:TrackPointExtension>
        </extensions>
      </trkpt>
      <trkpt lat="23.175713159143924713134765625" lon="113.2623366080224514007568359375">
        <ele>9.19999980926513671875</ele>
        <time>2019-09-03T11:34:26.000Z</time>
        <extensions>
          <ns3:TrackPointExtension>
            <ns3:hr>114</ns3:hr>
            <ns3:cad>0</ns3:cad>
          </ns3:TrackPointExtension>
        </extensions>
      </trkpt>
      <trkpt lat="23.1756685674190521240234375" lon="113.262359239161014556884765625">
        <ele>9.3999996185302734375</ele>
        <time>2019-09-03T11:34:30.000Z</time>
        <extensions>
          <ns3:TrackPointExtension>
            <ns3:hr>111</ns3:hr>
            <ns3:cad>0</ns3:cad>
          </ns3:TrackPointExtension>
        </extensions>
      </trkpt>
      <trkpt lat="23.17549246363341808319091796875" lon="113.26254908926784992218017578125">
        <ele>8.80000019073486328125</ele>
        <time>2019-09-03T11:34:44.000Z</time>
        <extensions>
          <ns3:TrackPointExtension>
            <ns3:hr>111</ns3:hr>
            <ns3:cad>0</ns3:cad>
          </ns3:TrackPointExtension>
        </extensions>
      </trkpt>
      <trkpt lat="23.17542381584644317626953125" lon="113.26256551779806613922119140625">
        <ele>8.80000019073486328125</ele>
        <time>2019-09-03T11:34:52.000Z</time>
        <extensions>
          <ns3:TrackPointExtension>
            <ns3:hr>115</ns3:hr>
            <ns3:cad>0</ns3:cad>
          </ns3:TrackPointExtension>
        </extensions>
      </trkpt>
      <trkpt lat="23.175406716763973236083984375" lon="113.2625669427216053009033203125">
        <ele>8.80000019073486328125</ele>
        <time>2019-09-03T11:34:54.000Z</time>
        <extensions>
          <ns3:TrackPointExtension>
            <ns3:hr>112</ns3:hr>
            <ns3:cad>0</ns3:cad>
          </ns3:TrackPointExtension>
        </extensions>
      </trkpt>
      <trkpt lat="23.17526313476264476776123046875" lon="113.26246283948421478271484375">
        <ele>7.400000095367431640625</ele>
        <time>2019-09-03T11:35:16.000Z</time>
        <extensions>
          <ns3:TrackPointExtension>
            <ns3:hr>114</ns3:hr>
            <ns3:cad>0</ns3:cad>
          </ns3:TrackPointExtension>
        </extensions>
      </trkpt>
      <trkpt lat="23.1751986779272556304931640625" lon="113.26244674623012542724609375">
        <ele>7.19999980926513671875</ele>
        <time>2019-09-03T11:35:25.000Z</time>
        <extensions>
          <ns3:TrackPointExtension>
            <ns3:hr>112</ns3:hr>
            <ns3:cad>0</ns3:cad>
          </ns3:TrackPointExtension>
        </extensions>
      </trkpt>
      <trkpt lat="23.17517998628318309783935546875" lon="113.262471891939640045166015625">
        <ele>7.400000095367431640625</ele>
        <time>2019-09-03T11:35:27.000Z</time>
        <extensions>
          <ns3:TrackPointExtension>
            <ns3:hr>115</ns3:hr>
            <ns3:cad>0</ns3:cad>
          </ns3:TrackPointExtension>
        </extensions>
      </trkpt>
      <trkpt lat="23.17515735514461994171142578125" lon="113.26250282116234302520751953125">
        <ele>8</ele>
        <time>2019-09-03T11:35:31.000Z</time>
        <extensions>
          <ns3:TrackPointExtension>
            <ns3:hr>112</ns3:hr>
            <ns3:cad>0</ns3:cad>
          </ns3:TrackPointExtension>
        </extensions>
      </trkpt>
      <trkpt lat="23.17515769042074680328369140625" lon="113.262481279671192169189453125">
        <ele>7.80000019073486328125</ele>
        <time>2019-09-03T11:35:41.000Z</time>
        <extensions>
          <ns3:TrackPointExtension>
            <ns3:hr>109</ns3:hr>
            <ns3:cad>0</ns3:cad>
          </ns3:TrackPointExtension>
        </extensions>
      </trkpt>
      <trkpt lat="23.1751514039933681488037109375" lon="113.26247692108154296875">
        <ele>7.80000019073486328125</ele>
        <time>2019-09-03T11:35:45.000Z</time>
        <extensions>
          <ns3:TrackPointExtension>
            <ns3:hr>110</ns3:hr>
            <ns3:cad>0</ns3:cad>
          </ns3:TrackPointExtension>
        </extensions>
      </trkpt>
      <trkpt lat="23.175147883594036102294921875" lon="113.26247231103479862213134765625">
        <ele>7.599999904632568359375</ele>
        <time>2019-09-03T11:35:47.000Z</time>
        <extensions>
          <ns3:TrackPointExtension>
            <ns3:hr>110</ns3:hr>
            <ns3:cad>0</ns3:cad>
          </ns3:TrackPointExtension>
        </extensions>
      </trkpt>
      <trkpt lat="23.17514059133827686309814453125" lon="113.2624646835029125213623046875">
        <ele>7.599999904632568359375</ele>
        <time>2019-09-03T11:35:49.000Z</time>
        <extensions>
          <ns3:TrackPointExtension>
            <ns3:hr>110</ns3:hr>
            <ns3:cad>0</ns3:cad>
          </ns3:TrackPointExtension>
        </extensions>
      </trkpt>
      <trkpt lat="23.17497211508452892303466796875" lon="113.26224935241043567657470703125">
        <ele>7.80000019073486328125</ele>
        <time>2019-09-03T11:36:34.000Z</time>
        <extensions>
          <ns3:TrackPointExtension>
            <ns3:hr>119</ns3:hr>
            <ns3:cad>0</ns3:cad>
          </ns3:TrackPointExtension>
        </extensions>
      </trkpt>
      <trkpt lat="23.174968175590038299560546875" lon="113.26224231161177158355712890625">
        <ele>7.80000019073486328125</ele>
        <time>2019-09-03T11:36:35.000Z</time>
        <extensions>
          <ns3:TrackPointExtension>
            <ns3:hr>119</ns3:hr>
            <ns3:cad>0</ns3:cad>
          </ns3:TrackPointExtension>
        </extensions>
      </trkpt>
      <trkpt lat="23.17495116032660007476806640625" lon="113.26214491389691829681396484375">
        <ele>6.80000019073486328125</ele>
        <time>2019-09-03T11:36:40.000Z</time>
        <extensions>
          <ns3:TrackPointExtension>
            <ns3:hr>119</ns3:hr>
            <ns3:cad>0</ns3:cad>
          </ns3:TrackPointExtension>
        </extensions>
      </trkpt>
      <trkpt lat="23.174944706261157989501953125" lon="113.2621371187269687652587890625">
        <ele>7</ele>
        <time>2019-09-03T11:36:41.000Z</time>
        <extensions>
          <ns3:TrackPointExtension>
            <ns3:hr>119</ns3:hr>
            <ns3:cad>0</ns3:cad>
          </ns3:TrackPointExtension>
        </extensions>
      </trkpt>
    </trkseg>
  </trk>
</gpx>
