<gpx xmlns:ns3="http://www.garmin.com/xmlschemas/TrackPointExtension/v1" xmlns="http://www.topografix.com/GPX/1/1" xmlns:xsi="http://www.w3.org/2001/XMLSchema-instance" xmlns:ns2="http://www.garmin.com/xmlschemas/GpxExtensions/v3" creator="Garmin Connect" version="1.1" xsi:schemaLocation="http://www.topografix.com/GPX/1/1 http://www.topografix.com/GPX/11.xsd">
  <extensions>
<distance>4051.74</distance>
<average_hr>170.0</average_hr>
<average_speed>2.4739999771118164</average_speed>
<start_time>2018-08-04T12:48:20+00:00</start_time>
<end_time>2018-08-04T13:15:37.873000+00:00</end_time>
<moving_time>1633.0</moving_time>
<elapsed_time>2773.025</elapsed_time>
</extensions>
<metadata>
    <link href="connect.garmin.com">
      <text>Garmin Connect</text>
    </link>
    <time>2018-08-04T12:48:20.000Z</time>
  </metadata>
  <trk>
    <name>广州市 跑步</name>
    <type>running</type>
    <trkseg>
      <trkpt lat="23.18365660496056079864501953125" lon="113.26221741735935211181640625">
        <ele>8.6000003814697265625</ele>
        <time>2018-08-04T13:00:18.000Z</time>
        <extensions>
          <ns3:TrackPointExtension>
            <ns3:hr>131</ns3:hr>
            <ns3:cad>55</ns3:cad>
          </ns3:TrackPointExtension>
        </extensions>
      </trkpt>
      <trkpt lat="23.18366548977792263031005859375" lon="113.2622209377586841583251953125">
        <ele>8.3999996185302734375</ele>
        <time>2018-08-04T13:00:19.000Z</time>
        <extensions>
          <ns3:TrackPointExtension>
            <ns3:hr>131</ns3:hr>
            <ns3:cad>61</ns3:cad>
          </ns3:TrackPointExtension>
        </extensions>
      </trkpt>
      <trkpt lat="23.183719217777252197265625" lon="113.2622306607663631439208984375">
        <ele>7.400000095367431640625</ele>
        <time>2018-08-04T13:00:23.000Z</time>
        <extensions>
          <ns3:TrackPointExtension>
            <ns3:hr>128</ns3:hr>
            <ns3:cad>61</ns3:cad>
          </ns3:TrackPointExtension>
        </extensions>
      </trkpt>
      <trkpt lat="23.183814771473407745361328125" lon="113.26228489167988300323486328125">
        <ele>6</ele>
        <time>2018-08-04T13:00:28.000Z</time>
        <extensions>
          <ns3:TrackPointExtension>
            <ns3:hr>131</ns3:hr>
            <ns3:cad>80</ns3:cad>
          </ns3:TrackPointExtension>
        </extensions>
      </trkpt>
      <trkpt lat="23.18385810591280460357666015625" lon="113.26230903156101703643798828125">
        <ele>6.19999980926513671875</ele>
        <time>2018-08-04T13:00:30.000Z</time>
        <extensions>
          <ns3:TrackPointExtension>
            <ns3:hr>128</ns3:hr>
            <ns3:cad>81</ns3:cad>
          </ns3:TrackPointExtension>
        </extensions>
      </trkpt>
      <trkpt lat="23.18389431573450565338134765625" lon="113.26233870349824428558349609375">
        <ele>6.400000095367431640625</ele>
        <time>2018-08-04T13:00:32.000Z</time>
        <extensions>
          <ns3:TrackPointExtension>
            <ns3:hr>132</ns3:hr>
            <ns3:cad>81</ns3:cad>
          </ns3:TrackPointExtension>
        </extensions>
      </trkpt>
      <trkpt lat="23.18391476757824420928955078125" lon="113.2623510248959064483642578125">
        <ele>6.400000095367431640625</ele>
        <time>2018-08-04T13:00:33.000Z</time>
        <extensions>
          <ns3:TrackPointExtension>
            <ns3:hr>135</ns3:hr>
            <ns3:cad>81</ns3:cad>
          </ns3:TrackPointExtension>
        </extensions>
      </trkpt>
      <trkpt lat="23.183935470879077911376953125" lon="113.262363262474536895751953125">
        <ele>6.400000095367431640625</ele>
        <time>2018-08-04T13:00:34.000Z</time>
        <extensions>
          <ns3:TrackPointExtension>
            <ns3:hr>140</ns3:hr>
            <ns3:cad>81</ns3:cad>
          </ns3:TrackPointExtension>
        </extensions>
      </trkpt>
      <trkpt lat="23.1839574314653873443603515625" lon="113.26237558387219905853271484375">
        <ele>6.599999904632568359375</ele>
        <time>2018-08-04T13:00:35.000Z</time>
        <extensions>
          <ns3:TrackPointExtension>
            <ns3:hr>143</ns3:hr>
            <ns3:cad>81</ns3:cad>
          </ns3:TrackPointExtension>
        </extensions>
      </trkpt>
      <trkpt lat="23.18397872149944305419921875" lon="113.26238815672695636749267578125">
        <ele>6.599999904632568359375</ele>
        <time>2018-08-04T13:00:36.000Z</time>
        <extensions>
          <ns3:TrackPointExtension>
            <ns3:hr>143</ns3:hr>
            <ns3:cad>82</ns3:cad>
          </ns3:TrackPointExtension>
        </extensions>
      </trkpt>
      <trkpt lat="23.18404250778257846832275390625" lon="113.26242537237703800201416015625">
        <ele>6.80000019073486328125</ele>
        <time>2018-08-04T13:00:39.000Z</time>
        <extensions>
          <ns3:TrackPointExtension>
            <ns3:hr>151</ns3:hr>
            <ns3:cad>83</ns3:cad>
          </ns3:TrackPointExtension>
        </extensions>
      </trkpt>
      <trkpt lat="23.184083662927150726318359375" lon="113.262449093163013458251953125">
        <ele>7</ele>
        <time>2018-08-04T13:00:41.000Z</time>
        <extensions>
          <ns3:TrackPointExtension>
            <ns3:hr>154</ns3:hr>
            <ns3:cad>82</ns3:cad>
          </ns3:TrackPointExtension>
        </extensions>
      </trkpt>
      <trkpt lat="23.18424819968640804290771484375" lon="113.26254104264080524444580078125">
        <ele>6.80000019073486328125</ele>
        <time>2018-08-04T13:00:49.000Z</time>
        <extensions>
          <ns3:TrackPointExtension>
            <ns3:hr>156</ns3:hr>
            <ns3:cad>82</ns3:cad>
          </ns3:TrackPointExtension>
        </extensions>
      </trkpt>
      <trkpt lat="23.18435247056186199188232421875" lon="113.26258814893662929534912109375">
        <ele>6.80000019073486328125</ele>
        <time>2018-08-04T13:00:54.000Z</time>
        <extensions>
          <ns3:TrackPointExtension>
            <ns3:hr>162</ns3:hr>
            <ns3:cad>82</ns3:cad>
          </ns3:TrackPointExtension>
        </extensions>
      </trkpt>
      <trkpt lat="23.18437493406236171722412109375" lon="113.26260155998170375823974609375">
        <ele>6.599999904632568359375</ele>
        <time>2018-08-04T13:00:55.000Z</time>
        <extensions>
          <ns3:TrackPointExtension>
            <ns3:hr>161</ns3:hr>
            <ns3:cad>82</ns3:cad>
          </ns3:TrackPointExtension>
        </extensions>
      </trkpt>
      <trkpt lat="23.18449311889708042144775390625" lon="113.2626671902835369110107421875">
        <ele>5.400000095367431640625</ele>
        <time>2018-08-04T13:01:00.000Z</time>
        <extensions>
          <ns3:TrackPointExtension>
            <ns3:hr>169</ns3:hr>
            <ns3:cad>83</ns3:cad>
          </ns3:TrackPointExtension>
        </extensions>
      </trkpt>
      <trkpt lat="23.1845156662166118621826171875" lon="113.2626772485673427581787109375">
        <ele>5.19999980926513671875</ele>
        <time>2018-08-04T13:01:01.000Z</time>
        <extensions>
          <ns3:TrackPointExtension>
            <ns3:hr>169</ns3:hr>
            <ns3:cad>82</ns3:cad>
          </ns3:TrackPointExtension>
        </extensions>
      </trkpt>
      <trkpt lat="23.1845156662166118621826171875" lon="113.2626772485673427581787109375">
        <ele>5.19999980926513671875</ele>
        <time>2018-08-04T13:01:02.000Z</time>
        <extensions>
          <ns3:TrackPointExtension>
            <ns3:hr>172</ns3:hr>
            <ns3:cad>82</ns3:cad>
          </ns3:TrackPointExtension>
        </extensions>
      </trkpt>
      <trkpt lat="23.18469026125967502593994140625" lon="113.2627818547189235687255859375">
        <ele>1.39999997615814208984375</ele>
        <time>2018-08-04T13:01:10.000Z</time>
        <extensions>
          <ns3:TrackPointExtension>
            <ns3:hr>172</ns3:hr>
            <ns3:cad>81</ns3:cad>
          </ns3:TrackPointExtension>
        </extensions>
      </trkpt>
      <trkpt lat="23.1848019920289516448974609375" lon="113.26284262351691722869873046875">
        <ele>-1.39999997615814208984375</ele>
        <time>2018-08-04T13:01:15.000Z</time>
        <extensions>
          <ns3:TrackPointExtension>
            <ns3:hr>168</ns3:hr>
            <ns3:cad>81</ns3:cad>
          </ns3:TrackPointExtension>
        </extensions>
      </trkpt>
      <trkpt lat="23.18482185713946819305419921875" lon="113.26285653747618198394775390625">
        <ele>-1.7999999523162841796875</ele>
        <time>2018-08-04T13:01:16.000Z</time>
        <extensions>
          <ns3:TrackPointExtension>
            <ns3:hr>168</ns3:hr>
            <ns3:cad>82</ns3:cad>
          </ns3:TrackPointExtension>
        </extensions>
      </trkpt>
      <trkpt lat="23.18489444442093372344970703125" lon="113.2628891430795192718505859375">
        <ele>-3.400000095367431640625</ele>
        <time>2018-08-04T13:01:19.000Z</time>
        <extensions>
          <ns3:TrackPointExtension>
            <ns3:hr>171</ns3:hr>
            <ns3:cad>82</ns3:cad>
          </ns3:TrackPointExtension>
        </extensions>
      </trkpt>
      <trkpt lat="23.1849919259548187255859375" lon="113.2629478164017200469970703125">
        <ele>-3.7999999523162841796875</ele>
        <time>2018-08-04T13:01:24.000Z</time>
        <extensions>
          <ns3:TrackPointExtension>
            <ns3:hr>168</ns3:hr>
            <ns3:cad>83</ns3:cad>
          </ns3:TrackPointExtension>
        </extensions>
      </trkpt>
      <trkpt lat="23.18504163064062595367431640625" lon="113.26297648251056671142578125">
        <ele>-3.7999999523162841796875</ele>
        <time>2018-08-04T13:01:27.000Z</time>
        <extensions>
          <ns3:TrackPointExtension>
            <ns3:hr>171</ns3:hr>
            <ns3:cad>83</ns3:cad>
          </ns3:TrackPointExtension>
        </extensions>
      </trkpt>
      <trkpt lat="23.18514137528836727142333984375" lon="113.2629944197833538055419921875">
        <ele>-2.400000095367431640625</ele>
        <time>2018-08-04T13:01:33.000Z</time>
        <extensions>
          <ns3:TrackPointExtension>
            <ns3:hr>166</ns3:hr>
            <ns3:cad>82</ns3:cad>
          </ns3:TrackPointExtension>
        </extensions>
      </trkpt>
      <trkpt lat="23.18518864922225475311279296875" lon="113.262989558279514312744140625">
        <ele>-1</ele>
        <time>2018-08-04T13:01:35.000Z</time>
        <extensions>
          <ns3:TrackPointExtension>
            <ns3:hr>166</ns3:hr>
            <ns3:cad>81</ns3:cad>
          </ns3:TrackPointExtension>
        </extensions>
      </trkpt>
      <trkpt lat="23.1852271221578121185302734375" lon="113.26298310421407222747802734375">
        <ele>0.20000000298023223876953125</ele>
        <time>2018-08-04T13:01:44.000Z</time>
        <extensions>
          <ns3:TrackPointExtension>
            <ns3:hr>170</ns3:hr>
            <ns3:cad>0</ns3:cad>
          </ns3:TrackPointExtension>
        </extensions>
      </trkpt>
      <trkpt lat="23.18522972054779529571533203125" lon="113.26298628933727741241455078125">
        <ele>0.20000000298023223876953125</ele>
        <time>2018-08-04T13:01:45.000Z</time>
        <extensions>
          <ns3:TrackPointExtension>
            <ns3:hr>170</ns3:hr>
            <ns3:cad>61</ns3:cad>
          </ns3:TrackPointExtension>
        </extensions>
      </trkpt>
      <trkpt lat="23.1852371804416179656982421875" lon="113.26299433596432209014892578125">
        <ele>0</ele>
        <time>2018-08-04T13:01:46.000Z</time>
        <extensions>
          <ns3:TrackPointExtension>
            <ns3:hr>170</ns3:hr>
            <ns3:cad>61</ns3:cad>
          </ns3:TrackPointExtension>
        </extensions>
      </trkpt>
      <trkpt lat="23.18522594869136810302734375" lon="113.26308435760438442230224609375">
        <ele>-6.80000019073486328125</ele>
        <time>2018-08-04T13:01:50.000Z</time>
        <extensions>
          <ns3:TrackPointExtension>
            <ns3:hr>169</ns3:hr>
            <ns3:cad>80</ns3:cad>
          </ns3:TrackPointExtension>
        </extensions>
      </trkpt>
      <trkpt lat="23.1851547025144100189208984375" lon="113.2632743753492832183837890625">
        <ele>-15.80000019073486328125</ele>
        <time>2018-08-04T13:01:57.000Z</time>
        <extensions>
          <ns3:TrackPointExtension>
            <ns3:hr>169</ns3:hr>
            <ns3:cad>80</ns3:cad>
          </ns3:TrackPointExtension>
        </extensions>
      </trkpt>
      <trkpt lat="23.185065686702728271484375" lon="113.26346338726580142974853515625">
        <ele>-5.400000095367431640625</ele>
        <time>2018-08-04T13:02:05.000Z</time>
        <extensions>
          <ns3:TrackPointExtension>
            <ns3:hr>169</ns3:hr>
            <ns3:cad>82</ns3:cad>
          </ns3:TrackPointExtension>
        </extensions>
      </trkpt>
      <trkpt lat="23.18496845662593841552734375" lon="113.2636505551636219024658203125">
        <ele>4.400000095367431640625</ele>
        <time>2018-08-04T13:02:14.000Z</time>
        <extensions>
          <ns3:TrackPointExtension>
            <ns3:hr>167</ns3:hr>
            <ns3:cad>83</ns3:cad>
          </ns3:TrackPointExtension>
        </extensions>
      </trkpt>
      <trkpt lat="23.18496351130306720733642578125" lon="113.263665474951267242431640625">
        <ele>4.400000095367431640625</ele>
        <time>2018-08-04T13:02:15.000Z</time>
        <extensions>
          <ns3:TrackPointExtension>
            <ns3:hr>166</ns3:hr>
            <ns3:cad>84</ns3:cad>
          </ns3:TrackPointExtension>
        </extensions>
      </trkpt>
      <trkpt lat="23.18495999090373516082763671875" lon="113.26369171030819416046142578125">
        <ele>4</ele>
        <time>2018-08-04T13:02:22.000Z</time>
        <extensions>
          <ns3:TrackPointExtension>
            <ns3:hr>166</ns3:hr>
            <ns3:cad>0</ns3:cad>
          </ns3:TrackPointExtension>
        </extensions>
      </trkpt>
      <trkpt lat="23.184947669506072998046875" lon="113.263718448579311370849609375">
        <ele>3.7999999523162841796875</ele>
        <time>2018-08-04T13:02:24.000Z</time>
        <extensions>
          <ns3:TrackPointExtension>
            <ns3:hr>166</ns3:hr>
            <ns3:cad>0</ns3:cad>
          </ns3:TrackPointExtension>
        </extensions>
      </trkpt>
      <trkpt lat="23.18489276804029941558837890625" lon="113.26376438140869140625">
        <ele>4.400000095367431640625</ele>
        <time>2018-08-04T13:02:28.000Z</time>
        <extensions>
          <ns3:TrackPointExtension>
            <ns3:hr>165</ns3:hr>
            <ns3:cad>0</ns3:cad>
          </ns3:TrackPointExtension>
        </extensions>
      </trkpt>
      <trkpt lat="23.18478472530841827392578125" lon="113.26382246799767017364501953125">
        <ele>7.19999980926513671875</ele>
        <time>2018-08-04T13:02:35.000Z</time>
        <extensions>
          <ns3:TrackPointExtension>
            <ns3:hr>162</ns3:hr>
            <ns3:cad>75</ns3:cad>
          </ns3:TrackPointExtension>
        </extensions>
      </trkpt>
      <trkpt lat="23.18467567674815654754638671875" lon="113.2639937102794647216796875">
        <ele>8.19999980926513671875</ele>
        <time>2018-08-04T13:02:44.000Z</time>
        <extensions>
          <ns3:TrackPointExtension>
            <ns3:hr>163</ns3:hr>
            <ns3:cad>81</ns3:cad>
          </ns3:TrackPointExtension>
        </extensions>
      </trkpt>
      <trkpt lat="23.1845629401504993438720703125" lon="113.26414860785007476806640625">
        <ele>5.80000019073486328125</ele>
        <time>2018-08-04T13:02:51.000Z</time>
        <extensions>
          <ns3:TrackPointExtension>
            <ns3:hr>165</ns3:hr>
            <ns3:cad>83</ns3:cad>
          </ns3:TrackPointExtension>
        </extensions>
      </trkpt>
      <trkpt lat="23.1844854913651943206787109375" lon="113.264346085488796234130859375">
        <ele>2.7999999523162841796875</ele>
        <time>2018-08-04T13:02:59.000Z</time>
        <extensions>
          <ns3:TrackPointExtension>
            <ns3:hr>168</ns3:hr>
            <ns3:cad>84</ns3:cad>
          </ns3:TrackPointExtension>
        </extensions>
      </trkpt>
      <trkpt lat="23.18442338146269321441650390625" lon="113.26455521397292613983154296875">
        <ele>1.60000002384185791015625</ele>
        <time>2018-08-04T13:03:07.000Z</time>
        <extensions>
          <ns3:TrackPointExtension>
            <ns3:hr>169</ns3:hr>
            <ns3:cad>84</ns3:cad>
          </ns3:TrackPointExtension>
        </extensions>
      </trkpt>
      <trkpt lat="23.18434358574450016021728515625" lon="113.26471681706607341766357421875">
        <ele>1.7999999523162841796875</ele>
        <time>2018-08-04T13:03:15.000Z</time>
        <extensions>
          <ns3:TrackPointExtension>
            <ns3:hr>172</ns3:hr>
            <ns3:cad>84</ns3:cad>
          </ns3:TrackPointExtension>
        </extensions>
      </trkpt>
      <trkpt lat="23.1842846609652042388916015625" lon="113.264913372695446014404296875">
        <ele>1.39999997615814208984375</ele>
        <time>2018-08-04T13:03:23.000Z</time>
        <extensions>
          <ns3:TrackPointExtension>
            <ns3:hr>171</ns3:hr>
            <ns3:cad>83</ns3:cad>
          </ns3:TrackPointExtension>
        </extensions>
      </trkpt>
      <trkpt lat="23.18423411808907985687255859375" lon="113.26512518338859081268310546875">
        <ele>-3.400000095367431640625</ele>
        <time>2018-08-04T13:03:31.000Z</time>
        <extensions>
          <ns3:TrackPointExtension>
            <ns3:hr>173</ns3:hr>
            <ns3:cad>82</ns3:cad>
          </ns3:TrackPointExtension>
        </extensions>
      </trkpt>
      <trkpt lat="23.18415801040828227996826171875" lon="113.265290558338165283203125">
        <ele>-8</ele>
        <time>2018-08-04T13:03:37.000Z</time>
        <extensions>
          <ns3:TrackPointExtension>
            <ns3:hr>176</ns3:hr>
            <ns3:cad>83</ns3:cad>
          </ns3:TrackPointExtension>
        </extensions>
      </trkpt>
      <trkpt lat="23.18413294851779937744140625" lon="113.26550119556486606597900390625">
        <ele>-18.3999996185302734375</ele>
        <time>2018-08-04T13:03:53.000Z</time>
        <extensions>
          <ns3:TrackPointExtension>
            <ns3:hr>174</ns3:hr>
            <ns3:cad>79</ns3:cad>
          </ns3:TrackPointExtension>
        </extensions>
      </trkpt>
      <trkpt lat="23.18405407480895519256591796875" lon="113.2657014392316341400146484375">
        <ele>-6.400000095367431640625</ele>
        <time>2018-08-04T13:04:00.000Z</time>
        <extensions>
          <ns3:TrackPointExtension>
            <ns3:hr>173</ns3:hr>
            <ns3:cad>81</ns3:cad>
          </ns3:TrackPointExtension>
        </extensions>
      </trkpt>
      <trkpt lat="23.18396405316889286041259765625" lon="113.26587469317018985748291015625">
        <ele>0.20000000298023223876953125</ele>
        <time>2018-08-04T13:04:06.000Z</time>
        <extensions>
          <ns3:TrackPointExtension>
            <ns3:hr>174</ns3:hr>
            <ns3:cad>82</ns3:cad>
          </ns3:TrackPointExtension>
        </extensions>
      </trkpt>
      <trkpt lat="23.18384536541998386383056640625" lon="113.2660444267094135284423828125">
        <ele>6.599999904632568359375</ele>
        <time>2018-08-04T13:04:12.000Z</time>
        <extensions>
          <ns3:TrackPointExtension>
            <ns3:hr>175</ns3:hr>
            <ns3:cad>82</ns3:cad>
          </ns3:TrackPointExtension>
        </extensions>
      </trkpt>
      <trkpt lat="23.18383254110813140869140625" lon="113.2660695724189281463623046875">
        <ele>7.19999980926513671875</ele>
        <time>2018-08-04T13:04:13.000Z</time>
        <extensions>
          <ns3:TrackPointExtension>
            <ns3:hr>178</ns3:hr>
            <ns3:cad>81</ns3:cad>
          </ns3:TrackPointExtension>
        </extensions>
      </trkpt>
      <trkpt lat="23.18380982615053653717041015625" lon="113.2661406509578227996826171875">
        <ele>9.19999980926513671875</ele>
        <time>2018-08-04T13:04:16.000Z</time>
        <extensions>
          <ns3:TrackPointExtension>
            <ns3:hr>167</ns3:hr>
            <ns3:cad>81</ns3:cad>
          </ns3:TrackPointExtension>
        </extensions>
      </trkpt>
      <trkpt lat="23.183795996010303497314453125" lon="113.266169987618923187255859375">
        <ele>10.19999980926513671875</ele>
        <time>2018-08-04T13:04:17.000Z</time>
        <extensions>
          <ns3:TrackPointExtension>
            <ns3:hr>164</ns3:hr>
            <ns3:cad>82</ns3:cad>
          </ns3:TrackPointExtension>
        </extensions>
      </trkpt>
      <trkpt lat="23.1836898811161518096923828125" lon="113.2663562335073947906494140625">
        <ele>13.3999996185302734375</ele>
        <time>2018-08-04T13:04:23.000Z</time>
        <extensions>
          <ns3:TrackPointExtension>
            <ns3:hr>162</ns3:hr>
            <ns3:cad>80</ns3:cad>
          </ns3:TrackPointExtension>
        </extensions>
      </trkpt>
      <trkpt lat="23.18355895578861236572265625" lon="113.26650920324027538299560546875">
        <ele>14.19999980926513671875</ele>
        <time>2018-08-04T13:04:29.000Z</time>
        <extensions>
          <ns3:TrackPointExtension>
            <ns3:hr>161</ns3:hr>
            <ns3:cad>80</ns3:cad>
          </ns3:TrackPointExtension>
        </extensions>
      </trkpt>
      <trkpt lat="23.18351830355823040008544921875" lon="113.26655580662190914154052734375">
        <ele>14.3999996185302734375</ele>
        <time>2018-08-04T13:04:31.000Z</time>
        <extensions>
          <ns3:TrackPointExtension>
            <ns3:hr>166</ns3:hr>
            <ns3:cad>83</ns3:cad>
          </ns3:TrackPointExtension>
        </extensions>
      </trkpt>
      <trkpt lat="23.18349868990480899810791015625" lon="113.2665812037885189056396484375">
        <ele>14.3999996185302734375</ele>
        <time>2018-08-04T13:04:32.000Z</time>
        <extensions>
          <ns3:TrackPointExtension>
            <ns3:hr>166</ns3:hr>
            <ns3:cad>83</ns3:cad>
          </ns3:TrackPointExtension>
        </extensions>
      </trkpt>
      <trkpt lat="23.18348175846040248870849609375" lon="113.26660685241222381591796875">
        <ele>14.3999996185302734375</ele>
        <time>2018-08-04T13:04:33.000Z</time>
        <extensions>
          <ns3:TrackPointExtension>
            <ns3:hr>170</ns3:hr>
            <ns3:cad>83</ns3:cad>
          </ns3:TrackPointExtension>
        </extensions>
      </trkpt>
      <trkpt lat="23.1834699399769306182861328125" lon="113.26662906445562839508056640625">
        <ele>14</ele>
        <time>2018-08-04T13:04:34.000Z</time>
        <extensions>
          <ns3:TrackPointExtension>
            <ns3:hr>175</ns3:hr>
            <ns3:cad>83</ns3:cad>
          </ns3:TrackPointExtension>
        </extensions>
      </trkpt>
      <trkpt lat="23.183435238897800445556640625" lon="113.266689665615558624267578125">
        <ele>12.80000019073486328125</ele>
        <time>2018-08-04T13:04:37.000Z</time>
        <extensions>
          <ns3:TrackPointExtension>
            <ns3:hr>178</ns3:hr>
            <ns3:cad>83</ns3:cad>
          </ns3:TrackPointExtension>
        </extensions>
      </trkpt>
      <trkpt lat="23.1833546049892902374267578125" lon="113.266817741096019744873046875">
        <ele>11.3999996185302734375</ele>
        <time>2018-08-04T13:04:43.000Z</time>
        <extensions>
          <ns3:TrackPointExtension>
            <ns3:hr>182</ns3:hr>
            <ns3:cad>83</ns3:cad>
          </ns3:TrackPointExtension>
        </extensions>
      </trkpt>
      <trkpt lat="23.1833106838166713714599609375" lon="113.2669956050813198089599609375">
        <ele>9</ele>
        <time>2018-08-04T13:04:51.000Z</time>
        <extensions>
          <ns3:TrackPointExtension>
            <ns3:hr>182</ns3:hr>
            <ns3:cad>84</ns3:cad>
          </ns3:TrackPointExtension>
        </extensions>
      </trkpt>
      <trkpt lat="23.18321085534989833831787109375" lon="113.2671726308763027191162109375">
        <ele>7</ele>
        <time>2018-08-04T13:04:59.000Z</time>
        <extensions>
          <ns3:TrackPointExtension>
            <ns3:hr>183</ns3:hr>
            <ns3:cad>83</ns3:cad>
          </ns3:TrackPointExtension>
        </extensions>
      </trkpt>
      <trkpt lat="23.18305545486509799957275390625" lon="113.2672712020576000213623046875">
        <ele>6.599999904632568359375</ele>
        <time>2018-08-04T13:05:06.000Z</time>
        <extensions>
          <ns3:TrackPointExtension>
            <ns3:hr>184</ns3:hr>
            <ns3:cad>83</ns3:cad>
          </ns3:TrackPointExtension>
        </extensions>
      </trkpt>
      <trkpt lat="23.18295738659799098968505859375" lon="113.26726005412638187408447265625">
        <ele>6.599999904632568359375</ele>
        <time>2018-08-04T13:05:11.000Z</time>
        <extensions>
          <ns3:TrackPointExtension>
            <ns3:hr>181</ns3:hr>
            <ns3:cad>82</ns3:cad>
          </ns3:TrackPointExtension>
        </extensions>
      </trkpt>
      <trkpt lat="23.18291011266410350799560546875" lon="113.2672131992876529693603515625">
        <ele>6.80000019073486328125</ele>
        <time>2018-08-04T13:05:14.000Z</time>
        <extensions>
          <ns3:TrackPointExtension>
            <ns3:hr>184</ns3:hr>
            <ns3:cad>83</ns3:cad>
          </ns3:TrackPointExtension>
        </extensions>
      </trkpt>
      <trkpt lat="23.1828795187175273895263671875" lon="113.26718176715075969696044921875">
        <ele>7</ele>
        <time>2018-08-04T13:05:16.000Z</time>
        <extensions>
          <ns3:TrackPointExtension>
            <ns3:hr>187</ns3:hr>
            <ns3:cad>83</ns3:cad>
          </ns3:TrackPointExtension>
        </extensions>
      </trkpt>
      <trkpt lat="23.1827618367969989776611328125" lon="113.26701077632606029510498046875">
        <ele>6.400000095367431640625</ele>
        <time>2018-08-04T13:05:25.000Z</time>
        <extensions>
          <ns3:TrackPointExtension>
            <ns3:hr>185</ns3:hr>
            <ns3:cad>84</ns3:cad>
          </ns3:TrackPointExtension>
        </extensions>
      </trkpt>
      <trkpt lat="23.18263225257396697998046875" lon="113.2668574713170528411865234375">
        <ele>5.80000019073486328125</ele>
        <time>2018-08-04T13:05:34.000Z</time>
        <extensions>
          <ns3:TrackPointExtension>
            <ns3:hr>185</ns3:hr>
            <ns3:cad>84</ns3:cad>
          </ns3:TrackPointExtension>
        </extensions>
      </trkpt>
      <trkpt lat="23.18248917348682880401611328125" lon="113.26672646217048168182373046875">
        <ele>5.80000019073486328125</ele>
        <time>2018-08-04T13:05:42.000Z</time>
        <extensions>
          <ns3:TrackPointExtension>
            <ns3:hr>186</ns3:hr>
            <ns3:cad>84</ns3:cad>
          </ns3:TrackPointExtension>
        </extensions>
      </trkpt>
      <trkpt lat="23.1823561526834964752197265625" lon="113.266575671732425689697265625">
        <ele>6.80000019073486328125</ele>
        <time>2018-08-04T13:05:52.000Z</time>
        <extensions>
          <ns3:TrackPointExtension>
            <ns3:hr>184</ns3:hr>
            <ns3:cad>84</ns3:cad>
          </ns3:TrackPointExtension>
        </extensions>
      </trkpt>
      <trkpt lat="23.18235238082706928253173828125" lon="113.266373835504055023193359375">
        <ele>6.599999904632568359375</ele>
        <time>2018-08-04T13:06:05.000Z</time>
        <extensions>
          <ns3:TrackPointExtension>
            <ns3:hr>184</ns3:hr>
            <ns3:cad>83</ns3:cad>
          </ns3:TrackPointExtension>
        </extensions>
      </trkpt>
      <trkpt lat="23.182234279811382293701171875" lon="113.26621701009571552276611328125">
        <ele>9</ele>
        <time>2018-08-04T13:06:17.000Z</time>
        <extensions>
          <ns3:TrackPointExtension>
            <ns3:hr>184</ns3:hr>
            <ns3:cad>85</ns3:cad>
          </ns3:TrackPointExtension>
        </extensions>
      </trkpt>
      <trkpt lat="23.18222112022340297698974609375" lon="113.26602238230407238006591796875">
        <ele>12.19999980926513671875</ele>
        <time>2018-08-04T13:06:36.000Z</time>
        <extensions>
          <ns3:TrackPointExtension>
            <ns3:hr>183</ns3:hr>
            <ns3:cad>84</ns3:cad>
          </ns3:TrackPointExtension>
        </extensions>
      </trkpt>
      <trkpt lat="23.18215993233025074005126953125" lon="113.265960775315761566162109375">
        <ele>12.6000003814697265625</ele>
        <time>2018-08-04T13:06:41.000Z</time>
        <extensions>
          <ns3:TrackPointExtension>
            <ns3:hr>180</ns3:hr>
            <ns3:cad>83</ns3:cad>
          </ns3:TrackPointExtension>
        </extensions>
      </trkpt>
      <trkpt lat="23.1821543164551258087158203125" lon="113.2659398205578327178955078125">
        <ele>12.80000019073486328125</ele>
        <time>2018-08-04T13:06:42.000Z</time>
        <extensions>
          <ns3:TrackPointExtension>
            <ns3:hr>174</ns3:hr>
            <ns3:cad>83</ns3:cad>
          </ns3:TrackPointExtension>
        </extensions>
      </trkpt>
      <trkpt lat="23.18213579244911670684814453125" lon="113.26589665375649929046630859375">
        <ele>13</ele>
        <time>2018-08-04T13:06:43.000Z</time>
        <extensions>
          <ns3:TrackPointExtension>
            <ns3:hr>174</ns3:hr>
            <ns3:cad>84</ns3:cad>
          </ns3:TrackPointExtension>
        </extensions>
      </trkpt>
      <trkpt lat="23.18206169642508029937744140625" lon="113.26587192714214324951171875">
        <ele>12.3999996185302734375</ele>
        <time>2018-08-04T13:06:47.000Z</time>
        <extensions>
          <ns3:TrackPointExtension>
            <ns3:hr>177</ns3:hr>
            <ns3:cad>83</ns3:cad>
          </ns3:TrackPointExtension>
        </extensions>
      </trkpt>
      <trkpt lat="23.181901015341281890869140625" lon="113.26587972231209278106689453125">
        <ele>11.19999980926513671875</ele>
        <time>2018-08-04T13:06:49.000Z</time>
        <extensions>
          <ns3:TrackPointExtension>
            <ns3:hr>180</ns3:hr>
            <ns3:cad>83</ns3:cad>
          </ns3:TrackPointExtension>
        </extensions>
      </trkpt>
      <trkpt lat="23.1816936470568180084228515625" lon="113.26587821356952190399169921875">
        <ele>9.19999980926513671875</ele>
        <time>2018-08-04T13:06:50.000Z</time>
        <extensions>
          <ns3:TrackPointExtension>
            <ns3:hr>179</ns3:hr>
            <ns3:cad>83</ns3:cad>
          </ns3:TrackPointExtension>
        </extensions>
      </trkpt>
      <trkpt lat="23.1813452951610088348388671875" lon="113.2658523134887218475341796875">
        <ele>9.6000003814697265625</ele>
        <time>2018-08-04T13:06:54.000Z</time>
        <extensions>
          <ns3:TrackPointExtension>
            <ns3:hr>180</ns3:hr>
            <ns3:cad>84</ns3:cad>
          </ns3:TrackPointExtension>
        </extensions>
      </trkpt>
      <trkpt lat="23.1810908205807209014892578125" lon="113.26577997766435146331787109375">
        <ele>10.6000003814697265625</ele>
        <time>2018-08-04T13:06:58.000Z</time>
        <extensions>
          <ns3:TrackPointExtension>
            <ns3:hr>182</ns3:hr>
            <ns3:cad>84</ns3:cad>
          </ns3:TrackPointExtension>
        </extensions>
      </trkpt>
      <trkpt lat="23.180917315185070037841796875" lon="113.265694566071033477783203125">
        <ele>12</ele>
        <time>2018-08-04T13:07:04.000Z</time>
        <extensions>
          <ns3:TrackPointExtension>
            <ns3:hr>180</ns3:hr>
            <ns3:cad>83</ns3:cad>
          </ns3:TrackPointExtension>
        </extensions>
      </trkpt>
      <trkpt lat="23.18089175038039684295654296875" lon="113.26567738316953182220458984375">
        <ele>12.19999980926513671875</ele>
        <time>2018-08-04T13:07:05.000Z</time>
        <extensions>
          <ns3:TrackPointExtension>
            <ns3:hr>184</ns3:hr>
            <ns3:cad>83</ns3:cad>
          </ns3:TrackPointExtension>
        </extensions>
      </trkpt>
      <trkpt lat="23.1806891597807407379150390625" lon="113.26557696796953678131103515625">
        <ele>13.6000003814697265625</ele>
        <time>2018-08-04T13:07:12.000Z</time>
        <extensions>
          <ns3:TrackPointExtension>
            <ns3:hr>184</ns3:hr>
            <ns3:cad>82</ns3:cad>
          </ns3:TrackPointExtension>
        </extensions>
      </trkpt>
      <trkpt lat="23.1805101223289966583251953125" lon="113.26546532101929187774658203125">
        <ele>14</ele>
        <time>2018-08-04T13:07:19.000Z</time>
        <extensions>
          <ns3:TrackPointExtension>
            <ns3:hr>183</ns3:hr>
            <ns3:cad>84</ns3:cad>
          </ns3:TrackPointExtension>
        </extensions>
      </trkpt>
      <trkpt lat="23.18040207959711551666259765625" lon="113.2653762213885784149169921875">
        <ele>14</ele>
        <time>2018-08-04T13:07:24.000Z</time>
        <extensions>
          <ns3:TrackPointExtension>
            <ns3:hr>186</ns3:hr>
            <ns3:cad>81</ns3:cad>
          </ns3:TrackPointExtension>
        </extensions>
      </trkpt>
      <trkpt lat="23.18035765551030635833740234375" lon="113.265340514481067657470703125">
        <ele>13.80000019073486328125</ele>
        <time>2018-08-04T13:07:27.000Z</time>
        <extensions>
          <ns3:TrackPointExtension>
            <ns3:hr>185</ns3:hr>
            <ns3:cad>81</ns3:cad>
          </ns3:TrackPointExtension>
        </extensions>
      </trkpt>
      <trkpt lat="23.180322535336017608642578125" lon="113.2652900554239749908447265625">
        <ele>13.6000003814697265625</ele>
        <time>2018-08-04T13:07:30.000Z</time>
        <extensions>
          <ns3:TrackPointExtension>
            <ns3:hr>188</ns3:hr>
            <ns3:cad>82</ns3:cad>
          </ns3:TrackPointExtension>
        </extensions>
      </trkpt>
      <trkpt lat="23.18013603799045085906982421875" lon="113.26520464383065700531005859375">
        <ele>13</ele>
        <time>2018-08-04T13:07:38.000Z</time>
        <extensions>
          <ns3:TrackPointExtension>
            <ns3:hr>187</ns3:hr>
            <ns3:cad>82</ns3:cad>
          </ns3:TrackPointExtension>
        </extensions>
      </trkpt>
      <trkpt lat="23.17996471188962459564208984375" lon="113.2651606388390064239501953125">
        <ele>13</ele>
        <time>2018-08-04T13:07:44.000Z</time>
        <extensions>
          <ns3:TrackPointExtension>
            <ns3:hr>189</ns3:hr>
            <ns3:cad>82</ns3:cad>
          </ns3:TrackPointExtension>
        </extensions>
      </trkpt>
      <trkpt lat="23.17880080081522464752197265625" lon="113.2644416391849517822265625">
        <ele>13.3999996185302734375</ele>
        <time>2018-08-04T13:09:41.000Z</time>
        <extensions>
          <ns3:TrackPointExtension>
            <ns3:hr>148</ns3:hr>
            <ns3:cad>59</ns3:cad>
          </ns3:TrackPointExtension>
        </extensions>
      </trkpt>
      <trkpt lat="23.1787904910743236541748046875" lon="113.26443904079496860504150390625">
        <ele>13.19999980926513671875</ele>
        <time>2018-08-04T13:09:42.000Z</time>
        <extensions>
          <ns3:TrackPointExtension>
            <ns3:hr>148</ns3:hr>
            <ns3:cad>59</ns3:cad>
          </ns3:TrackPointExtension>
        </extensions>
      </trkpt>
      <trkpt lat="23.17866618745028972625732421875" lon="113.264341056346893310546875">
        <ele>10.6000003814697265625</ele>
        <time>2018-08-04T13:09:50.000Z</time>
        <extensions>
          <ns3:TrackPointExtension>
            <ns3:hr>152</ns3:hr>
            <ns3:cad>81</ns3:cad>
          </ns3:TrackPointExtension>
        </extensions>
      </trkpt>
      <trkpt lat="23.17860667593777179718017578125" lon="113.26423284597694873809814453125">
        <ele>9</ele>
        <time>2018-08-04T13:09:55.000Z</time>
        <extensions>
          <ns3:TrackPointExtension>
            <ns3:hr>155</ns3:hr>
            <ns3:cad>82</ns3:cad>
          </ns3:TrackPointExtension>
        </extensions>
      </trkpt>
      <trkpt lat="23.17860650829970836639404296875" lon="113.26417274773120880126953125">
        <ele>8.3999996185302734375</ele>
        <time>2018-08-04T13:09:57.000Z</time>
        <extensions>
          <ns3:TrackPointExtension>
            <ns3:hr>159</ns3:hr>
            <ns3:cad>81</ns3:cad>
          </ns3:TrackPointExtension>
        </extensions>
      </trkpt>
      <trkpt lat="23.1785682030022144317626953125" lon="113.2641286589205265045166015625">
        <ele>7.599999904632568359375</ele>
        <time>2018-08-04T13:09:59.000Z</time>
        <extensions>
          <ns3:TrackPointExtension>
            <ns3:hr>156</ns3:hr>
            <ns3:cad>81</ns3:cad>
          </ns3:TrackPointExtension>
        </extensions>
      </trkpt>
      <trkpt lat="23.17846267484128475189208984375" lon="113.264121115207672119140625">
        <ele>7.599999904632568359375</ele>
        <time>2018-08-04T13:10:05.000Z</time>
        <extensions>
          <ns3:TrackPointExtension>
            <ns3:hr>157</ns3:hr>
            <ns3:cad>81</ns3:cad>
          </ns3:TrackPointExtension>
        </extensions>
      </trkpt>
      <trkpt lat="23.17843920551240444183349609375" lon="113.26412706635892391204833984375">
        <ele>7.80000019073486328125</ele>
        <time>2018-08-04T13:10:06.000Z</time>
        <extensions>
          <ns3:TrackPointExtension>
            <ns3:hr>160</ns3:hr>
            <ns3:cad>81</ns3:cad>
          </ns3:TrackPointExtension>
        </extensions>
      </trkpt>
      <trkpt lat="23.17842076532542705535888671875" lon="113.26412471942603588104248046875">
        <ele>8</ele>
        <time>2018-08-04T13:10:08.000Z</time>
        <extensions>
          <ns3:TrackPointExtension>
            <ns3:hr>163</ns3:hr>
            <ns3:cad>59</ns3:cad>
          </ns3:TrackPointExtension>
        </extensions>
      </trkpt>
      <trkpt lat="23.178406096994876861572265625" lon="113.264125473797321319580078125">
        <ele>8</ele>
        <time>2018-08-04T13:10:10.000Z</time>
        <extensions>
          <ns3:TrackPointExtension>
            <ns3:hr>165</ns3:hr>
            <ns3:cad>0</ns3:cad>
          </ns3:TrackPointExtension>
        </extensions>
      </trkpt>
      <trkpt lat="23.1783874891698360443115234375" lon="113.264127485454082489013671875">
        <ele>8.19999980926513671875</ele>
        <time>2018-08-04T13:10:12.000Z</time>
        <extensions>
          <ns3:TrackPointExtension>
            <ns3:hr>171</ns3:hr>
            <ns3:cad>0</ns3:cad>
          </ns3:TrackPointExtension>
        </extensions>
      </trkpt>
      <trkpt lat="23.17835287190973758697509765625" lon="113.264134861528873443603515625">
        <ele>8.6000003814697265625</ele>
        <time>2018-08-04T13:10:15.000Z</time>
        <extensions>
          <ns3:TrackPointExtension>
            <ns3:hr>168</ns3:hr>
            <ns3:cad>61</ns3:cad>
          </ns3:TrackPointExtension>
        </extensions>
      </trkpt>
      <trkpt lat="23.17833292298018932342529296875" lon="113.2641383819282054901123046875">
        <ele>8.80000019073486328125</ele>
        <time>2018-08-04T13:10:17.000Z</time>
        <extensions>
          <ns3:TrackPointExtension>
            <ns3:hr>165</ns3:hr>
            <ns3:cad>61</ns3:cad>
          </ns3:TrackPointExtension>
        </extensions>
      </trkpt>
      <trkpt lat="23.1783266365528106689453125" lon="113.26413444243371486663818359375">
        <ele>8.80000019073486328125</ele>
        <time>2018-08-04T13:10:18.000Z</time>
        <extensions>
          <ns3:TrackPointExtension>
            <ns3:hr>164</ns3:hr>
            <ns3:cad>61</ns3:cad>
          </ns3:TrackPointExtension>
        </extensions>
      </trkpt>
      <trkpt lat="23.1783268041908740997314453125" lon="113.26413452625274658203125">
        <ele>8.80000019073486328125</ele>
        <time>2018-08-04T13:10:20.000Z</time>
        <extensions>
          <ns3:TrackPointExtension>
            <ns3:hr>162</ns3:hr>
            <ns3:cad>63</ns3:cad>
          </ns3:TrackPointExtension>
        </extensions>
      </trkpt>
      <trkpt lat="23.178251869976520538330078125" lon="113.2641420699656009674072265625">
        <ele>9.3999996185302734375</ele>
        <time>2018-08-04T13:10:39.000Z</time>
        <extensions>
          <ns3:TrackPointExtension>
            <ns3:hr>159</ns3:hr>
            <ns3:cad>0</ns3:cad>
          </ns3:TrackPointExtension>
        </extensions>
      </trkpt>
      <trkpt lat="23.17824549973011016845703125" lon="113.2641340233385562896728515625">
        <ele>9.3999996185302734375</ele>
        <time>2018-08-04T13:10:40.000Z</time>
        <extensions>
          <ns3:TrackPointExtension>
            <ns3:hr>160</ns3:hr>
            <ns3:cad>0</ns3:cad>
          </ns3:TrackPointExtension>
        </extensions>
      </trkpt>
      <trkpt lat="23.1781957112252712249755859375" lon="113.2640753500163555145263671875">
        <ele>9.6000003814697265625</ele>
        <time>2018-08-04T13:10:45.000Z</time>
        <extensions>
          <ns3:TrackPointExtension>
            <ns3:hr>169</ns3:hr>
            <ns3:cad>81</ns3:cad>
          </ns3:TrackPointExtension>
        </extensions>
      </trkpt>
      <trkpt lat="23.1781809590756893157958984375" lon="113.2640580832958221435546875">
        <ele>9.80000019073486328125</ele>
        <time>2018-08-04T13:10:46.000Z</time>
        <extensions>
          <ns3:TrackPointExtension>
            <ns3:hr>169</ns3:hr>
            <ns3:cad>83</ns3:cad>
          </ns3:TrackPointExtension>
        </extensions>
      </trkpt>
      <trkpt lat="23.17801491357386112213134765625" lon="113.26394082047045230865478515625">
        <ele>11.80000019073486328125</ele>
        <time>2018-08-04T13:10:55.000Z</time>
        <extensions>
          <ns3:TrackPointExtension>
            <ns3:hr>169</ns3:hr>
            <ns3:cad>82</ns3:cad>
          </ns3:TrackPointExtension>
        </extensions>
      </trkpt>
      <trkpt lat="23.1778879277408123016357421875" lon="113.263863958418369293212890625">
        <ele>12.80000019073486328125</ele>
        <time>2018-08-04T13:11:01.000Z</time>
        <extensions>
          <ns3:TrackPointExtension>
            <ns3:hr>172</ns3:hr>
            <ns3:cad>82</ns3:cad>
          </ns3:TrackPointExtension>
        </extensions>
      </trkpt>
      <trkpt lat="23.1777759455144405364990234375" lon="113.2637876830995082855224609375">
        <ele>12.80000019073486328125</ele>
        <time>2018-08-04T13:11:06.000Z</time>
        <extensions>
          <ns3:TrackPointExtension>
            <ns3:hr>168</ns3:hr>
            <ns3:cad>82</ns3:cad>
          </ns3:TrackPointExtension>
        </extensions>
      </trkpt>
      <trkpt lat="23.177606128156185150146484375" lon="113.26370646245777606964111328125">
        <ele>13.19999980926513671875</ele>
        <time>2018-08-04T13:11:13.000Z</time>
        <extensions>
          <ns3:TrackPointExtension>
            <ns3:hr>167</ns3:hr>
            <ns3:cad>83</ns3:cad>
          </ns3:TrackPointExtension>
        </extensions>
      </trkpt>
      <trkpt lat="23.17741007544100284576416015625" lon="113.263638652861118316650390625">
        <ele>13.3999996185302734375</ele>
        <time>2018-08-04T13:11:21.000Z</time>
        <extensions>
          <ns3:TrackPointExtension>
            <ns3:hr>168</ns3:hr>
            <ns3:cad>82</ns3:cad>
          </ns3:TrackPointExtension>
        </extensions>
      </trkpt>
      <trkpt lat="23.1772126816213130950927734375" lon="113.2635811530053615570068359375">
        <ele>11.80000019073486328125</ele>
        <time>2018-08-04T13:11:28.000Z</time>
        <extensions>
          <ns3:TrackPointExtension>
            <ns3:hr>170</ns3:hr>
            <ns3:cad>82</ns3:cad>
          </ns3:TrackPointExtension>
        </extensions>
      </trkpt>
      <trkpt lat="23.17703858949244022369384765625" lon="113.26348551549017429351806640625">
        <ele>9.80000019073486328125</ele>
        <time>2018-08-04T13:11:36.000Z</time>
        <extensions>
          <ns3:TrackPointExtension>
            <ns3:hr>173</ns3:hr>
            <ns3:cad>82</ns3:cad>
          </ns3:TrackPointExtension>
        </extensions>
      </trkpt>
      <trkpt lat="23.17692694254219532012939453125" lon="113.2634403370320796966552734375">
        <ele>8.3999996185302734375</ele>
        <time>2018-08-04T13:11:41.000Z</time>
        <extensions>
          <ns3:TrackPointExtension>
            <ns3:hr>177</ns3:hr>
            <ns3:cad>82</ns3:cad>
          </ns3:TrackPointExtension>
        </extensions>
      </trkpt>
      <trkpt lat="23.17675779573619365692138671875" lon="113.26337202452123165130615234375">
        <ele>7.80000019073486328125</ele>
        <time>2018-08-04T13:11:49.000Z</time>
        <extensions>
          <ns3:TrackPointExtension>
            <ns3:hr>175</ns3:hr>
            <ns3:cad>83</ns3:cad>
          </ns3:TrackPointExtension>
        </extensions>
      </trkpt>
      <trkpt lat="23.176721669733524322509765625" lon="113.263347633183002471923828125">
        <ele>7.80000019073486328125</ele>
        <time>2018-08-04T13:11:51.000Z</time>
        <extensions>
          <ns3:TrackPointExtension>
            <ns3:hr>178</ns3:hr>
            <ns3:cad>83</ns3:cad>
          </ns3:TrackPointExtension>
        </extensions>
      </trkpt>
      <trkpt lat="23.17655595950782299041748046875" lon="113.26324193738400936126708984375">
        <ele>8</ele>
        <time>2018-08-04T13:11:59.000Z</time>
        <extensions>
          <ns3:TrackPointExtension>
            <ns3:hr>180</ns3:hr>
            <ns3:cad>82</ns3:cad>
          </ns3:TrackPointExtension>
        </extensions>
      </trkpt>
      <trkpt lat="23.1763969548046588897705078125" lon="113.26310430653393268585205078125">
        <ele>8</ele>
        <time>2018-08-04T13:12:07.000Z</time>
        <extensions>
          <ns3:TrackPointExtension>
            <ns3:hr>181</ns3:hr>
            <ns3:cad>81</ns3:cad>
          </ns3:TrackPointExtension>
        </extensions>
      </trkpt>
      <trkpt lat="23.17630223929882049560546875" lon="113.2630225829780101776123046875">
        <ele>8</ele>
        <time>2018-08-04T13:12:11.000Z</time>
        <extensions>
          <ns3:TrackPointExtension>
            <ns3:hr>177</ns3:hr>
            <ns3:cad>79</ns3:cad>
          </ns3:TrackPointExtension>
        </extensions>
      </trkpt>
      <trkpt lat="23.17615899257361888885498046875" lon="113.262874223291873931884765625">
        <ele>8.19999980926513671875</ele>
        <time>2018-08-04T13:12:17.000Z</time>
        <extensions>
          <ns3:TrackPointExtension>
            <ns3:hr>176</ns3:hr>
            <ns3:cad>79</ns3:cad>
          </ns3:TrackPointExtension>
        </extensions>
      </trkpt>
      <trkpt lat="23.17606477998197078704833984375" lon="113.2628296315670013427734375">
        <ele>8</ele>
        <time>2018-08-04T13:12:21.000Z</time>
        <extensions>
          <ns3:TrackPointExtension>
            <ns3:hr>179</ns3:hr>
            <ns3:cad>80</ns3:cad>
          </ns3:TrackPointExtension>
        </extensions>
      </trkpt>
      <trkpt lat="23.17604030482470989227294921875" lon="113.2628090120851993560791015625">
        <ele>8</ele>
        <time>2018-08-04T13:12:22.000Z</time>
        <extensions>
          <ns3:TrackPointExtension>
            <ns3:hr>183</ns3:hr>
            <ns3:cad>80</ns3:cad>
          </ns3:TrackPointExtension>
        </extensions>
      </trkpt>
      <trkpt lat="23.17601432092487812042236328125" lon="113.2627912424504756927490234375">
        <ele>8.19999980926513671875</ele>
        <time>2018-08-04T13:12:23.000Z</time>
        <extensions>
          <ns3:TrackPointExtension>
            <ns3:hr>188</ns3:hr>
            <ns3:cad>80</ns3:cad>
          </ns3:TrackPointExtension>
        </extensions>
      </trkpt>
      <trkpt lat="23.17590686492621898651123046875" lon="113.26271689496934413909912109375">
        <ele>9</ele>
        <time>2018-08-04T13:12:27.000Z</time>
        <extensions>
          <ns3:TrackPointExtension>
            <ns3:hr>184</ns3:hr>
            <ns3:cad>80</ns3:cad>
          </ns3:TrackPointExtension>
        </extensions>
      </trkpt>
      <trkpt lat="23.1758236326277256011962890625" lon="113.26267741620540618896484375">
        <ele>9.3999996185302734375</ele>
        <time>2018-08-04T13:12:30.000Z</time>
        <extensions>
          <ns3:TrackPointExtension>
            <ns3:hr>187</ns3:hr>
            <ns3:cad>80</ns3:cad>
          </ns3:TrackPointExtension>
        </extensions>
      </trkpt>
      <trkpt lat="23.17565993405878543853759765625" lon="113.26256736181676387786865234375">
        <ele>9.3999996185302734375</ele>
        <time>2018-08-04T13:12:36.000Z</time>
        <extensions>
          <ns3:TrackPointExtension>
            <ns3:hr>187</ns3:hr>
            <ns3:cad>81</ns3:cad>
          </ns3:TrackPointExtension>
        </extensions>
      </trkpt>
      <trkpt lat="23.17548525519669055938720703125" lon="113.2625786773860454559326171875">
        <ele>9</ele>
        <time>2018-08-04T13:12:40.000Z</time>
        <extensions>
          <ns3:TrackPointExtension>
            <ns3:hr>190</ns3:hr>
            <ns3:cad>80</ns3:cad>
          </ns3:TrackPointExtension>
        </extensions>
      </trkpt>
      <trkpt lat="23.175245784223079681396484375" lon="113.26261346228420734405517578125">
        <ele>9</ele>
        <time>2018-08-04T13:12:45.000Z</time>
        <extensions>
          <ns3:TrackPointExtension>
            <ns3:hr>190</ns3:hr>
            <ns3:cad>81</ns3:cad>
          </ns3:TrackPointExtension>
        </extensions>
      </trkpt>
      <trkpt lat="23.17509767599403858184814453125" lon="113.26249779202044010162353515625">
        <ele>8.3999996185302734375</ele>
        <time>2018-08-04T13:12:50.000Z</time>
        <extensions>
          <ns3:TrackPointExtension>
            <ns3:hr>190</ns3:hr>
            <ns3:cad>79</ns3:cad>
          </ns3:TrackPointExtension>
        </extensions>
      </trkpt>
      <trkpt lat="23.17491578869521617889404296875" lon="113.26243065297603607177734375">
        <ele>9</ele>
        <time>2018-08-04T13:12:59.000Z</time>
        <extensions>
          <ns3:TrackPointExtension>
            <ns3:hr>189</ns3:hr>
            <ns3:cad>81</ns3:cad>
          </ns3:TrackPointExtension>
        </extensions>
      </trkpt>
      <trkpt lat="23.17472468130290508270263671875" lon="113.2624187506735324859619140625">
        <ele>10.3999996185302734375</ele>
        <time>2018-08-04T13:13:07.000Z</time>
        <extensions>
          <ns3:TrackPointExtension>
            <ns3:hr>188</ns3:hr>
            <ns3:cad>82</ns3:cad>
          </ns3:TrackPointExtension>
        </extensions>
      </trkpt>
      <trkpt lat="23.17455050535500049591064453125" lon="113.26235529966652393341064453125">
        <ele>11</ele>
        <time>2018-08-04T13:13:15.000Z</time>
        <extensions>
          <ns3:TrackPointExtension>
            <ns3:hr>189</ns3:hr>
            <ns3:cad>83</ns3:cad>
          </ns3:TrackPointExtension>
        </extensions>
      </trkpt>
      <trkpt lat="23.174395859241485595703125" lon="113.262245245277881622314453125">
        <ele>10.6000003814697265625</ele>
        <time>2018-08-04T13:13:23.000Z</time>
        <extensions>
          <ns3:TrackPointExtension>
            <ns3:hr>189</ns3:hr>
            <ns3:cad>82</ns3:cad>
          </ns3:TrackPointExtension>
        </extensions>
      </trkpt>
      <trkpt lat="23.17423081956803798675537109375" lon="113.262127228081226348876953125">
        <ele>10.80000019073486328125</ele>
        <time>2018-08-04T13:13:32.000Z</time>
        <extensions>
          <ns3:TrackPointExtension>
            <ns3:hr>189</ns3:hr>
            <ns3:cad>83</ns3:cad>
          </ns3:TrackPointExtension>
        </extensions>
      </trkpt>
      <trkpt lat="23.17403376102447509765625" lon="113.262072242796421051025390625">
        <ele>10.6000003814697265625</ele>
        <time>2018-08-04T13:13:41.000Z</time>
        <extensions>
          <ns3:TrackPointExtension>
            <ns3:hr>189</ns3:hr>
            <ns3:cad>83</ns3:cad>
          </ns3:TrackPointExtension>
        </extensions>
      </trkpt>
      <trkpt lat="23.17384961061179637908935546875" lon="113.26199320144951343536376953125">
        <ele>10.6000003814697265625</ele>
        <time>2018-08-04T13:13:50.000Z</time>
        <extensions>
          <ns3:TrackPointExtension>
            <ns3:hr>190</ns3:hr>
            <ns3:cad>82</ns3:cad>
          </ns3:TrackPointExtension>
        </extensions>
      </trkpt>
      <trkpt lat="23.173688761889934539794921875" lon="113.26187367551028728485107421875">
        <ele>12.19999980926513671875</ele>
        <time>2018-08-04T13:13:58.000Z</time>
        <extensions>
          <ns3:TrackPointExtension>
            <ns3:hr>187</ns3:hr>
            <ns3:cad>81</ns3:cad>
          </ns3:TrackPointExtension>
        </extensions>
      </trkpt>
      <trkpt lat="23.1736771948635578155517578125" lon="113.261842913925647735595703125">
        <ele>12.80000019073486328125</ele>
        <time>2018-08-04T13:13:59.000Z</time>
        <extensions>
          <ns3:TrackPointExtension>
            <ns3:hr>187</ns3:hr>
            <ns3:cad>81</ns3:cad>
          </ns3:TrackPointExtension>
        </extensions>
      </trkpt>
      <trkpt lat="23.17463734187185764312744140625" lon="113.25830432586371898651123046875">
        <ele>5.19999980926513671875</ele>
        <time>2018-08-04T13:20:01.000Z</time>
        <extensions>
          <ns3:TrackPointExtension>
            <ns3:hr>134</ns3:hr>
            <ns3:cad>0</ns3:cad>
          </ns3:TrackPointExtension>
        </extensions>
      </trkpt>
      <trkpt lat="23.17462275736033916473388671875" lon="113.25830273330211639404296875">
        <ele>4.80000019073486328125</ele>
        <time>2018-08-04T13:20:02.000Z</time>
        <extensions>
          <ns3:TrackPointExtension>
            <ns3:hr>135</ns3:hr>
            <ns3:cad>0</ns3:cad>
          </ns3:TrackPointExtension>
        </extensions>
      </trkpt>
      <trkpt lat="23.1746813468635082244873046875" lon="113.25818739831447601318359375">
        <ele>4.19999980926513671875</ele>
        <time>2018-08-04T13:20:09.000Z</time>
        <extensions>
          <ns3:TrackPointExtension>
            <ns3:hr>138</ns3:hr>
            <ns3:cad>0</ns3:cad>
          </ns3:TrackPointExtension>
        </extensions>
      </trkpt>
      <trkpt lat="23.17471696995198726654052734375" lon="113.25815512798726558685302734375">
        <ele>4.19999980926513671875</ele>
        <time>2018-08-04T13:20:11.000Z</time>
        <extensions>
          <ns3:TrackPointExtension>
            <ns3:hr>142</ns3:hr>
            <ns3:cad>80</ns3:cad>
          </ns3:TrackPointExtension>
        </extensions>
      </trkpt>
      <trkpt lat="23.17474027164280414581298828125" lon="113.25817306526005268096923828125">
        <ele>5</ele>
        <time>2018-08-04T13:20:15.000Z</time>
        <extensions>
          <ns3:TrackPointExtension>
            <ns3:hr>145</ns3:hr>
            <ns3:cad>81</ns3:cad>
          </ns3:TrackPointExtension>
        </extensions>
      </trkpt>
      <trkpt lat="23.174807243049144744873046875" lon="113.25812679715454578399658203125">
        <ele>5</ele>
        <time>2018-08-04T13:20:18.000Z</time>
        <extensions>
          <ns3:TrackPointExtension>
            <ns3:hr>149</ns3:hr>
            <ns3:cad>82</ns3:cad>
          </ns3:TrackPointExtension>
        </extensions>
      </trkpt>
      <trkpt lat="23.1748530082404613494873046875" lon="113.25810584239661693572998046875">
        <ele>5.19999980926513671875</ele>
        <time>2018-08-04T13:20:20.000Z</time>
        <extensions>
          <ns3:TrackPointExtension>
            <ns3:hr>146</ns3:hr>
            <ns3:cad>82</ns3:cad>
          </ns3:TrackPointExtension>
        </extensions>
      </trkpt>
      <trkpt lat="23.17497580312192440032958984375" lon="113.2580866478383541107177734375">
        <ele>5.80000019073486328125</ele>
        <time>2018-08-04T13:20:25.000Z</time>
        <extensions>
          <ns3:TrackPointExtension>
            <ns3:hr>149</ns3:hr>
            <ns3:cad>83</ns3:cad>
          </ns3:TrackPointExtension>
        </extensions>
      </trkpt>
      <trkpt lat="23.17500396631658077239990234375" lon="113.25809226371347904205322265625">
        <ele>6</ele>
        <time>2018-08-04T13:20:26.000Z</time>
        <extensions>
          <ns3:TrackPointExtension>
            <ns3:hr>154</ns3:hr>
            <ns3:cad>82</ns3:cad>
          </ns3:TrackPointExtension>
        </extensions>
      </trkpt>
      <trkpt lat="23.17502927966415882110595703125" lon="113.25809955596923828125">
        <ele>6.400000095367431640625</ele>
        <time>2018-08-04T13:20:27.000Z</time>
        <extensions>
          <ns3:TrackPointExtension>
            <ns3:hr>154</ns3:hr>
            <ns3:cad>82</ns3:cad>
          </ns3:TrackPointExtension>
        </extensions>
      </trkpt>
      <trkpt lat="23.17505124025046825408935546875" lon="113.25810533948242664337158203125">
        <ele>6.80000019073486328125</ele>
        <time>2018-08-04T13:20:28.000Z</time>
        <extensions>
          <ns3:TrackPointExtension>
            <ns3:hr>159</ns3:hr>
            <ns3:cad>81</ns3:cad>
          </ns3:TrackPointExtension>
        </extensions>
      </trkpt>
      <trkpt lat="23.1750776432454586029052734375" lon="113.25811154209077358245849609375">
        <ele>7.599999904632568359375</ele>
        <time>2018-08-04T13:20:29.000Z</time>
        <extensions>
          <ns3:TrackPointExtension>
            <ns3:hr>159</ns3:hr>
            <ns3:cad>81</ns3:cad>
          </ns3:TrackPointExtension>
        </extensions>
      </trkpt>
      <trkpt lat="23.17519591189920902252197265625" lon="113.258150853216648101806640625">
        <ele>10.19999980926513671875</ele>
        <time>2018-08-04T13:20:34.000Z</time>
        <extensions>
          <ns3:TrackPointExtension>
            <ns3:hr>163</ns3:hr>
            <ns3:cad>81</ns3:cad>
          </ns3:TrackPointExtension>
        </extensions>
      </trkpt>
      <trkpt lat="23.17531208507716655731201171875" lon="113.25820642523467540740966796875">
        <ele>10.19999980926513671875</ele>
        <time>2018-08-04T13:20:38.000Z</time>
        <extensions>
          <ns3:TrackPointExtension>
            <ns3:hr>166</ns3:hr>
            <ns3:cad>82</ns3:cad>
          </ns3:TrackPointExtension>
        </extensions>
      </trkpt>
      <trkpt lat="23.17533907480537891387939453125" lon="113.2582160644233226776123046875">
        <ele>10</ele>
        <time>2018-08-04T13:20:39.000Z</time>
        <extensions>
          <ns3:TrackPointExtension>
            <ns3:hr>162</ns3:hr>
            <ns3:cad>82</ns3:cad>
          </ns3:TrackPointExtension>
        </extensions>
      </trkpt>
      <trkpt lat="23.17542138509452342987060546875" lon="113.25824640691280364990234375">
        <ele>10</ele>
        <time>2018-08-04T13:20:42.000Z</time>
        <extensions>
          <ns3:TrackPointExtension>
            <ns3:hr>167</ns3:hr>
            <ns3:cad>81</ns3:cad>
          </ns3:TrackPointExtension>
        </extensions>
      </trkpt>
      <trkpt lat="23.1754457764327526092529296875" lon="113.258256129920482635498046875">
        <ele>10</ele>
        <time>2018-08-04T13:20:43.000Z</time>
        <extensions>
          <ns3:TrackPointExtension>
            <ns3:hr>172</ns3:hr>
            <ns3:cad>81</ns3:cad>
          </ns3:TrackPointExtension>
        </extensions>
      </trkpt>
      <trkpt lat="23.17546798847615718841552734375" lon="113.25826744548976421356201171875">
        <ele>10</ele>
        <time>2018-08-04T13:20:44.000Z</time>
        <extensions>
          <ns3:TrackPointExtension>
            <ns3:hr>172</ns3:hr>
            <ns3:cad>81</ns3:cad>
          </ns3:TrackPointExtension>
        </extensions>
      </trkpt>
      <trkpt lat="23.1755721755325794219970703125" lon="113.2583253644406795501708984375">
        <ele>10.6000003814697265625</ele>
        <time>2018-08-04T13:20:48.000Z</time>
        <extensions>
          <ns3:TrackPointExtension>
            <ns3:hr>177</ns3:hr>
            <ns3:cad>82</ns3:cad>
          </ns3:TrackPointExtension>
        </extensions>
      </trkpt>
      <trkpt lat="23.17568021826446056365966796875" lon="113.25838026590645313262939453125">
        <ele>11.3999996185302734375</ele>
        <time>2018-08-04T13:20:53.000Z</time>
        <extensions>
          <ns3:TrackPointExtension>
            <ns3:hr>174</ns3:hr>
            <ns3:cad>82</ns3:cad>
          </ns3:TrackPointExtension>
        </extensions>
      </trkpt>
      <trkpt lat="23.17586294375360012054443359375" lon="113.25842678546905517578125">
        <ele>15</ele>
        <time>2018-08-04T13:21:00.000Z</time>
        <extensions>
          <ns3:TrackPointExtension>
            <ns3:hr>174</ns3:hr>
            <ns3:cad>81</ns3:cad>
          </ns3:TrackPointExtension>
        </extensions>
      </trkpt>
      <trkpt lat="23.17602102644741535186767578125" lon="113.258531056344509124755859375">
        <ele>17.6000003814697265625</ele>
        <time>2018-08-04T13:21:07.000Z</time>
        <extensions>
          <ns3:TrackPointExtension>
            <ns3:hr>173</ns3:hr>
            <ns3:cad>84</ns3:cad>
          </ns3:TrackPointExtension>
        </extensions>
      </trkpt>
      <trkpt lat="23.17604265175759792327880859375" lon="113.25854287482798099517822265625">
        <ele>18.3999996185302734375</ele>
        <time>2018-08-04T13:21:08.000Z</time>
        <extensions>
          <ns3:TrackPointExtension>
            <ns3:hr>169</ns3:hr>
            <ns3:cad>84</ns3:cad>
          </ns3:TrackPointExtension>
        </extensions>
      </trkpt>
      <trkpt lat="23.1761555559933185577392578125" lon="113.25860942713916301727294921875">
        <ele>22.799999237060546875</ele>
        <time>2018-08-04T13:21:13.000Z</time>
        <extensions>
          <ns3:TrackPointExtension>
            <ns3:hr>172</ns3:hr>
            <ns3:cad>82</ns3:cad>
          </ns3:TrackPointExtension>
        </extensions>
      </trkpt>
      <trkpt lat="23.17617609165608882904052734375" lon="113.2586234249174594879150390625">
        <ele>23.6000003814697265625</ele>
        <time>2018-08-04T13:21:14.000Z</time>
        <extensions>
          <ns3:TrackPointExtension>
            <ns3:hr>176</ns3:hr>
            <ns3:cad>83</ns3:cad>
          </ns3:TrackPointExtension>
        </extensions>
      </trkpt>
      <trkpt lat="23.17620006389915943145751953125" lon="113.25863591395318508148193359375">
        <ele>24.6000003814697265625</ele>
        <time>2018-08-04T13:21:15.000Z</time>
        <extensions>
          <ns3:TrackPointExtension>
            <ns3:hr>176</ns3:hr>
            <ns3:cad>83</ns3:cad>
          </ns3:TrackPointExtension>
        </extensions>
      </trkpt>
      <trkpt lat="23.176292516291141510009765625" lon="113.25867933221161365509033203125">
        <ele>28.799999237060546875</ele>
        <time>2018-08-04T13:21:19.000Z</time>
        <extensions>
          <ns3:TrackPointExtension>
            <ns3:hr>173</ns3:hr>
            <ns3:cad>82</ns3:cad>
          </ns3:TrackPointExtension>
        </extensions>
      </trkpt>
      <trkpt lat="23.176324367523193359375" lon="113.2587126083672046661376953125">
        <ele>28.6000003814697265625</ele>
        <time>2018-08-04T13:21:21.000Z</time>
        <extensions>
          <ns3:TrackPointExtension>
            <ns3:hr>177</ns3:hr>
            <ns3:cad>82</ns3:cad>
          </ns3:TrackPointExtension>
        </extensions>
      </trkpt>
      <trkpt lat="23.17636200226843357086181640625" lon="113.2587799988687038421630859375">
        <ele>26.799999237060546875</ele>
        <time>2018-08-04T13:21:24.000Z</time>
        <extensions>
          <ns3:TrackPointExtension>
            <ns3:hr>180</ns3:hr>
            <ns3:cad>83</ns3:cad>
          </ns3:TrackPointExtension>
        </extensions>
      </trkpt>
      <trkpt lat="23.1764345057308673858642578125" lon="113.2588423602283000946044921875">
        <ele>26.799999237060546875</ele>
        <time>2018-08-04T13:21:28.000Z</time>
        <extensions>
          <ns3:TrackPointExtension>
            <ns3:hr>177</ns3:hr>
            <ns3:cad>81</ns3:cad>
          </ns3:TrackPointExtension>
        </extensions>
      </trkpt>
      <trkpt lat="23.17658261395990848541259765625" lon="113.25890279375016689300537109375">
        <ele>29.3999996185302734375</ele>
        <time>2018-08-04T13:21:35.000Z</time>
        <extensions>
          <ns3:TrackPointExtension>
            <ns3:hr>174</ns3:hr>
            <ns3:cad>83</ns3:cad>
          </ns3:TrackPointExtension>
        </extensions>
      </trkpt>
      <trkpt lat="23.176762573421001434326171875" lon="113.25899231247603893280029296875">
        <ele>25.3999996185302734375</ele>
        <time>2018-08-04T13:21:43.000Z</time>
        <extensions>
          <ns3:TrackPointExtension>
            <ns3:hr>176</ns3:hr>
            <ns3:cad>83</ns3:cad>
          </ns3:TrackPointExtension>
        </extensions>
      </trkpt>
      <trkpt lat="23.17690380848944187164306640625" lon="113.25907160528004169464111328125">
        <ele>21.3999996185302734375</ele>
        <time>2018-08-04T13:21:50.000Z</time>
        <extensions>
          <ns3:TrackPointExtension>
            <ns3:hr>179</ns3:hr>
            <ns3:cad>83</ns3:cad>
          </ns3:TrackPointExtension>
        </extensions>
      </trkpt>
      <trkpt lat="23.17693918012082576751708984375" lon="113.25909934937953948974609375">
        <ele>20.799999237060546875</ele>
        <time>2018-08-04T13:21:52.000Z</time>
        <extensions>
          <ns3:TrackPointExtension>
            <ns3:hr>176</ns3:hr>
            <ns3:cad>84</ns3:cad>
          </ns3:TrackPointExtension>
        </extensions>
      </trkpt>
      <trkpt lat="23.1770644895732402801513671875" lon="113.25916095636785030364990234375">
        <ele>18.3999996185302734375</ele>
        <time>2018-08-04T13:21:58.000Z</time>
        <extensions>
          <ns3:TrackPointExtension>
            <ns3:hr>181</ns3:hr>
            <ns3:cad>84</ns3:cad>
          </ns3:TrackPointExtension>
        </extensions>
      </trkpt>
      <trkpt lat="23.1771040521562099456787109375" lon="113.25918652117252349853515625">
        <ele>17.3999996185302734375</ele>
        <time>2018-08-04T13:22:00.000Z</time>
        <extensions>
          <ns3:TrackPointExtension>
            <ns3:hr>184</ns3:hr>
            <ns3:cad>84</ns3:cad>
          </ns3:TrackPointExtension>
        </extensions>
      </trkpt>
      <trkpt lat="23.17726691253483295440673828125" lon="113.259281404316425323486328125">
        <ele>17</ele>
        <time>2018-08-04T13:22:07.000Z</time>
        <extensions>
          <ns3:TrackPointExtension>
            <ns3:hr>183</ns3:hr>
            <ns3:cad>83</ns3:cad>
          </ns3:TrackPointExtension>
        </extensions>
      </trkpt>
      <trkpt lat="23.17740303464233875274658203125" lon="113.25934988446533679962158203125">
        <ele>16.799999237060546875</ele>
        <time>2018-08-04T13:22:12.000Z</time>
        <extensions>
          <ns3:TrackPointExtension>
            <ns3:hr>180</ns3:hr>
            <ns3:cad>84</ns3:cad>
          </ns3:TrackPointExtension>
        </extensions>
      </trkpt>
      <trkpt lat="23.17754234187304973602294921875" lon="113.25942917726933956146240234375">
        <ele>14.3999996185302734375</ele>
        <time>2018-08-04T13:22:19.000Z</time>
        <extensions>
          <ns3:TrackPointExtension>
            <ns3:hr>183</ns3:hr>
            <ns3:cad>83</ns3:cad>
          </ns3:TrackPointExtension>
        </extensions>
      </trkpt>
      <trkpt lat="23.1776559166610240936279296875" lon="113.25948215089738368988037109375">
        <ele>12</ele>
        <time>2018-08-04T13:22:24.000Z</time>
        <extensions>
          <ns3:TrackPointExtension>
            <ns3:hr>186</ns3:hr>
            <ns3:cad>84</ns3:cad>
          </ns3:TrackPointExtension>
        </extensions>
      </trkpt>
      <trkpt lat="23.17781508900225162506103515625" lon="113.259577788412570953369140625">
        <ele>7.400000095367431640625</ele>
        <time>2018-08-04T13:22:32.000Z</time>
        <extensions>
          <ns3:TrackPointExtension>
            <ns3:hr>184</ns3:hr>
            <ns3:cad>83</ns3:cad>
          </ns3:TrackPointExtension>
        </extensions>
      </trkpt>
      <trkpt lat="23.1779720820486545562744140625" lon="113.2597129046916961669921875">
        <ele>2</ele>
        <time>2018-08-04T13:22:41.000Z</time>
        <extensions>
          <ns3:TrackPointExtension>
            <ns3:hr>184</ns3:hr>
            <ns3:cad>83</ns3:cad>
          </ns3:TrackPointExtension>
        </extensions>
      </trkpt>
      <trkpt lat="23.17802689969539642333984375" lon="113.2597683928906917572021484375">
        <ele>0</ele>
        <time>2018-08-04T13:22:45.000Z</time>
        <extensions>
          <ns3:TrackPointExtension>
            <ns3:hr>182</ns3:hr>
            <ns3:cad>82</ns3:cad>
          </ns3:TrackPointExtension>
        </extensions>
      </trkpt>
      <trkpt lat="23.17820518277585506439208984375" lon="113.2598532177507877349853515625">
        <ele>-4.400000095367431640625</ele>
        <time>2018-08-04T13:22:55.000Z</time>
        <extensions>
          <ns3:TrackPointExtension>
            <ns3:hr>183</ns3:hr>
            <ns3:cad>83</ns3:cad>
          </ns3:TrackPointExtension>
        </extensions>
      </trkpt>
      <trkpt lat="23.17839293740689754486083984375" lon="113.259918428957462310791015625">
        <ele>-4.400000095367431640625</ele>
        <time>2018-08-04T13:23:04.000Z</time>
        <extensions>
          <ns3:TrackPointExtension>
            <ns3:hr>185</ns3:hr>
            <ns3:cad>83</ns3:cad>
          </ns3:TrackPointExtension>
        </extensions>
      </trkpt>
      <trkpt lat="23.1785457395017147064208984375" lon="113.260049186646938323974609375">
        <ele>0.800000011920928955078125</ele>
        <time>2018-08-04T13:23:12.000Z</time>
        <extensions>
          <ns3:TrackPointExtension>
            <ns3:hr>185</ns3:hr>
            <ns3:cad>82</ns3:cad>
          </ns3:TrackPointExtension>
        </extensions>
      </trkpt>
      <trkpt lat="23.17871983163058757781982421875" lon="113.26014867983758449554443359375">
        <ele>9.6000003814697265625</ele>
        <time>2018-08-04T13:23:20.000Z</time>
        <extensions>
          <ns3:TrackPointExtension>
            <ns3:hr>184</ns3:hr>
            <ns3:cad>82</ns3:cad>
          </ns3:TrackPointExtension>
        </extensions>
      </trkpt>
      <trkpt lat="23.178741037845611572265625" lon="113.26016024686396121978759765625">
        <ele>10.6000003814697265625</ele>
        <time>2018-08-04T13:23:21.000Z</time>
        <extensions>
          <ns3:TrackPointExtension>
            <ns3:hr>187</ns3:hr>
            <ns3:cad>83</ns3:cad>
          </ns3:TrackPointExtension>
        </extensions>
      </trkpt>
      <trkpt lat="23.1789014674723148345947265625" lon="113.26024456880986690521240234375">
        <ele>14.19999980926513671875</ele>
        <time>2018-08-04T13:23:29.000Z</time>
        <extensions>
          <ns3:TrackPointExtension>
            <ns3:hr>186</ns3:hr>
            <ns3:cad>82</ns3:cad>
          </ns3:TrackPointExtension>
        </extensions>
      </trkpt>
      <trkpt lat="23.18051087670028209686279296875" lon="113.26124536804854869842529296875">
        <ele>33.799999237060546875</ele>
        <time>2018-08-04T13:27:47.000Z</time>
        <extensions>
          <ns3:TrackPointExtension>
            <ns3:hr>146</ns3:hr>
            <ns3:cad>61</ns3:cad>
          </ns3:TrackPointExtension>
        </extensions>
      </trkpt>
      <trkpt lat="23.1805201806128025054931640625" lon="113.2612513191998004913330078125">
        <ele>34.200000762939453125</ele>
        <time>2018-08-04T13:27:48.000Z</time>
        <extensions>
          <ns3:TrackPointExtension>
            <ns3:hr>146</ns3:hr>
            <ns3:cad>61</ns3:cad>
          </ns3:TrackPointExtension>
        </extensions>
      </trkpt>
      <trkpt lat="23.1807126291096210479736328125" lon="113.261298425495624542236328125">
        <ele>47.799999237060546875</ele>
        <time>2018-08-04T13:27:57.000Z</time>
        <extensions>
          <ns3:TrackPointExtension>
            <ns3:hr>144</ns3:hr>
            <ns3:cad>83</ns3:cad>
          </ns3:TrackPointExtension>
        </extensions>
      </trkpt>
      <trkpt lat="23.1807594001293182373046875" lon="113.261310160160064697265625">
        <ele>51.40000152587890625</ele>
        <time>2018-08-04T13:27:59.000Z</time>
        <extensions>
          <ns3:TrackPointExtension>
            <ns3:hr>147</ns3:hr>
            <ns3:cad>82</ns3:cad>
          </ns3:TrackPointExtension>
        </extensions>
      </trkpt>
      <trkpt lat="23.180844895541667938232421875" lon="113.2613532431423664093017578125">
        <ele>56</ele>
        <time>2018-08-04T13:28:03.000Z</time>
        <extensions>
          <ns3:TrackPointExtension>
            <ns3:hr>151</ns3:hr>
            <ns3:cad>82</ns3:cad>
          </ns3:TrackPointExtension>
        </extensions>
      </trkpt>
      <trkpt lat="23.1808846257627010345458984375" lon="113.2613810710608959197998046875">
        <ele>57.59999847412109375</ele>
        <time>2018-08-04T13:28:05.000Z</time>
        <extensions>
          <ns3:TrackPointExtension>
            <ns3:hr>155</ns3:hr>
            <ns3:cad>82</ns3:cad>
          </ns3:TrackPointExtension>
        </extensions>
      </trkpt>
      <trkpt lat="23.18090432323515415191650390625" lon="113.26139406301081180572509765625">
        <ele>58.40000152587890625</ele>
        <time>2018-08-04T13:28:06.000Z</time>
        <extensions>
          <ns3:TrackPointExtension>
            <ns3:hr>162</ns3:hr>
            <ns3:cad>82</ns3:cad>
          </ns3:TrackPointExtension>
        </extensions>
      </trkpt>
      <trkpt lat="23.180926702916622161865234375" lon="113.261405713856220245361328125">
        <ele>59.59999847412109375</ele>
        <time>2018-08-04T13:28:07.000Z</time>
        <extensions>
          <ns3:TrackPointExtension>
            <ns3:hr>162</ns3:hr>
            <ns3:cad>82</ns3:cad>
          </ns3:TrackPointExtension>
        </extensions>
      </trkpt>
      <trkpt lat="23.1810049898922443389892578125" lon="113.261464051902294158935546875">
        <ele>62</ele>
        <time>2018-08-04T13:28:11.000Z</time>
        <extensions>
          <ns3:TrackPointExtension>
            <ns3:hr>167</ns3:hr>
            <ns3:cad>83</ns3:cad>
          </ns3:TrackPointExtension>
        </extensions>
      </trkpt>
      <trkpt lat="23.18112216889858245849609375" lon="113.26153052039444446563720703125">
        <ele>61.200000762939453125</ele>
        <time>2018-08-04T13:28:17.000Z</time>
        <extensions>
          <ns3:TrackPointExtension>
            <ns3:hr>163</ns3:hr>
            <ns3:cad>83</ns3:cad>
          </ns3:TrackPointExtension>
        </extensions>
      </trkpt>
      <trkpt lat="23.18113767541944980621337890625" lon="113.261541165411472320556640625">
        <ele>60.799999237060546875</ele>
        <time>2018-08-04T13:28:18.000Z</time>
        <extensions>
          <ns3:TrackPointExtension>
            <ns3:hr>169</ns3:hr>
            <ns3:cad>83</ns3:cad>
          </ns3:TrackPointExtension>
        </extensions>
      </trkpt>
      <trkpt lat="23.18115795962512493133544921875" lon="113.26155315153300762176513671875">
        <ele>60.40000152587890625</ele>
        <time>2018-08-04T13:28:19.000Z</time>
        <extensions>
          <ns3:TrackPointExtension>
            <ns3:hr>173</ns3:hr>
            <ns3:cad>83</ns3:cad>
          </ns3:TrackPointExtension>
        </extensions>
      </trkpt>
      <trkpt lat="23.18117908202111721038818359375" lon="113.26156471855938434600830078125">
        <ele>60.200000762939453125</ele>
        <time>2018-08-04T13:28:20.000Z</time>
        <extensions>
          <ns3:TrackPointExtension>
            <ns3:hr>173</ns3:hr>
            <ns3:cad>83</ns3:cad>
          </ns3:TrackPointExtension>
        </extensions>
      </trkpt>
      <trkpt lat="23.18120263516902923583984375" lon="113.2615762017667293548583984375">
        <ele>60</ele>
        <time>2018-08-04T13:28:21.000Z</time>
        <extensions>
          <ns3:TrackPointExtension>
            <ns3:hr>176</ns3:hr>
            <ns3:cad>83</ns3:cad>
          </ns3:TrackPointExtension>
        </extensions>
      </trkpt>
      <trkpt lat="23.1813379190862178802490234375" lon="113.261650465428829193115234375">
        <ele>59.40000152587890625</ele>
        <time>2018-08-04T13:28:27.000Z</time>
        <extensions>
          <ns3:TrackPointExtension>
            <ns3:hr>173</ns3:hr>
            <ns3:cad>82</ns3:cad>
          </ns3:TrackPointExtension>
        </extensions>
      </trkpt>
      <trkpt lat="23.18138477392494678497314453125" lon="113.26167401857674121856689453125">
        <ele>58.59999847412109375</ele>
        <time>2018-08-04T13:28:29.000Z</time>
        <extensions>
          <ns3:TrackPointExtension>
            <ns3:hr>170</ns3:hr>
            <ns3:cad>82</ns3:cad>
          </ns3:TrackPointExtension>
        </extensions>
      </trkpt>
      <trkpt lat="23.18150698207318782806396484375" lon="113.26173126697540283203125">
        <ele>51</ele>
        <time>2018-08-04T13:28:34.000Z</time>
        <extensions>
          <ns3:TrackPointExtension>
            <ns3:hr>174</ns3:hr>
            <ns3:cad>83</ns3:cad>
          </ns3:TrackPointExtension>
        </extensions>
      </trkpt>
      <trkpt lat="23.1815488077700138092041015625" lon="113.26175875961780548095703125">
        <ele>49</ele>
        <time>2018-08-04T13:28:36.000Z</time>
        <extensions>
          <ns3:TrackPointExtension>
            <ns3:hr>178</ns3:hr>
            <ns3:cad>84</ns3:cad>
          </ns3:TrackPointExtension>
        </extensions>
      </trkpt>
      <trkpt lat="23.18160538561642169952392578125" lon="113.2617974840104579925537109375">
        <ele>48.40000152587890625</ele>
        <time>2018-08-04T13:28:39.000Z</time>
        <extensions>
          <ns3:TrackPointExtension>
            <ns3:hr>175</ns3:hr>
            <ns3:cad>83</ns3:cad>
          </ns3:TrackPointExtension>
        </extensions>
      </trkpt>
      <trkpt lat="23.18165014497935771942138671875" lon="113.2618226297199726104736328125">
        <ele>49</ele>
        <time>2018-08-04T13:28:41.000Z</time>
        <extensions>
          <ns3:TrackPointExtension>
            <ns3:hr>172</ns3:hr>
            <ns3:cad>82</ns3:cad>
          </ns3:TrackPointExtension>
        </extensions>
      </trkpt>
      <trkpt lat="23.18174854852259159088134765625" lon="113.26187074184417724609375">
        <ele>49.799999237060546875</ele>
        <time>2018-08-04T13:28:45.000Z</time>
        <extensions>
          <ns3:TrackPointExtension>
            <ns3:hr>175</ns3:hr>
            <ns3:cad>82</ns3:cad>
          </ns3:TrackPointExtension>
        </extensions>
      </trkpt>
      <trkpt lat="23.18186773918569087982177734375" lon="113.26194006018340587615966796875">
        <ele>41.59999847412109375</ele>
        <time>2018-08-04T13:28:50.000Z</time>
        <extensions>
          <ns3:TrackPointExtension>
            <ns3:hr>178</ns3:hr>
            <ns3:cad>84</ns3:cad>
          </ns3:TrackPointExtension>
        </extensions>
      </trkpt>
      <trkpt lat="23.1819940544664859771728515625" lon="113.2620278187096118927001953125">
        <ele>28.799999237060546875</ele>
        <time>2018-08-04T13:28:56.000Z</time>
        <extensions>
          <ns3:TrackPointExtension>
            <ns3:hr>175</ns3:hr>
            <ns3:cad>83</ns3:cad>
          </ns3:TrackPointExtension>
        </extensions>
      </trkpt>
      <trkpt lat="23.18201408721506595611572265625" lon="113.26204240322113037109375">
        <ele>26.6000003814697265625</ele>
        <time>2018-08-04T13:28:57.000Z</time>
        <extensions>
          <ns3:TrackPointExtension>
            <ns3:hr>178</ns3:hr>
            <ns3:cad>83</ns3:cad>
          </ns3:TrackPointExtension>
        </extensions>
      </trkpt>
      <trkpt lat="23.18210125900804996490478515625" lon="113.2621027529239654541015625">
        <ele>16.799999237060546875</ele>
        <time>2018-08-04T13:29:02.000Z</time>
        <extensions>
          <ns3:TrackPointExtension>
            <ns3:hr>179</ns3:hr>
            <ns3:cad>83</ns3:cad>
          </ns3:TrackPointExtension>
        </extensions>
      </trkpt>
      <trkpt lat="23.18213696591556072235107421875" lon="113.262111134827136993408203125">
        <ele>13.6000003814697265625</ele>
        <time>2018-08-04T13:29:04.000Z</time>
        <extensions>
          <ns3:TrackPointExtension>
            <ns3:hr>178</ns3:hr>
            <ns3:cad>82</ns3:cad>
          </ns3:TrackPointExtension>
        </extensions>
      </trkpt>
      <trkpt lat="23.1821724213659763336181640625" lon="113.26214156113564968109130859375">
        <ele>12.80000019073486328125</ele>
        <time>2018-08-04T13:29:06.000Z</time>
        <extensions>
          <ns3:TrackPointExtension>
            <ns3:hr>173</ns3:hr>
            <ns3:cad>80</ns3:cad>
          </ns3:TrackPointExtension>
        </extensions>
      </trkpt>
      <trkpt lat="23.18223721347749233245849609375" lon="113.262170813977718353271484375">
        <ele>13.19999980926513671875</ele>
        <time>2018-08-04T13:29:09.000Z</time>
        <extensions>
          <ns3:TrackPointExtension>
            <ns3:hr>170</ns3:hr>
            <ns3:cad>80</ns3:cad>
          </ns3:TrackPointExtension>
        </extensions>
      </trkpt>
      <trkpt lat="23.18238951265811920166015625" lon="113.26228891499340534210205078125">
        <ele>17.6000003814697265625</ele>
        <time>2018-08-04T13:29:17.000Z</time>
        <extensions>
          <ns3:TrackPointExtension>
            <ns3:hr>170</ns3:hr>
            <ns3:cad>81</ns3:cad>
          </ns3:TrackPointExtension>
        </extensions>
      </trkpt>
      <trkpt lat="23.18242597393691539764404296875" lon="113.26230349950492382049560546875">
        <ele>18.799999237060546875</ele>
        <time>2018-08-04T13:29:20.000Z</time>
        <extensions>
          <ns3:TrackPointExtension>
            <ns3:hr>176</ns3:hr>
            <ns3:cad>81</ns3:cad>
          </ns3:TrackPointExtension>
        </extensions>
      </trkpt>
      <trkpt lat="23.1824362836778163909912109375" lon="113.262311629951000213623046875">
        <ele>19.6000003814697265625</ele>
        <time>2018-08-04T13:29:21.000Z</time>
        <extensions>
          <ns3:TrackPointExtension>
            <ns3:hr>179</ns3:hr>
            <ns3:cad>81</ns3:cad>
          </ns3:TrackPointExtension>
        </extensions>
      </trkpt>
      <trkpt lat="23.18244659341871738433837890625" lon="113.26231858693063259124755859375">
        <ele>20.200000762939453125</ele>
        <time>2018-08-04T13:29:22.000Z</time>
        <extensions>
          <ns3:TrackPointExtension>
            <ns3:hr>179</ns3:hr>
            <ns3:cad>81</ns3:cad>
          </ns3:TrackPointExtension>
        </extensions>
      </trkpt>
      <trkpt lat="23.1825833022594451904296875" lon="113.26244967989623546600341796875">
        <ele>28.200000762939453125</ele>
        <time>2018-08-04T13:29:38.000Z</time>
        <extensions>
          <ns3:TrackPointExtension>
            <ns3:hr>181</ns3:hr>
            <ns3:cad>61</ns3:cad>
          </ns3:TrackPointExtension>
        </extensions>
      </trkpt>
      <trkpt lat="23.18268279545009136199951171875" lon="113.262525536119937896728515625">
        <ele>26.3999996185302734375</ele>
        <time>2018-08-04T13:29:48.000Z</time>
        <extensions>
          <ns3:TrackPointExtension>
            <ns3:hr>178</ns3:hr>
            <ns3:cad>57</ns3:cad>
          </ns3:TrackPointExtension>
        </extensions>
      </trkpt>
      <trkpt lat="23.1827152334153652191162109375" lon="113.262544311583042144775390625">
        <ele>26.799999237060546875</ele>
        <time>2018-08-04T13:29:51.000Z</time>
        <extensions>
          <ns3:TrackPointExtension>
            <ns3:hr>175</ns3:hr>
            <ns3:cad>55</ns3:cad>
          </ns3:TrackPointExtension>
        </extensions>
      </trkpt>
      <trkpt lat="23.18278756923973560333251953125" lon="113.26258328743278980255126953125">
        <ele>28.200000762939453125</ele>
        <time>2018-08-04T13:29:57.000Z</time>
        <extensions>
          <ns3:TrackPointExtension>
            <ns3:hr>172</ns3:hr>
            <ns3:cad>55</ns3:cad>
          </ns3:TrackPointExtension>
        </extensions>
      </trkpt>
      <trkpt lat="23.18283132277429103851318359375" lon="113.26261949725449085235595703125">
        <ele>28</ele>
        <time>2018-08-04T13:30:01.000Z</time>
        <extensions>
          <ns3:TrackPointExtension>
            <ns3:hr>169</ns3:hr>
            <ns3:cad>55</ns3:cad>
          </ns3:TrackPointExtension>
        </extensions>
      </trkpt>
      <trkpt lat="23.18288379348814487457275390625" lon="113.26265822164714336395263671875">
        <ele>28.200000762939453125</ele>
        <time>2018-08-04T13:30:06.000Z</time>
        <extensions>
          <ns3:TrackPointExtension>
            <ns3:hr>165</ns3:hr>
            <ns3:cad>61</ns3:cad>
          </ns3:TrackPointExtension>
        </extensions>
      </trkpt>
      <trkpt lat="23.18294347263872623443603515625" lon="113.262696526944637298583984375">
        <ele>28.799999237060546875</ele>
        <time>2018-08-04T13:30:12.000Z</time>
        <extensions>
          <ns3:TrackPointExtension>
            <ns3:hr>162</ns3:hr>
            <ns3:cad>60</ns3:cad>
          </ns3:TrackPointExtension>
        </extensions>
      </trkpt>
      <trkpt lat="23.1829894892871379852294921875" lon="113.2627315632998943328857421875">
        <ele>27.6000003814697265625</ele>
        <time>2018-08-04T13:30:17.000Z</time>
        <extensions>
          <ns3:TrackPointExtension>
            <ns3:hr>159</ns3:hr>
            <ns3:cad>60</ns3:cad>
          </ns3:TrackPointExtension>
        </extensions>
      </trkpt>
      <trkpt lat="23.183006756007671356201171875" lon="113.26274690218269824981689453125">
        <ele>26.6000003814697265625</ele>
        <time>2018-08-04T13:30:19.000Z</time>
        <extensions>
          <ns3:TrackPointExtension>
            <ns3:hr>153</ns3:hr>
            <ns3:cad>60</ns3:cad>
          </ns3:TrackPointExtension>
        </extensions>
      </trkpt>
      <trkpt lat="23.18316609598696231842041015625" lon="113.262849748134613037109375">
        <ele>19.6000003814697265625</ele>
        <time>2018-08-04T13:30:35.000Z</time>
        <extensions>
          <ns3:TrackPointExtension>
            <ns3:hr>153</ns3:hr>
            <ns3:cad>61</ns3:cad>
          </ns3:TrackPointExtension>
        </extensions>
      </trkpt>
      <trkpt lat="23.183267600834369659423828125" lon="113.26290967874228954315185546875">
        <ele>15.80000019073486328125</ele>
        <time>2018-08-04T13:30:44.000Z</time>
        <extensions>
          <ns3:TrackPointExtension>
            <ns3:hr>150</ns3:hr>
            <ns3:cad>60</ns3:cad>
          </ns3:TrackPointExtension>
        </extensions>
      </trkpt>
      <trkpt lat="23.18343297578394412994384765625" lon="113.26299726963043212890625">
        <ele>12</ele>
        <time>2018-08-04T13:30:59.000Z</time>
        <extensions>
          <ns3:TrackPointExtension>
            <ns3:hr>149</ns3:hr>
            <ns3:cad>61</ns3:cad>
          </ns3:TrackPointExtension>
        </extensions>
      </trkpt>
      <trkpt lat="23.18349014036357402801513671875" lon="113.26302752830088138580322265625">
        <ele>11.6000003814697265625</ele>
        <time>2018-08-04T13:31:04.000Z</time>
        <extensions>
          <ns3:TrackPointExtension>
            <ns3:hr>145</ns3:hr>
            <ns3:cad>61</ns3:cad>
          </ns3:TrackPointExtension>
        </extensions>
      </trkpt>
      <trkpt lat="23.18350187502801418304443359375" lon="113.26303339563310146331787109375">
        <ele>11.6000003814697265625</ele>
        <time>2018-08-04T13:31:05.000Z</time>
        <extensions>
          <ns3:TrackPointExtension>
            <ns3:hr>146</ns3:hr>
            <ns3:cad>61</ns3:cad>
          </ns3:TrackPointExtension>
        </extensions>
      </trkpt>
      <trkpt lat="23.18433905951678752899169921875" lon="113.26501487754285335540771484375">
        <ele>-1.2000000476837158203125</ele>
        <time>2018-08-04T13:32:59.000Z</time>
        <extensions>
          <ns3:TrackPointExtension>
            <ns3:hr>181</ns3:hr>
            <ns3:cad>84</ns3:cad>
          </ns3:TrackPointExtension>
        </extensions>
      </trkpt>
      <trkpt lat="23.18433822132647037506103515625" lon="113.265038095414638519287109375">
        <ele>-1.7999999523162841796875</ele>
        <time>2018-08-04T13:33:00.000Z</time>
        <extensions>
          <ns3:TrackPointExtension>
            <ns3:hr>181</ns3:hr>
            <ns3:cad>84</ns3:cad>
          </ns3:TrackPointExtension>
        </extensions>
      </trkpt>
      <trkpt lat="23.184239901602268218994140625" lon="113.265221156179904937744140625">
        <ele>-6</ele>
        <time>2018-08-04T13:33:09.000Z</time>
        <extensions>
          <ns3:TrackPointExtension>
            <ns3:hr>176</ns3:hr>
            <ns3:cad>83</ns3:cad>
          </ns3:TrackPointExtension>
        </extensions>
      </trkpt>
      <trkpt lat="23.18420528434216976165771484375" lon="113.26528192497789859771728515625">
        <ele>-8.19999980926513671875</ele>
        <time>2018-08-04T13:33:12.000Z</time>
        <extensions>
          <ns3:TrackPointExtension>
            <ns3:hr>179</ns3:hr>
            <ns3:cad>82</ns3:cad>
          </ns3:TrackPointExtension>
        </extensions>
      </trkpt>
      <trkpt lat="23.18419489078223705291748046875" lon="113.26530321501195430755615234375">
        <ele>-8.80000019073486328125</ele>
        <time>2018-08-04T13:33:13.000Z</time>
        <extensions>
          <ns3:TrackPointExtension>
            <ns3:hr>179</ns3:hr>
            <ns3:cad>82</ns3:cad>
          </ns3:TrackPointExtension>
        </extensions>
      </trkpt>
      <trkpt lat="23.184091709554195404052734375" lon="113.2654801569879055023193359375">
        <ele>-18.3999996185302734375</ele>
        <time>2018-08-04T13:33:20.000Z</time>
        <extensions>
          <ns3:TrackPointExtension>
            <ns3:hr>179</ns3:hr>
            <ns3:cad>81</ns3:cad>
          </ns3:TrackPointExtension>
        </extensions>
      </trkpt>
      <trkpt lat="23.1839862652122974395751953125" lon="113.26566807925701141357421875">
        <ele>-4.80000019073486328125</ele>
        <time>2018-08-04T13:33:27.000Z</time>
        <extensions>
          <ns3:TrackPointExtension>
            <ns3:hr>179</ns3:hr>
            <ns3:cad>81</ns3:cad>
          </ns3:TrackPointExtension>
        </extensions>
      </trkpt>
      <trkpt lat="23.183892555534839630126953125" lon="113.26586522161960601806640625">
        <ele>0.4000000059604644775390625</ele>
        <time>2018-08-04T13:33:34.000Z</time>
        <extensions>
          <ns3:TrackPointExtension>
            <ns3:hr>178</ns3:hr>
            <ns3:cad>83</ns3:cad>
          </ns3:TrackPointExtension>
        </extensions>
      </trkpt>
      <trkpt lat="23.18386581726372241973876953125" lon="113.265947364270687103271484375">
        <ele>3.400000095367431640625</ele>
        <time>2018-08-04T13:33:37.000Z</time>
        <extensions>
          <ns3:TrackPointExtension>
            <ns3:hr>182</ns3:hr>
            <ns3:cad>84</ns3:cad>
          </ns3:TrackPointExtension>
        </extensions>
      </trkpt>
      <trkpt lat="23.183834552764892578125" lon="113.2660219632089138031005859375">
        <ele>6</ele>
        <time>2018-08-04T13:33:40.000Z</time>
        <extensions>
          <ns3:TrackPointExtension>
            <ns3:hr>185</ns3:hr>
            <ns3:cad>84</ns3:cad>
          </ns3:TrackPointExtension>
        </extensions>
      </trkpt>
      <trkpt lat="23.18375341594219207763671875" lon="113.26620510779321193695068359375">
        <ele>11.3999996185302734375</ele>
        <time>2018-08-04T13:33:47.000Z</time>
        <extensions>
          <ns3:TrackPointExtension>
            <ns3:hr>187</ns3:hr>
            <ns3:cad>84</ns3:cad>
          </ns3:TrackPointExtension>
        </extensions>
      </trkpt>
      <trkpt lat="23.18370723165571689605712890625" lon="113.2663247175514698028564453125">
        <ele>13.3999996185302734375</ele>
        <time>2018-08-04T13:33:52.000Z</time>
        <extensions>
          <ns3:TrackPointExtension>
            <ns3:hr>184</ns3:hr>
            <ns3:cad>84</ns3:cad>
          </ns3:TrackPointExtension>
        </extensions>
      </trkpt>
      <trkpt lat="23.18363539874553680419921875" lon="113.2665084488689899444580078125">
        <ele>14.3999996185302734375</ele>
        <time>2018-08-04T13:34:00.000Z</time>
        <extensions>
          <ns3:TrackPointExtension>
            <ns3:hr>184</ns3:hr>
            <ns3:cad>84</ns3:cad>
          </ns3:TrackPointExtension>
        </extensions>
      </trkpt>
      <trkpt lat="23.1835923157632350921630859375" lon="113.26658715493977069854736328125">
        <ele>15</ele>
        <time>2018-08-04T13:34:04.000Z</time>
        <extensions>
          <ns3:TrackPointExtension>
            <ns3:hr>189</ns3:hr>
            <ns3:cad>83</ns3:cad>
          </ns3:TrackPointExtension>
        </extensions>
      </trkpt>
      <trkpt lat="23.183579742908477783203125" lon="113.26660609804093837738037109375">
        <ele>15.19999980926513671875</ele>
        <time>2018-08-04T13:34:05.000Z</time>
        <extensions>
          <ns3:TrackPointExtension>
            <ns3:hr>186</ns3:hr>
            <ns3:cad>83</ns3:cad>
          </ns3:TrackPointExtension>
        </extensions>
      </trkpt>
      <trkpt lat="23.1835500709712505340576171875" lon="113.266664855182170867919921875">
        <ele>14.3999996185302734375</ele>
        <time>2018-08-04T13:34:08.000Z</time>
        <extensions>
          <ns3:TrackPointExtension>
            <ns3:hr>189</ns3:hr>
            <ns3:cad>82</ns3:cad>
          </ns3:TrackPointExtension>
        </extensions>
      </trkpt>
      <trkpt lat="23.18350221030414104461669921875" lon="113.266793601214885711669921875">
        <ele>12.6000003814697265625</ele>
        <time>2018-08-04T13:34:14.000Z</time>
        <extensions>
          <ns3:TrackPointExtension>
            <ns3:hr>189</ns3:hr>
            <ns3:cad>83</ns3:cad>
          </ns3:TrackPointExtension>
        </extensions>
      </trkpt>
      <trkpt lat="23.18339743651449680328369140625" lon="113.26696869917213916778564453125">
        <ele>9.6000003814697265625</ele>
        <time>2018-08-04T13:34:22.000Z</time>
        <extensions>
          <ns3:TrackPointExtension>
            <ns3:hr>190</ns3:hr>
            <ns3:cad>83</ns3:cad>
          </ns3:TrackPointExtension>
        </extensions>
      </trkpt>
      <trkpt lat="23.18330858834087848663330078125" lon="113.26715092174708843231201171875">
        <ele>6.80000019073486328125</ele>
        <time>2018-08-04T13:34:31.000Z</time>
        <extensions>
          <ns3:TrackPointExtension>
            <ns3:hr>189</ns3:hr>
            <ns3:cad>83</ns3:cad>
          </ns3:TrackPointExtension>
        </extensions>
      </trkpt>
      <trkpt lat="23.1832483224570751190185546875" lon="113.2671909034252166748046875">
        <ele>6.80000019073486328125</ele>
        <time>2018-08-04T13:34:34.000Z</time>
        <extensions>
          <ns3:TrackPointExtension>
            <ns3:hr>187</ns3:hr>
            <ns3:cad>84</ns3:cad>
          </ns3:TrackPointExtension>
        </extensions>
      </trkpt>
    </trkseg>
  </trk>
</gpx>
