<gpx xmlns:ns3="http://www.garmin.com/xmlschemas/TrackPointExtension/v1" xmlns="http://www.topografix.com/GPX/1/1" xmlns:xsi="http://www.w3.org/2001/XMLSchema-instance" xmlns:ns2="http://www.garmin.com/xmlschemas/GpxExtensions/v3" creator="Garmin Connect" version="1.1" xsi:schemaLocation="http://www.topografix.com/GPX/1/1 http://www.topografix.com/GPX/11.xsd">
  <extensions>
<distance>1107.99</distance>
<average_hr>106.0</average_hr>
<average_speed>0.9530000090599061</average_speed>
<start_time>2023-08-26T00:11:36+00:00</start_time>
<end_time>2023-08-26T00:30:58.709000+00:00</end_time>
<moving_time>1052.0</moving_time>
<elapsed_time>1162.709</elapsed_time>
</extensions>
<metadata>
    <link href="connect.garmin.com">
      <text>Garmin Connect</text>
    </link>
    <time>2023-08-26T00:11:36.000Z</time>
  </metadata>
  <trk>
    <name>广州市 跑步</name>
    <type>running</type>
    <trkseg>
      <trkpt lat="23.17806805483996868133544921875" lon="113.25076295994222164154052734375">
        <ele>24.3999996185302734375</ele>
        <time>2023-08-26T00:11:48.000Z</time>
        <extensions>
          <ns3:TrackPointExtension>
            <ns3:hr>114</ns3:hr>
            <ns3:cad>59</ns3:cad>
          </ns3:TrackPointExtension>
        </extensions>
      </trkpt>
      <trkpt lat="23.17809906788170337677001953125" lon="113.2507945597171783447265625">
        <ele>24</ele>
        <time>2023-08-26T00:11:51.000Z</time>
        <extensions>
          <ns3:TrackPointExtension>
            <ns3:hr>115</ns3:hr>
            <ns3:cad>59</ns3:cad>
          </ns3:TrackPointExtension>
        </extensions>
      </trkpt>
      <trkpt lat="23.17805766128003597259521484375" lon="113.250756673514842987060546875">
        <ele>24.3999996185302734375</ele>
        <time>2023-08-26T00:11:55.000Z</time>
        <extensions>
          <ns3:TrackPointExtension>
            <ns3:hr>115</ns3:hr>
            <ns3:cad>58</ns3:cad>
          </ns3:TrackPointExtension>
        </extensions>
      </trkpt>
      <trkpt lat="23.17803704179823398590087890625" lon="113.25073898769915103912353515625">
        <ele>24.6000003814697265625</ele>
        <time>2023-08-26T00:11:57.000Z</time>
        <extensions>
          <ns3:TrackPointExtension>
            <ns3:hr>115</ns3:hr>
            <ns3:cad>56</ns3:cad>
          </ns3:TrackPointExtension>
        </extensions>
      </trkpt>
      <trkpt lat="23.17801055498421192169189453125" lon="113.25073077343404293060302734375">
        <ele>24.6000003814697265625</ele>
        <time>2023-08-26T00:12:00.000Z</time>
        <extensions>
          <ns3:TrackPointExtension>
            <ns3:hr>114</ns3:hr>
            <ns3:cad>57</ns3:cad>
          </ns3:TrackPointExtension>
        </extensions>
      </trkpt>
      <trkpt lat="23.17797149531543254852294921875" lon="113.25072222389280796051025390625">
        <ele>24.3999996185302734375</ele>
        <time>2023-08-26T00:12:03.000Z</time>
        <extensions>
          <ns3:TrackPointExtension>
            <ns3:hr>114</ns3:hr>
            <ns3:cad>0</ns3:cad>
          </ns3:TrackPointExtension>
        </extensions>
      </trkpt>
      <trkpt lat="23.17794643342494964599609375" lon="113.2507373951375484466552734375">
        <ele>24.200000762939453125</ele>
        <time>2023-08-26T00:12:06.000Z</time>
        <extensions>
          <ns3:TrackPointExtension>
            <ns3:hr>114</ns3:hr>
            <ns3:cad>61</ns3:cad>
          </ns3:TrackPointExtension>
        </extensions>
      </trkpt>
      <trkpt lat="23.17795271985232830047607421875" lon="113.2509259879589080810546875">
        <ele>22.799999237060546875</ele>
        <time>2023-08-26T00:12:11.000Z</time>
        <extensions>
          <ns3:TrackPointExtension>
            <ns3:hr>113</ns3:hr>
            <ns3:cad>57</ns3:cad>
          </ns3:TrackPointExtension>
        </extensions>
      </trkpt>
      <trkpt lat="23.1778845749795436859130859375" lon="113.25089405290782451629638671875">
        <ele>22.3999996185302734375</ele>
        <time>2023-08-26T00:12:14.000Z</time>
        <extensions>
          <ns3:TrackPointExtension>
            <ns3:hr>113</ns3:hr>
            <ns3:cad>57</ns3:cad>
          </ns3:TrackPointExtension>
        </extensions>
      </trkpt>
      <trkpt lat="23.17780000157654285430908203125" lon="113.2508294284343719482421875">
        <ele>22.3999996185302734375</ele>
        <time>2023-08-26T00:12:20.000Z</time>
        <extensions>
          <ns3:TrackPointExtension>
            <ns3:hr>113</ns3:hr>
            <ns3:cad>0</ns3:cad>
          </ns3:TrackPointExtension>
        </extensions>
      </trkpt>
      <trkpt lat="23.1777454353868961334228515625" lon="113.25079564936459064483642578125">
        <ele>22.200000762939453125</ele>
        <time>2023-08-26T00:12:23.000Z</time>
        <extensions>
          <ns3:TrackPointExtension>
            <ns3:hr>113</ns3:hr>
            <ns3:cad>0</ns3:cad>
          </ns3:TrackPointExtension>
        </extensions>
      </trkpt>
      <trkpt lat="23.1775355525314807891845703125" lon="113.25066455639898777008056640625">
        <ele>24</ele>
        <time>2023-08-26T00:12:40.000Z</time>
        <extensions>
          <ns3:TrackPointExtension>
            <ns3:hr>114</ns3:hr>
            <ns3:cad>57</ns3:cad>
          </ns3:TrackPointExtension>
        </extensions>
      </trkpt>
      <trkpt lat="23.17751870490610599517822265625" lon="113.2506036199629306793212890625">
        <ele>25</ele>
        <time>2023-08-26T00:12:47.000Z</time>
        <extensions>
          <ns3:TrackPointExtension>
            <ns3:hr>113</ns3:hr>
            <ns3:cad>0</ns3:cad>
          </ns3:TrackPointExtension>
        </extensions>
      </trkpt>
      <trkpt lat="23.17750881426036357879638671875" lon="113.2505880296230316162109375">
        <ele>25.200000762939453125</ele>
        <time>2023-08-26T00:12:52.000Z</time>
        <extensions>
          <ns3:TrackPointExtension>
            <ns3:hr>110</ns3:hr>
            <ns3:cad>61</ns3:cad>
          </ns3:TrackPointExtension>
        </extensions>
      </trkpt>
      <trkpt lat="23.177489452064037322998046875" lon="113.25058375485241413116455078125">
        <ele>25.3999996185302734375</ele>
        <time>2023-08-26T00:12:56.000Z</time>
        <extensions>
          <ns3:TrackPointExtension>
            <ns3:hr>109</ns3:hr>
            <ns3:cad>57</ns3:cad>
          </ns3:TrackPointExtension>
        </extensions>
      </trkpt>
      <trkpt lat="23.177468664944171905517578125" lon="113.250583000481128692626953125">
        <ele>25.3999996185302734375</ele>
        <time>2023-08-26T00:12:58.000Z</time>
        <extensions>
          <ns3:TrackPointExtension>
            <ns3:hr>109</ns3:hr>
            <ns3:cad>57</ns3:cad>
          </ns3:TrackPointExtension>
        </extensions>
      </trkpt>
      <trkpt lat="23.1774359755218029022216796875" lon="113.25059129856526851654052734375">
        <ele>25.3999996185302734375</ele>
        <time>2023-08-26T00:13:02.000Z</time>
        <extensions>
          <ns3:TrackPointExtension>
            <ns3:hr>108</ns3:hr>
            <ns3:cad>57</ns3:cad>
          </ns3:TrackPointExtension>
        </extensions>
      </trkpt>
      <trkpt lat="23.177392892539501190185546875" lon="113.2506250776350498199462890625">
        <ele>25</ele>
        <time>2023-08-26T00:13:09.000Z</time>
        <extensions>
          <ns3:TrackPointExtension>
            <ns3:hr>110</ns3:hr>
            <ns3:cad>59</ns3:cad>
          </ns3:TrackPointExtension>
        </extensions>
      </trkpt>
      <trkpt lat="23.17738585174083709716796875" lon="113.25063823722302913665771484375">
        <ele>24.799999237060546875</ele>
        <time>2023-08-26T00:13:11.000Z</time>
        <extensions>
          <ns3:TrackPointExtension>
            <ns3:hr>110</ns3:hr>
            <ns3:cad>58</ns3:cad>
          </ns3:TrackPointExtension>
        </extensions>
      </trkpt>
      <trkpt lat="23.177378810942173004150390625" lon="113.25065030716359615325927734375">
        <ele>24.6000003814697265625</ele>
        <time>2023-08-26T00:13:16.000Z</time>
        <extensions>
          <ns3:TrackPointExtension>
            <ns3:hr>111</ns3:hr>
            <ns3:cad>0</ns3:cad>
          </ns3:TrackPointExtension>
        </extensions>
      </trkpt>
      <trkpt lat="23.17737101577222347259521484375" lon="113.25066254474222660064697265625">
        <ele>24.3999996185302734375</ele>
        <time>2023-08-26T00:13:18.000Z</time>
        <extensions>
          <ns3:TrackPointExtension>
            <ns3:hr>112</ns3:hr>
            <ns3:cad>0</ns3:cad>
          </ns3:TrackPointExtension>
        </extensions>
      </trkpt>
      <trkpt lat="23.17735944874584674835205078125" lon="113.25066983699798583984375">
        <ele>24.200000762939453125</ele>
        <time>2023-08-26T00:13:22.000Z</time>
        <extensions>
          <ns3:TrackPointExtension>
            <ns3:hr>112</ns3:hr>
            <ns3:cad>61</ns3:cad>
          </ns3:TrackPointExtension>
        </extensions>
      </trkpt>
      <trkpt lat="23.17736598663032054901123046875" lon="113.25066723860800266265869140625">
        <ele>24.200000762939453125</ele>
        <time>2023-08-26T00:13:24.000Z</time>
        <extensions>
          <ns3:TrackPointExtension>
            <ns3:hr>112</ns3:hr>
            <ns3:cad>61</ns3:cad>
          </ns3:TrackPointExtension>
        </extensions>
      </trkpt>
      <trkpt lat="23.1773865222930908203125" lon="113.250671513378620147705078125">
        <ele>24.200000762939453125</ele>
        <time>2023-08-26T00:13:26.000Z</time>
        <extensions>
          <ns3:TrackPointExtension>
            <ns3:hr>112</ns3:hr>
            <ns3:cad>51</ns3:cad>
          </ns3:TrackPointExtension>
        </extensions>
      </trkpt>
      <trkpt lat="23.1773897074162960052490234375" lon="113.250646032392978668212890625">
        <ele>24.6000003814697265625</ele>
        <time>2023-08-26T00:13:36.000Z</time>
        <extensions>
          <ns3:TrackPointExtension>
            <ns3:hr>113</ns3:hr>
            <ns3:cad>0</ns3:cad>
          </ns3:TrackPointExtension>
        </extensions>
      </trkpt>
      <trkpt lat="23.17735324613749980926513671875" lon="113.250628598034381866455078125">
        <ele>24.799999237060546875</ele>
        <time>2023-08-26T00:13:40.000Z</time>
        <extensions>
          <ns3:TrackPointExtension>
            <ns3:hr>113</ns3:hr>
            <ns3:cad>61</ns3:cad>
          </ns3:TrackPointExtension>
        </extensions>
      </trkpt>
      <trkpt lat="23.177183680236339569091796875" lon="113.25054754503071308135986328125">
        <ele>25.3999996185302734375</ele>
        <time>2023-08-26T00:13:52.000Z</time>
        <extensions>
          <ns3:TrackPointExtension>
            <ns3:hr>111</ns3:hr>
            <ns3:cad>0</ns3:cad>
          </ns3:TrackPointExtension>
        </extensions>
      </trkpt>
      <trkpt lat="23.17715191282331943511962890625" lon="113.25052030384540557861328125">
        <ele>25.6000003814697265625</ele>
        <time>2023-08-26T00:13:55.000Z</time>
        <extensions>
          <ns3:TrackPointExtension>
            <ns3:hr>111</ns3:hr>
            <ns3:cad>0</ns3:cad>
          </ns3:TrackPointExtension>
        </extensions>
      </trkpt>
      <trkpt lat="23.177150152623653411865234375" lon="113.2504899613559246063232421875">
        <ele>26</ele>
        <time>2023-08-26T00:13:59.000Z</time>
        <extensions>
          <ns3:TrackPointExtension>
            <ns3:hr>108</ns3:hr>
            <ns3:cad>0</ns3:cad>
          </ns3:TrackPointExtension>
        </extensions>
      </trkpt>
      <trkpt lat="23.1771372444927692413330078125" lon="113.2504698447883129119873046875">
        <ele>25.799999237060546875</ele>
        <time>2023-08-26T00:14:00.000Z</time>
        <extensions>
          <ns3:TrackPointExtension>
            <ns3:hr>94</ns3:hr>
            <ns3:cad>61</ns3:cad>
          </ns3:TrackPointExtension>
        </extensions>
      </trkpt>
      <trkpt lat="23.1771372444927692413330078125" lon="113.2504698447883129119873046875">
        <ele>25.799999237060546875</ele>
        <time>2023-08-26T00:14:01.000Z</time>
        <extensions>
          <ns3:TrackPointExtension>
            <ns3:hr>94</ns3:hr>
            <ns3:cad>61</ns3:cad>
          </ns3:TrackPointExtension>
        </extensions>
      </trkpt>
      <trkpt lat="23.17714151926338672637939453125" lon="113.2504941523075103759765625">
        <ele>26</ele>
        <time>2023-08-26T00:14:02.000Z</time>
        <extensions>
          <ns3:TrackPointExtension>
            <ns3:hr>100</ns3:hr>
            <ns3:cad>0</ns3:cad>
          </ns3:TrackPointExtension>
        </extensions>
      </trkpt>
      <trkpt lat="23.17714151926338672637939453125" lon="113.2504941523075103759765625">
        <ele>26</ele>
        <time>2023-08-26T00:14:03.000Z</time>
        <extensions>
          <ns3:TrackPointExtension>
            <ns3:hr>100</ns3:hr>
            <ns3:cad>0</ns3:cad>
          </ns3:TrackPointExtension>
        </extensions>
      </trkpt>
      <trkpt lat="23.17716632969677448272705078125" lon="113.2505177892744541168212890625">
        <ele>25.6000003814697265625</ele>
        <time>2023-08-26T00:14:04.000Z</time>
        <extensions>
          <ns3:TrackPointExtension>
            <ns3:hr>96</ns3:hr>
            <ns3:cad>0</ns3:cad>
          </ns3:TrackPointExtension>
        </extensions>
      </trkpt>
      <trkpt lat="23.1771684251725673675537109375" lon="113.25051820836961269378662109375">
        <ele>25.6000003814697265625</ele>
        <time>2023-08-26T00:14:06.000Z</time>
        <extensions>
          <ns3:TrackPointExtension>
            <ns3:hr>95</ns3:hr>
            <ns3:cad>0</ns3:cad>
          </ns3:TrackPointExtension>
        </extensions>
      </trkpt>
      <trkpt lat="23.1771687604486942291259765625" lon="113.2505305297672748565673828125">
        <ele>25.6000003814697265625</ele>
        <time>2023-08-26T00:14:10.000Z</time>
        <extensions>
          <ns3:TrackPointExtension>
            <ns3:hr>94</ns3:hr>
            <ns3:cad>61</ns3:cad>
          </ns3:TrackPointExtension>
        </extensions>
      </trkpt>
      <trkpt lat="23.17712592892348766326904296875" lon="113.25048484839498996734619140625">
        <ele>25.799999237060546875</ele>
        <time>2023-08-26T00:14:16.000Z</time>
        <extensions>
          <ns3:TrackPointExtension>
            <ns3:hr>92</ns3:hr>
            <ns3:cad>61</ns3:cad>
          </ns3:TrackPointExtension>
        </extensions>
      </trkpt>
      <trkpt lat="23.1771218217909336090087890625" lon="113.25047160498797893524169921875">
        <ele>25.6000003814697265625</ele>
        <time>2023-08-26T00:14:17.000Z</time>
        <extensions>
          <ns3:TrackPointExtension>
            <ns3:hr>83</ns3:hr>
            <ns3:cad>61</ns3:cad>
          </ns3:TrackPointExtension>
        </extensions>
      </trkpt>
      <trkpt lat="23.1771218217909336090087890625" lon="113.25047160498797893524169921875">
        <ele>25.6000003814697265625</ele>
        <time>2023-08-26T00:14:18.000Z</time>
        <extensions>
          <ns3:TrackPointExtension>
            <ns3:hr>83</ns3:hr>
            <ns3:cad>61</ns3:cad>
          </ns3:TrackPointExtension>
        </extensions>
      </trkpt>
      <trkpt lat="23.1771053932607173919677734375" lon="113.25047194026410579681396484375">
        <ele>25.3999996185302734375</ele>
        <time>2023-08-26T00:14:19.000Z</time>
        <extensions>
          <ns3:TrackPointExtension>
            <ns3:hr>90</ns3:hr>
            <ns3:cad>61</ns3:cad>
          </ns3:TrackPointExtension>
        </extensions>
      </trkpt>
      <trkpt lat="23.1771053932607173919677734375" lon="113.25047194026410579681396484375">
        <ele>25.3999996185302734375</ele>
        <time>2023-08-26T00:14:20.000Z</time>
        <extensions>
          <ns3:TrackPointExtension>
            <ns3:hr>90</ns3:hr>
            <ns3:cad>61</ns3:cad>
          </ns3:TrackPointExtension>
        </extensions>
      </trkpt>
      <trkpt lat="23.1771089136600494384765625" lon="113.2504628039896488189697265625">
        <ele>25.3999996185302734375</ele>
        <time>2023-08-26T00:14:21.000Z</time>
        <extensions>
          <ns3:TrackPointExtension>
            <ns3:hr>95</ns3:hr>
            <ns3:cad>61</ns3:cad>
          </ns3:TrackPointExtension>
        </extensions>
      </trkpt>
      <trkpt lat="23.1771089136600494384765625" lon="113.2504628039896488189697265625">
        <ele>25.3999996185302734375</ele>
        <time>2023-08-26T00:14:22.000Z</time>
        <extensions>
          <ns3:TrackPointExtension>
            <ns3:hr>95</ns3:hr>
            <ns3:cad>61</ns3:cad>
          </ns3:TrackPointExtension>
        </extensions>
      </trkpt>
      <trkpt lat="23.17711067385971546173095703125" lon="113.25045534409582614898681640625">
        <ele>25.200000762939453125</ele>
        <time>2023-08-26T00:14:23.000Z</time>
        <extensions>
          <ns3:TrackPointExtension>
            <ns3:hr>98</ns3:hr>
            <ns3:cad>61</ns3:cad>
          </ns3:TrackPointExtension>
        </extensions>
      </trkpt>
      <trkpt lat="23.17708603106439113616943359375" lon="113.25045500881969928741455078125">
        <ele>24.799999237060546875</ele>
        <time>2023-08-26T00:14:26.000Z</time>
        <extensions>
          <ns3:TrackPointExtension>
            <ns3:hr>102</ns3:hr>
            <ns3:cad>61</ns3:cad>
          </ns3:TrackPointExtension>
        </extensions>
      </trkpt>
      <trkpt lat="23.1770604662597179412841796875" lon="113.250458948314189910888671875">
        <ele>24.200000762939453125</ele>
        <time>2023-08-26T00:14:27.000Z</time>
        <extensions>
          <ns3:TrackPointExtension>
            <ns3:hr>104</ns3:hr>
            <ns3:cad>60</ns3:cad>
          </ns3:TrackPointExtension>
        </extensions>
      </trkpt>
      <trkpt lat="23.1770048104226589202880859375" lon="113.2504540868103504180908203125">
        <ele>23</ele>
        <time>2023-08-26T00:14:34.000Z</time>
        <extensions>
          <ns3:TrackPointExtension>
            <ns3:hr>104</ns3:hr>
            <ns3:cad>58</ns3:cad>
          </ns3:TrackPointExtension>
        </extensions>
      </trkpt>
      <trkpt lat="23.17696080543100833892822265625" lon="113.2504592835903167724609375">
        <ele>22</ele>
        <time>2023-08-26T00:14:37.000Z</time>
        <extensions>
          <ns3:TrackPointExtension>
            <ns3:hr>104</ns3:hr>
            <ns3:cad>58</ns3:cad>
          </ns3:TrackPointExtension>
        </extensions>
      </trkpt>
      <trkpt lat="23.1768948398530483245849609375" lon="113.2504574395716190338134765625">
        <ele>20.6000003814697265625</ele>
        <time>2023-08-26T00:14:48.000Z</time>
        <extensions>
          <ns3:TrackPointExtension>
            <ns3:hr>106</ns3:hr>
            <ns3:cad>60</ns3:cad>
          </ns3:TrackPointExtension>
        </extensions>
      </trkpt>
      <trkpt lat="23.17682317458093166351318359375" lon="113.25046355836093425750732421875">
        <ele>19.6000003814697265625</ele>
        <time>2023-08-26T00:14:59.000Z</time>
        <extensions>
          <ns3:TrackPointExtension>
            <ns3:hr>105</ns3:hr>
            <ns3:cad>57</ns3:cad>
          </ns3:TrackPointExtension>
        </extensions>
      </trkpt>
      <trkpt lat="23.17672736942768096923828125" lon="113.25043254531919956207275390625">
        <ele>18</ele>
        <time>2023-08-26T00:15:04.000Z</time>
        <extensions>
          <ns3:TrackPointExtension>
            <ns3:hr>102</ns3:hr>
            <ns3:cad>58</ns3:cad>
          </ns3:TrackPointExtension>
        </extensions>
      </trkpt>
      <trkpt lat="23.17664430476725101470947265625" lon="113.25045819394290447235107421875">
        <ele>16.3999996185302734375</ele>
        <time>2023-08-26T00:15:08.000Z</time>
        <extensions>
          <ns3:TrackPointExtension>
            <ns3:hr>103</ns3:hr>
            <ns3:cad>60</ns3:cad>
          </ns3:TrackPointExtension>
        </extensions>
      </trkpt>
      <trkpt lat="23.176618404686450958251953125" lon="113.25044763274490833282470703125">
        <ele>15.80000019073486328125</ele>
        <time>2023-08-26T00:15:11.000Z</time>
        <extensions>
          <ns3:TrackPointExtension>
            <ns3:hr>102</ns3:hr>
            <ns3:cad>60</ns3:cad>
          </ns3:TrackPointExtension>
        </extensions>
      </trkpt>
      <trkpt lat="23.17656920291483402252197265625" lon="113.25043304823338985443115234375">
        <ele>15</ele>
        <time>2023-08-26T00:15:15.000Z</time>
        <extensions>
          <ns3:TrackPointExtension>
            <ns3:hr>102</ns3:hr>
            <ns3:cad>60</ns3:cad>
          </ns3:TrackPointExtension>
        </extensions>
      </trkpt>
      <trkpt lat="23.17648253403604030609130859375" lon="113.25046322308480739593505859375">
        <ele>14.19999980926513671875</ele>
        <time>2023-08-26T00:15:20.000Z</time>
        <extensions>
          <ns3:TrackPointExtension>
            <ns3:hr>102</ns3:hr>
            <ns3:cad>61</ns3:cad>
          </ns3:TrackPointExtension>
        </extensions>
      </trkpt>
      <trkpt lat="23.176495023071765899658203125" lon="113.250432796776294708251953125">
        <ele>14.19999980926513671875</ele>
        <time>2023-08-26T00:15:24.000Z</time>
        <extensions>
          <ns3:TrackPointExtension>
            <ns3:hr>102</ns3:hr>
            <ns3:cad>62</ns3:cad>
          </ns3:TrackPointExtension>
        </extensions>
      </trkpt>
      <trkpt lat="23.1764975376427173614501953125" lon="113.2504272647202014923095703125">
        <ele>14.19999980926513671875</ele>
        <time>2023-08-26T00:15:26.000Z</time>
        <extensions>
          <ns3:TrackPointExtension>
            <ns3:hr>103</ns3:hr>
            <ns3:cad>62</ns3:cad>
          </ns3:TrackPointExtension>
        </extensions>
      </trkpt>
      <trkpt lat="23.17650415934622287750244140625" lon="113.25043455697596073150634765625">
        <ele>14.19999980926513671875</ele>
        <time>2023-08-26T00:15:28.000Z</time>
        <extensions>
          <ns3:TrackPointExtension>
            <ns3:hr>104</ns3:hr>
            <ns3:cad>59</ns3:cad>
          </ns3:TrackPointExtension>
        </extensions>
      </trkpt>
      <trkpt lat="23.17638496868312358856201171875" lon="113.2505786418914794921875">
        <ele>14</ele>
        <time>2023-08-26T00:15:58.000Z</time>
        <extensions>
          <ns3:TrackPointExtension>
            <ns3:hr>103</ns3:hr>
            <ns3:cad>56</ns3:cad>
          </ns3:TrackPointExtension>
        </extensions>
      </trkpt>
      <trkpt lat="23.17618715576827526092529296875" lon="113.25059565715491771697998046875">
        <ele>13.3999996185302734375</ele>
        <time>2023-08-26T00:16:13.000Z</time>
        <extensions>
          <ns3:TrackPointExtension>
            <ns3:hr>102</ns3:hr>
            <ns3:cad>57</ns3:cad>
          </ns3:TrackPointExtension>
        </extensions>
      </trkpt>
      <trkpt lat="23.17615765146911144256591796875" lon="113.25060035102069377899169921875">
        <ele>13.3999996185302734375</ele>
        <time>2023-08-26T00:16:16.000Z</time>
        <extensions>
          <ns3:TrackPointExtension>
            <ns3:hr>102</ns3:hr>
            <ns3:cad>58</ns3:cad>
          </ns3:TrackPointExtension>
        </extensions>
      </trkpt>
      <trkpt lat="23.17608229815959930419921875" lon="113.250571601092815399169921875">
        <ele>13</ele>
        <time>2023-08-26T00:16:20.000Z</time>
        <extensions>
          <ns3:TrackPointExtension>
            <ns3:hr>102</ns3:hr>
            <ns3:cad>0</ns3:cad>
          </ns3:TrackPointExtension>
        </extensions>
      </trkpt>
      <trkpt lat="23.17606444470584392547607421875" lon="113.25055039487779140472412109375">
        <ele>12.6000003814697265625</ele>
        <time>2023-08-26T00:16:24.000Z</time>
        <extensions>
          <ns3:TrackPointExtension>
            <ns3:hr>101</ns3:hr>
            <ns3:cad>0</ns3:cad>
          </ns3:TrackPointExtension>
        </extensions>
      </trkpt>
      <trkpt lat="23.1760563142597675323486328125" lon="113.25055978260934352874755859375">
        <ele>12.80000019073486328125</ele>
        <time>2023-08-26T00:16:28.000Z</time>
        <extensions>
          <ns3:TrackPointExtension>
            <ns3:hr>101</ns3:hr>
            <ns3:cad>0</ns3:cad>
          </ns3:TrackPointExtension>
        </extensions>
      </trkpt>
      <trkpt lat="23.17600845359265804290771484375" lon="113.25054268352687358856201171875">
        <ele>12.80000019073486328125</ele>
        <time>2023-08-26T00:16:36.000Z</time>
        <extensions>
          <ns3:TrackPointExtension>
            <ns3:hr>100</ns3:hr>
            <ns3:cad>61</ns3:cad>
          </ns3:TrackPointExtension>
        </extensions>
      </trkpt>
      <trkpt lat="23.1760118901729583740234375" lon="113.2505335472524166107177734375">
        <ele>12.6000003814697265625</ele>
        <time>2023-08-26T00:16:41.000Z</time>
        <extensions>
          <ns3:TrackPointExtension>
            <ns3:hr>100</ns3:hr>
            <ns3:cad>61</ns3:cad>
          </ns3:TrackPointExtension>
        </extensions>
      </trkpt>
      <trkpt lat="23.17599034868180751800537109375" lon="113.25054368935525417327880859375">
        <ele>13.19999980926513671875</ele>
        <time>2023-08-26T00:16:43.000Z</time>
        <extensions>
          <ns3:TrackPointExtension>
            <ns3:hr>101</ns3:hr>
            <ns3:cad>61</ns3:cad>
          </ns3:TrackPointExtension>
        </extensions>
      </trkpt>
      <trkpt lat="23.1759553961455821990966796875" lon="113.25057352893054485321044921875">
        <ele>14.19999980926513671875</ele>
        <time>2023-08-26T00:16:54.000Z</time>
        <extensions>
          <ns3:TrackPointExtension>
            <ns3:hr>102</ns3:hr>
            <ns3:cad>61</ns3:cad>
          </ns3:TrackPointExtension>
        </extensions>
      </trkpt>
      <trkpt lat="23.175841234624385833740234375" lon="113.2506130076944828033447265625">
        <ele>16.3999996185302734375</ele>
        <time>2023-08-26T00:17:16.000Z</time>
        <extensions>
          <ns3:TrackPointExtension>
            <ns3:hr>109</ns3:hr>
            <ns3:cad>61</ns3:cad>
          </ns3:TrackPointExtension>
        </extensions>
      </trkpt>
      <trkpt lat="23.17583293654024600982666015625" lon="113.25062013231217861175537109375">
        <ele>16.6000003814697265625</ele>
        <time>2023-08-26T00:17:20.000Z</time>
        <extensions>
          <ns3:TrackPointExtension>
            <ns3:hr>111</ns3:hr>
            <ns3:cad>61</ns3:cad>
          </ns3:TrackPointExtension>
        </extensions>
      </trkpt>
      <trkpt lat="23.17583545111119747161865234375" lon="113.25061392970383167266845703125">
        <ele>16.3999996185302734375</ele>
        <time>2023-08-26T00:17:21.000Z</time>
        <extensions>
          <ns3:TrackPointExtension>
            <ns3:hr>108</ns3:hr>
            <ns3:cad>61</ns3:cad>
          </ns3:TrackPointExtension>
        </extensions>
      </trkpt>
      <trkpt lat="23.1758561544120311737060546875" lon="113.250576965510845184326171875">
        <ele>16</ele>
        <time>2023-08-26T00:17:26.000Z</time>
        <extensions>
          <ns3:TrackPointExtension>
            <ns3:hr>108</ns3:hr>
            <ns3:cad>63</ns3:cad>
          </ns3:TrackPointExtension>
        </extensions>
      </trkpt>
      <trkpt lat="23.1757626123726367950439453125" lon="113.2504470460116863250732421875">
        <ele>16.6000003814697265625</ele>
        <time>2023-08-26T00:17:43.000Z</time>
        <extensions>
          <ns3:TrackPointExtension>
            <ns3:hr>110</ns3:hr>
            <ns3:cad>57</ns3:cad>
          </ns3:TrackPointExtension>
        </extensions>
      </trkpt>
      <trkpt lat="23.17576906643807888031005859375" lon="113.2504208944737911224365234375">
        <ele>16.6000003814697265625</ele>
        <time>2023-08-26T00:17:46.000Z</time>
        <extensions>
          <ns3:TrackPointExtension>
            <ns3:hr>108</ns3:hr>
            <ns3:cad>57</ns3:cad>
          </ns3:TrackPointExtension>
        </extensions>
      </trkpt>
      <trkpt lat="23.1757438369095325469970703125" lon="113.2503880374133586883544921875">
        <ele>17</ele>
        <time>2023-08-26T00:17:49.000Z</time>
        <extensions>
          <ns3:TrackPointExtension>
            <ns3:hr>106</ns3:hr>
            <ns3:cad>0</ns3:cad>
          </ns3:TrackPointExtension>
        </extensions>
      </trkpt>
      <trkpt lat="23.17574174143373966217041015625" lon="113.25030530802905559539794921875">
        <ele>17</ele>
        <time>2023-08-26T00:17:56.000Z</time>
        <extensions>
          <ns3:TrackPointExtension>
            <ns3:hr>105</ns3:hr>
            <ns3:cad>0</ns3:cad>
          </ns3:TrackPointExtension>
        </extensions>
      </trkpt>
      <trkpt lat="23.175741322338581085205078125" lon="113.25024428777396678924560546875">
        <ele>17</ele>
        <time>2023-08-26T00:18:02.000Z</time>
        <extensions>
          <ns3:TrackPointExtension>
            <ns3:hr>104</ns3:hr>
            <ns3:cad>58</ns3:cad>
          </ns3:TrackPointExtension>
        </extensions>
      </trkpt>
      <trkpt lat="23.17574861459434032440185546875" lon="113.25012777931988239288330078125">
        <ele>16.6000003814697265625</ele>
        <time>2023-08-26T00:18:11.000Z</time>
        <extensions>
          <ns3:TrackPointExtension>
            <ns3:hr>105</ns3:hr>
            <ns3:cad>64</ns3:cad>
          </ns3:TrackPointExtension>
        </extensions>
      </trkpt>
      <trkpt lat="23.17578482441604137420654296875" lon="113.25003482401371002197265625">
        <ele>15.80000019073486328125</ele>
        <time>2023-08-26T00:18:21.000Z</time>
        <extensions>
          <ns3:TrackPointExtension>
            <ns3:hr>106</ns3:hr>
            <ns3:cad>60</ns3:cad>
          </ns3:TrackPointExtension>
        </extensions>
      </trkpt>
      <trkpt lat="23.1757911108434200286865234375" lon="113.2500078342854976654052734375">
        <ele>15.6000003814697265625</ele>
        <time>2023-08-26T00:18:24.000Z</time>
        <extensions>
          <ns3:TrackPointExtension>
            <ns3:hr>105</ns3:hr>
            <ns3:cad>57</ns3:cad>
          </ns3:TrackPointExtension>
        </extensions>
      </trkpt>
      <trkpt lat="23.17579102702438831329345703125" lon="113.24996265582740306854248046875">
        <ele>15.3999996185302734375</ele>
        <time>2023-08-26T00:18:29.000Z</time>
        <extensions>
          <ns3:TrackPointExtension>
            <ns3:hr>105</ns3:hr>
            <ns3:cad>57</ns3:cad>
          </ns3:TrackPointExtension>
        </extensions>
      </trkpt>
      <trkpt lat="23.1757679767906665802001953125" lon="113.2498975284397602081298828125">
        <ele>15.19999980926513671875</ele>
        <time>2023-08-26T00:18:34.000Z</time>
        <extensions>
          <ns3:TrackPointExtension>
            <ns3:hr>106</ns3:hr>
            <ns3:cad>61</ns3:cad>
          </ns3:TrackPointExtension>
        </extensions>
      </trkpt>
      <trkpt lat="23.17575632594525814056396484375" lon="113.2498777471482753753662109375">
        <ele>15.19999980926513671875</ele>
        <time>2023-08-26T00:18:38.000Z</time>
        <extensions>
          <ns3:TrackPointExtension>
            <ns3:hr>105</ns3:hr>
            <ns3:cad>61</ns3:cad>
          </ns3:TrackPointExtension>
        </extensions>
      </trkpt>
      <trkpt lat="23.1757543981075286865234375" lon="113.24983189813792705535888671875">
        <ele>14.80000019073486328125</ele>
        <time>2023-08-26T00:18:41.000Z</time>
        <extensions>
          <ns3:TrackPointExtension>
            <ns3:hr>104</ns3:hr>
            <ns3:cad>61</ns3:cad>
          </ns3:TrackPointExtension>
        </extensions>
      </trkpt>
      <trkpt lat="23.1757543981075286865234375" lon="113.24981295503675937652587890625">
        <ele>14.6000003814697265625</ele>
        <time>2023-08-26T00:18:43.000Z</time>
        <extensions>
          <ns3:TrackPointExtension>
            <ns3:hr>104</ns3:hr>
            <ns3:cad>57</ns3:cad>
          </ns3:TrackPointExtension>
        </extensions>
      </trkpt>
      <trkpt lat="23.17576152272522449493408203125" lon="113.24976299889385700225830078125">
        <ele>14</ele>
        <time>2023-08-26T00:18:47.000Z</time>
        <extensions>
          <ns3:TrackPointExtension>
            <ns3:hr>104</ns3:hr>
            <ns3:cad>57</ns3:cad>
          </ns3:TrackPointExtension>
        </extensions>
      </trkpt>
      <trkpt lat="23.17576043307781219482421875" lon="113.24973441660404205322265625">
        <ele>13.6000003814697265625</ele>
        <time>2023-08-26T00:18:50.000Z</time>
        <extensions>
          <ns3:TrackPointExtension>
            <ns3:hr>103</ns3:hr>
            <ns3:cad>57</ns3:cad>
          </ns3:TrackPointExtension>
        </extensions>
      </trkpt>
      <trkpt lat="23.17570838145911693572998046875" lon="113.249697871506214141845703125">
        <ele>13.3999996185302734375</ele>
        <time>2023-08-26T00:19:00.000Z</time>
        <extensions>
          <ns3:TrackPointExtension>
            <ns3:hr>104</ns3:hr>
            <ns3:cad>0</ns3:cad>
          </ns3:TrackPointExtension>
        </extensions>
      </trkpt>
      <trkpt lat="23.1757170148193836212158203125" lon="113.249695189297199249267578125">
        <ele>13.3999996185302734375</ele>
        <time>2023-08-26T00:19:02.000Z</time>
        <extensions>
          <ns3:TrackPointExtension>
            <ns3:hr>107</ns3:hr>
            <ns3:cad>0</ns3:cad>
          </ns3:TrackPointExtension>
        </extensions>
      </trkpt>
      <trkpt lat="23.1757190264761447906494140625" lon="113.2496933452785015106201171875">
        <ele>13.3999996185302734375</ele>
        <time>2023-08-26T00:19:05.000Z</time>
        <extensions>
          <ns3:TrackPointExtension>
            <ns3:hr>110</ns3:hr>
            <ns3:cad>0</ns3:cad>
          </ns3:TrackPointExtension>
        </extensions>
      </trkpt>
      <trkpt lat="23.17571776919066905975341796875" lon="113.2496920041739940643310546875">
        <ele>13.3999996185302734375</ele>
        <time>2023-08-26T00:19:07.000Z</time>
        <extensions>
          <ns3:TrackPointExtension>
            <ns3:hr>111</ns3:hr>
            <ns3:cad>0</ns3:cad>
          </ns3:TrackPointExtension>
        </extensions>
      </trkpt>
      <trkpt lat="23.17569446749985218048095703125" lon="113.2496956922113895416259765625">
        <ele>13.3999996185302734375</ele>
        <time>2023-08-26T00:19:10.000Z</time>
        <extensions>
          <ns3:TrackPointExtension>
            <ns3:hr>112</ns3:hr>
            <ns3:cad>61</ns3:cad>
          </ns3:TrackPointExtension>
        </extensions>
      </trkpt>
      <trkpt lat="23.1755674816668033599853515625" lon="113.249686472117900848388671875">
        <ele>13.3999996185302734375</ele>
        <time>2023-08-26T00:19:24.000Z</time>
        <extensions>
          <ns3:TrackPointExtension>
            <ns3:hr>111</ns3:hr>
            <ns3:cad>61</ns3:cad>
          </ns3:TrackPointExtension>
        </extensions>
      </trkpt>
      <trkpt lat="23.17554007284343242645263671875" lon="113.24966308660805225372314453125">
        <ele>13.19999980926513671875</ele>
        <time>2023-08-26T00:19:27.000Z</time>
        <extensions>
          <ns3:TrackPointExtension>
            <ns3:hr>110</ns3:hr>
            <ns3:cad>61</ns3:cad>
          </ns3:TrackPointExtension>
        </extensions>
      </trkpt>
      <trkpt lat="23.175540827214717864990234375" lon="113.24962302111089229583740234375">
        <ele>13</ele>
        <time>2023-08-26T00:19:30.000Z</time>
        <extensions>
          <ns3:TrackPointExtension>
            <ns3:hr>110</ns3:hr>
            <ns3:cad>61</ns3:cad>
          </ns3:TrackPointExtension>
        </extensions>
      </trkpt>
      <trkpt lat="23.175559937953948974609375" lon="113.24958764947950839996337890625">
        <ele>13</ele>
        <time>2023-08-26T00:19:35.000Z</time>
        <extensions>
          <ns3:TrackPointExtension>
            <ns3:hr>110</ns3:hr>
            <ns3:cad>0</ns3:cad>
          </ns3:TrackPointExtension>
        </extensions>
      </trkpt>
      <trkpt lat="23.17549246363341808319091796875" lon="113.249529562890529632568359375">
        <ele>13</ele>
        <time>2023-08-26T00:19:40.000Z</time>
        <extensions>
          <ns3:TrackPointExtension>
            <ns3:hr>110</ns3:hr>
            <ns3:cad>59</ns3:cad>
          </ns3:TrackPointExtension>
        </extensions>
      </trkpt>
      <trkpt lat="23.175424821674823760986328125" lon="113.24951891787350177764892578125">
        <ele>13.19999980926513671875</ele>
        <time>2023-08-26T00:19:48.000Z</time>
        <extensions>
          <ns3:TrackPointExtension>
            <ns3:hr>109</ns3:hr>
            <ns3:cad>0</ns3:cad>
          </ns3:TrackPointExtension>
        </extensions>
      </trkpt>
      <trkpt lat="23.17532801069319248199462890625" lon="113.2494722306728363037109375">
        <ele>13.3999996185302734375</ele>
        <time>2023-08-26T00:19:58.000Z</time>
        <extensions>
          <ns3:TrackPointExtension>
            <ns3:hr>108</ns3:hr>
            <ns3:cad>61</ns3:cad>
          </ns3:TrackPointExtension>
        </extensions>
      </trkpt>
      <trkpt lat="23.17528836429119110107421875" lon="113.24943937361240386962890625">
        <ele>13.6000003814697265625</ele>
        <time>2023-08-26T00:20:01.000Z</time>
        <extensions>
          <ns3:TrackPointExtension>
            <ns3:hr>109</ns3:hr>
            <ns3:cad>60</ns3:cad>
          </ns3:TrackPointExtension>
        </extensions>
      </trkpt>
      <trkpt lat="23.1752392463386058807373046875" lon="113.24940056540071964263916015625">
        <ele>13.80000019073486328125</ele>
        <time>2023-08-26T00:20:05.000Z</time>
        <extensions>
          <ns3:TrackPointExtension>
            <ns3:hr>108</ns3:hr>
            <ns3:cad>0</ns3:cad>
          </ns3:TrackPointExtension>
        </extensions>
      </trkpt>
      <trkpt lat="23.17502307705581188201904296875" lon="113.24926503002643585205078125">
        <ele>12</ele>
        <time>2023-08-26T00:20:18.000Z</time>
        <extensions>
          <ns3:TrackPointExtension>
            <ns3:hr>107</ns3:hr>
            <ns3:cad>59</ns3:cad>
          </ns3:TrackPointExtension>
        </extensions>
      </trkpt>
      <trkpt lat="23.1749569438397884368896484375" lon="113.24923208914697170257568359375">
        <ele>11.19999980926513671875</ele>
        <time>2023-08-26T00:20:22.000Z</time>
        <extensions>
          <ns3:TrackPointExtension>
            <ns3:hr>108</ns3:hr>
            <ns3:cad>59</ns3:cad>
          </ns3:TrackPointExtension>
        </extensions>
      </trkpt>
      <trkpt lat="23.174947388470172882080078125" lon="113.2492160797119140625">
        <ele>11.19999980926513671875</ele>
        <time>2023-08-26T00:20:25.000Z</time>
        <extensions>
          <ns3:TrackPointExtension>
            <ns3:hr>108</ns3:hr>
            <ns3:cad>59</ns3:cad>
          </ns3:TrackPointExtension>
        </extensions>
      </trkpt>
      <trkpt lat="23.17494780756533145904541015625" lon="113.24919353239238262176513671875">
        <ele>11.19999980926513671875</ele>
        <time>2023-08-26T00:20:28.000Z</time>
        <extensions>
          <ns3:TrackPointExtension>
            <ns3:hr>108</ns3:hr>
            <ns3:cad>59</ns3:cad>
          </ns3:TrackPointExtension>
        </extensions>
      </trkpt>
      <trkpt lat="23.174950741231441497802734375" lon="113.24916738085448741912841796875">
        <ele>11.3999996185302734375</ele>
        <time>2023-08-26T00:20:32.000Z</time>
        <extensions>
          <ns3:TrackPointExtension>
            <ns3:hr>108</ns3:hr>
            <ns3:cad>0</ns3:cad>
          </ns3:TrackPointExtension>
        </extensions>
      </trkpt>
      <trkpt lat="23.17494906485080718994140625" lon="113.24916352517902851104736328125">
        <ele>11.3999996185302734375</ele>
        <time>2023-08-26T00:20:33.000Z</time>
        <extensions>
          <ns3:TrackPointExtension>
            <ns3:hr>107</ns3:hr>
            <ns3:cad>0</ns3:cad>
          </ns3:TrackPointExtension>
        </extensions>
      </trkpt>
      <trkpt lat="23.17493556998670101165771484375" lon="113.24913770891726016998291015625">
        <ele>11.19999980926513671875</ele>
        <time>2023-08-26T00:20:37.000Z</time>
        <extensions>
          <ns3:TrackPointExtension>
            <ns3:hr>107</ns3:hr>
            <ns3:cad>61</ns3:cad>
          </ns3:TrackPointExtension>
        </extensions>
      </trkpt>
      <trkpt lat="23.1749140284955501556396484375" lon="113.2491475157439708709716796875">
        <ele>10.80000019073486328125</ele>
        <time>2023-08-26T00:20:38.000Z</time>
        <extensions>
          <ns3:TrackPointExtension>
            <ns3:hr>107</ns3:hr>
            <ns3:cad>0</ns3:cad>
          </ns3:TrackPointExtension>
        </extensions>
      </trkpt>
      <trkpt lat="23.17489399574697017669677734375" lon="113.2491552270948886871337890625">
        <ele>10.3999996185302734375</ele>
        <time>2023-08-26T00:20:44.000Z</time>
        <extensions>
          <ns3:TrackPointExtension>
            <ns3:hr>107</ns3:hr>
            <ns3:cad>61</ns3:cad>
          </ns3:TrackPointExtension>
        </extensions>
      </trkpt>
      <trkpt lat="23.17485929466784000396728515625" lon="113.2491599209606647491455078125">
        <ele>9.6000003814697265625</ele>
        <time>2023-08-26T00:20:47.000Z</time>
        <extensions>
          <ns3:TrackPointExtension>
            <ns3:hr>106</ns3:hr>
            <ns3:cad>61</ns3:cad>
          </ns3:TrackPointExtension>
        </extensions>
      </trkpt>
      <trkpt lat="23.174840100109577178955078125" lon="113.24916151352226734161376953125">
        <ele>9.19999980926513671875</ele>
        <time>2023-08-26T00:20:50.000Z</time>
        <extensions>
          <ns3:TrackPointExtension>
            <ns3:hr>106</ns3:hr>
            <ns3:cad>0</ns3:cad>
          </ns3:TrackPointExtension>
        </extensions>
      </trkpt>
      <trkpt lat="23.1748171336948871612548828125" lon="113.24916335754096508026123046875">
        <ele>8.80000019073486328125</ele>
        <time>2023-08-26T00:20:53.000Z</time>
        <extensions>
          <ns3:TrackPointExtension>
            <ns3:hr>107</ns3:hr>
            <ns3:cad>61</ns3:cad>
          </ns3:TrackPointExtension>
        </extensions>
      </trkpt>
      <trkpt lat="23.1747217476367950439453125" lon="113.24921700172126293182373046875">
        <ele>7</ele>
        <time>2023-08-26T00:21:27.000Z</time>
        <extensions>
          <ns3:TrackPointExtension>
            <ns3:hr>106</ns3:hr>
            <ns3:cad>0</ns3:cad>
          </ns3:TrackPointExtension>
        </extensions>
      </trkpt>
      <trkpt lat="23.17473440431058406829833984375" lon="113.24919939972460269927978515625">
        <ele>6.80000019073486328125</ele>
        <time>2023-08-26T00:21:30.000Z</time>
        <extensions>
          <ns3:TrackPointExtension>
            <ns3:hr>104</ns3:hr>
            <ns3:cad>0</ns3:cad>
          </ns3:TrackPointExtension>
        </extensions>
      </trkpt>
      <trkpt lat="23.1747648306190967559814453125" lon="113.24916905723512172698974609375">
        <ele>7.599999904632568359375</ele>
        <time>2023-08-26T00:21:34.000Z</time>
        <extensions>
          <ns3:TrackPointExtension>
            <ns3:hr>102</ns3:hr>
            <ns3:cad>0</ns3:cad>
          </ns3:TrackPointExtension>
        </extensions>
      </trkpt>
      <trkpt lat="23.17479257471859455108642578125" lon="113.2491361163556575775146484375">
        <ele>8.3999996185302734375</ele>
        <time>2023-08-26T00:21:43.000Z</time>
        <extensions>
          <ns3:TrackPointExtension>
            <ns3:hr>100</ns3:hr>
            <ns3:cad>0</ns3:cad>
          </ns3:TrackPointExtension>
        </extensions>
      </trkpt>
      <trkpt lat="23.17481822334229946136474609375" lon="113.249060176312923431396484375">
        <ele>8.80000019073486328125</ele>
        <time>2023-08-26T00:21:51.000Z</time>
        <extensions>
          <ns3:TrackPointExtension>
            <ns3:hr>97</ns3:hr>
            <ns3:cad>61</ns3:cad>
          </ns3:TrackPointExtension>
        </extensions>
      </trkpt>
      <trkpt lat="23.1750018708407878875732421875" lon="113.2489694841206073760986328125">
        <ele>11.6000003814697265625</ele>
        <time>2023-08-26T00:21:54.000Z</time>
        <extensions>
          <ns3:TrackPointExtension>
            <ns3:hr>97</ns3:hr>
            <ns3:cad>61</ns3:cad>
          </ns3:TrackPointExtension>
        </extensions>
      </trkpt>
      <trkpt lat="23.175019137561321258544921875" lon="113.24894559569656848907470703125">
        <ele>11.80000019073486328125</ele>
        <time>2023-08-26T00:21:57.000Z</time>
        <extensions>
          <ns3:TrackPointExtension>
            <ns3:hr>96</ns3:hr>
            <ns3:cad>61</ns3:cad>
          </ns3:TrackPointExtension>
        </extensions>
      </trkpt>
      <trkpt lat="23.17503129132091999053955078125" lon="113.24892841279506683349609375">
        <ele>11.80000019073486328125</ele>
        <time>2023-08-26T00:22:00.000Z</time>
        <extensions>
          <ns3:TrackPointExtension>
            <ns3:hr>95</ns3:hr>
            <ns3:cad>61</ns3:cad>
          </ns3:TrackPointExtension>
        </extensions>
      </trkpt>
      <trkpt lat="23.175074793398380279541015625" lon="113.2488839887082576751708984375">
        <ele>12.19999980926513671875</ele>
        <time>2023-08-26T00:22:04.000Z</time>
        <extensions>
          <ns3:TrackPointExtension>
            <ns3:hr>95</ns3:hr>
            <ns3:cad>0</ns3:cad>
          </ns3:TrackPointExtension>
        </extensions>
      </trkpt>
      <trkpt lat="23.175103962421417236328125" lon="113.24886269867420196533203125">
        <ele>12.3999996185302734375</ele>
        <time>2023-08-26T00:22:05.000Z</time>
        <extensions>
          <ns3:TrackPointExtension>
            <ns3:hr>101</ns3:hr>
            <ns3:cad>0</ns3:cad>
          </ns3:TrackPointExtension>
        </extensions>
      </trkpt>
      <trkpt lat="23.175103962421417236328125" lon="113.24886269867420196533203125">
        <ele>12.3999996185302734375</ele>
        <time>2023-08-26T00:22:06.000Z</time>
        <extensions>
          <ns3:TrackPointExtension>
            <ns3:hr>101</ns3:hr>
            <ns3:cad>0</ns3:cad>
          </ns3:TrackPointExtension>
        </extensions>
      </trkpt>
      <trkpt lat="23.17514863796532154083251953125" lon="113.24883185327053070068359375">
        <ele>12.80000019073486328125</ele>
        <time>2023-08-26T00:22:09.000Z</time>
        <extensions>
          <ns3:TrackPointExtension>
            <ns3:hr>98</ns3:hr>
            <ns3:cad>0</ns3:cad>
          </ns3:TrackPointExtension>
        </extensions>
      </trkpt>
      <trkpt lat="23.1751668266952037811279296875" lon="113.2488212920725345611572265625">
        <ele>12.80000019073486328125</ele>
        <time>2023-08-26T00:22:11.000Z</time>
        <extensions>
          <ns3:TrackPointExtension>
            <ns3:hr>96</ns3:hr>
            <ns3:cad>60</ns3:cad>
          </ns3:TrackPointExtension>
        </extensions>
      </trkpt>
      <trkpt lat="23.17520228214561939239501953125" lon="113.248782567679882049560546875">
        <ele>12.6000003814697265625</ele>
        <time>2023-08-26T00:22:14.000Z</time>
        <extensions>
          <ns3:TrackPointExtension>
            <ns3:hr>96</ns3:hr>
            <ns3:cad>59</ns3:cad>
          </ns3:TrackPointExtension>
        </extensions>
      </trkpt>
      <trkpt lat="23.1752261705696582794189453125" lon="113.24875214137136936187744140625">
        <ele>12</ele>
        <time>2023-08-26T00:22:16.000Z</time>
        <extensions>
          <ns3:TrackPointExtension>
            <ns3:hr>100</ns3:hr>
            <ns3:cad>59</ns3:cad>
          </ns3:TrackPointExtension>
        </extensions>
      </trkpt>
      <trkpt lat="23.17530353553593158721923828125" lon="113.2487163506448268890380859375">
        <ele>10.6000003814697265625</ele>
        <time>2023-08-26T00:22:17.000Z</time>
        <extensions>
          <ns3:TrackPointExtension>
            <ns3:hr>101</ns3:hr>
            <ns3:cad>61</ns3:cad>
          </ns3:TrackPointExtension>
        </extensions>
      </trkpt>
      <trkpt lat="23.1753354705870151519775390625" lon="113.2486875168979167938232421875">
        <ele>10</ele>
        <time>2023-08-26T00:22:20.000Z</time>
        <extensions>
          <ns3:TrackPointExtension>
            <ns3:hr>102</ns3:hr>
            <ns3:cad>0</ns3:cad>
          </ns3:TrackPointExtension>
        </extensions>
      </trkpt>
      <trkpt lat="23.1753495521843433380126953125" lon="113.2486751116812229156494140625">
        <ele>10</ele>
        <time>2023-08-26T00:22:21.000Z</time>
        <extensions>
          <ns3:TrackPointExtension>
            <ns3:hr>105</ns3:hr>
            <ns3:cad>0</ns3:cad>
          </ns3:TrackPointExtension>
        </extensions>
      </trkpt>
      <trkpt lat="23.175346367061138153076171875" lon="113.2486675679683685302734375">
        <ele>10</ele>
        <time>2023-08-26T00:22:23.000Z</time>
        <extensions>
          <ns3:TrackPointExtension>
            <ns3:hr>105</ns3:hr>
            <ns3:cad>0</ns3:cad>
          </ns3:TrackPointExtension>
        </extensions>
      </trkpt>
      <trkpt lat="23.17543647252023220062255859375" lon="113.24861970730125904083251953125">
        <ele>9.80000019073486328125</ele>
        <time>2023-08-26T00:22:27.000Z</time>
        <extensions>
          <ns3:TrackPointExtension>
            <ns3:hr>105</ns3:hr>
            <ns3:cad>0</ns3:cad>
          </ns3:TrackPointExtension>
        </extensions>
      </trkpt>
      <trkpt lat="23.175568990409374237060546875" lon="113.24860545806586742401123046875">
        <ele>11</ele>
        <time>2023-08-26T00:22:33.000Z</time>
        <extensions>
          <ns3:TrackPointExtension>
            <ns3:hr>105</ns3:hr>
            <ns3:cad>61</ns3:cad>
          </ns3:TrackPointExtension>
        </extensions>
      </trkpt>
      <trkpt lat="23.17558114416897296905517578125" lon="113.2486053742468357086181640625">
        <ele>11.19999980926513671875</ele>
        <time>2023-08-26T00:22:35.000Z</time>
        <extensions>
          <ns3:TrackPointExtension>
            <ns3:hr>104</ns3:hr>
            <ns3:cad>61</ns3:cad>
          </ns3:TrackPointExtension>
        </extensions>
      </trkpt>
      <trkpt lat="23.1755782105028629302978515625" lon="113.248616270720958709716796875">
        <ele>11.19999980926513671875</ele>
        <time>2023-08-26T00:22:38.000Z</time>
        <extensions>
          <ns3:TrackPointExtension>
            <ns3:hr>104</ns3:hr>
            <ns3:cad>61</ns3:cad>
          </ns3:TrackPointExtension>
        </extensions>
      </trkpt>
      <trkpt lat="23.175553567707538604736328125" lon="113.24867620132863521575927734375">
        <ele>11.19999980926513671875</ele>
        <time>2023-08-26T00:22:42.000Z</time>
        <extensions>
          <ns3:TrackPointExtension>
            <ns3:hr>106</ns3:hr>
            <ns3:cad>61</ns3:cad>
          </ns3:TrackPointExtension>
        </extensions>
      </trkpt>
      <trkpt lat="23.175582401454448699951171875" lon="113.24874191544950008392333984375">
        <ele>11.3999996185302734375</ele>
        <time>2023-08-26T00:22:45.000Z</time>
        <extensions>
          <ns3:TrackPointExtension>
            <ns3:hr>105</ns3:hr>
            <ns3:cad>61</ns3:cad>
          </ns3:TrackPointExtension>
        </extensions>
      </trkpt>
      <trkpt lat="23.17558634094893932342529296875" lon="113.24882975779473781585693359375">
        <ele>11.19999980926513671875</ele>
        <time>2023-08-26T00:22:52.000Z</time>
        <extensions>
          <ns3:TrackPointExtension>
            <ns3:hr>103</ns3:hr>
            <ns3:cad>116</ns3:cad>
          </ns3:TrackPointExtension>
        </extensions>
      </trkpt>
      <trkpt lat="23.17556370981037616729736328125" lon="113.24886999092996120452880859375">
        <ele>11</ele>
        <time>2023-08-26T00:22:56.000Z</time>
        <extensions>
          <ns3:TrackPointExtension>
            <ns3:hr>104</ns3:hr>
            <ns3:cad>116</ns3:cad>
          </ns3:TrackPointExtension>
        </extensions>
      </trkpt>
      <trkpt lat="23.17555616609752178192138671875" lon="113.24890284799039363861083984375">
        <ele>11</ele>
        <time>2023-08-26T00:22:57.000Z</time>
        <extensions>
          <ns3:TrackPointExtension>
            <ns3:hr>103</ns3:hr>
            <ns3:cad>116</ns3:cad>
          </ns3:TrackPointExtension>
        </extensions>
      </trkpt>
      <trkpt lat="23.17554610781371593475341796875" lon="113.248968981206417083740234375">
        <ele>11.80000019073486328125</ele>
        <time>2023-08-26T00:23:05.000Z</time>
        <extensions>
          <ns3:TrackPointExtension>
            <ns3:hr>103</ns3:hr>
            <ns3:cad>59</ns3:cad>
          </ns3:TrackPointExtension>
        </extensions>
      </trkpt>
      <trkpt lat="23.17557158879935741424560546875" lon="113.24917115271091461181640625">
        <ele>13.19999980926513671875</ele>
        <time>2023-08-26T00:23:21.000Z</time>
        <extensions>
          <ns3:TrackPointExtension>
            <ns3:hr>103</ns3:hr>
            <ns3:cad>59</ns3:cad>
          </ns3:TrackPointExtension>
        </extensions>
      </trkpt>
      <trkpt lat="23.1755693256855010986328125" lon="113.24923879466950893402099609375">
        <ele>13</ele>
        <time>2023-08-26T00:23:28.000Z</time>
        <extensions>
          <ns3:TrackPointExtension>
            <ns3:hr>105</ns3:hr>
            <ns3:cad>0</ns3:cad>
          </ns3:TrackPointExtension>
        </extensions>
      </trkpt>
      <trkpt lat="23.17560478113591670989990234375" lon="113.24928154237568378448486328125">
        <ele>13</ele>
        <time>2023-08-26T00:23:32.000Z</time>
        <extensions>
          <ns3:TrackPointExtension>
            <ns3:hr>105</ns3:hr>
            <ns3:cad>61</ns3:cad>
          </ns3:TrackPointExtension>
        </extensions>
      </trkpt>
      <trkpt lat="23.1756523065268993377685546875" lon="113.24945186264812946319580078125">
        <ele>13</ele>
        <time>2023-08-26T00:23:47.000Z</time>
        <extensions>
          <ns3:TrackPointExtension>
            <ns3:hr>104</ns3:hr>
            <ns3:cad>58</ns3:cad>
          </ns3:TrackPointExtension>
        </extensions>
      </trkpt>
      <trkpt lat="23.17565524019300937652587890625" lon="113.24945638887584209442138671875">
        <ele>13</ele>
        <time>2023-08-26T00:23:49.000Z</time>
        <extensions>
          <ns3:TrackPointExtension>
            <ns3:hr>104</ns3:hr>
            <ns3:cad>59</ns3:cad>
          </ns3:TrackPointExtension>
        </extensions>
      </trkpt>
      <trkpt lat="23.1756751053035259246826171875" lon="113.24953869916498661041259765625">
        <ele>13</ele>
        <time>2023-08-26T00:23:58.000Z</time>
        <extensions>
          <ns3:TrackPointExtension>
            <ns3:hr>104</ns3:hr>
            <ns3:cad>58</ns3:cad>
          </ns3:TrackPointExtension>
        </extensions>
      </trkpt>
      <trkpt lat="23.17568893544375896453857421875" lon="113.249561749398708343505859375">
        <ele>13</ele>
        <time>2023-08-26T00:24:02.000Z</time>
        <extensions>
          <ns3:TrackPointExtension>
            <ns3:hr>105</ns3:hr>
            <ns3:cad>112</ns3:cad>
          </ns3:TrackPointExtension>
        </extensions>
      </trkpt>
      <trkpt lat="23.17570150829851627349853515625" lon="113.249592594802379608154296875">
        <ele>13</ele>
        <time>2023-08-26T00:24:05.000Z</time>
        <extensions>
          <ns3:TrackPointExtension>
            <ns3:hr>104</ns3:hr>
            <ns3:cad>112</ns3:cad>
          </ns3:TrackPointExtension>
        </extensions>
      </trkpt>
      <trkpt lat="23.1757213734090328216552734375" lon="113.24961505830287933349609375">
        <ele>13</ele>
        <time>2023-08-26T00:24:07.000Z</time>
        <extensions>
          <ns3:TrackPointExtension>
            <ns3:hr>104</ns3:hr>
            <ns3:cad>57</ns3:cad>
          </ns3:TrackPointExtension>
        </extensions>
      </trkpt>
      <trkpt lat="23.17572413943707942962646484375" lon="113.24963659979403018951416015625">
        <ele>13</ele>
        <time>2023-08-26T00:24:10.000Z</time>
        <extensions>
          <ns3:TrackPointExtension>
            <ns3:hr>105</ns3:hr>
            <ns3:cad>57</ns3:cad>
          </ns3:TrackPointExtension>
        </extensions>
      </trkpt>
      <trkpt lat="23.17571944557130336761474609375" lon="113.24964632280170917510986328125">
        <ele>13</ele>
        <time>2023-08-26T00:24:12.000Z</time>
        <extensions>
          <ns3:TrackPointExtension>
            <ns3:hr>105</ns3:hr>
            <ns3:cad>56</ns3:cad>
          </ns3:TrackPointExtension>
        </extensions>
      </trkpt>
      <trkpt lat="23.1757342815399169921875" lon="113.2496826164424419403076171875">
        <ele>13.3999996185302734375</ele>
        <time>2023-08-26T00:24:16.000Z</time>
        <extensions>
          <ns3:TrackPointExtension>
            <ns3:hr>106</ns3:hr>
            <ns3:cad>59</ns3:cad>
          </ns3:TrackPointExtension>
        </extensions>
      </trkpt>
      <trkpt lat="23.17573956213891506195068359375" lon="113.24968940578401088714599609375">
        <ele>13.3999996185302734375</ele>
        <time>2023-08-26T00:24:18.000Z</time>
        <extensions>
          <ns3:TrackPointExtension>
            <ns3:hr>106</ns3:hr>
            <ns3:cad>61</ns3:cad>
          </ns3:TrackPointExtension>
        </extensions>
      </trkpt>
      <trkpt lat="23.175770826637744903564453125" lon="113.2497158087790012359619140625">
        <ele>13.19999980926513671875</ele>
        <time>2023-08-26T00:24:22.000Z</time>
        <extensions>
          <ns3:TrackPointExtension>
            <ns3:hr>105</ns3:hr>
            <ns3:cad>0</ns3:cad>
          </ns3:TrackPointExtension>
        </extensions>
      </trkpt>
      <trkpt lat="23.17588607780635356903076171875" lon="113.24967213906347751617431640625">
        <ele>12</ele>
        <time>2023-08-26T00:24:38.000Z</time>
        <extensions>
          <ns3:TrackPointExtension>
            <ns3:hr>106</ns3:hr>
            <ns3:cad>0</ns3:cad>
          </ns3:TrackPointExtension>
        </extensions>
      </trkpt>
      <trkpt lat="23.1759180128574371337890625" lon="113.24965386651456356048583984375">
        <ele>11.80000019073486328125</ele>
        <time>2023-08-26T00:24:41.000Z</time>
        <extensions>
          <ns3:TrackPointExtension>
            <ns3:hr>105</ns3:hr>
            <ns3:cad>0</ns3:cad>
          </ns3:TrackPointExtension>
        </extensions>
      </trkpt>
      <trkpt lat="23.1759517081081867218017578125" lon="113.24963517487049102783203125">
        <ele>11.3999996185302734375</ele>
        <time>2023-08-26T00:24:43.000Z</time>
        <extensions>
          <ns3:TrackPointExtension>
            <ns3:hr>104</ns3:hr>
            <ns3:cad>0</ns3:cad>
          </ns3:TrackPointExtension>
        </extensions>
      </trkpt>
      <trkpt lat="23.176057823002338409423828125" lon="113.2496447302401065826416015625">
        <ele>11.3999996185302734375</ele>
        <time>2023-08-26T00:24:48.000Z</time>
        <extensions>
          <ns3:TrackPointExtension>
            <ns3:hr>103</ns3:hr>
            <ns3:cad>60</ns3:cad>
          </ns3:TrackPointExtension>
        </extensions>
      </trkpt>
      <trkpt lat="23.176114819943904876708984375" lon="113.24965571053326129913330078125">
        <ele>11.6000003814697265625</ele>
        <time>2023-08-26T00:24:52.000Z</time>
        <extensions>
          <ns3:TrackPointExtension>
            <ns3:hr>103</ns3:hr>
            <ns3:cad>60</ns3:cad>
          </ns3:TrackPointExtension>
        </extensions>
      </trkpt>
      <trkpt lat="23.17616972140967845916748046875" lon="113.249665684998035430908203125">
        <ele>12</ele>
        <time>2023-08-26T00:24:58.000Z</time>
        <extensions>
          <ns3:TrackPointExtension>
            <ns3:hr>103</ns3:hr>
            <ns3:cad>60</ns3:cad>
          </ns3:TrackPointExtension>
        </extensions>
      </trkpt>
      <trkpt lat="23.1761877425014972686767578125" lon="113.24967163614928722381591796875">
        <ele>12.19999980926513671875</ele>
        <time>2023-08-26T00:25:00.000Z</time>
        <extensions>
          <ns3:TrackPointExtension>
            <ns3:hr>104</ns3:hr>
            <ns3:cad>60</ns3:cad>
          </ns3:TrackPointExtension>
        </extensions>
      </trkpt>
      <trkpt lat="23.17620391957461833953857421875" lon="113.249674402177333831787109375">
        <ele>12.3999996185302734375</ele>
        <time>2023-08-26T00:25:07.000Z</time>
        <extensions>
          <ns3:TrackPointExtension>
            <ns3:hr>105</ns3:hr>
            <ns3:cad>0</ns3:cad>
          </ns3:TrackPointExtension>
        </extensions>
      </trkpt>
      <trkpt lat="23.1761998124420642852783203125" lon="113.249700553715229034423828125">
        <ele>12.19999980926513671875</ele>
        <time>2023-08-26T00:25:10.000Z</time>
        <extensions>
          <ns3:TrackPointExtension>
            <ns3:hr>104</ns3:hr>
            <ns3:cad>0</ns3:cad>
          </ns3:TrackPointExtension>
        </extensions>
      </trkpt>
      <trkpt lat="23.176205344498157501220703125" lon="113.24970834888517856597900390625">
        <ele>12.3999996185302734375</ele>
        <time>2023-08-26T00:25:16.000Z</time>
        <extensions>
          <ns3:TrackPointExtension>
            <ns3:hr>103</ns3:hr>
            <ns3:cad>0</ns3:cad>
          </ns3:TrackPointExtension>
        </extensions>
      </trkpt>
      <trkpt lat="23.17620207555592060089111328125" lon="113.24970985762774944305419921875">
        <ele>12.3999996185302734375</ele>
        <time>2023-08-26T00:25:19.000Z</time>
        <extensions>
          <ns3:TrackPointExtension>
            <ns3:hr>104</ns3:hr>
            <ns3:cad>0</ns3:cad>
          </ns3:TrackPointExtension>
        </extensions>
      </trkpt>
      <trkpt lat="23.1762387044727802276611328125" lon="113.24976249597966670989990234375">
        <ele>12.6000003814697265625</ele>
        <time>2023-08-26T00:25:41.000Z</time>
        <extensions>
          <ns3:TrackPointExtension>
            <ns3:hr>105</ns3:hr>
            <ns3:cad>53</ns3:cad>
          </ns3:TrackPointExtension>
        </extensions>
      </trkpt>
      <trkpt lat="23.1762640178203582763671875" lon="113.2498127035796642303466796875">
        <ele>12.80000019073486328125</ele>
        <time>2023-08-26T00:25:48.000Z</time>
        <extensions>
          <ns3:TrackPointExtension>
            <ns3:hr>105</ns3:hr>
            <ns3:cad>55</ns3:cad>
          </ns3:TrackPointExtension>
        </extensions>
      </trkpt>
      <trkpt lat="23.17627198062837123870849609375" lon="113.2498700357973575592041015625">
        <ele>12.80000019073486328125</ele>
        <time>2023-08-26T00:25:55.000Z</time>
        <extensions>
          <ns3:TrackPointExtension>
            <ns3:hr>105</ns3:hr>
            <ns3:cad>116</ns3:cad>
          </ns3:TrackPointExtension>
        </extensions>
      </trkpt>
      <trkpt lat="23.17628824152052402496337890625" lon="113.24988520704209804534912109375">
        <ele>13</ele>
        <time>2023-08-26T00:25:58.000Z</time>
        <extensions>
          <ns3:TrackPointExtension>
            <ns3:hr>105</ns3:hr>
            <ns3:cad>53</ns3:cad>
          </ns3:TrackPointExtension>
        </extensions>
      </trkpt>
      <trkpt lat="23.176289834082126617431640625" lon="113.24990415014326572418212890625">
        <ele>13</ele>
        <time>2023-08-26T00:26:00.000Z</time>
        <extensions>
          <ns3:TrackPointExtension>
            <ns3:hr>105</ns3:hr>
            <ns3:cad>53</ns3:cad>
          </ns3:TrackPointExtension>
        </extensions>
      </trkpt>
      <trkpt lat="23.176317997276782989501953125" lon="113.249969445168972015380859375">
        <ele>13.19999980926513671875</ele>
        <time>2023-08-26T00:26:06.000Z</time>
        <extensions>
          <ns3:TrackPointExtension>
            <ns3:hr>105</ns3:hr>
            <ns3:cad>56</ns3:cad>
          </ns3:TrackPointExtension>
        </extensions>
      </trkpt>
      <trkpt lat="23.17636786960065364837646484375" lon="113.2499977760016918182373046875">
        <ele>13.80000019073486328125</ele>
        <time>2023-08-26T00:26:11.000Z</time>
        <extensions>
          <ns3:TrackPointExtension>
            <ns3:hr>105</ns3:hr>
            <ns3:cad>56</ns3:cad>
          </ns3:TrackPointExtension>
        </extensions>
      </trkpt>
      <trkpt lat="23.17637658677995204925537109375" lon="113.25000456534326076507568359375">
        <ele>13.80000019073486328125</ele>
        <time>2023-08-26T00:26:13.000Z</time>
        <extensions>
          <ns3:TrackPointExtension>
            <ns3:hr>106</ns3:hr>
            <ns3:cad>56</ns3:cad>
          </ns3:TrackPointExtension>
        </extensions>
      </trkpt>
      <trkpt lat="23.17637574858963489532470703125" lon="113.25004144571721553802490234375">
        <ele>13.80000019073486328125</ele>
        <time>2023-08-26T00:26:18.000Z</time>
        <extensions>
          <ns3:TrackPointExtension>
            <ns3:hr>106</ns3:hr>
            <ns3:cad>55</ns3:cad>
          </ns3:TrackPointExtension>
        </extensions>
      </trkpt>
      <trkpt lat="23.17632906138896942138671875" lon="113.25011034496128559112548828125">
        <ele>12.80000019073486328125</ele>
        <time>2023-08-26T00:26:26.000Z</time>
        <extensions>
          <ns3:TrackPointExtension>
            <ns3:hr>106</ns3:hr>
            <ns3:cad>54</ns3:cad>
          </ns3:TrackPointExtension>
        </extensions>
      </trkpt>
      <trkpt lat="23.176311962306499481201171875" lon="113.250153176486492156982421875">
        <ele>12.3999996185302734375</ele>
        <time>2023-08-26T00:26:29.000Z</time>
        <extensions>
          <ns3:TrackPointExtension>
            <ns3:hr>106</ns3:hr>
            <ns3:cad>59</ns3:cad>
          </ns3:TrackPointExtension>
        </extensions>
      </trkpt>
      <trkpt lat="23.17630969919264316558837890625" lon="113.2501754723489284515380859375">
        <ele>12.19999980926513671875</ele>
        <time>2023-08-26T00:26:31.000Z</time>
        <extensions>
          <ns3:TrackPointExtension>
            <ns3:hr>105</ns3:hr>
            <ns3:cad>59</ns3:cad>
          </ns3:TrackPointExtension>
        </extensions>
      </trkpt>
      <trkpt lat="23.17631707526743412017822265625" lon="113.25028904713690280914306640625">
        <ele>12.3999996185302734375</ele>
        <time>2023-08-26T00:26:42.000Z</time>
        <extensions>
          <ns3:TrackPointExtension>
            <ns3:hr>106</ns3:hr>
            <ns3:cad>57</ns3:cad>
          </ns3:TrackPointExtension>
        </extensions>
      </trkpt>
      <trkpt lat="23.1763713061809539794921875" lon="113.2503466308116912841796875">
        <ele>13</ele>
        <time>2023-08-26T00:26:46.000Z</time>
        <extensions>
          <ns3:TrackPointExtension>
            <ns3:hr>106</ns3:hr>
            <ns3:cad>55</ns3:cad>
          </ns3:TrackPointExtension>
        </extensions>
      </trkpt>
      <trkpt lat="23.17639905028045177459716796875" lon="113.250389210879802703857421875">
        <ele>13.3999996185302734375</ele>
        <time>2023-08-26T00:26:51.000Z</time>
        <extensions>
          <ns3:TrackPointExtension>
            <ns3:hr>106</ns3:hr>
            <ns3:cad>0</ns3:cad>
          </ns3:TrackPointExtension>
        </extensions>
      </trkpt>
      <trkpt lat="23.17642436362802982330322265625" lon="113.250403292477130889892578125">
        <ele>13.6000003814697265625</ele>
        <time>2023-08-26T00:26:54.000Z</time>
        <extensions>
          <ns3:TrackPointExtension>
            <ns3:hr>106</ns3:hr>
            <ns3:cad>58</ns3:cad>
          </ns3:TrackPointExtension>
        </extensions>
      </trkpt>
      <trkpt lat="23.176472224295139312744140625" lon="113.250413350760936737060546875">
        <ele>14</ele>
        <time>2023-08-26T00:27:06.000Z</time>
        <extensions>
          <ns3:TrackPointExtension>
            <ns3:hr>108</ns3:hr>
            <ns3:cad>56</ns3:cad>
          </ns3:TrackPointExtension>
        </extensions>
      </trkpt>
      <trkpt lat="23.1764760799705982208251953125" lon="113.25041293166577816009521484375">
        <ele>14</ele>
        <time>2023-08-26T00:27:08.000Z</time>
        <extensions>
          <ns3:TrackPointExtension>
            <ns3:hr>108</ns3:hr>
            <ns3:cad>56</ns3:cad>
          </ns3:TrackPointExtension>
        </extensions>
      </trkpt>
      <trkpt lat="23.17648597061634063720703125" lon="113.25040857307612895965576171875">
        <ele>14</ele>
        <time>2023-08-26T00:27:10.000Z</time>
        <extensions>
          <ns3:TrackPointExtension>
            <ns3:hr>108</ns3:hr>
            <ns3:cad>56</ns3:cad>
          </ns3:TrackPointExtension>
        </extensions>
      </trkpt>
      <trkpt lat="23.1765079312026500701904296875" lon="113.25041678734123706817626953125">
        <ele>14.19999980926513671875</ele>
        <time>2023-08-26T00:27:12.000Z</time>
        <extensions>
          <ns3:TrackPointExtension>
            <ns3:hr>107</ns3:hr>
            <ns3:cad>56</ns3:cad>
          </ns3:TrackPointExtension>
        </extensions>
      </trkpt>
      <trkpt lat="23.17674941383302211761474609375" lon="113.2504316233098506927490234375">
        <ele>18.3999996185302734375</ele>
        <time>2023-08-26T00:27:25.000Z</time>
        <extensions>
          <ns3:TrackPointExtension>
            <ns3:hr>107</ns3:hr>
            <ns3:cad>57</ns3:cad>
          </ns3:TrackPointExtension>
        </extensions>
      </trkpt>
      <trkpt lat="23.17677388899028301239013671875" lon="113.25041435658931732177734375">
        <ele>18.799999237060546875</ele>
        <time>2023-08-26T00:27:27.000Z</time>
        <extensions>
          <ns3:TrackPointExtension>
            <ns3:hr>107</ns3:hr>
            <ns3:cad>57</ns3:cad>
          </ns3:TrackPointExtension>
        </extensions>
      </trkpt>
      <trkpt lat="23.17682401277124881744384765625" lon="113.2504332996904850006103515625">
        <ele>19.3999996185302734375</ele>
        <time>2023-08-26T00:27:32.000Z</time>
        <extensions>
          <ns3:TrackPointExtension>
            <ns3:hr>106</ns3:hr>
            <ns3:cad>0</ns3:cad>
          </ns3:TrackPointExtension>
        </extensions>
      </trkpt>
      <trkpt lat="23.1768713705241680145263671875" lon="113.2505335472524166107177734375">
        <ele>20.200000762939453125</ele>
        <time>2023-08-26T00:27:51.000Z</time>
        <extensions>
          <ns3:TrackPointExtension>
            <ns3:hr>106</ns3:hr>
            <ns3:cad>58</ns3:cad>
          </ns3:TrackPointExtension>
        </extensions>
      </trkpt>
      <trkpt lat="23.1768914870917797088623046875" lon="113.2505218125879764556884765625">
        <ele>20.3999996185302734375</ele>
        <time>2023-08-26T00:27:55.000Z</time>
        <extensions>
          <ns3:TrackPointExtension>
            <ns3:hr>106</ns3:hr>
            <ns3:cad>57</ns3:cad>
          </ns3:TrackPointExtension>
        </extensions>
      </trkpt>
      <trkpt lat="23.17695376463234424591064453125" lon="113.25048970989882946014404296875">
        <ele>22.200000762939453125</ele>
        <time>2023-08-26T00:27:59.000Z</time>
        <extensions>
          <ns3:TrackPointExtension>
            <ns3:hr>105</ns3:hr>
            <ns3:cad>55</ns3:cad>
          </ns3:TrackPointExtension>
        </extensions>
      </trkpt>
      <trkpt lat="23.17701394669711589813232421875" lon="113.2504721917212009429931640625">
        <ele>23.3999996185302734375</ele>
        <time>2023-08-26T00:28:05.000Z</time>
        <extensions>
          <ns3:TrackPointExtension>
            <ns3:hr>104</ns3:hr>
            <ns3:cad>0</ns3:cad>
          </ns3:TrackPointExtension>
        </extensions>
      </trkpt>
      <trkpt lat="23.17706189118325710296630859375" lon="113.2504785619676113128662109375">
        <ele>24.3999996185302734375</ele>
        <time>2023-08-26T00:28:07.000Z</time>
        <extensions>
          <ns3:TrackPointExtension>
            <ns3:hr>104</ns3:hr>
            <ns3:cad>0</ns3:cad>
          </ns3:TrackPointExtension>
        </extensions>
      </trkpt>
      <trkpt lat="23.1771120987832546234130859375" lon="113.25048811733722686767578125">
        <ele>25.6000003814697265625</ele>
        <time>2023-08-26T00:28:08.000Z</time>
        <extensions>
          <ns3:TrackPointExtension>
            <ns3:hr>104</ns3:hr>
            <ns3:cad>0</ns3:cad>
          </ns3:TrackPointExtension>
        </extensions>
      </trkpt>
      <trkpt lat="23.17716465331614017486572265625" lon="113.25051552616059780120849609375">
        <ele>25.6000003814697265625</ele>
        <time>2023-08-26T00:28:19.000Z</time>
        <extensions>
          <ns3:TrackPointExtension>
            <ns3:hr>106</ns3:hr>
            <ns3:cad>0</ns3:cad>
          </ns3:TrackPointExtension>
        </extensions>
      </trkpt>
      <trkpt lat="23.17714520730078220367431640625" lon="113.250495158135890960693359375">
        <ele>26</ele>
        <time>2023-08-26T00:28:24.000Z</time>
        <extensions>
          <ns3:TrackPointExtension>
            <ns3:hr>107</ns3:hr>
            <ns3:cad>0</ns3:cad>
          </ns3:TrackPointExtension>
        </extensions>
      </trkpt>
      <trkpt lat="23.17720689810812473297119140625" lon="113.25055760331451892852783203125">
        <ele>25.200000762939453125</ele>
        <time>2023-08-26T00:28:35.000Z</time>
        <extensions>
          <ns3:TrackPointExtension>
            <ns3:hr>110</ns3:hr>
            <ns3:cad>57</ns3:cad>
          </ns3:TrackPointExtension>
        </extensions>
      </trkpt>
      <trkpt lat="23.1772099994122982025146484375" lon="113.25056648813188076019287109375">
        <ele>25.200000762939453125</ele>
        <time>2023-08-26T00:28:36.000Z</time>
        <extensions>
          <ns3:TrackPointExtension>
            <ns3:hr>114</ns3:hr>
            <ns3:cad>0</ns3:cad>
          </ns3:TrackPointExtension>
        </extensions>
      </trkpt>
      <trkpt lat="23.17725685425102710723876953125" lon="113.250613510608673095703125">
        <ele>24.6000003814697265625</ele>
        <time>2023-08-26T00:28:37.000Z</time>
        <extensions>
          <ns3:TrackPointExtension>
            <ns3:hr>113</ns3:hr>
            <ns3:cad>0</ns3:cad>
          </ns3:TrackPointExtension>
        </extensions>
      </trkpt>
      <trkpt lat="23.17736883647739887237548828125" lon="113.25066522695124149322509765625">
        <ele>24.200000762939453125</ele>
        <time>2023-08-26T00:28:48.000Z</time>
        <extensions>
          <ns3:TrackPointExtension>
            <ns3:hr>116</ns3:hr>
            <ns3:cad>0</ns3:cad>
          </ns3:TrackPointExtension>
        </extensions>
      </trkpt>
      <trkpt lat="23.17742851562798023223876953125" lon="113.25074569322168827056884765625">
        <ele>23.200000762939453125</ele>
        <time>2023-08-26T00:29:07.000Z</time>
        <extensions>
          <ns3:TrackPointExtension>
            <ns3:hr>113</ns3:hr>
            <ns3:cad>0</ns3:cad>
          </ns3:TrackPointExtension>
        </extensions>
      </trkpt>
      <trkpt lat="23.177421726286411285400390625" lon="113.25077754445374011993408203125">
        <ele>23</ele>
        <time>2023-08-26T00:29:20.000Z</time>
        <extensions>
          <ns3:TrackPointExtension>
            <ns3:hr>110</ns3:hr>
            <ns3:cad>0</ns3:cad>
          </ns3:TrackPointExtension>
        </extensions>
      </trkpt>
      <trkpt lat="23.17741946317255496978759765625" lon="113.250797577202320098876953125">
        <ele>22.799999237060546875</ele>
        <time>2023-08-26T00:29:27.000Z</time>
        <extensions>
          <ns3:TrackPointExtension>
            <ns3:hr>107</ns3:hr>
            <ns3:cad>61</ns3:cad>
          </ns3:TrackPointExtension>
        </extensions>
      </trkpt>
      <trkpt lat="23.177417032420635223388671875" lon="113.25078760273754596710205078125">
        <ele>22.799999237060546875</ele>
        <time>2023-08-26T00:29:38.000Z</time>
        <extensions>
          <ns3:TrackPointExtension>
            <ns3:hr>103</ns3:hr>
            <ns3:cad>0</ns3:cad>
          </ns3:TrackPointExtension>
        </extensions>
      </trkpt>
      <trkpt lat="23.17741208709776401519775390625" lon="113.25076195411384105682373046875">
        <ele>23</ele>
        <time>2023-08-26T00:29:44.000Z</time>
        <extensions>
          <ns3:TrackPointExtension>
            <ns3:hr>100</ns3:hr>
            <ns3:cad>61</ns3:cad>
          </ns3:TrackPointExtension>
        </extensions>
      </trkpt>
      <trkpt lat="23.17740705795586109161376953125" lon="113.250747621059417724609375">
        <ele>23.200000762939453125</ele>
        <time>2023-08-26T00:29:47.000Z</time>
        <extensions>
          <ns3:TrackPointExtension>
            <ns3:hr>96</ns3:hr>
            <ns3:cad>61</ns3:cad>
          </ns3:TrackPointExtension>
        </extensions>
      </trkpt>
      <trkpt lat="23.1775836646556854248046875" lon="113.2507623732089996337890625">
        <ele>22.3999996185302734375</ele>
        <time>2023-08-26T00:30:03.000Z</time>
        <extensions>
          <ns3:TrackPointExtension>
            <ns3:hr>99</ns3:hr>
            <ns3:cad>60</ns3:cad>
          </ns3:TrackPointExtension>
        </extensions>
      </trkpt>
      <trkpt lat="23.177813328802585601806640625" lon="113.2508436776697635650634765625">
        <ele>22.3999996185302734375</ele>
        <time>2023-08-26T00:30:15.000Z</time>
        <extensions>
          <ns3:TrackPointExtension>
            <ns3:hr>100</ns3:hr>
            <ns3:cad>0</ns3:cad>
          </ns3:TrackPointExtension>
        </extensions>
      </trkpt>
      <trkpt lat="23.1778572499752044677734375" lon="113.25085901655256748199462890625">
        <ele>22.6000003814697265625</ele>
        <time>2023-08-26T00:30:18.000Z</time>
        <extensions>
          <ns3:TrackPointExtension>
            <ns3:hr>101</ns3:hr>
            <ns3:cad>0</ns3:cad>
          </ns3:TrackPointExtension>
        </extensions>
      </trkpt>
      <trkpt lat="23.17789941094815731048583984375" lon="113.25087075121700763702392578125">
        <ele>22.799999237060546875</ele>
        <time>2023-08-26T00:30:22.000Z</time>
        <extensions>
          <ns3:TrackPointExtension>
            <ns3:hr>98</ns3:hr>
            <ns3:cad>57</ns3:cad>
          </ns3:TrackPointExtension>
        </extensions>
      </trkpt>
      <trkpt lat="23.177896477282047271728515625" lon="113.25084057636559009552001953125">
        <ele>23</ele>
        <time>2023-08-26T00:30:24.000Z</time>
        <extensions>
          <ns3:TrackPointExtension>
            <ns3:hr>97</ns3:hr>
            <ns3:cad>57</ns3:cad>
          </ns3:TrackPointExtension>
        </extensions>
      </trkpt>
      <trkpt lat="23.1779271550476551055908203125" lon="113.25081291608512401580810546875">
        <ele>23.3999996185302734375</ele>
        <time>2023-08-26T00:30:28.000Z</time>
        <extensions>
          <ns3:TrackPointExtension>
            <ns3:hr>97</ns3:hr>
            <ns3:cad>54</ns3:cad>
          </ns3:TrackPointExtension>
        </extensions>
      </trkpt>
      <trkpt lat="23.1779512949287891387939453125" lon="113.25080822221934795379638671875">
        <ele>23.6000003814697265625</ele>
        <time>2023-08-26T00:30:31.000Z</time>
        <extensions>
          <ns3:TrackPointExtension>
            <ns3:hr>97</ns3:hr>
            <ns3:cad>54</ns3:cad>
          </ns3:TrackPointExtension>
        </extensions>
      </trkpt>
      <trkpt lat="23.178023211658000946044921875" lon="113.2507679052650928497314453125">
        <ele>24.200000762939453125</ele>
        <time>2023-08-26T00:30:40.000Z</time>
        <extensions>
          <ns3:TrackPointExtension>
            <ns3:hr>100</ns3:hr>
            <ns3:cad>0</ns3:cad>
          </ns3:TrackPointExtension>
        </extensions>
      </trkpt>
      <trkpt lat="23.1780213676393032073974609375" lon="113.2507313601672649383544921875">
        <ele>24.6000003814697265625</ele>
        <time>2023-08-26T00:30:46.000Z</time>
        <extensions>
          <ns3:TrackPointExtension>
            <ns3:hr>103</ns3:hr>
            <ns3:cad>0</ns3:cad>
          </ns3:TrackPointExtension>
        </extensions>
      </trkpt>
      <trkpt lat="23.1780284084379673004150390625" lon="113.25073814950883388519287109375">
        <ele>24.6000003814697265625</ele>
        <time>2023-08-26T00:30:47.000Z</time>
        <extensions>
          <ns3:TrackPointExtension>
            <ns3:hr>107</ns3:hr>
            <ns3:cad>0</ns3:cad>
          </ns3:TrackPointExtension>
        </extensions>
      </trkpt>
      <trkpt lat="23.1780284084379673004150390625" lon="113.25073814950883388519287109375">
        <ele>24.6000003814697265625</ele>
        <time>2023-08-26T00:30:48.000Z</time>
        <extensions>
          <ns3:TrackPointExtension>
            <ns3:hr>107</ns3:hr>
            <ns3:cad>0</ns3:cad>
          </ns3:TrackPointExtension>
        </extensions>
      </trkpt>
      <trkpt lat="23.17802899517118930816650390625" lon="113.25072842650115489959716796875">
        <ele>24.6000003814697265625</ele>
        <time>2023-08-26T00:30:49.000Z</time>
        <extensions>
          <ns3:TrackPointExtension>
            <ns3:hr>112</ns3:hr>
            <ns3:cad>0</ns3:cad>
          </ns3:TrackPointExtension>
        </extensions>
      </trkpt>
      <trkpt lat="23.17802899517118930816650390625" lon="113.25072842650115489959716796875">
        <ele>24.6000003814697265625</ele>
        <time>2023-08-26T00:30:50.000Z</time>
        <extensions>
          <ns3:TrackPointExtension>
            <ns3:hr>112</ns3:hr>
            <ns3:cad>0</ns3:cad>
          </ns3:TrackPointExtension>
        </extensions>
      </trkpt>
      <trkpt lat="23.17802681587636470794677734375" lon="113.2507085613906383514404296875">
        <ele>24.799999237060546875</ele>
        <time>2023-08-26T00:30:51.000Z</time>
        <extensions>
          <ns3:TrackPointExtension>
            <ns3:hr>115</ns3:hr>
            <ns3:cad>0</ns3:cad>
          </ns3:TrackPointExtension>
        </extensions>
      </trkpt>
      <trkpt lat="23.17802421748638153076171875" lon="113.25069867074489593505859375">
        <ele>25</ele>
        <time>2023-08-26T00:30:53.000Z</time>
        <extensions>
          <ns3:TrackPointExtension>
            <ns3:hr>114</ns3:hr>
            <ns3:cad>0</ns3:cad>
          </ns3:TrackPointExtension>
        </extensions>
      </trkpt>
      <trkpt lat="23.17802555859088897705078125" lon="113.250714428722858428955078125">
        <ele>24.799999237060546875</ele>
        <time>2023-08-26T00:30:54.000Z</time>
        <extensions>
          <ns3:TrackPointExtension>
            <ns3:hr>109</ns3:hr>
            <ns3:cad>0</ns3:cad>
          </ns3:TrackPointExtension>
        </extensions>
      </trkpt>
      <trkpt lat="23.17800150252878665924072265625" lon="113.2507248222827911376953125">
        <ele>24.6000003814697265625</ele>
        <time>2023-08-26T00:30:55.000Z</time>
        <extensions>
          <ns3:TrackPointExtension>
            <ns3:hr>105</ns3:hr>
            <ns3:cad>61</ns3:cad>
          </ns3:TrackPointExtension>
        </extensions>
      </trkpt>
      <trkpt lat="23.17800150252878665924072265625" lon="113.2507248222827911376953125">
        <ele>24.6000003814697265625</ele>
        <time>2023-08-26T00:30:56.000Z</time>
        <extensions>
          <ns3:TrackPointExtension>
            <ns3:hr>105</ns3:hr>
            <ns3:cad>61</ns3:cad>
          </ns3:TrackPointExtension>
        </extensions>
      </trkpt>
      <trkpt lat="23.17798205651342868804931640625" lon="113.25072406791150569915771484375">
        <ele>24.3999996185302734375</ele>
        <time>2023-08-26T00:30:58.000Z</time>
        <extensions>
          <ns3:TrackPointExtension>
            <ns3:hr>103</ns3:hr>
            <ns3:cad>61</ns3:cad>
          </ns3:TrackPointExtension>
        </extensions>
      </trkpt>
      <trkpt lat="23.1779766082763671875" lon="113.250714428722858428955078125">
        <ele>24.6000003814697265625</ele>
        <time>2023-08-26T00:31:00.000Z</time>
        <extensions>
          <ns3:TrackPointExtension>
            <ns3:hr>102</ns3:hr>
            <ns3:cad>61</ns3:cad>
          </ns3:TrackPointExtension>
        </extensions>
      </trkpt>
    </trkseg>
  </trk>
</gpx>
