<gpx xmlns:ns3="http://www.garmin.com/xmlschemas/TrackPointExtension/v1" xmlns="http://www.topografix.com/GPX/1/1" xmlns:xsi="http://www.w3.org/2001/XMLSchema-instance" xmlns:ns2="http://www.garmin.com/xmlschemas/GpxExtensions/v3" creator="Garmin Connect" version="1.1" xsi:schemaLocation="http://www.topografix.com/GPX/1/1 http://www.topografix.com/GPX/11.xsd">
  <extensions>
<distance>3710.36</distance>
<average_hr>149.0</average_hr>
<average_speed>1.7200000286102295</average_speed>
<start_time>2023-11-06T12:26:16+00:00</start_time>
<end_time>2023-11-06T13:02:13.447000+00:00</end_time>
<moving_time>2147.698</moving_time>
<elapsed_time>2157.447</elapsed_time>
</extensions>
<metadata>
    <link href="connect.garmin.com">
      <text>Garmin Connect</text>
    </link>
    <time>2023-11-06T12:26:16.000Z</time>
  </metadata>
  <trk>
    <name>广州市 跑步</name>
    <type>running</type>
    <trkseg>
      <trkpt lat="23.1833686865866184234619140625" lon="113.26530924998223781585693359375">
        <ele>4</ele>
        <time>2023-11-06T12:41:23.000Z</time>
        <extensions>
          <ns3:TrackPointExtension>
            <ns3:hr>145</ns3:hr>
            <ns3:cad>61</ns3:cad>
          </ns3:TrackPointExtension>
        </extensions>
      </trkpt>
      <trkpt lat="23.18401032127439975738525390625" lon="113.26554997824132442474365234375">
        <ele>-12.3999996185302734375</ele>
        <time>2023-11-06T12:41:34.000Z</time>
        <extensions>
          <ns3:TrackPointExtension>
            <ns3:hr>143</ns3:hr>
            <ns3:cad>61</ns3:cad>
          </ns3:TrackPointExtension>
        </extensions>
      </trkpt>
      <trkpt lat="23.18399020470678806304931640625" lon="113.26559741981327533721923828125">
        <ele>-8.80000019073486328125</ele>
        <time>2023-11-06T12:41:38.000Z</time>
        <extensions>
          <ns3:TrackPointExtension>
            <ns3:hr>140</ns3:hr>
            <ns3:cad>61</ns3:cad>
          </ns3:TrackPointExtension>
        </extensions>
      </trkpt>
      <trkpt lat="23.183891884982585906982421875" lon="113.26579288579523563385009765625">
        <ele>-1.7999999523162841796875</ele>
        <time>2023-11-06T12:41:50.000Z</time>
        <extensions>
          <ns3:TrackPointExtension>
            <ns3:hr>140</ns3:hr>
            <ns3:cad>82</ns3:cad>
          </ns3:TrackPointExtension>
        </extensions>
      </trkpt>
      <trkpt lat="23.1837867759168148040771484375" lon="113.2658901996910572052001953125">
        <ele>2.2000000476837158203125</ele>
        <time>2023-11-06T12:41:55.000Z</time>
        <extensions>
          <ns3:TrackPointExtension>
            <ns3:hr>144</ns3:hr>
            <ns3:cad>80</ns3:cad>
          </ns3:TrackPointExtension>
        </extensions>
      </trkpt>
      <trkpt lat="23.1837596185505390167236328125" lon="113.2659300975501537322998046875">
        <ele>3.7999999523162841796875</ele>
        <time>2023-11-06T12:41:56.000Z</time>
        <extensions>
          <ns3:TrackPointExtension>
            <ns3:hr>149</ns3:hr>
            <ns3:cad>81</ns3:cad>
          </ns3:TrackPointExtension>
        </extensions>
      </trkpt>
      <trkpt lat="23.1837596185505390167236328125" lon="113.2659300975501537322998046875">
        <ele>3.7999999523162841796875</ele>
        <time>2023-11-06T12:41:57.000Z</time>
        <extensions>
          <ns3:TrackPointExtension>
            <ns3:hr>149</ns3:hr>
            <ns3:cad>81</ns3:cad>
          </ns3:TrackPointExtension>
        </extensions>
      </trkpt>
      <trkpt lat="23.18371075205504894256591796875" lon="113.26600779779255390167236328125">
        <ele>6.599999904632568359375</ele>
        <time>2023-11-06T12:42:00.000Z</time>
        <extensions>
          <ns3:TrackPointExtension>
            <ns3:hr>152</ns3:hr>
            <ns3:cad>82</ns3:cad>
          </ns3:TrackPointExtension>
        </extensions>
      </trkpt>
      <trkpt lat="23.1836486421525478363037109375" lon="113.26611860655248165130615234375">
        <ele>10</ele>
        <time>2023-11-06T12:42:04.000Z</time>
        <extensions>
          <ns3:TrackPointExtension>
            <ns3:hr>155</ns3:hr>
            <ns3:cad>83</ns3:cad>
          </ns3:TrackPointExtension>
        </extensions>
      </trkpt>
      <trkpt lat="23.1836265139281749725341796875" lon="113.2661691494286060333251953125">
        <ele>11</ele>
        <time>2023-11-06T12:42:05.000Z</time>
        <extensions>
          <ns3:TrackPointExtension>
            <ns3:hr>160</ns3:hr>
            <ns3:cad>83</ns3:cad>
          </ns3:TrackPointExtension>
        </extensions>
      </trkpt>
      <trkpt lat="23.1836265139281749725341796875" lon="113.2661691494286060333251953125">
        <ele>11</ele>
        <time>2023-11-06T12:42:06.000Z</time>
        <extensions>
          <ns3:TrackPointExtension>
            <ns3:hr>160</ns3:hr>
            <ns3:cad>83</ns3:cad>
          </ns3:TrackPointExtension>
        </extensions>
      </trkpt>
      <trkpt lat="23.183525763452053070068359375" lon="113.26632446609437465667724609375">
        <ele>12</ele>
        <time>2023-11-06T12:42:12.000Z</time>
        <extensions>
          <ns3:TrackPointExtension>
            <ns3:hr>162</ns3:hr>
            <ns3:cad>81</ns3:cad>
          </ns3:TrackPointExtension>
        </extensions>
      </trkpt>
      <trkpt lat="23.183421157300472259521484375" lon="113.2664202712476253509521484375">
        <ele>11.6000003814697265625</ele>
        <time>2023-11-06T12:42:19.000Z</time>
        <extensions>
          <ns3:TrackPointExtension>
            <ns3:hr>166</ns3:hr>
            <ns3:cad>82</ns3:cad>
          </ns3:TrackPointExtension>
        </extensions>
      </trkpt>
      <trkpt lat="23.18346164189279079437255859375" lon="113.2664893381297588348388671875">
        <ele>12.80000019073486328125</ele>
        <time>2023-11-06T12:42:20.000Z</time>
        <extensions>
          <ns3:TrackPointExtension>
            <ns3:hr>169</ns3:hr>
            <ns3:cad>82</ns3:cad>
          </ns3:TrackPointExtension>
        </extensions>
      </trkpt>
      <trkpt lat="23.18355887196958065032958984375" lon="113.26660257764160633087158203125">
        <ele>15.19999980926513671875</ele>
        <time>2023-11-06T12:42:26.000Z</time>
        <extensions>
          <ns3:TrackPointExtension>
            <ns3:hr>172</ns3:hr>
            <ns3:cad>84</ns3:cad>
          </ns3:TrackPointExtension>
        </extensions>
      </trkpt>
      <trkpt lat="23.18342752754688262939453125" lon="113.26678429730236530303955078125">
        <ele>11.6000003814697265625</ele>
        <time>2023-11-06T12:42:34.000Z</time>
        <extensions>
          <ns3:TrackPointExtension>
            <ns3:hr>171</ns3:hr>
            <ns3:cad>84</ns3:cad>
          </ns3:TrackPointExtension>
        </extensions>
      </trkpt>
      <trkpt lat="23.1832949258387088775634765625" lon="113.26696886681020259857177734375">
        <ele>9.6000003814697265625</ele>
        <time>2023-11-06T12:42:41.000Z</time>
        <extensions>
          <ns3:TrackPointExtension>
            <ns3:hr>171</ns3:hr>
            <ns3:cad>86</ns3:cad>
          </ns3:TrackPointExtension>
        </extensions>
      </trkpt>
      <trkpt lat="23.183212615549564361572265625" lon="113.26706458814442157745361328125">
        <ele>8.19999980926513671875</ele>
        <time>2023-11-06T12:42:47.000Z</time>
        <extensions>
          <ns3:TrackPointExtension>
            <ns3:hr>168</ns3:hr>
            <ns3:cad>85</ns3:cad>
          </ns3:TrackPointExtension>
        </extensions>
      </trkpt>
      <trkpt lat="23.18309920839965343475341796875" lon="113.26709928922355175018310546875">
        <ele>7.400000095367431640625</ele>
        <time>2023-11-06T12:42:53.000Z</time>
        <extensions>
          <ns3:TrackPointExtension>
            <ns3:hr>171</ns3:hr>
            <ns3:cad>84</ns3:cad>
          </ns3:TrackPointExtension>
        </extensions>
      </trkpt>
      <trkpt lat="23.1830692850053310394287109375" lon="113.26707514934241771697998046875">
        <ele>7.599999904632568359375</ele>
        <time>2023-11-06T12:42:54.000Z</time>
        <extensions>
          <ns3:TrackPointExtension>
            <ns3:hr>171</ns3:hr>
            <ns3:cad>85</ns3:cad>
          </ns3:TrackPointExtension>
        </extensions>
      </trkpt>
      <trkpt lat="23.183031566441059112548828125" lon="113.26704698614776134490966796875">
        <ele>7.80000019073486328125</ele>
        <time>2023-11-06T12:42:58.000Z</time>
        <extensions>
          <ns3:TrackPointExtension>
            <ns3:hr>167</ns3:hr>
            <ns3:cad>85</ns3:cad>
          </ns3:TrackPointExtension>
        </extensions>
      </trkpt>
      <trkpt lat="23.1829039938747882843017578125" lon="113.26696417294442653656005859375">
        <ele>7.80000019073486328125</ele>
        <time>2023-11-06T12:43:08.000Z</time>
        <extensions>
          <ns3:TrackPointExtension>
            <ns3:hr>170</ns3:hr>
            <ns3:cad>61</ns3:cad>
          </ns3:TrackPointExtension>
        </extensions>
      </trkpt>
      <trkpt lat="23.18289703689515590667724609375" lon="113.26689963229000568389892578125">
        <ele>8</ele>
        <time>2023-11-06T12:43:12.000Z</time>
        <extensions>
          <ns3:TrackPointExtension>
            <ns3:hr>167</ns3:hr>
            <ns3:cad>61</ns3:cad>
          </ns3:TrackPointExtension>
        </extensions>
      </trkpt>
      <trkpt lat="23.18285848014056682586669921875" lon="113.26690281741321086883544921875">
        <ele>7.599999904632568359375</ele>
        <time>2023-11-06T12:43:15.000Z</time>
        <extensions>
          <ns3:TrackPointExtension>
            <ns3:hr>168</ns3:hr>
            <ns3:cad>61</ns3:cad>
          </ns3:TrackPointExtension>
        </extensions>
      </trkpt>
      <trkpt lat="23.18282294087111949920654296875" lon="113.2668985426425933837890625">
        <ele>7.400000095367431640625</ele>
        <time>2023-11-06T12:43:18.000Z</time>
        <extensions>
          <ns3:TrackPointExtension>
            <ns3:hr>165</ns3:hr>
            <ns3:cad>61</ns3:cad>
          </ns3:TrackPointExtension>
        </extensions>
      </trkpt>
      <trkpt lat="23.1827521137893199920654296875" lon="113.26690147630870342254638671875">
        <ele>6.599999904632568359375</ele>
        <time>2023-11-06T12:43:22.000Z</time>
        <extensions>
          <ns3:TrackPointExtension>
            <ns3:hr>163</ns3:hr>
            <ns3:cad>60</ns3:cad>
          </ns3:TrackPointExtension>
        </extensions>
      </trkpt>
      <trkpt lat="23.1827442348003387451171875" lon="113.2668779231607913970947265625">
        <ele>6.599999904632568359375</ele>
        <time>2023-11-06T12:43:24.000Z</time>
        <extensions>
          <ns3:TrackPointExtension>
            <ns3:hr>163</ns3:hr>
            <ns3:cad>60</ns3:cad>
          </ns3:TrackPointExtension>
        </extensions>
      </trkpt>
      <trkpt lat="23.1826887466013431549072265625" lon="113.2668440602719783782958984375">
        <ele>5.80000019073486328125</ele>
        <time>2023-11-06T12:43:29.000Z</time>
        <extensions>
          <ns3:TrackPointExtension>
            <ns3:hr>159</ns3:hr>
            <ns3:cad>61</ns3:cad>
          </ns3:TrackPointExtension>
        </extensions>
      </trkpt>
      <trkpt lat="23.18268279545009136199951171875" lon="113.266811035573482513427734375">
        <ele>5.80000019073486328125</ele>
        <time>2023-11-06T12:43:32.000Z</time>
        <extensions>
          <ns3:TrackPointExtension>
            <ns3:hr>155</ns3:hr>
            <ns3:cad>61</ns3:cad>
          </ns3:TrackPointExtension>
        </extensions>
      </trkpt>
      <trkpt lat="23.1826357729732990264892578125" lon="113.266819082200527191162109375">
        <ele>6</ele>
        <time>2023-11-06T12:43:34.000Z</time>
        <extensions>
          <ns3:TrackPointExtension>
            <ns3:hr>152</ns3:hr>
            <ns3:cad>61</ns3:cad>
          </ns3:TrackPointExtension>
        </extensions>
      </trkpt>
      <trkpt lat="23.1825834698975086212158203125" lon="113.26674230396747589111328125">
        <ele>5.80000019073486328125</ele>
        <time>2023-11-06T12:43:41.000Z</time>
        <extensions>
          <ns3:TrackPointExtension>
            <ns3:hr>149</ns3:hr>
            <ns3:cad>61</ns3:cad>
          </ns3:TrackPointExtension>
        </extensions>
      </trkpt>
      <trkpt lat="23.182572238147258758544921875" lon="113.26671003364026546478271484375">
        <ele>5.80000019073486328125</ele>
        <time>2023-11-06T12:43:44.000Z</time>
        <extensions>
          <ns3:TrackPointExtension>
            <ns3:hr>146</ns3:hr>
            <ns3:cad>61</ns3:cad>
          </ns3:TrackPointExtension>
        </extensions>
      </trkpt>
      <trkpt lat="23.18249545991420745849609375" lon="113.2666673697531223297119140625">
        <ele>6</ele>
        <time>2023-11-06T12:43:48.000Z</time>
        <extensions>
          <ns3:TrackPointExtension>
            <ns3:hr>147</ns3:hr>
            <ns3:cad>61</ns3:cad>
          </ns3:TrackPointExtension>
        </extensions>
      </trkpt>
      <trkpt lat="23.1824393011629581451416015625" lon="113.266647420823574066162109375">
        <ele>6</ele>
        <time>2023-11-06T12:43:50.000Z</time>
        <extensions>
          <ns3:TrackPointExtension>
            <ns3:hr>143</ns3:hr>
            <ns3:cad>61</ns3:cad>
          </ns3:TrackPointExtension>
        </extensions>
      </trkpt>
      <trkpt lat="23.1823652051389217376708984375" lon="113.2665506936609745025634765625">
        <ele>6.599999904632568359375</ele>
        <time>2023-11-06T12:43:57.000Z</time>
        <extensions>
          <ns3:TrackPointExtension>
            <ns3:hr>141</ns3:hr>
            <ns3:cad>61</ns3:cad>
          </ns3:TrackPointExtension>
        </extensions>
      </trkpt>
      <trkpt lat="23.1822428293526172637939453125" lon="113.2663941197097301483154296875">
        <ele>7.80000019073486328125</ele>
        <time>2023-11-06T12:44:02.000Z</time>
        <extensions>
          <ns3:TrackPointExtension>
            <ns3:hr>141</ns3:hr>
            <ns3:cad>79</ns3:cad>
          </ns3:TrackPointExtension>
        </extensions>
      </trkpt>
      <trkpt lat="23.18208214826881885528564453125" lon="113.2662747614085674285888671875">
        <ele>9.3999996185302734375</ele>
        <time>2023-11-06T12:44:08.000Z</time>
        <extensions>
          <ns3:TrackPointExtension>
            <ns3:hr>141</ns3:hr>
            <ns3:cad>84</ns3:cad>
          </ns3:TrackPointExtension>
        </extensions>
      </trkpt>
      <trkpt lat="23.1819585151970386505126953125" lon="113.26621348969638347625732421875">
        <ele>10.19999980926513671875</ele>
        <time>2023-11-06T12:44:13.000Z</time>
        <extensions>
          <ns3:TrackPointExtension>
            <ns3:hr>146</ns3:hr>
            <ns3:cad>83</ns3:cad>
          </ns3:TrackPointExtension>
        </extensions>
      </trkpt>
      <trkpt lat="23.18193546496331691741943359375" lon="113.2661963067948818206787109375">
        <ele>10.3999996185302734375</ele>
        <time>2023-11-06T12:44:14.000Z</time>
        <extensions>
          <ns3:TrackPointExtension>
            <ns3:hr>153</ns3:hr>
            <ns3:cad>83</ns3:cad>
          </ns3:TrackPointExtension>
        </extensions>
      </trkpt>
      <trkpt lat="23.1819219700992107391357421875" lon="113.2661825604736804962158203125">
        <ele>10.6000003814697265625</ele>
        <time>2023-11-06T12:44:15.000Z</time>
        <extensions>
          <ns3:TrackPointExtension>
            <ns3:hr>153</ns3:hr>
            <ns3:cad>83</ns3:cad>
          </ns3:TrackPointExtension>
        </extensions>
      </trkpt>
      <trkpt lat="23.18188651464879512786865234375" lon="113.26614324934780597686767578125">
        <ele>10.80000019073486328125</ele>
        <time>2023-11-06T12:44:17.000Z</time>
        <extensions>
          <ns3:TrackPointExtension>
            <ns3:hr>156</ns3:hr>
            <ns3:cad>82</ns3:cad>
          </ns3:TrackPointExtension>
        </extensions>
      </trkpt>
      <trkpt lat="23.1818564236164093017578125" lon="113.266133777797222137451171875">
        <ele>11</ele>
        <time>2023-11-06T12:44:18.000Z</time>
        <extensions>
          <ns3:TrackPointExtension>
            <ns3:hr>160</ns3:hr>
            <ns3:cad>82</ns3:cad>
          </ns3:TrackPointExtension>
        </extensions>
      </trkpt>
      <trkpt lat="23.18180143833160400390625" lon="113.26609765179455280303955078125">
        <ele>10.80000019073486328125</ele>
        <time>2023-11-06T12:44:20.000Z</time>
        <extensions>
          <ns3:TrackPointExtension>
            <ns3:hr>166</ns3:hr>
            <ns3:cad>82</ns3:cad>
          </ns3:TrackPointExtension>
        </extensions>
      </trkpt>
      <trkpt lat="23.18162751384079456329345703125" lon="113.266012407839298248291015625">
        <ele>10</ele>
        <time>2023-11-06T12:44:27.000Z</time>
        <extensions>
          <ns3:TrackPointExtension>
            <ns3:hr>169</ns3:hr>
            <ns3:cad>82</ns3:cad>
          </ns3:TrackPointExtension>
        </extensions>
      </trkpt>
      <trkpt lat="23.1815209798514842987060546875" lon="113.2659636251628398895263671875">
        <ele>9.80000019073486328125</ele>
        <time>2023-11-06T12:44:32.000Z</time>
        <extensions>
          <ns3:TrackPointExtension>
            <ns3:hr>166</ns3:hr>
            <ns3:cad>81</ns3:cad>
          </ns3:TrackPointExtension>
        </extensions>
      </trkpt>
      <trkpt lat="23.18148426711559295654296875" lon="113.26592196710407733917236328125">
        <ele>9.80000019073486328125</ele>
        <time>2023-11-06T12:44:33.000Z</time>
        <extensions>
          <ns3:TrackPointExtension>
            <ns3:hr>162</ns3:hr>
            <ns3:cad>82</ns3:cad>
          </ns3:TrackPointExtension>
        </extensions>
      </trkpt>
      <trkpt lat="23.18148426711559295654296875" lon="113.26592196710407733917236328125">
        <ele>9.80000019073486328125</ele>
        <time>2023-11-06T12:44:34.000Z</time>
        <extensions>
          <ns3:TrackPointExtension>
            <ns3:hr>162</ns3:hr>
            <ns3:cad>82</ns3:cad>
          </ns3:TrackPointExtension>
        </extensions>
      </trkpt>
      <trkpt lat="23.1814069859683513641357421875" lon="113.26587938703596591949462890625">
        <ele>10</ele>
        <time>2023-11-06T12:44:38.000Z</time>
        <extensions>
          <ns3:TrackPointExtension>
            <ns3:hr>171</ns3:hr>
            <ns3:cad>82</ns3:cad>
          </ns3:TrackPointExtension>
        </extensions>
      </trkpt>
      <trkpt lat="23.18131386302411556243896484375" lon="113.26584116555750370025634765625">
        <ele>9.3999996185302734375</ele>
        <time>2023-11-06T12:44:42.000Z</time>
        <extensions>
          <ns3:TrackPointExtension>
            <ns3:hr>168</ns3:hr>
            <ns3:cad>82</ns3:cad>
          </ns3:TrackPointExtension>
        </extensions>
      </trkpt>
      <trkpt lat="23.18123306147754192352294921875" lon="113.2658234797418117523193359375">
        <ele>9.6000003814697265625</ele>
        <time>2023-11-06T12:44:45.000Z</time>
        <extensions>
          <ns3:TrackPointExtension>
            <ns3:hr>164</ns3:hr>
            <ns3:cad>81</ns3:cad>
          </ns3:TrackPointExtension>
        </extensions>
      </trkpt>
      <trkpt lat="23.18117690272629261016845703125" lon="113.2658053748309612274169921875">
        <ele>10</ele>
        <time>2023-11-06T12:44:46.000Z</time>
        <extensions>
          <ns3:TrackPointExtension>
            <ns3:hr>168</ns3:hr>
            <ns3:cad>80</ns3:cad>
          </ns3:TrackPointExtension>
        </extensions>
      </trkpt>
      <trkpt lat="23.18105989135801792144775390625" lon="113.26576556079089641571044921875">
        <ele>10.80000019073486328125</ele>
        <time>2023-11-06T12:44:51.000Z</time>
        <extensions>
          <ns3:TrackPointExtension>
            <ns3:hr>171</ns3:hr>
            <ns3:cad>81</ns3:cad>
          </ns3:TrackPointExtension>
        </extensions>
      </trkpt>
      <trkpt lat="23.18089258857071399688720703125" lon="113.26565240509808063507080078125">
        <ele>12.3999996185302734375</ele>
        <time>2023-11-06T12:44:57.000Z</time>
        <extensions>
          <ns3:TrackPointExtension>
            <ns3:hr>170</ns3:hr>
            <ns3:cad>81</ns3:cad>
          </ns3:TrackPointExtension>
        </extensions>
      </trkpt>
      <trkpt lat="23.180828131735324859619140625" lon="113.26558149419724941253662109375">
        <ele>13</ele>
        <time>2023-11-06T12:45:00.000Z</time>
        <extensions>
          <ns3:TrackPointExtension>
            <ns3:hr>173</ns3:hr>
            <ns3:cad>81</ns3:cad>
          </ns3:TrackPointExtension>
        </extensions>
      </trkpt>
      <trkpt lat="23.180672563612461090087890625" lon="113.2654597051441669464111328125">
        <ele>14.19999980926513671875</ele>
        <time>2023-11-06T12:45:06.000Z</time>
        <extensions>
          <ns3:TrackPointExtension>
            <ns3:hr>169</ns3:hr>
            <ns3:cad>82</ns3:cad>
          </ns3:TrackPointExtension>
        </extensions>
      </trkpt>
      <trkpt lat="23.1806465797126293182373046875" lon="113.26544436626136302947998046875">
        <ele>14.19999980926513671875</ele>
        <time>2023-11-06T12:45:07.000Z</time>
        <extensions>
          <ns3:TrackPointExtension>
            <ns3:hr>166</ns3:hr>
            <ns3:cad>82</ns3:cad>
          </ns3:TrackPointExtension>
        </extensions>
      </trkpt>
      <trkpt lat="23.180587403476238250732421875" lon="113.2654045522212982177734375">
        <ele>14.3999996185302734375</ele>
        <time>2023-11-06T12:45:09.000Z</time>
        <extensions>
          <ns3:TrackPointExtension>
            <ns3:hr>163</ns3:hr>
            <ns3:cad>78</ns3:cad>
          </ns3:TrackPointExtension>
        </extensions>
      </trkpt>
      <trkpt lat="23.18041674792766571044921875" lon="113.26526985503733158111572265625">
        <ele>14.3999996185302734375</ele>
        <time>2023-11-06T12:45:15.000Z</time>
        <extensions>
          <ns3:TrackPointExtension>
            <ns3:hr>163</ns3:hr>
            <ns3:cad>78</ns3:cad>
          </ns3:TrackPointExtension>
        </extensions>
      </trkpt>
      <trkpt lat="23.18037224002182483673095703125" lon="113.2652199827134609222412109375">
        <ele>14.19999980926513671875</ele>
        <time>2023-11-06T12:45:16.000Z</time>
        <extensions>
          <ns3:TrackPointExtension>
            <ns3:hr>166</ns3:hr>
            <ns3:cad>78</ns3:cad>
          </ns3:TrackPointExtension>
        </extensions>
      </trkpt>
      <trkpt lat="23.1802063621580600738525390625" lon="113.2650986127555370330810546875">
        <ele>13.19999980926513671875</ele>
        <time>2023-11-06T12:45:24.000Z</time>
        <extensions>
          <ns3:TrackPointExtension>
            <ns3:hr>167</ns3:hr>
            <ns3:cad>79</ns3:cad>
          </ns3:TrackPointExtension>
        </extensions>
      </trkpt>
      <trkpt lat="23.1800434179604053497314453125" lon="113.26497665606439113616943359375">
        <ele>11.3999996185302734375</ele>
        <time>2023-11-06T12:45:30.000Z</time>
        <extensions>
          <ns3:TrackPointExtension>
            <ns3:hr>169</ns3:hr>
            <ns3:cad>77</ns3:cad>
          </ns3:TrackPointExtension>
        </extensions>
      </trkpt>
      <trkpt lat="23.1799079664051532745361328125" lon="113.2648210041224956512451171875">
        <ele>8</ele>
        <time>2023-11-06T12:45:37.000Z</time>
        <extensions>
          <ns3:TrackPointExtension>
            <ns3:hr>171</ns3:hr>
            <ns3:cad>80</ns3:cad>
          </ns3:TrackPointExtension>
        </extensions>
      </trkpt>
      <trkpt lat="23.17968852818012237548828125" lon="113.2647769153118133544921875">
        <ele>9</ele>
        <time>2023-11-06T12:45:42.000Z</time>
        <extensions>
          <ns3:TrackPointExtension>
            <ns3:hr>172</ns3:hr>
            <ns3:cad>78</ns3:cad>
          </ns3:TrackPointExtension>
        </extensions>
      </trkpt>
      <trkpt lat="23.1795202195644378662109375" lon="113.26467926613986492156982421875">
        <ele>10.6000003814697265625</ele>
        <time>2023-11-06T12:45:52.000Z</time>
        <extensions>
          <ns3:TrackPointExtension>
            <ns3:hr>173</ns3:hr>
            <ns3:cad>78</ns3:cad>
          </ns3:TrackPointExtension>
        </extensions>
      </trkpt>
      <trkpt lat="23.1794707663357257843017578125" lon="113.264649175107479095458984375">
        <ele>11.6000003814697265625</ele>
        <time>2023-11-06T12:45:57.000Z</time>
        <extensions>
          <ns3:TrackPointExtension>
            <ns3:hr>176</ns3:hr>
            <ns3:cad>78</ns3:cad>
          </ns3:TrackPointExtension>
        </extensions>
      </trkpt>
      <trkpt lat="23.179387114942073822021484375" lon="113.2645943574607372283935546875">
        <ele>14</ele>
        <time>2023-11-06T12:46:02.000Z</time>
        <extensions>
          <ns3:TrackPointExtension>
            <ns3:hr>173</ns3:hr>
            <ns3:cad>78</ns3:cad>
          </ns3:TrackPointExtension>
        </extensions>
      </trkpt>
      <trkpt lat="23.17930455319583415985107421875" lon="113.26454599387943744659423828125">
        <ele>14.80000019073486328125</ele>
        <time>2023-11-06T12:46:06.000Z</time>
        <extensions>
          <ns3:TrackPointExtension>
            <ns3:hr>170</ns3:hr>
            <ns3:cad>81</ns3:cad>
          </ns3:TrackPointExtension>
        </extensions>
      </trkpt>
      <trkpt lat="23.1791549362242221832275390625" lon="113.26443426311016082763671875">
        <ele>15</ele>
        <time>2023-11-06T12:46:15.000Z</time>
        <extensions>
          <ns3:TrackPointExtension>
            <ns3:hr>171</ns3:hr>
            <ns3:cad>83</ns3:cad>
          </ns3:TrackPointExtension>
        </extensions>
      </trkpt>
      <trkpt lat="23.1790513359010219573974609375" lon="113.2644022442400455474853515625">
        <ele>15</ele>
        <time>2023-11-06T12:46:22.000Z</time>
        <extensions>
          <ns3:TrackPointExtension>
            <ns3:hr>169</ns3:hr>
            <ns3:cad>61</ns3:cad>
          </ns3:TrackPointExtension>
        </extensions>
      </trkpt>
      <trkpt lat="23.1789802573621273040771484375" lon="113.26435471884906291961669921875">
        <ele>13.6000003814697265625</ele>
        <time>2023-11-06T12:46:26.000Z</time>
        <extensions>
          <ns3:TrackPointExtension>
            <ns3:hr>170</ns3:hr>
            <ns3:cad>60</ns3:cad>
          </ns3:TrackPointExtension>
        </extensions>
      </trkpt>
      <trkpt lat="23.17895670421421527862548828125" lon="113.26433342881500720977783203125">
        <ele>13</ele>
        <time>2023-11-06T12:46:27.000Z</time>
        <extensions>
          <ns3:TrackPointExtension>
            <ns3:hr>170</ns3:hr>
            <ns3:cad>61</ns3:cad>
          </ns3:TrackPointExtension>
        </extensions>
      </trkpt>
      <trkpt lat="23.17878018133342266082763671875" lon="113.26415103860199451446533203125">
        <ele>8.6000003814697265625</ele>
        <time>2023-11-06T12:46:33.000Z</time>
        <extensions>
          <ns3:TrackPointExtension>
            <ns3:hr>168</ns3:hr>
            <ns3:cad>61</ns3:cad>
          </ns3:TrackPointExtension>
        </extensions>
      </trkpt>
      <trkpt lat="23.17871463485062122344970703125" lon="113.264073841273784637451171875">
        <ele>7.80000019073486328125</ele>
        <time>2023-11-06T12:46:34.000Z</time>
        <extensions>
          <ns3:TrackPointExtension>
            <ns3:hr>167</ns3:hr>
            <ns3:cad>80</ns3:cad>
          </ns3:TrackPointExtension>
        </extensions>
      </trkpt>
      <trkpt lat="23.17857809364795684814453125" lon="113.26404123567044734954833984375">
        <ele>7.400000095367431640625</ele>
        <time>2023-11-06T12:46:39.000Z</time>
        <extensions>
          <ns3:TrackPointExtension>
            <ns3:hr>164</ns3:hr>
            <ns3:cad>79</ns3:cad>
          </ns3:TrackPointExtension>
        </extensions>
      </trkpt>
      <trkpt lat="23.17836963571608066558837890625" lon="113.26400770805776119232177734375">
        <ele>8</ele>
        <time>2023-11-06T12:46:49.000Z</time>
        <extensions>
          <ns3:TrackPointExtension>
            <ns3:hr>168</ns3:hr>
            <ns3:cad>82</ns3:cad>
          </ns3:TrackPointExtension>
        </extensions>
      </trkpt>
      <trkpt lat="23.1783207692205905914306640625" lon="113.26399748213589191436767578125">
        <ele>8.3999996185302734375</ele>
        <time>2023-11-06T12:46:56.000Z</time>
        <extensions>
          <ns3:TrackPointExtension>
            <ns3:hr>171</ns3:hr>
            <ns3:cad>81</ns3:cad>
          </ns3:TrackPointExtension>
        </extensions>
      </trkpt>
      <trkpt lat="23.1783150695264339447021484375" lon="113.2640042714774608612060546875">
        <ele>8.3999996185302734375</ele>
        <time>2023-11-06T12:46:57.000Z</time>
        <extensions>
          <ns3:TrackPointExtension>
            <ns3:hr>171</ns3:hr>
            <ns3:cad>81</ns3:cad>
          </ns3:TrackPointExtension>
        </extensions>
      </trkpt>
      <trkpt lat="23.178293444216251373291015625" lon="113.2639955542981624603271484375">
        <ele>8.6000003814697265625</ele>
        <time>2023-11-06T12:47:00.000Z</time>
        <extensions>
          <ns3:TrackPointExtension>
            <ns3:hr>163</ns3:hr>
            <ns3:cad>81</ns3:cad>
          </ns3:TrackPointExtension>
        </extensions>
      </trkpt>
      <trkpt lat="23.17828581668436527252197265625" lon="113.26399060897529125213623046875">
        <ele>8.6000003814697265625</ele>
        <time>2023-11-06T12:47:01.000Z</time>
        <extensions>
          <ns3:TrackPointExtension>
            <ns3:hr>159</ns3:hr>
            <ns3:cad>81</ns3:cad>
          </ns3:TrackPointExtension>
        </extensions>
      </trkpt>
      <trkpt lat="23.17827911116182804107666015625" lon="113.2639928720891475677490234375">
        <ele>8.80000019073486328125</ele>
        <time>2023-11-06T12:47:02.000Z</time>
        <extensions>
          <ns3:TrackPointExtension>
            <ns3:hr>159</ns3:hr>
            <ns3:cad>81</ns3:cad>
          </ns3:TrackPointExtension>
        </extensions>
      </trkpt>
      <trkpt lat="23.17827123217284679412841796875" lon="113.263988681137561798095703125">
        <ele>8.80000019073486328125</ele>
        <time>2023-11-06T12:47:04.000Z</time>
        <extensions>
          <ns3:TrackPointExtension>
            <ns3:hr>160</ns3:hr>
            <ns3:cad>81</ns3:cad>
          </ns3:TrackPointExtension>
        </extensions>
      </trkpt>
      <trkpt lat="23.17826100625097751617431640625" lon="113.2639791257679462432861328125">
        <ele>8.80000019073486328125</ele>
        <time>2023-11-06T12:47:06.000Z</time>
        <extensions>
          <ns3:TrackPointExtension>
            <ns3:hr>169</ns3:hr>
            <ns3:cad>61</ns3:cad>
          </ns3:TrackPointExtension>
        </extensions>
      </trkpt>
      <trkpt lat="23.1782537139952182769775390625" lon="113.2639720849692821502685546875">
        <ele>9</ele>
        <time>2023-11-06T12:47:07.000Z</time>
        <extensions>
          <ns3:TrackPointExtension>
            <ns3:hr>170</ns3:hr>
            <ns3:cad>61</ns3:cad>
          </ns3:TrackPointExtension>
        </extensions>
      </trkpt>
      <trkpt lat="23.1782436557114124298095703125" lon="113.26395087875425815582275390625">
        <ele>9</ele>
        <time>2023-11-06T12:47:10.000Z</time>
        <extensions>
          <ns3:TrackPointExtension>
            <ns3:hr>172</ns3:hr>
            <ns3:cad>61</ns3:cad>
          </ns3:TrackPointExtension>
        </extensions>
      </trkpt>
      <trkpt lat="23.178145587444305419921875" lon="113.26390226371586322784423828125">
        <ele>10</ele>
        <time>2023-11-06T12:47:23.000Z</time>
        <extensions>
          <ns3:TrackPointExtension>
            <ns3:hr>169</ns3:hr>
            <ns3:cad>61</ns3:cad>
          </ns3:TrackPointExtension>
        </extensions>
      </trkpt>
      <trkpt lat="23.17811650224030017852783203125" lon="113.26392221264541149139404296875">
        <ele>10.3999996185302734375</ele>
        <time>2023-11-06T12:47:27.000Z</time>
        <extensions>
          <ns3:TrackPointExtension>
            <ns3:hr>166</ns3:hr>
            <ns3:cad>61</ns3:cad>
          </ns3:TrackPointExtension>
        </extensions>
      </trkpt>
      <trkpt lat="23.1781095452606678009033203125" lon="113.2639241404831409454345703125">
        <ele>10.3999996185302734375</ele>
        <time>2023-11-06T12:47:28.000Z</time>
        <extensions>
          <ns3:TrackPointExtension>
            <ns3:hr>161</ns3:hr>
            <ns3:cad>61</ns3:cad>
          </ns3:TrackPointExtension>
        </extensions>
      </trkpt>
      <trkpt lat="23.17810342647135257720947265625" lon="113.26392422430217266082763671875">
        <ele>10.6000003814697265625</ele>
        <time>2023-11-06T12:47:29.000Z</time>
        <extensions>
          <ns3:TrackPointExtension>
            <ns3:hr>162</ns3:hr>
            <ns3:cad>61</ns3:cad>
          </ns3:TrackPointExtension>
        </extensions>
      </trkpt>
      <trkpt lat="23.17809286527335643768310546875" lon="113.2639224641025066375732421875">
        <ele>10.6000003814697265625</ele>
        <time>2023-11-06T12:47:30.000Z</time>
        <extensions>
          <ns3:TrackPointExtension>
            <ns3:hr>164</ns3:hr>
            <ns3:cad>61</ns3:cad>
          </ns3:TrackPointExtension>
        </extensions>
      </trkpt>
      <trkpt lat="23.17807761020958423614501953125" lon="113.2639150880277156829833984375">
        <ele>10.80000019073486328125</ele>
        <time>2023-11-06T12:47:32.000Z</time>
        <extensions>
          <ns3:TrackPointExtension>
            <ns3:hr>163</ns3:hr>
            <ns3:cad>61</ns3:cad>
          </ns3:TrackPointExtension>
        </extensions>
      </trkpt>
      <trkpt lat="23.178050033748149871826171875" lon="113.26389388181269168853759765625">
        <ele>11</ele>
        <time>2023-11-06T12:47:35.000Z</time>
        <extensions>
          <ns3:TrackPointExtension>
            <ns3:hr>160</ns3:hr>
            <ns3:cad>61</ns3:cad>
          </ns3:TrackPointExtension>
        </extensions>
      </trkpt>
      <trkpt lat="23.17796076647937297821044921875" lon="113.2638349570333957672119140625">
        <ele>12</ele>
        <time>2023-11-06T12:47:42.000Z</time>
        <extensions>
          <ns3:TrackPointExtension>
            <ns3:hr>157</ns3:hr>
            <ns3:cad>61</ns3:cad>
          </ns3:TrackPointExtension>
        </extensions>
      </trkpt>
      <trkpt lat="23.17794241011142730712890625" lon="113.263825066387653350830078125">
        <ele>12.19999980926513671875</ele>
        <time>2023-11-06T12:47:44.000Z</time>
        <extensions>
          <ns3:TrackPointExtension>
            <ns3:hr>154</ns3:hr>
            <ns3:cad>61</ns3:cad>
          </ns3:TrackPointExtension>
        </extensions>
      </trkpt>
      <trkpt lat="23.17792790941894054412841796875" lon="113.2638145051896572113037109375">
        <ele>12.19999980926513671875</ele>
        <time>2023-11-06T12:47:46.000Z</time>
        <extensions>
          <ns3:TrackPointExtension>
            <ns3:hr>154</ns3:hr>
            <ns3:cad>61</ns3:cad>
          </ns3:TrackPointExtension>
        </extensions>
      </trkpt>
      <trkpt lat="23.17790829576551914215087890625" lon="113.26380067504942417144775390625">
        <ele>12</ele>
        <time>2023-11-06T12:47:48.000Z</time>
        <extensions>
          <ns3:TrackPointExtension>
            <ns3:hr>153</ns3:hr>
            <ns3:cad>61</ns3:cad>
          </ns3:TrackPointExtension>
        </extensions>
      </trkpt>
      <trkpt lat="23.1778473593294620513916015625" lon="113.2637424208223819732666015625">
        <ele>11.6000003814697265625</ele>
        <time>2023-11-06T12:47:54.000Z</time>
        <extensions>
          <ns3:TrackPointExtension>
            <ns3:hr>150</ns3:hr>
            <ns3:cad>61</ns3:cad>
          </ns3:TrackPointExtension>
        </extensions>
      </trkpt>
      <trkpt lat="23.177820704877376556396484375" lon="113.26371601782739162445068359375">
        <ele>11.6000003814697265625</ele>
        <time>2023-11-06T12:47:55.000Z</time>
        <extensions>
          <ns3:TrackPointExtension>
            <ns3:hr>147</ns3:hr>
            <ns3:cad>61</ns3:cad>
          </ns3:TrackPointExtension>
        </extensions>
      </trkpt>
      <trkpt lat="23.177820704877376556396484375" lon="113.26371601782739162445068359375">
        <ele>11.6000003814697265625</ele>
        <time>2023-11-06T12:47:56.000Z</time>
        <extensions>
          <ns3:TrackPointExtension>
            <ns3:hr>147</ns3:hr>
            <ns3:cad>61</ns3:cad>
          </ns3:TrackPointExtension>
        </extensions>
      </trkpt>
      <trkpt lat="23.17764711566269397735595703125" lon="113.2636562548577785491943359375">
        <ele>12</ele>
        <time>2023-11-06T12:48:10.000Z</time>
        <extensions>
          <ns3:TrackPointExtension>
            <ns3:hr>147</ns3:hr>
            <ns3:cad>61</ns3:cad>
          </ns3:TrackPointExtension>
        </extensions>
      </trkpt>
      <trkpt lat="23.1774738617241382598876953125" lon="113.26354452408850193023681640625">
        <ele>12.3999996185302734375</ele>
        <time>2023-11-06T12:48:20.000Z</time>
        <extensions>
          <ns3:TrackPointExtension>
            <ns3:hr>145</ns3:hr>
            <ns3:cad>81</ns3:cad>
          </ns3:TrackPointExtension>
        </extensions>
      </trkpt>
      <trkpt lat="23.17740672267973423004150390625" lon="113.2634975016117095947265625">
        <ele>12.6000003814697265625</ele>
        <time>2023-11-06T12:48:23.000Z</time>
        <extensions>
          <ns3:TrackPointExtension>
            <ns3:hr>149</ns3:hr>
            <ns3:cad>82</ns3:cad>
          </ns3:TrackPointExtension>
        </extensions>
      </trkpt>
      <trkpt lat="23.17736833356320858001708984375" lon="113.263473697006702423095703125">
        <ele>12.3999996185302734375</ele>
        <time>2023-11-06T12:48:25.000Z</time>
        <extensions>
          <ns3:TrackPointExtension>
            <ns3:hr>154</ns3:hr>
            <ns3:cad>82</ns3:cad>
          </ns3:TrackPointExtension>
        </extensions>
      </trkpt>
      <trkpt lat="23.17730647511780261993408203125" lon="113.26344855129718780517578125">
        <ele>12</ele>
        <time>2023-11-06T12:48:29.000Z</time>
        <extensions>
          <ns3:TrackPointExtension>
            <ns3:hr>158</ns3:hr>
            <ns3:cad>78</ns3:cad>
          </ns3:TrackPointExtension>
        </extensions>
      </trkpt>
      <trkpt lat="23.17729641683399677276611328125" lon="113.26344226486980915069580078125">
        <ele>11.80000019073486328125</ele>
        <time>2023-11-06T12:48:31.000Z</time>
        <extensions>
          <ns3:TrackPointExtension>
            <ns3:hr>161</ns3:hr>
            <ns3:cad>68</ns3:cad>
          </ns3:TrackPointExtension>
        </extensions>
      </trkpt>
      <trkpt lat="23.17729272879660129547119140625" lon="113.263438828289508819580078125">
        <ele>11.80000019073486328125</ele>
        <time>2023-11-06T12:48:32.000Z</time>
        <extensions>
          <ns3:TrackPointExtension>
            <ns3:hr>160</ns3:hr>
            <ns3:cad>68</ns3:cad>
          </ns3:TrackPointExtension>
        </extensions>
      </trkpt>
      <trkpt lat="23.1772807426750659942626953125" lon="113.26343069784343242645263671875">
        <ele>11.6000003814697265625</ele>
        <time>2023-11-06T12:48:34.000Z</time>
        <extensions>
          <ns3:TrackPointExtension>
            <ns3:hr>162</ns3:hr>
            <ns3:cad>68</ns3:cad>
          </ns3:TrackPointExtension>
        </extensions>
      </trkpt>
      <trkpt lat="23.1772646494209766387939453125" lon="113.26342332176864147186279296875">
        <ele>11.6000003814697265625</ele>
        <time>2023-11-06T12:48:36.000Z</time>
        <extensions>
          <ns3:TrackPointExtension>
            <ns3:hr>165</ns3:hr>
            <ns3:cad>68</ns3:cad>
          </ns3:TrackPointExtension>
        </extensions>
      </trkpt>
      <trkpt lat="23.17725584842264652252197265625" lon="113.26341678388416767120361328125">
        <ele>11.3999996185302734375</ele>
        <time>2023-11-06T12:48:37.000Z</time>
        <extensions>
          <ns3:TrackPointExtension>
            <ns3:hr>168</ns3:hr>
            <ns3:cad>68</ns3:cad>
          </ns3:TrackPointExtension>
        </extensions>
      </trkpt>
      <trkpt lat="23.17721360363066196441650390625" lon="113.26338308863341808319091796875">
        <ele>11</ele>
        <time>2023-11-06T12:48:42.000Z</time>
        <extensions>
          <ns3:TrackPointExtension>
            <ns3:hr>165</ns3:hr>
            <ns3:cad>68</ns3:cad>
          </ns3:TrackPointExtension>
        </extensions>
      </trkpt>
      <trkpt lat="23.17716230638325214385986328125" lon="113.2633300311863422393798828125">
        <ele>10.3999996185302734375</ele>
        <time>2023-11-06T12:48:48.000Z</time>
        <extensions>
          <ns3:TrackPointExtension>
            <ns3:hr>161</ns3:hr>
            <ns3:cad>61</ns3:cad>
          </ns3:TrackPointExtension>
        </extensions>
      </trkpt>
      <trkpt lat="23.1771124340593814849853515625" lon="113.26329474337399005889892578125">
        <ele>9.80000019073486328125</ele>
        <time>2023-11-06T12:48:54.000Z</time>
        <extensions>
          <ns3:TrackPointExtension>
            <ns3:hr>159</ns3:hr>
            <ns3:cad>54</ns3:cad>
          </ns3:TrackPointExtension>
        </extensions>
      </trkpt>
      <trkpt lat="23.177077732980251312255859375" lon="113.26326373033225536346435546875">
        <ele>9.3999996185302734375</ele>
        <time>2023-11-06T12:48:58.000Z</time>
        <extensions>
          <ns3:TrackPointExtension>
            <ns3:hr>160</ns3:hr>
            <ns3:cad>54</ns3:cad>
          </ns3:TrackPointExtension>
        </extensions>
      </trkpt>
      <trkpt lat="23.1770232506096363067626953125" lon="113.2632411830127239227294921875">
        <ele>9</ele>
        <time>2023-11-06T12:49:05.000Z</time>
        <extensions>
          <ns3:TrackPointExtension>
            <ns3:hr>157</ns3:hr>
            <ns3:cad>61</ns3:cad>
          </ns3:TrackPointExtension>
        </extensions>
      </trkpt>
      <trkpt lat="23.17697237245738506317138671875" lon="113.263221569359302520751953125">
        <ele>8.3999996185302734375</ele>
        <time>2023-11-06T12:49:10.000Z</time>
        <extensions>
          <ns3:TrackPointExtension>
            <ns3:hr>154</ns3:hr>
            <ns3:cad>61</ns3:cad>
          </ns3:TrackPointExtension>
        </extensions>
      </trkpt>
      <trkpt lat="23.17695929668843746185302734375" lon="113.26321679167449474334716796875">
        <ele>8.3999996185302734375</ele>
        <time>2023-11-06T12:49:11.000Z</time>
        <extensions>
          <ns3:TrackPointExtension>
            <ns3:hr>152</ns3:hr>
            <ns3:cad>61</ns3:cad>
          </ns3:TrackPointExtension>
        </extensions>
      </trkpt>
      <trkpt lat="23.17694655619561672210693359375" lon="113.263216204941272735595703125">
        <ele>8.19999980926513671875</ele>
        <time>2023-11-06T12:49:13.000Z</time>
        <extensions>
          <ns3:TrackPointExtension>
            <ns3:hr>151</ns3:hr>
            <ns3:cad>61</ns3:cad>
          </ns3:TrackPointExtension>
        </extensions>
      </trkpt>
      <trkpt lat="23.17692509852349758148193359375" lon="113.2632116787135601043701171875">
        <ele>8</ele>
        <time>2023-11-06T12:49:15.000Z</time>
        <extensions>
          <ns3:TrackPointExtension>
            <ns3:hr>150</ns3:hr>
            <ns3:cad>63</ns3:cad>
          </ns3:TrackPointExtension>
        </extensions>
      </trkpt>
      <trkpt lat="23.17690313793718814849853515625" lon="113.2632026262581348419189453125">
        <ele>7.80000019073486328125</ele>
        <time>2023-11-06T12:49:17.000Z</time>
        <extensions>
          <ns3:TrackPointExtension>
            <ns3:hr>149</ns3:hr>
            <ns3:cad>63</ns3:cad>
          </ns3:TrackPointExtension>
        </extensions>
      </trkpt>
      <trkpt lat="23.17679216153919696807861328125" lon="113.2631878741085529327392578125">
        <ele>7.599999904632568359375</ele>
        <time>2023-11-06T12:49:28.000Z</time>
        <extensions>
          <ns3:TrackPointExtension>
            <ns3:hr>146</ns3:hr>
            <ns3:cad>61</ns3:cad>
          </ns3:TrackPointExtension>
        </extensions>
      </trkpt>
      <trkpt lat="23.17676961421966552734375" lon="113.26318494044244289398193359375">
        <ele>7.599999904632568359375</ele>
        <time>2023-11-06T12:49:31.000Z</time>
        <extensions>
          <ns3:TrackPointExtension>
            <ns3:hr>145</ns3:hr>
            <ns3:cad>0</ns3:cad>
          </ns3:TrackPointExtension>
        </extensions>
      </trkpt>
      <trkpt lat="23.17663022316992282867431640625" lon="113.26307631097733974456787109375">
        <ele>8.3999996185302734375</ele>
        <time>2023-11-06T12:49:46.000Z</time>
        <extensions>
          <ns3:TrackPointExtension>
            <ns3:hr>142</ns3:hr>
            <ns3:cad>0</ns3:cad>
          </ns3:TrackPointExtension>
        </extensions>
      </trkpt>
      <trkpt lat="23.17655243910849094390869140625" lon="113.263042867183685302734375">
        <ele>8.80000019073486328125</ele>
        <time>2023-11-06T12:49:55.000Z</time>
        <extensions>
          <ns3:TrackPointExtension>
            <ns3:hr>141</ns3:hr>
            <ns3:cad>60</ns3:cad>
          </ns3:TrackPointExtension>
        </extensions>
      </trkpt>
      <trkpt lat="23.17653902806341648101806640625" lon="113.2630212418735027313232421875">
        <ele>8.80000019073486328125</ele>
        <time>2023-11-06T12:49:57.000Z</time>
        <extensions>
          <ns3:TrackPointExtension>
            <ns3:hr>142</ns3:hr>
            <ns3:cad>0</ns3:cad>
          </ns3:TrackPointExtension>
        </extensions>
      </trkpt>
      <trkpt lat="23.17653290927410125732421875" lon="113.26300841756165027618408203125">
        <ele>8.80000019073486328125</ele>
        <time>2023-11-06T12:50:02.000Z</time>
        <extensions>
          <ns3:TrackPointExtension>
            <ns3:hr>143</ns3:hr>
            <ns3:cad>0</ns3:cad>
          </ns3:TrackPointExtension>
        </extensions>
      </trkpt>
      <trkpt lat="23.176528550684452056884765625" lon="113.26300523243844509124755859375">
        <ele>8.80000019073486328125</ele>
        <time>2023-11-06T12:50:10.000Z</time>
        <extensions>
          <ns3:TrackPointExtension>
            <ns3:hr>140</ns3:hr>
            <ns3:cad>0</ns3:cad>
          </ns3:TrackPointExtension>
        </extensions>
      </trkpt>
      <trkpt lat="23.17652746103703975677490234375" lon="113.2630128599703311920166015625">
        <ele>8.80000019073486328125</ele>
        <time>2023-11-06T12:50:14.000Z</time>
        <extensions>
          <ns3:TrackPointExtension>
            <ns3:hr>137</ns3:hr>
            <ns3:cad>0</ns3:cad>
          </ns3:TrackPointExtension>
        </extensions>
      </trkpt>
      <trkpt lat="23.1765344180166721343994140625" lon="113.2630205713212490081787109375">
        <ele>8.80000019073486328125</ele>
        <time>2023-11-06T12:50:18.000Z</time>
        <extensions>
          <ns3:TrackPointExtension>
            <ns3:hr>132</ns3:hr>
            <ns3:cad>0</ns3:cad>
          </ns3:TrackPointExtension>
        </extensions>
      </trkpt>
      <trkpt lat="23.1765402853488922119140625" lon="113.263053596019744873046875">
        <ele>8.6000003814697265625</ele>
        <time>2023-11-06T12:50:22.000Z</time>
        <extensions>
          <ns3:TrackPointExtension>
            <ns3:hr>129</ns3:hr>
            <ns3:cad>61</ns3:cad>
          </ns3:TrackPointExtension>
        </extensions>
      </trkpt>
      <trkpt lat="23.1765116192400455474853515625" lon="113.26306541450321674346923828125">
        <ele>8.3999996185302734375</ele>
        <time>2023-11-06T12:50:28.000Z</time>
        <extensions>
          <ns3:TrackPointExtension>
            <ns3:hr>128</ns3:hr>
            <ns3:cad>0</ns3:cad>
          </ns3:TrackPointExtension>
        </extensions>
      </trkpt>
      <trkpt lat="23.17646853625774383544921875" lon="113.2630403526127338409423828125">
        <ele>8.3999996185302734375</ele>
        <time>2023-11-06T12:50:33.000Z</time>
        <extensions>
          <ns3:TrackPointExtension>
            <ns3:hr>125</ns3:hr>
            <ns3:cad>64</ns3:cad>
          </ns3:TrackPointExtension>
        </extensions>
      </trkpt>
      <trkpt lat="23.1764626689255237579345703125" lon="113.263028450310230255126953125">
        <ele>8.3999996185302734375</ele>
        <time>2023-11-06T12:50:34.000Z</time>
        <extensions>
          <ns3:TrackPointExtension>
            <ns3:hr>125</ns3:hr>
            <ns3:cad>64</ns3:cad>
          </ns3:TrackPointExtension>
        </extensions>
      </trkpt>
      <trkpt lat="23.17637591622769832611083984375" lon="113.26292124576866626739501953125">
        <ele>9</ele>
        <time>2023-11-06T12:50:47.000Z</time>
        <extensions>
          <ns3:TrackPointExtension>
            <ns3:hr>128</ns3:hr>
            <ns3:cad>61</ns3:cad>
          </ns3:TrackPointExtension>
        </extensions>
      </trkpt>
      <trkpt lat="23.1763473339378833770751953125" lon="113.26282552443444728851318359375">
        <ele>10</ele>
        <time>2023-11-06T12:50:56.000Z</time>
        <extensions>
          <ns3:TrackPointExtension>
            <ns3:hr>130</ns3:hr>
            <ns3:cad>61</ns3:cad>
          </ns3:TrackPointExtension>
        </extensions>
      </trkpt>
      <trkpt lat="23.17628338001668453216552734375" lon="113.262665681540966033935546875">
        <ele>11</ele>
        <time>2023-11-06T12:51:15.000Z</time>
        <extensions>
          <ns3:TrackPointExtension>
            <ns3:hr>133</ns3:hr>
            <ns3:cad>61</ns3:cad>
          </ns3:TrackPointExtension>
        </extensions>
      </trkpt>
      <trkpt lat="23.176269046962261199951171875" lon="113.26265922747552394866943359375">
        <ele>10.80000019073486328125</ele>
        <time>2023-11-06T12:51:17.000Z</time>
        <extensions>
          <ns3:TrackPointExtension>
            <ns3:hr>133</ns3:hr>
            <ns3:cad>61</ns3:cad>
          </ns3:TrackPointExtension>
        </extensions>
      </trkpt>
      <trkpt lat="23.1762122176587581634521484375" lon="113.26262754388153553009033203125">
        <ele>10.6000003814697265625</ele>
        <time>2023-11-06T12:51:23.000Z</time>
        <extensions>
          <ns3:TrackPointExtension>
            <ns3:hr>133</ns3:hr>
            <ns3:cad>61</ns3:cad>
          </ns3:TrackPointExtension>
        </extensions>
      </trkpt>
      <trkpt lat="23.17612831480801105499267578125" lon="113.26260373927652835845947265625">
        <ele>10.19999980926513671875</ele>
        <time>2023-11-06T12:51:32.000Z</time>
        <extensions>
          <ns3:TrackPointExtension>
            <ns3:hr>131</ns3:hr>
            <ns3:cad>0</ns3:cad>
          </ns3:TrackPointExtension>
        </extensions>
      </trkpt>
      <trkpt lat="23.17609026096761226654052734375" lon="113.262586556375026702880859375">
        <ele>10</ele>
        <time>2023-11-06T12:51:36.000Z</time>
        <extensions>
          <ns3:TrackPointExtension>
            <ns3:hr>128</ns3:hr>
            <ns3:cad>0</ns3:cad>
          </ns3:TrackPointExtension>
        </extensions>
      </trkpt>
      <trkpt lat="23.1760824657976627349853515625" lon="113.2625837065279483795166015625">
        <ele>10</ele>
        <time>2023-11-06T12:51:37.000Z</time>
        <extensions>
          <ns3:TrackPointExtension>
            <ns3:hr>127</ns3:hr>
            <ns3:cad>0</ns3:cad>
          </ns3:TrackPointExtension>
        </extensions>
      </trkpt>
      <trkpt lat="23.176070563495159149169921875" lon="113.26258295215666294097900390625">
        <ele>9.80000019073486328125</ele>
        <time>2023-11-06T12:51:39.000Z</time>
        <extensions>
          <ns3:TrackPointExtension>
            <ns3:hr>124</ns3:hr>
            <ns3:cad>0</ns3:cad>
          </ns3:TrackPointExtension>
        </extensions>
      </trkpt>
      <trkpt lat="23.17606620490550994873046875" lon="113.262581862509250640869140625">
        <ele>9.80000019073486328125</ele>
        <time>2023-11-06T12:51:40.000Z</time>
        <extensions>
          <ns3:TrackPointExtension>
            <ns3:hr>121</ns3:hr>
            <ns3:cad>0</ns3:cad>
          </ns3:TrackPointExtension>
        </extensions>
      </trkpt>
      <trkpt lat="23.17605187185108661651611328125" lon="113.26258362270891666412353515625">
        <ele>9.6000003814697265625</ele>
        <time>2023-11-06T12:51:43.000Z</time>
        <extensions>
          <ns3:TrackPointExtension>
            <ns3:hr>120</ns3:hr>
            <ns3:cad>0</ns3:cad>
          </ns3:TrackPointExtension>
        </extensions>
      </trkpt>
      <trkpt lat="23.17604885436594486236572265625" lon="113.26256736181676387786865234375">
        <ele>9.80000019073486328125</ele>
        <time>2023-11-06T12:51:47.000Z</time>
        <extensions>
          <ns3:TrackPointExtension>
            <ns3:hr>122</ns3:hr>
            <ns3:cad>0</ns3:cad>
          </ns3:TrackPointExtension>
        </extensions>
      </trkpt>
      <trkpt lat="23.17604097537696361541748046875" lon="113.2625652663409709930419921875">
        <ele>9.6000003814697265625</ele>
        <time>2023-11-06T12:51:50.000Z</time>
        <extensions>
          <ns3:TrackPointExtension>
            <ns3:hr>122</ns3:hr>
            <ns3:cad>61</ns3:cad>
          </ns3:TrackPointExtension>
        </extensions>
      </trkpt>
      <trkpt lat="23.17607014440000057220458984375" lon="113.262554705142974853515625">
        <ele>10</ele>
        <time>2023-11-06T12:51:55.000Z</time>
        <extensions>
          <ns3:TrackPointExtension>
            <ns3:hr>123</ns3:hr>
            <ns3:cad>61</ns3:cad>
          </ns3:TrackPointExtension>
        </extensions>
      </trkpt>
      <trkpt lat="23.1760710664093494415283203125" lon="113.262578509747982025146484375">
        <ele>9.80000019073486328125</ele>
        <time>2023-11-06T12:52:00.000Z</time>
        <extensions>
          <ns3:TrackPointExtension>
            <ns3:hr>126</ns3:hr>
            <ns3:cad>61</ns3:cad>
          </ns3:TrackPointExtension>
        </extensions>
      </trkpt>
      <trkpt lat="23.176071904599666595458984375" lon="113.26258848421275615692138671875">
        <ele>9.80000019073486328125</ele>
        <time>2023-11-06T12:52:01.000Z</time>
        <extensions>
          <ns3:TrackPointExtension>
            <ns3:hr>126</ns3:hr>
            <ns3:cad>61</ns3:cad>
          </ns3:TrackPointExtension>
        </extensions>
      </trkpt>
      <trkpt lat="23.1760640256106853485107421875" lon="113.26259133405983448028564453125">
        <ele>9.80000019073486328125</ele>
        <time>2023-11-06T12:52:04.000Z</time>
        <extensions>
          <ns3:TrackPointExtension>
            <ns3:hr>127</ns3:hr>
            <ns3:cad>61</ns3:cad>
          </ns3:TrackPointExtension>
        </extensions>
      </trkpt>
      <trkpt lat="23.176054470241069793701171875" lon="113.2625828683376312255859375">
        <ele>9.80000019073486328125</ele>
        <time>2023-11-06T12:52:07.000Z</time>
        <extensions>
          <ns3:TrackPointExtension>
            <ns3:hr>128</ns3:hr>
            <ns3:cad>61</ns3:cad>
          </ns3:TrackPointExtension>
        </extensions>
      </trkpt>
      <trkpt lat="23.17604868672788143157958984375" lon="113.26256702654063701629638671875">
        <ele>9.80000019073486328125</ele>
        <time>2023-11-06T12:52:09.000Z</time>
        <extensions>
          <ns3:TrackPointExtension>
            <ns3:hr>128</ns3:hr>
            <ns3:cad>61</ns3:cad>
          </ns3:TrackPointExtension>
        </extensions>
      </trkpt>
      <trkpt lat="23.1760392151772975921630859375" lon="113.26253257691860198974609375">
        <ele>9.80000019073486328125</ele>
        <time>2023-11-06T12:52:12.000Z</time>
        <extensions>
          <ns3:TrackPointExtension>
            <ns3:hr>128</ns3:hr>
            <ns3:cad>0</ns3:cad>
          </ns3:TrackPointExtension>
        </extensions>
      </trkpt>
      <trkpt lat="23.1760194338858127593994140625" lon="113.26252193190157413482666015625">
        <ele>9.6000003814697265625</ele>
        <time>2023-11-06T12:52:16.000Z</time>
        <extensions>
          <ns3:TrackPointExtension>
            <ns3:hr>129</ns3:hr>
            <ns3:cad>61</ns3:cad>
          </ns3:TrackPointExtension>
        </extensions>
      </trkpt>
      <trkpt lat="23.17595078609883785247802734375" lon="113.26249376870691776275634765625">
        <ele>10.19999980926513671875</ele>
        <time>2023-11-06T12:52:22.000Z</time>
        <extensions>
          <ns3:TrackPointExtension>
            <ns3:hr>130</ns3:hr>
            <ns3:cad>0</ns3:cad>
          </ns3:TrackPointExtension>
        </extensions>
      </trkpt>
      <trkpt lat="23.17588641308248043060302734375" lon="113.2624854706227779388427734375">
        <ele>10.80000019073486328125</ele>
        <time>2023-11-06T12:52:29.000Z</time>
        <extensions>
          <ns3:TrackPointExtension>
            <ns3:hr>131</ns3:hr>
            <ns3:cad>0</ns3:cad>
          </ns3:TrackPointExtension>
        </extensions>
      </trkpt>
      <trkpt lat="23.1757602654397487640380859375" lon="113.26234792359173297882080078125">
        <ele>9.80000019073486328125</ele>
        <time>2023-11-06T12:52:45.000Z</time>
        <extensions>
          <ns3:TrackPointExtension>
            <ns3:hr>131</ns3:hr>
            <ns3:cad>61</ns3:cad>
          </ns3:TrackPointExtension>
        </extensions>
      </trkpt>
      <trkpt lat="23.17574107088148593902587890625" lon="113.26234959997236728668212890625">
        <ele>9.80000019073486328125</ele>
        <time>2023-11-06T12:52:48.000Z</time>
        <extensions>
          <ns3:TrackPointExtension>
            <ns3:hr>131</ns3:hr>
            <ns3:cad>61</ns3:cad>
          </ns3:TrackPointExtension>
        </extensions>
      </trkpt>
      <trkpt lat="23.17572782747447490692138671875" lon="113.26234281063079833984375">
        <ele>9.6000003814697265625</ele>
        <time>2023-11-06T12:52:50.000Z</time>
        <extensions>
          <ns3:TrackPointExtension>
            <ns3:hr>130</ns3:hr>
            <ns3:cad>61</ns3:cad>
          </ns3:TrackPointExtension>
        </extensions>
      </trkpt>
      <trkpt lat="23.17570301704108715057373046875" lon="113.26234071515500545501708984375">
        <ele>9.19999980926513671875</ele>
        <time>2023-11-06T12:52:53.000Z</time>
        <extensions>
          <ns3:TrackPointExtension>
            <ns3:hr>130</ns3:hr>
            <ns3:cad>56</ns3:cad>
          </ns3:TrackPointExtension>
        </extensions>
      </trkpt>
      <trkpt lat="23.175684995949268341064453125" lon="113.26232336461544036865234375">
        <ele>8.6000003814697265625</ele>
        <time>2023-11-06T12:52:55.000Z</time>
        <extensions>
          <ns3:TrackPointExtension>
            <ns3:hr>124</ns3:hr>
            <ns3:cad>56</ns3:cad>
          </ns3:TrackPointExtension>
        </extensions>
      </trkpt>
      <trkpt lat="23.17567250691354274749755859375" lon="113.2623148150742053985595703125">
        <ele>8.19999980926513671875</ele>
        <time>2023-11-06T12:52:56.000Z</time>
        <extensions>
          <ns3:TrackPointExtension>
            <ns3:hr>124</ns3:hr>
            <ns3:cad>56</ns3:cad>
          </ns3:TrackPointExtension>
        </extensions>
      </trkpt>
      <trkpt lat="23.1754995882511138916015625" lon="113.26236091554164886474609375">
        <ele>7</ele>
        <time>2023-11-06T12:53:10.000Z</time>
        <extensions>
          <ns3:TrackPointExtension>
            <ns3:hr>125</ns3:hr>
            <ns3:cad>61</ns3:cad>
          </ns3:TrackPointExtension>
        </extensions>
      </trkpt>
      <trkpt lat="23.175433538854122161865234375" lon="113.2623765058815479278564453125">
        <ele>6.599999904632568359375</ele>
        <time>2023-11-06T12:53:15.000Z</time>
        <extensions>
          <ns3:TrackPointExtension>
            <ns3:hr>126</ns3:hr>
            <ns3:cad>0</ns3:cad>
          </ns3:TrackPointExtension>
        </extensions>
      </trkpt>
      <trkpt lat="23.17538953386247158050537109375" lon="113.2623775117099285125732421875">
        <ele>6.400000095367431640625</ele>
        <time>2023-11-06T12:53:19.000Z</time>
        <extensions>
          <ns3:TrackPointExtension>
            <ns3:hr>127</ns3:hr>
            <ns3:cad>0</ns3:cad>
          </ns3:TrackPointExtension>
        </extensions>
      </trkpt>
      <trkpt lat="23.17536690272390842437744140625" lon="113.2623500190675258636474609375">
        <ele>5.599999904632568359375</ele>
        <time>2023-11-06T12:53:22.000Z</time>
        <extensions>
          <ns3:TrackPointExtension>
            <ns3:hr>127</ns3:hr>
            <ns3:cad>0</ns3:cad>
          </ns3:TrackPointExtension>
        </extensions>
      </trkpt>
      <trkpt lat="23.17532583139836788177490234375" lon="113.26233283616602420806884765625">
        <ele>5</ele>
        <time>2023-11-06T12:53:26.000Z</time>
        <extensions>
          <ns3:TrackPointExtension>
            <ns3:hr>127</ns3:hr>
            <ns3:cad>0</ns3:cad>
          </ns3:TrackPointExtension>
        </extensions>
      </trkpt>
      <trkpt lat="23.17526347003877162933349609375" lon="113.26233275234699249267578125">
        <ele>4.80000019073486328125</ele>
        <time>2023-11-06T12:53:31.000Z</time>
        <extensions>
          <ns3:TrackPointExtension>
            <ns3:hr>127</ns3:hr>
            <ns3:cad>0</ns3:cad>
          </ns3:TrackPointExtension>
        </extensions>
      </trkpt>
      <trkpt lat="23.17511594854295253753662109375" lon="113.26238933019340038299560546875">
        <ele>7.400000095367431640625</ele>
        <time>2023-11-06T12:53:43.000Z</time>
        <extensions>
          <ns3:TrackPointExtension>
            <ns3:hr>130</ns3:hr>
            <ns3:cad>0</ns3:cad>
          </ns3:TrackPointExtension>
        </extensions>
      </trkpt>
      <trkpt lat="23.1751031242311000823974609375" lon="113.2623905874788761138916015625">
        <ele>7.400000095367431640625</ele>
        <time>2023-11-06T12:53:44.000Z</time>
        <extensions>
          <ns3:TrackPointExtension>
            <ns3:hr>130</ns3:hr>
            <ns3:cad>0</ns3:cad>
          </ns3:TrackPointExtension>
        </extensions>
      </trkpt>
      <trkpt lat="23.175003044307231903076171875" lon="113.26235421001911163330078125">
        <ele>8</ele>
        <time>2023-11-06T12:53:55.000Z</time>
        <extensions>
          <ns3:TrackPointExtension>
            <ns3:hr>130</ns3:hr>
            <ns3:cad>0</ns3:cad>
          </ns3:TrackPointExtension>
        </extensions>
      </trkpt>
      <trkpt lat="23.1749676726758480072021484375" lon="113.26245554722845554351806640625">
        <ele>8.80000019073486328125</ele>
        <time>2023-11-06T12:54:01.000Z</time>
        <extensions>
          <ns3:TrackPointExtension>
            <ns3:hr>130</ns3:hr>
            <ns3:cad>61</ns3:cad>
          </ns3:TrackPointExtension>
        </extensions>
      </trkpt>
      <trkpt lat="23.17495417781174182891845703125" lon="113.26247415505349636077880859375">
        <ele>9.19999980926513671875</ele>
        <time>2023-11-06T12:54:03.000Z</time>
        <extensions>
          <ns3:TrackPointExtension>
            <ns3:hr>130</ns3:hr>
            <ns3:cad>61</ns3:cad>
          </ns3:TrackPointExtension>
        </extensions>
      </trkpt>
      <trkpt lat="23.174938000738620758056640625" lon="113.26246418058872222900390625">
        <ele>9.19999980926513671875</ele>
        <time>2023-11-06T12:54:06.000Z</time>
        <extensions>
          <ns3:TrackPointExtension>
            <ns3:hr>130</ns3:hr>
            <ns3:cad>61</ns3:cad>
          </ns3:TrackPointExtension>
        </extensions>
      </trkpt>
      <trkpt lat="23.174907155334949493408203125" lon="113.262464515864849090576171875">
        <ele>9.3999996185302734375</ele>
        <time>2023-11-06T12:54:11.000Z</time>
        <extensions>
          <ns3:TrackPointExtension>
            <ns3:hr>129</ns3:hr>
            <ns3:cad>61</ns3:cad>
          </ns3:TrackPointExtension>
        </extensions>
      </trkpt>
      <trkpt lat="23.174899108707904815673828125" lon="113.26246594078838825225830078125">
        <ele>9.3999996185302734375</ele>
        <time>2023-11-06T12:54:12.000Z</time>
        <extensions>
          <ns3:TrackPointExtension>
            <ns3:hr>129</ns3:hr>
            <ns3:cad>61</ns3:cad>
          </ns3:TrackPointExtension>
        </extensions>
      </trkpt>
      <trkpt lat="23.17485376261174678802490234375" lon="113.26247599907219409942626953125">
        <ele>9.80000019073486328125</ele>
        <time>2023-11-06T12:54:17.000Z</time>
        <extensions>
          <ns3:TrackPointExtension>
            <ns3:hr>129</ns3:hr>
            <ns3:cad>61</ns3:cad>
          </ns3:TrackPointExtension>
        </extensions>
      </trkpt>
      <trkpt lat="23.174858205020427703857421875" lon="113.262460492551326751708984375">
        <ele>9.6000003814697265625</ele>
        <time>2023-11-06T12:54:19.000Z</time>
        <extensions>
          <ns3:TrackPointExtension>
            <ns3:hr>129</ns3:hr>
            <ns3:cad>61</ns3:cad>
          </ns3:TrackPointExtension>
        </extensions>
      </trkpt>
      <trkpt lat="23.17481084726750850677490234375" lon="113.26248320750892162322998046875">
        <ele>10.19999980926513671875</ele>
        <time>2023-11-06T12:54:24.000Z</time>
        <extensions>
          <ns3:TrackPointExtension>
            <ns3:hr>130</ns3:hr>
            <ns3:cad>61</ns3:cad>
          </ns3:TrackPointExtension>
        </extensions>
      </trkpt>
      <trkpt lat="23.1747986935079097747802734375" lon="113.26248186640441417694091796875">
        <ele>10.3999996185302734375</ele>
        <time>2023-11-06T12:54:27.000Z</time>
        <extensions>
          <ns3:TrackPointExtension>
            <ns3:hr>130</ns3:hr>
            <ns3:cad>61</ns3:cad>
          </ns3:TrackPointExtension>
        </extensions>
      </trkpt>
      <trkpt lat="23.17476307041943073272705078125" lon="113.26243023388087749481201171875">
        <ele>10</ele>
        <time>2023-11-06T12:54:33.000Z</time>
        <extensions>
          <ns3:TrackPointExtension>
            <ns3:hr>130</ns3:hr>
            <ns3:cad>61</ns3:cad>
          </ns3:TrackPointExtension>
        </extensions>
      </trkpt>
      <trkpt lat="23.17474530078470706939697265625" lon="113.26240978203713893890380859375">
        <ele>10.19999980926513671875</ele>
        <time>2023-11-06T12:54:35.000Z</time>
        <extensions>
          <ns3:TrackPointExtension>
            <ns3:hr>130</ns3:hr>
            <ns3:cad>61</ns3:cad>
          </ns3:TrackPointExtension>
        </extensions>
      </trkpt>
      <trkpt lat="23.17472116090357303619384765625" lon="113.26237642206251621246337890625">
        <ele>10.3999996185302734375</ele>
        <time>2023-11-06T12:54:37.000Z</time>
        <extensions>
          <ns3:TrackPointExtension>
            <ns3:hr>129</ns3:hr>
            <ns3:cad>61</ns3:cad>
          </ns3:TrackPointExtension>
        </extensions>
      </trkpt>
      <trkpt lat="23.17460280843079090118408203125" lon="113.26222236268222332000732421875">
        <ele>11</ele>
        <time>2023-11-06T12:54:49.000Z</time>
        <extensions>
          <ns3:TrackPointExtension>
            <ns3:hr>129</ns3:hr>
            <ns3:cad>0</ns3:cad>
          </ns3:TrackPointExtension>
        </extensions>
      </trkpt>
      <trkpt lat="23.1745663471519947052001953125" lon="113.2621981389820575714111328125">
        <ele>11</ele>
        <time>2023-11-06T12:54:55.000Z</time>
        <extensions>
          <ns3:TrackPointExtension>
            <ns3:hr>126</ns3:hr>
            <ns3:cad>0</ns3:cad>
          </ns3:TrackPointExtension>
        </extensions>
      </trkpt>
      <trkpt lat="23.1744211725890636444091796875" lon="113.26205841265618801116943359375">
        <ele>12</ele>
        <time>2023-11-06T12:55:11.000Z</time>
        <extensions>
          <ns3:TrackPointExtension>
            <ns3:hr>126</ns3:hr>
            <ns3:cad>0</ns3:cad>
          </ns3:TrackPointExtension>
        </extensions>
      </trkpt>
      <trkpt lat="23.174331821501255035400390625" lon="113.2621263898909091949462890625">
        <ele>11.19999980926513671875</ele>
        <time>2023-11-06T12:55:17.000Z</time>
        <extensions>
          <ns3:TrackPointExtension>
            <ns3:hr>126</ns3:hr>
            <ns3:cad>61</ns3:cad>
          </ns3:TrackPointExtension>
        </extensions>
      </trkpt>
      <trkpt lat="23.17423786036670207977294921875" lon="113.26220978982746601104736328125">
        <ele>10.19999980926513671875</ele>
        <time>2023-11-06T12:55:26.000Z</time>
        <extensions>
          <ns3:TrackPointExtension>
            <ns3:hr>123</ns3:hr>
            <ns3:cad>61</ns3:cad>
          </ns3:TrackPointExtension>
        </extensions>
      </trkpt>
      <trkpt lat="23.1742230243980884552001953125" lon="113.26219084672629833221435546875">
        <ele>10.19999980926513671875</ele>
        <time>2023-11-06T12:55:27.000Z</time>
        <extensions>
          <ns3:TrackPointExtension>
            <ns3:hr>115</ns3:hr>
            <ns3:cad>61</ns3:cad>
          </ns3:TrackPointExtension>
        </extensions>
      </trkpt>
      <trkpt lat="23.1742230243980884552001953125" lon="113.26219084672629833221435546875">
        <ele>10.19999980926513671875</ele>
        <time>2023-11-06T12:55:28.000Z</time>
        <extensions>
          <ns3:TrackPointExtension>
            <ns3:hr>115</ns3:hr>
            <ns3:cad>61</ns3:cad>
          </ns3:TrackPointExtension>
        </extensions>
      </trkpt>
      <trkpt lat="23.17407692782580852508544921875" lon="113.26208104379475116729736328125">
        <ele>10.80000019073486328125</ele>
        <time>2023-11-06T12:55:43.000Z</time>
        <extensions>
          <ns3:TrackPointExtension>
            <ns3:hr>117</ns3:hr>
            <ns3:cad>61</ns3:cad>
          </ns3:TrackPointExtension>
        </extensions>
      </trkpt>
      <trkpt lat="23.17400383763015270233154296875" lon="113.261992447078227996826171875">
        <ele>11.19999980926513671875</ele>
        <time>2023-11-06T12:55:53.000Z</time>
        <extensions>
          <ns3:TrackPointExtension>
            <ns3:hr>117</ns3:hr>
            <ns3:cad>61</ns3:cad>
          </ns3:TrackPointExtension>
        </extensions>
      </trkpt>
      <trkpt lat="23.17399847321212291717529296875" lon="113.26163982041180133819580078125">
        <ele>13.80000019073486328125</ele>
        <time>2023-11-06T12:56:01.000Z</time>
        <extensions>
          <ns3:TrackPointExtension>
            <ns3:hr>118</ns3:hr>
            <ns3:cad>61</ns3:cad>
          </ns3:TrackPointExtension>
        </extensions>
      </trkpt>
      <trkpt lat="23.173898644745349884033203125" lon="113.2613954879343509674072265625">
        <ele>16.200000762939453125</ele>
        <time>2023-11-06T12:56:12.000Z</time>
        <extensions>
          <ns3:TrackPointExtension>
            <ns3:hr>119</ns3:hr>
            <ns3:cad>61</ns3:cad>
          </ns3:TrackPointExtension>
        </extensions>
      </trkpt>
      <trkpt lat="23.17377886734902858734130859375" lon="113.261236064136028289794921875">
        <ele>17.799999237060546875</ele>
        <time>2023-11-06T12:56:24.000Z</time>
        <extensions>
          <ns3:TrackPointExtension>
            <ns3:hr>120</ns3:hr>
            <ns3:cad>61</ns3:cad>
          </ns3:TrackPointExtension>
        </extensions>
      </trkpt>
      <trkpt lat="23.1736282445490360260009765625" lon="113.26112517155706882476806640625">
        <ele>16.799999237060546875</ele>
        <time>2023-11-06T12:56:40.000Z</time>
        <extensions>
          <ns3:TrackPointExtension>
            <ns3:hr>122</ns3:hr>
            <ns3:cad>61</ns3:cad>
          </ns3:TrackPointExtension>
        </extensions>
      </trkpt>
      <trkpt lat="23.17358591593801975250244140625" lon="113.26109365560114383697509765625">
        <ele>16.3999996185302734375</ele>
        <time>2023-11-06T12:56:46.000Z</time>
        <extensions>
          <ns3:TrackPointExtension>
            <ns3:hr>121</ns3:hr>
            <ns3:cad>61</ns3:cad>
          </ns3:TrackPointExtension>
        </extensions>
      </trkpt>
      <trkpt lat="23.1736369617283344268798828125" lon="113.2609056495130062103271484375">
        <ele>15</ele>
        <time>2023-11-06T12:57:02.000Z</time>
        <extensions>
          <ns3:TrackPointExtension>
            <ns3:hr>120</ns3:hr>
            <ns3:cad>61</ns3:cad>
          </ns3:TrackPointExtension>
        </extensions>
      </trkpt>
      <trkpt lat="23.17366562783718109130859375" lon="113.26070942915976047515869140625">
        <ele>12</ele>
        <time>2023-11-06T12:57:17.000Z</time>
        <extensions>
          <ns3:TrackPointExtension>
            <ns3:hr>120</ns3:hr>
            <ns3:cad>60</ns3:cad>
          </ns3:TrackPointExtension>
        </extensions>
      </trkpt>
      <trkpt lat="23.1737507879734039306640625" lon="113.26053567230701446533203125">
        <ele>13</ele>
        <time>2023-11-06T12:57:35.000Z</time>
        <extensions>
          <ns3:TrackPointExtension>
            <ns3:hr>119</ns3:hr>
            <ns3:cad>61</ns3:cad>
          </ns3:TrackPointExtension>
        </extensions>
      </trkpt>
      <trkpt lat="23.1737764365971088409423828125" lon="113.260495774447917938232421875">
        <ele>13.3999996185302734375</ele>
        <time>2023-11-06T12:57:41.000Z</time>
        <extensions>
          <ns3:TrackPointExtension>
            <ns3:hr>117</ns3:hr>
            <ns3:cad>59</ns3:cad>
          </ns3:TrackPointExtension>
        </extensions>
      </trkpt>
      <trkpt lat="23.17377735860645771026611328125" lon="113.260466270148754119873046875">
        <ele>13.80000019073486328125</ele>
        <time>2023-11-06T12:57:47.000Z</time>
        <extensions>
          <ns3:TrackPointExtension>
            <ns3:hr>115</ns3:hr>
            <ns3:cad>57</ns3:cad>
          </ns3:TrackPointExtension>
        </extensions>
      </trkpt>
      <trkpt lat="23.17377467639744281768798828125" lon="113.26044154353439807891845703125">
        <ele>13.80000019073486328125</ele>
        <time>2023-11-06T12:57:50.000Z</time>
        <extensions>
          <ns3:TrackPointExtension>
            <ns3:hr>115</ns3:hr>
            <ns3:cad>55</ns3:cad>
          </ns3:TrackPointExtension>
        </extensions>
      </trkpt>
      <trkpt lat="23.17378238774836063385009765625" lon="113.26037918217480182647705078125">
        <ele>14.19999980926513671875</ele>
        <time>2023-11-06T12:57:59.000Z</time>
        <extensions>
          <ns3:TrackPointExtension>
            <ns3:hr>115</ns3:hr>
            <ns3:cad>57</ns3:cad>
          </ns3:TrackPointExtension>
        </extensions>
      </trkpt>
      <trkpt lat="23.1736547313630580902099609375" lon="113.26034548692405223846435546875">
        <ele>12.3999996185302734375</ele>
        <time>2023-11-06T12:58:05.000Z</time>
        <extensions>
          <ns3:TrackPointExtension>
            <ns3:hr>118</ns3:hr>
            <ns3:cad>0</ns3:cad>
          </ns3:TrackPointExtension>
        </extensions>
      </trkpt>
      <trkpt lat="23.1736493669450283050537109375" lon="113.26034414581954479217529296875">
        <ele>12.3999996185302734375</ele>
        <time>2023-11-06T12:58:06.000Z</time>
        <extensions>
          <ns3:TrackPointExtension>
            <ns3:hr>118</ns3:hr>
            <ns3:cad>0</ns3:cad>
          </ns3:TrackPointExtension>
        </extensions>
      </trkpt>
      <trkpt lat="23.173640482127666473388671875" lon="113.26033559627830982208251953125">
        <ele>12.19999980926513671875</ele>
        <time>2023-11-06T12:58:08.000Z</time>
        <extensions>
          <ns3:TrackPointExtension>
            <ns3:hr>119</ns3:hr>
            <ns3:cad>63</ns3:cad>
          </ns3:TrackPointExtension>
        </extensions>
      </trkpt>
      <trkpt lat="23.17362430505454540252685546875" lon="113.2603135518729686737060546875">
        <ele>12.19999980926513671875</ele>
        <time>2023-11-06T12:58:11.000Z</time>
        <extensions>
          <ns3:TrackPointExtension>
            <ns3:hr>119</ns3:hr>
            <ns3:cad>61</ns3:cad>
          </ns3:TrackPointExtension>
        </extensions>
      </trkpt>
      <trkpt lat="23.17355222068727016448974609375" lon="113.26021841727197170257568359375">
        <ele>11.3999996185302734375</ele>
        <time>2023-11-06T12:58:17.000Z</time>
        <extensions>
          <ns3:TrackPointExtension>
            <ns3:hr>120</ns3:hr>
            <ns3:cad>54</ns3:cad>
          </ns3:TrackPointExtension>
        </extensions>
      </trkpt>
      <trkpt lat="23.17347829230129718780517578125" lon="113.26011129654943943023681640625">
        <ele>12.6000003814697265625</ele>
        <time>2023-11-06T12:58:24.000Z</time>
        <extensions>
          <ns3:TrackPointExtension>
            <ns3:hr>119</ns3:hr>
            <ns3:cad>0</ns3:cad>
          </ns3:TrackPointExtension>
        </extensions>
      </trkpt>
      <trkpt lat="23.17347787320613861083984375" lon="113.26008145697414875030517578125">
        <ele>13.19999980926513671875</ele>
        <time>2023-11-06T12:58:26.000Z</time>
        <extensions>
          <ns3:TrackPointExtension>
            <ns3:hr>120</ns3:hr>
            <ns3:cad>0</ns3:cad>
          </ns3:TrackPointExtension>
        </extensions>
      </trkpt>
      <trkpt lat="23.17359161563217639923095703125" lon="113.25988632626831531524658203125">
        <ele>16.799999237060546875</ele>
        <time>2023-11-06T12:58:39.000Z</time>
        <extensions>
          <ns3:TrackPointExtension>
            <ns3:hr>120</ns3:hr>
            <ns3:cad>0</ns3:cad>
          </ns3:TrackPointExtension>
        </extensions>
      </trkpt>
      <trkpt lat="23.1736406497657299041748046875" lon="113.259825892746448516845703125">
        <ele>16.6000003814697265625</ele>
        <time>2023-11-06T12:58:41.000Z</time>
        <extensions>
          <ns3:TrackPointExtension>
            <ns3:hr>120</ns3:hr>
            <ns3:cad>0</ns3:cad>
          </ns3:TrackPointExtension>
        </extensions>
      </trkpt>
      <trkpt lat="23.17369488067924976348876953125" lon="113.25974098406732082366943359375">
        <ele>15.6000003814697265625</ele>
        <time>2023-11-06T12:58:42.000Z</time>
        <extensions>
          <ns3:TrackPointExtension>
            <ns3:hr>129</ns3:hr>
            <ns3:cad>0</ns3:cad>
          </ns3:TrackPointExtension>
        </extensions>
      </trkpt>
      <trkpt lat="23.17369488067924976348876953125" lon="113.25974098406732082366943359375">
        <ele>15.6000003814697265625</ele>
        <time>2023-11-06T12:58:43.000Z</time>
        <extensions>
          <ns3:TrackPointExtension>
            <ns3:hr>129</ns3:hr>
            <ns3:cad>0</ns3:cad>
          </ns3:TrackPointExtension>
        </extensions>
      </trkpt>
      <trkpt lat="23.17369588650763034820556640625" lon="113.2597211189568042755126953125">
        <ele>15.3999996185302734375</ele>
        <time>2023-11-06T12:58:44.000Z</time>
        <extensions>
          <ns3:TrackPointExtension>
            <ns3:hr>128</ns3:hr>
            <ns3:cad>0</ns3:cad>
          </ns3:TrackPointExtension>
        </extensions>
      </trkpt>
      <trkpt lat="23.17378087900578975677490234375" lon="113.2596711628139019012451171875">
        <ele>14.19999980926513671875</ele>
        <time>2023-11-06T12:58:47.000Z</time>
        <extensions>
          <ns3:TrackPointExtension>
            <ns3:hr>128</ns3:hr>
            <ns3:cad>0</ns3:cad>
          </ns3:TrackPointExtension>
        </extensions>
      </trkpt>
      <trkpt lat="23.17394801415503025054931640625" lon="113.25965733267366886138916015625">
        <ele>11.3999996185302734375</ele>
        <time>2023-11-06T12:58:50.000Z</time>
        <extensions>
          <ns3:TrackPointExtension>
            <ns3:hr>128</ns3:hr>
            <ns3:cad>0</ns3:cad>
          </ns3:TrackPointExtension>
        </extensions>
      </trkpt>
      <trkpt lat="23.173998892307281494140625" lon="113.2597003318369388580322265625">
        <ele>11.6000003814697265625</ele>
        <time>2023-11-06T12:58:52.000Z</time>
        <extensions>
          <ns3:TrackPointExtension>
            <ns3:hr>127</ns3:hr>
            <ns3:cad>0</ns3:cad>
          </ns3:TrackPointExtension>
        </extensions>
      </trkpt>
      <trkpt lat="23.17402797751128673553466796875" lon="113.2597419060766696929931640625">
        <ele>12.3999996185302734375</ele>
        <time>2023-11-06T12:58:55.000Z</time>
        <extensions>
          <ns3:TrackPointExtension>
            <ns3:hr>126</ns3:hr>
            <ns3:cad>55</ns3:cad>
          </ns3:TrackPointExtension>
        </extensions>
      </trkpt>
      <trkpt lat="23.1741110421717166900634765625" lon="113.25971885584294795989990234375">
        <ele>10.3999996185302734375</ele>
        <time>2023-11-06T12:59:09.000Z</time>
        <extensions>
          <ns3:TrackPointExtension>
            <ns3:hr>124</ns3:hr>
            <ns3:cad>55</ns3:cad>
          </ns3:TrackPointExtension>
        </extensions>
      </trkpt>
      <trkpt lat="23.17412470467388629913330078125" lon="113.25967694632709026336669921875">
        <ele>9.19999980926513671875</ele>
        <time>2023-11-06T12:59:15.000Z</time>
        <extensions>
          <ns3:TrackPointExtension>
            <ns3:hr>123</ns3:hr>
            <ns3:cad>55</ns3:cad>
          </ns3:TrackPointExtension>
        </extensions>
      </trkpt>
      <trkpt lat="23.17414817400276660919189453125" lon="113.2596812210977077484130859375">
        <ele>9.19999980926513671875</ele>
        <time>2023-11-06T12:59:17.000Z</time>
        <extensions>
          <ns3:TrackPointExtension>
            <ns3:hr>123</ns3:hr>
            <ns3:cad>55</ns3:cad>
          </ns3:TrackPointExtension>
        </extensions>
      </trkpt>
      <trkpt lat="23.17422595806419849395751953125" lon="113.25972053222358226776123046875">
        <ele>9.80000019073486328125</ele>
        <time>2023-11-06T12:59:23.000Z</time>
        <extensions>
          <ns3:TrackPointExtension>
            <ns3:hr>123</ns3:hr>
            <ns3:cad>0</ns3:cad>
          </ns3:TrackPointExtension>
        </extensions>
      </trkpt>
      <trkpt lat="23.17423551343381404876708984375" lon="113.25972220860421657562255859375">
        <ele>9.80000019073486328125</ele>
        <time>2023-11-06T12:59:24.000Z</time>
        <extensions>
          <ns3:TrackPointExtension>
            <ns3:hr>123</ns3:hr>
            <ns3:cad>0</ns3:cad>
          </ns3:TrackPointExtension>
        </extensions>
      </trkpt>
      <trkpt lat="23.17427541129291057586669921875" lon="113.2597462646663188934326171875">
        <ele>10.19999980926513671875</ele>
        <time>2023-11-06T12:59:29.000Z</time>
        <extensions>
          <ns3:TrackPointExtension>
            <ns3:hr>123</ns3:hr>
            <ns3:cad>0</ns3:cad>
          </ns3:TrackPointExtension>
        </extensions>
      </trkpt>
      <trkpt lat="23.17431882955133914947509765625" lon="113.25976185500621795654296875">
        <ele>10.3999996185302734375</ele>
        <time>2023-11-06T12:59:33.000Z</time>
        <extensions>
          <ns3:TrackPointExtension>
            <ns3:hr>123</ns3:hr>
            <ns3:cad>0</ns3:cad>
          </ns3:TrackPointExtension>
        </extensions>
      </trkpt>
      <trkpt lat="23.174323774874210357666015625" lon="113.25966336764395236968994140625">
        <ele>8.19999980926513671875</ele>
        <time>2023-11-06T12:59:48.000Z</time>
        <extensions>
          <ns3:TrackPointExtension>
            <ns3:hr>122</ns3:hr>
            <ns3:cad>61</ns3:cad>
          </ns3:TrackPointExtension>
        </extensions>
      </trkpt>
      <trkpt lat="23.174356631934642791748046875" lon="113.259521462023258209228515625">
        <ele>7.599999904632568359375</ele>
        <time>2023-11-06T13:00:05.000Z</time>
        <extensions>
          <ns3:TrackPointExtension>
            <ns3:hr>123</ns3:hr>
            <ns3:cad>63</ns3:cad>
          </ns3:TrackPointExtension>
        </extensions>
      </trkpt>
      <trkpt lat="23.17436836659908294677734375" lon="113.25947745703160762786865234375">
        <ele>7.400000095367431640625</ele>
        <time>2023-11-06T13:00:08.000Z</time>
        <extensions>
          <ns3:TrackPointExtension>
            <ns3:hr>122</ns3:hr>
            <ns3:cad>61</ns3:cad>
          </ns3:TrackPointExtension>
        </extensions>
      </trkpt>
      <trkpt lat="23.1743802689015865325927734375" lon="113.25943806208670139312744140625">
        <ele>7.400000095367431640625</ele>
        <time>2023-11-06T13:00:12.000Z</time>
        <extensions>
          <ns3:TrackPointExtension>
            <ns3:hr>123</ns3:hr>
            <ns3:cad>61</ns3:cad>
          </ns3:TrackPointExtension>
        </extensions>
      </trkpt>
      <trkpt lat="23.17437632940709590911865234375" lon="113.25937218032777309417724609375">
        <ele>7.19999980926513671875</ele>
        <time>2023-11-06T13:00:17.000Z</time>
        <extensions>
          <ns3:TrackPointExtension>
            <ns3:hr>123</ns3:hr>
            <ns3:cad>61</ns3:cad>
          </ns3:TrackPointExtension>
        </extensions>
      </trkpt>
      <trkpt lat="23.17436425946652889251708984375" lon="113.25932373292744159698486328125">
        <ele>6.400000095367431640625</ele>
        <time>2023-11-06T13:00:21.000Z</time>
        <extensions>
          <ns3:TrackPointExtension>
            <ns3:hr>124</ns3:hr>
            <ns3:cad>61</ns3:cad>
          </ns3:TrackPointExtension>
        </extensions>
      </trkpt>
      <trkpt lat="23.17436107434332370758056640625" lon="113.2593130879104137420654296875">
        <ele>6.400000095367431640625</ele>
        <time>2023-11-06T13:00:22.000Z</time>
        <extensions>
          <ns3:TrackPointExtension>
            <ns3:hr>124</ns3:hr>
            <ns3:cad>61</ns3:cad>
          </ns3:TrackPointExtension>
        </extensions>
      </trkpt>
      <trkpt lat="23.174357973039150238037109375" lon="113.2592869363725185394287109375">
        <ele>6</ele>
        <time>2023-11-06T13:00:24.000Z</time>
        <extensions>
          <ns3:TrackPointExtension>
            <ns3:hr>125</ns3:hr>
            <ns3:cad>61</ns3:cad>
          </ns3:TrackPointExtension>
        </extensions>
      </trkpt>
      <trkpt lat="23.17436962388455867767333984375" lon="113.25922851450741291046142578125">
        <ele>5.599999904632568359375</ele>
        <time>2023-11-06T13:00:28.000Z</time>
        <extensions>
          <ns3:TrackPointExtension>
            <ns3:hr>125</ns3:hr>
            <ns3:cad>61</ns3:cad>
          </ns3:TrackPointExtension>
        </extensions>
      </trkpt>
      <trkpt lat="23.174395523965358734130859375" lon="113.2590844295918941497802734375">
        <ele>3.7999999523162841796875</ele>
        <time>2023-11-06T13:00:57.000Z</time>
        <extensions>
          <ns3:TrackPointExtension>
            <ns3:hr>122</ns3:hr>
            <ns3:cad>0</ns3:cad>
          </ns3:TrackPointExtension>
        </extensions>
      </trkpt>
      <trkpt lat="23.17441941238939762115478515625" lon="113.2590646483004093170166015625">
        <ele>3.400000095367431640625</ele>
        <time>2023-11-06T13:01:00.000Z</time>
        <extensions>
          <ns3:TrackPointExtension>
            <ns3:hr>119</ns3:hr>
            <ns3:cad>0</ns3:cad>
          </ns3:TrackPointExtension>
        </extensions>
      </trkpt>
      <trkpt lat="23.17442812956869602203369140625" lon="113.25905819423496723175048828125">
        <ele>3.400000095367431640625</ele>
        <time>2023-11-06T13:01:01.000Z</time>
        <extensions>
          <ns3:TrackPointExtension>
            <ns3:hr>119</ns3:hr>
            <ns3:cad>0</ns3:cad>
          </ns3:TrackPointExtension>
        </extensions>
      </trkpt>
      <trkpt lat="23.1744456477463245391845703125" lon="113.25902433134615421295166015625">
        <ele>3</ele>
        <time>2023-11-06T13:01:07.000Z</time>
        <extensions>
          <ns3:TrackPointExtension>
            <ns3:hr>119</ns3:hr>
            <ns3:cad>0</ns3:cad>
          </ns3:TrackPointExtension>
        </extensions>
      </trkpt>
      <trkpt lat="23.174479007720947265625" lon="113.25899608433246612548828125">
        <ele>2.599999904632568359375</ele>
        <time>2023-11-06T13:01:11.000Z</time>
        <extensions>
          <ns3:TrackPointExtension>
            <ns3:hr>120</ns3:hr>
            <ns3:cad>0</ns3:cad>
          </ns3:TrackPointExtension>
        </extensions>
      </trkpt>
      <trkpt lat="23.1744922511279582977294921875" lon="113.25897672213613986968994140625">
        <ele>2.2000000476837158203125</ele>
        <time>2023-11-06T13:01:14.000Z</time>
        <extensions>
          <ns3:TrackPointExtension>
            <ns3:hr>121</ns3:hr>
            <ns3:cad>0</ns3:cad>
          </ns3:TrackPointExtension>
        </extensions>
      </trkpt>
      <trkpt lat="23.17451111041009426116943359375" lon="113.2589513249695301055908203125">
        <ele>2</ele>
        <time>2023-11-06T13:01:17.000Z</time>
        <extensions>
          <ns3:TrackPointExtension>
            <ns3:hr>121</ns3:hr>
            <ns3:cad>0</ns3:cad>
          </ns3:TrackPointExtension>
        </extensions>
      </trkpt>
      <trkpt lat="23.17456693388521671295166015625" lon="113.2587625645101070404052734375">
        <ele>0.800000011920928955078125</ele>
        <time>2023-11-06T13:01:38.000Z</time>
        <extensions>
          <ns3:TrackPointExtension>
            <ns3:hr>123</ns3:hr>
            <ns3:cad>53</ns3:cad>
          </ns3:TrackPointExtension>
        </extensions>
      </trkpt>
      <trkpt lat="23.17461621947586536407470703125" lon="113.2585761509835720062255859375">
        <ele>4.19999980926513671875</ele>
        <time>2023-11-06T13:01:55.000Z</time>
        <extensions>
          <ns3:TrackPointExtension>
            <ns3:hr>125</ns3:hr>
            <ns3:cad>61</ns3:cad>
          </ns3:TrackPointExtension>
        </extensions>
      </trkpt>
      <trkpt lat="23.17468981258571147918701171875" lon="113.25844480656087398529052734375">
        <ele>6.19999980926513671875</ele>
        <time>2023-11-06T13:02:09.000Z</time>
        <extensions>
          <ns3:TrackPointExtension>
            <ns3:hr>124</ns3:hr>
            <ns3:cad>0</ns3:cad>
          </ns3:TrackPointExtension>
        </extensions>
      </trkpt>
      <trkpt lat="23.17470389418303966522216796875" lon="113.25842569582164287567138671875">
        <ele>6.599999904632568359375</ele>
        <time>2023-11-06T13:02:11.000Z</time>
        <extensions>
          <ns3:TrackPointExtension>
            <ns3:hr>124</ns3:hr>
            <ns3:cad>0</ns3:cad>
          </ns3:TrackPointExtension>
        </extensions>
      </trkpt>
      <trkpt lat="23.1747148744761943817138671875" lon="113.25840658508241176605224609375">
        <ele>6.80000019073486328125</ele>
        <time>2023-11-06T13:02:13.000Z</time>
        <extensions>
          <ns3:TrackPointExtension>
            <ns3:hr>123</ns3:hr>
            <ns3:cad>59</ns3:cad>
          </ns3:TrackPointExtension>
        </extensions>
      </trkpt>
    </trkseg>
  </trk>
</gpx>
