<gpx xmlns:ns3="http://www.garmin.com/xmlschemas/TrackPointExtension/v1" xmlns="http://www.topografix.com/GPX/1/1" xmlns:xsi="http://www.w3.org/2001/XMLSchema-instance" xmlns:ns2="http://www.garmin.com/xmlschemas/GpxExtensions/v3" creator="Garmin Connect" version="1.1" xsi:schemaLocation="http://www.topografix.com/GPX/1/1 http://www.topografix.com/GPX/11.xsd">
  <extensions>
<distance>5199.91</distance>
<average_hr></average_hr>
<average_speed>2.247999906539917</average_speed>
<start_time>2024-04-10T12:16:25+00:00</start_time>
<end_time>2024-04-10T12:54:57.784000+00:00</end_time>
<moving_time>2312.003</moving_time>
<elapsed_time>2524.839</elapsed_time>
</extensions>
<metadata>
    <link href="connect.garmin.com">
      <text>Garmin Connect</text>
    </link>
    <time>2024-04-10T12:16:25.000Z</time>
  </metadata>
  <trk>
    <name>广州市 跑步</name>
    <type>running</type>
    <trkseg>
      <trkpt lat="23.38487223722040653228759765625" lon="113.22882818989455699920654296875">
        <ele>6.80000019073486328125</ele>
        <time>2024-04-10T12:43:14.000Z</time>
        <extensions>
          <ns3:TrackPointExtension>
            <ns3:cad>0</ns3:cad>
          </ns3:TrackPointExtension>
        </extensions>
      </trkpt>
      <trkpt lat="23.38505513034760951995849609375" lon="113.2288862764835357666015625">
        <ele>8</ele>
        <time>2024-04-10T12:43:23.000Z</time>
        <extensions>
          <ns3:TrackPointExtension>
            <ns3:cad>80</ns3:cad>
          </ns3:TrackPointExtension>
        </extensions>
      </trkpt>
      <trkpt lat="23.38522125966846942901611328125" lon="113.22897923178970813751220703125">
        <ele>9.80000019073486328125</ele>
        <time>2024-04-10T12:43:30.000Z</time>
        <extensions>
          <ns3:TrackPointExtension>
            <ns3:cad>82</ns3:cad>
          </ns3:TrackPointExtension>
        </extensions>
      </trkpt>
      <trkpt lat="23.38540499098598957061767578125" lon="113.22906489484012126922607421875">
        <ele>11.19999980926513671875</ele>
        <time>2024-04-10T12:43:39.000Z</time>
        <extensions>
          <ns3:TrackPointExtension>
            <ns3:cad>82</ns3:cad>
          </ns3:TrackPointExtension>
        </extensions>
      </trkpt>
      <trkpt lat="23.38550515472888946533203125" lon="113.2290819101035594940185546875">
        <ele>11.80000019073486328125</ele>
        <time>2024-04-10T12:43:43.000Z</time>
        <extensions>
          <ns3:TrackPointExtension>
            <ns3:cad>82</ns3:cad>
          </ns3:TrackPointExtension>
        </extensions>
      </trkpt>
      <trkpt lat="23.3856868743896484375" lon="113.22910982184112071990966796875">
        <ele>12.80000019073486328125</ele>
        <time>2024-04-10T12:43:52.000Z</time>
        <extensions>
          <ns3:TrackPointExtension>
            <ns3:cad>83</ns3:cad>
          </ns3:TrackPointExtension>
        </extensions>
      </trkpt>
      <trkpt lat="23.3858744613826274871826171875" lon="113.22916363365948200225830078125">
        <ele>13.6000003814697265625</ele>
        <time>2024-04-10T12:44:02.000Z</time>
        <extensions>
          <ns3:TrackPointExtension>
            <ns3:cad>82</ns3:cad>
          </ns3:TrackPointExtension>
        </extensions>
      </trkpt>
      <trkpt lat="23.386052660644054412841796875" lon="113.22924275882542133331298828125">
        <ele>14</ele>
        <time>2024-04-10T12:44:12.000Z</time>
        <extensions>
          <ns3:TrackPointExtension>
            <ns3:cad>83</ns3:cad>
          </ns3:TrackPointExtension>
        </extensions>
      </trkpt>
      <trkpt lat="23.38619641028344631195068359375" lon="113.2293692417442798614501953125">
        <ele>13.80000019073486328125</ele>
        <time>2024-04-10T12:44:19.000Z</time>
        <extensions>
          <ns3:TrackPointExtension>
            <ns3:cad>83</ns3:cad>
          </ns3:TrackPointExtension>
        </extensions>
      </trkpt>
      <trkpt lat="23.386349380016326904296875" lon="113.22948105633258819580078125">
        <ele>11.6000003814697265625</ele>
        <time>2024-04-10T12:44:28.000Z</time>
        <extensions>
          <ns3:TrackPointExtension>
            <ns3:cad>82</ns3:cad>
          </ns3:TrackPointExtension>
        </extensions>
      </trkpt>
      <trkpt lat="23.38638751767575740814208984375" lon="113.22952640242874622344970703125">
        <ele>10.6000003814697265625</ele>
        <time>2024-04-10T12:44:29.000Z</time>
        <extensions>
          <ns3:TrackPointExtension>
            <ns3:cad>82</ns3:cad>
          </ns3:TrackPointExtension>
        </extensions>
      </trkpt>
      <trkpt lat="23.3865572512149810791015625" lon="113.22963394224643707275390625">
        <ele>5.19999980926513671875</ele>
        <time>2024-04-10T12:44:38.000Z</time>
        <extensions>
          <ns3:TrackPointExtension>
            <ns3:cad>82</ns3:cad>
          </ns3:TrackPointExtension>
        </extensions>
      </trkpt>
      <trkpt lat="23.386660851538181304931640625" lon="113.22972035966813564300537109375">
        <ele>3.400000095367431640625</ele>
        <time>2024-04-10T12:44:44.000Z</time>
        <extensions>
          <ns3:TrackPointExtension>
            <ns3:cad>82</ns3:cad>
          </ns3:TrackPointExtension>
        </extensions>
      </trkpt>
      <trkpt lat="23.38677358813583850860595703125" lon="113.2298785261809825897216796875">
        <ele>4.19999980926513671875</ele>
        <time>2024-04-10T12:44:56.000Z</time>
        <extensions>
          <ns3:TrackPointExtension>
            <ns3:cad>82</ns3:cad>
          </ns3:TrackPointExtension>
        </extensions>
      </trkpt>
      <trkpt lat="23.3867991529405117034912109375" lon="113.2300798594951629638671875">
        <ele>7.19999980926513671875</ele>
        <time>2024-04-10T12:45:08.000Z</time>
        <extensions>
          <ns3:TrackPointExtension>
            <ns3:cad>83</ns3:cad>
          </ns3:TrackPointExtension>
        </extensions>
      </trkpt>
      <trkpt lat="23.386807702481746673583984375" lon="113.23011850006878376007080078125">
        <ele>8</ele>
        <time>2024-04-10T12:45:11.000Z</time>
        <extensions>
          <ns3:TrackPointExtension>
            <ns3:cad>83</ns3:cad>
          </ns3:TrackPointExtension>
        </extensions>
      </trkpt>
      <trkpt lat="23.386821448802947998046875" lon="113.23022159747779369354248046875">
        <ele>9.80000019073486328125</ele>
        <time>2024-04-10T12:45:19.000Z</time>
        <extensions>
          <ns3:TrackPointExtension>
            <ns3:cad>61</ns3:cad>
          </ns3:TrackPointExtension>
        </extensions>
      </trkpt>
      <trkpt lat="23.3868227899074554443359375" lon="113.2302493415772914886474609375">
        <ele>10.19999980926513671875</ele>
        <time>2024-04-10T12:45:21.000Z</time>
        <extensions>
          <ns3:TrackPointExtension>
            <ns3:cad>61</ns3:cad>
          </ns3:TrackPointExtension>
        </extensions>
      </trkpt>
      <trkpt lat="23.38682957924902439117431640625" lon="113.23037087917327880859375">
        <ele>11.3999996185302734375</ele>
        <time>2024-04-10T12:45:31.000Z</time>
        <extensions>
          <ns3:TrackPointExtension>
            <ns3:cad>61</ns3:cad>
          </ns3:TrackPointExtension>
        </extensions>
      </trkpt>
      <trkpt lat="23.3867991529405117034912109375" lon="113.23047623969614505767822265625">
        <ele>12.80000019073486328125</ele>
        <time>2024-04-10T12:45:40.000Z</time>
        <extensions>
          <ns3:TrackPointExtension>
            <ns3:cad>61</ns3:cad>
          </ns3:TrackPointExtension>
        </extensions>
      </trkpt>
      <trkpt lat="23.38678800500929355621337890625" lon="113.23056156747043132781982421875">
        <ele>12.6000003814697265625</ele>
        <time>2024-04-10T12:45:48.000Z</time>
        <extensions>
          <ns3:TrackPointExtension>
            <ns3:cad>0</ns3:cad>
          </ns3:TrackPointExtension>
        </extensions>
      </trkpt>
      <trkpt lat="23.38676855899393558502197265625" lon="113.230723924934864044189453125">
        <ele>12.6000003814697265625</ele>
        <time>2024-04-10T12:45:58.000Z</time>
        <extensions>
          <ns3:TrackPointExtension>
            <ns3:cad>61</ns3:cad>
          </ns3:TrackPointExtension>
        </extensions>
      </trkpt>
      <trkpt lat="23.38675850071012973785400390625" lon="113.23082174174487590789794921875">
        <ele>12.19999980926513671875</ele>
        <time>2024-04-10T12:46:04.000Z</time>
        <extensions>
          <ns3:TrackPointExtension>
            <ns3:cad>61</ns3:cad>
          </ns3:TrackPointExtension>
        </extensions>
      </trkpt>
      <trkpt lat="23.3867719955742359161376953125" lon="113.23094814084470272064208984375">
        <ele>11.80000019073486328125</ele>
        <time>2024-04-10T12:46:12.000Z</time>
        <extensions>
          <ns3:TrackPointExtension>
            <ns3:cad>61</ns3:cad>
          </ns3:TrackPointExtension>
        </extensions>
      </trkpt>
      <trkpt lat="23.3867691457271575927734375" lon="113.23096029460430145263671875">
        <ele>11.80000019073486328125</ele>
        <time>2024-04-10T12:46:13.000Z</time>
        <extensions>
          <ns3:TrackPointExtension>
            <ns3:cad>61</ns3:cad>
          </ns3:TrackPointExtension>
        </extensions>
      </trkpt>
      <trkpt lat="23.3867610991001129150390625" lon="113.2310047186911106109619140625">
        <ele>12.19999980926513671875</ele>
        <time>2024-04-10T12:46:17.000Z</time>
        <extensions>
          <ns3:TrackPointExtension>
            <ns3:cad>61</ns3:cad>
          </ns3:TrackPointExtension>
        </extensions>
      </trkpt>
      <trkpt lat="23.3867592550814151763916015625" lon="113.23104587383568286895751953125">
        <ele>12.3999996185302734375</ele>
        <time>2024-04-10T12:46:20.000Z</time>
        <extensions>
          <ns3:TrackPointExtension>
            <ns3:cad>61</ns3:cad>
          </ns3:TrackPointExtension>
        </extensions>
      </trkpt>
      <trkpt lat="23.38675715960562229156494140625" lon="113.23108158074319362640380859375">
        <ele>12.6000003814697265625</ele>
        <time>2024-04-10T12:46:22.000Z</time>
        <extensions>
          <ns3:TrackPointExtension>
            <ns3:cad>61</ns3:cad>
          </ns3:TrackPointExtension>
        </extensions>
      </trkpt>
      <trkpt lat="23.3866539783775806427001953125" lon="113.231269754469394683837890625">
        <ele>15.3999996185302734375</ele>
        <time>2024-04-10T12:46:35.000Z</time>
        <extensions>
          <ns3:TrackPointExtension>
            <ns3:cad>61</ns3:cad>
          </ns3:TrackPointExtension>
        </extensions>
      </trkpt>
      <trkpt lat="23.38653537444770336151123046875" lon="113.2314365543425083160400390625">
        <ele>17.200000762939453125</ele>
        <time>2024-04-10T12:46:48.000Z</time>
        <extensions>
          <ns3:TrackPointExtension>
            <ns3:cad>61</ns3:cad>
          </ns3:TrackPointExtension>
        </extensions>
      </trkpt>
      <trkpt lat="23.38641174137592315673828125" lon="113.23160469532012939453125">
        <ele>18.799999237060546875</ele>
        <time>2024-04-10T12:47:05.000Z</time>
        <extensions>
          <ns3:TrackPointExtension>
            <ns3:cad>61</ns3:cad>
          </ns3:TrackPointExtension>
        </extensions>
      </trkpt>
      <trkpt lat="23.38632733561098575592041015625" lon="113.231794796884059906005859375">
        <ele>21.799999237060546875</ele>
        <time>2024-04-10T12:47:16.000Z</time>
        <extensions>
          <ns3:TrackPointExtension>
            <ns3:cad>82</ns3:cad>
          </ns3:TrackPointExtension>
        </extensions>
      </trkpt>
      <trkpt lat="23.38629447855055332183837890625" lon="113.231997303664684295654296875">
        <ele>22.200000762939453125</ele>
        <time>2024-04-10T12:47:23.000Z</time>
        <extensions>
          <ns3:TrackPointExtension>
            <ns3:cad>82</ns3:cad>
          </ns3:TrackPointExtension>
        </extensions>
      </trkpt>
      <trkpt lat="23.386251144111156463623046875" lon="113.23219737969338893890380859375">
        <ele>20.799999237060546875</ele>
        <time>2024-04-10T12:47:34.000Z</time>
        <extensions>
          <ns3:TrackPointExtension>
            <ns3:cad>82</ns3:cad>
          </ns3:TrackPointExtension>
        </extensions>
      </trkpt>
      <trkpt lat="23.386188782751560211181640625" lon="113.23238831944763660430908203125">
        <ele>15.6000003814697265625</ele>
        <time>2024-04-10T12:47:46.000Z</time>
        <extensions>
          <ns3:TrackPointExtension>
            <ns3:cad>57</ns3:cad>
          </ns3:TrackPointExtension>
        </extensions>
      </trkpt>
      <trkpt lat="23.3861200511455535888671875" lon="113.23248487897217273712158203125">
        <ele>12.80000019073486328125</ele>
        <time>2024-04-10T12:47:56.000Z</time>
        <extensions>
          <ns3:TrackPointExtension>
            <ns3:cad>58</ns3:cad>
          </ns3:TrackPointExtension>
        </extensions>
      </trkpt>
      <trkpt lat="23.38610974140465259552001953125" lon="113.2324965298175811767578125">
        <ele>12.3999996185302734375</ele>
        <time>2024-04-10T12:47:58.000Z</time>
        <extensions>
          <ns3:TrackPointExtension>
            <ns3:cad>57</ns3:cad>
          </ns3:TrackPointExtension>
        </extensions>
      </trkpt>
      <trkpt lat="23.38609549216926097869873046875" lon="113.23250767774879932403564453125">
        <ele>12.19999980926513671875</ele>
        <time>2024-04-10T12:48:01.000Z</time>
        <extensions>
          <ns3:TrackPointExtension>
            <ns3:cad>55</ns3:cad>
          </ns3:TrackPointExtension>
        </extensions>
      </trkpt>
      <trkpt lat="23.38603715412318706512451171875" lon="113.23253232054412364959716796875">
        <ele>10.19999980926513671875</ele>
        <time>2024-04-10T12:48:09.000Z</time>
        <extensions>
          <ns3:TrackPointExtension>
            <ns3:cad>61</ns3:cad>
          </ns3:TrackPointExtension>
        </extensions>
      </trkpt>
      <trkpt lat="23.38602307252585887908935546875" lon="113.232702054083347320556640625">
        <ele>6.19999980926513671875</ele>
        <time>2024-04-10T12:48:19.000Z</time>
        <extensions>
          <ns3:TrackPointExtension>
            <ns3:cad>61</ns3:cad>
          </ns3:TrackPointExtension>
        </extensions>
      </trkpt>
      <trkpt lat="23.3860303647816181182861328125" lon="113.23274706490337848663330078125">
        <ele>5.80000019073486328125</ele>
        <time>2024-04-10T12:48:21.000Z</time>
        <extensions>
          <ns3:TrackPointExtension>
            <ns3:cad>61</ns3:cad>
          </ns3:TrackPointExtension>
        </extensions>
      </trkpt>
      <trkpt lat="23.386011756956577301025390625" lon="113.2328076660633087158203125">
        <ele>5.400000095367431640625</ele>
        <time>2024-04-10T12:48:28.000Z</time>
        <extensions>
          <ns3:TrackPointExtension>
            <ns3:cad>61</ns3:cad>
          </ns3:TrackPointExtension>
        </extensions>
      </trkpt>
      <trkpt lat="23.3860062249004840850830078125" lon="113.23282686062157154083251953125">
        <ele>5.400000095367431640625</ele>
        <time>2024-04-10T12:48:31.000Z</time>
        <extensions>
          <ns3:TrackPointExtension>
            <ns3:cad>61</ns3:cad>
          </ns3:TrackPointExtension>
        </extensions>
      </trkpt>
      <trkpt lat="23.38600337505340576171875" lon="113.2328527607023715972900390625">
        <ele>5.19999980926513671875</ele>
        <time>2024-04-10T12:48:34.000Z</time>
        <extensions>
          <ns3:TrackPointExtension>
            <ns3:cad>61</ns3:cad>
          </ns3:TrackPointExtension>
        </extensions>
      </trkpt>
      <trkpt lat="23.3860276825726032257080078125" lon="113.23288603685796260833740234375">
        <ele>4.80000019073486328125</ele>
        <time>2024-04-10T12:48:36.000Z</time>
        <extensions>
          <ns3:TrackPointExtension>
            <ns3:cad>61</ns3:cad>
          </ns3:TrackPointExtension>
        </extensions>
      </trkpt>
      <trkpt lat="23.3860558457672595977783203125" lon="113.2329154573380947113037109375">
        <ele>4.599999904632568359375</ele>
        <time>2024-04-10T12:48:38.000Z</time>
        <extensions>
          <ns3:TrackPointExtension>
            <ns3:cad>61</ns3:cad>
          </ns3:TrackPointExtension>
        </extensions>
      </trkpt>
      <trkpt lat="23.38608275167644023895263671875" lon="113.23301176540553569793701171875">
        <ele>4</ele>
        <time>2024-04-10T12:48:42.000Z</time>
        <extensions>
          <ns3:TrackPointExtension>
            <ns3:cad>59</ns3:cad>
          </ns3:TrackPointExtension>
        </extensions>
      </trkpt>
      <trkpt lat="23.3860367350280284881591796875" lon="113.23310681618750095367431640625">
        <ele>4.400000095367431640625</ele>
        <time>2024-04-10T12:48:49.000Z</time>
        <extensions>
          <ns3:TrackPointExtension>
            <ns3:cad>52</ns3:cad>
          </ns3:TrackPointExtension>
        </extensions>
      </trkpt>
      <trkpt lat="23.3860182948410511016845703125" lon="113.233156017959117889404296875">
        <ele>4.599999904632568359375</ele>
        <time>2024-04-10T12:48:52.000Z</time>
        <extensions>
          <ns3:TrackPointExtension>
            <ns3:cad>50</ns3:cad>
          </ns3:TrackPointExtension>
        </extensions>
      </trkpt>
      <trkpt lat="23.38591444306075572967529296875" lon="113.23332273401319980621337890625">
        <ele>3.400000095367431640625</ele>
        <time>2024-04-10T12:49:09.000Z</time>
        <extensions>
          <ns3:TrackPointExtension>
            <ns3:cad>57</ns3:cad>
          </ns3:TrackPointExtension>
        </extensions>
      </trkpt>
      <trkpt lat="23.3859096653759479522705078125" lon="113.23337419889867305755615234375">
        <ele>2.599999904632568359375</ele>
        <time>2024-04-10T12:49:13.000Z</time>
        <extensions>
          <ns3:TrackPointExtension>
            <ns3:cad>57</ns3:cad>
          </ns3:TrackPointExtension>
        </extensions>
      </trkpt>
      <trkpt lat="23.38589382357895374298095703125" lon="113.23357352055609226226806640625">
        <ele>-0.800000011920928955078125</ele>
        <time>2024-04-10T12:49:29.000Z</time>
        <extensions>
          <ns3:TrackPointExtension>
            <ns3:cad>57</ns3:cad>
          </ns3:TrackPointExtension>
        </extensions>
      </trkpt>
      <trkpt lat="23.38588460348546504974365234375" lon="113.23377502150833606719970703125">
        <ele>-2</ele>
        <time>2024-04-10T12:49:41.000Z</time>
        <extensions>
          <ns3:TrackPointExtension>
            <ns3:cad>80</ns3:cad>
          </ns3:TrackPointExtension>
        </extensions>
      </trkpt>
      <trkpt lat="23.3858747966587543487548828125" lon="113.2339813001453876495361328125">
        <ele>-0.20000000298023223876953125</ele>
        <time>2024-04-10T12:49:50.000Z</time>
        <extensions>
          <ns3:TrackPointExtension>
            <ns3:cad>82</ns3:cad>
          </ns3:TrackPointExtension>
        </extensions>
      </trkpt>
      <trkpt lat="23.3858761377632617950439453125" lon="113.23419076390564441680908203125">
        <ele>0.60000002384185791015625</ele>
        <time>2024-04-10T12:49:59.000Z</time>
        <extensions>
          <ns3:TrackPointExtension>
            <ns3:cad>81</ns3:cad>
          </ns3:TrackPointExtension>
        </extensions>
      </trkpt>
      <trkpt lat="23.38587756268680095672607421875" lon="113.234397210180759429931640625">
        <ele>1</ele>
        <time>2024-04-10T12:50:07.000Z</time>
        <extensions>
          <ns3:TrackPointExtension>
            <ns3:cad>82</ns3:cad>
          </ns3:TrackPointExtension>
        </extensions>
      </trkpt>
      <trkpt lat="23.38588192127645015716552734375" lon="113.23461723513901233673095703125">
        <ele>1.39999997615814208984375</ele>
        <time>2024-04-10T12:50:15.000Z</time>
        <extensions>
          <ns3:TrackPointExtension>
            <ns3:cad>82</ns3:cad>
          </ns3:TrackPointExtension>
        </extensions>
      </trkpt>
      <trkpt lat="23.38587303645908832550048828125" lon="113.2348228432238101959228515625">
        <ele>2.2000000476837158203125</ele>
        <time>2024-04-10T12:50:23.000Z</time>
        <extensions>
          <ns3:TrackPointExtension>
            <ns3:cad>83</ns3:cad>
          </ns3:TrackPointExtension>
        </extensions>
      </trkpt>
      <trkpt lat="23.3858704380691051483154296875" lon="113.23503213934600353240966796875">
        <ele>1.7999999523162841796875</ele>
        <time>2024-04-10T12:50:32.000Z</time>
        <extensions>
          <ns3:TrackPointExtension>
            <ns3:cad>82</ns3:cad>
          </ns3:TrackPointExtension>
        </extensions>
      </trkpt>
      <trkpt lat="23.38587320409715175628662109375" lon="113.23525325395166873931884765625">
        <ele>0.800000011920928955078125</ele>
        <time>2024-04-10T12:50:41.000Z</time>
        <extensions>
          <ns3:TrackPointExtension>
            <ns3:cad>82</ns3:cad>
          </ns3:TrackPointExtension>
        </extensions>
      </trkpt>
      <trkpt lat="23.3858684264123439788818359375" lon="113.235306479036808013916015625">
        <ele>0.4000000059604644775390625</ele>
        <time>2024-04-10T12:50:43.000Z</time>
        <extensions>
          <ns3:TrackPointExtension>
            <ns3:cad>82</ns3:cad>
          </ns3:TrackPointExtension>
        </extensions>
      </trkpt>
      <trkpt lat="23.38588058017194271087646484375" lon="113.23550236411392688751220703125">
        <ele>-1.60000002384185791015625</ele>
        <time>2024-04-10T12:50:50.000Z</time>
        <extensions>
          <ns3:TrackPointExtension>
            <ns3:cad>84</ns3:cad>
          </ns3:TrackPointExtension>
        </extensions>
      </trkpt>
      <trkpt lat="23.38586851023137569427490234375" lon="113.2357317768037319183349609375">
        <ele>-3</ele>
        <time>2024-04-10T12:50:57.000Z</time>
        <extensions>
          <ns3:TrackPointExtension>
            <ns3:cad>82</ns3:cad>
          </ns3:TrackPointExtension>
        </extensions>
      </trkpt>
      <trkpt lat="23.38585224933922290802001953125" lon="113.23595733381807804107666015625">
        <ele>-2.599999904632568359375</ele>
        <time>2024-04-10T12:51:02.000Z</time>
        <extensions>
          <ns3:TrackPointExtension>
            <ns3:cad>82</ns3:cad>
          </ns3:TrackPointExtension>
        </extensions>
      </trkpt>
      <trkpt lat="23.3858442865312099456787109375" lon="113.2361642830073833465576171875">
        <ele>-1</ele>
        <time>2024-04-10T12:51:07.000Z</time>
        <extensions>
          <ns3:TrackPointExtension>
            <ns3:cad>82</ns3:cad>
          </ns3:TrackPointExtension>
        </extensions>
      </trkpt>
      <trkpt lat="23.385842777788639068603515625" lon="113.23639939539134502410888671875">
        <ele>1</ele>
        <time>2024-04-10T12:51:13.000Z</time>
        <extensions>
          <ns3:TrackPointExtension>
            <ns3:cad>82</ns3:cad>
          </ns3:TrackPointExtension>
        </extensions>
      </trkpt>
      <trkpt lat="23.38583263568580150604248046875" lon="113.23660676367580890655517578125">
        <ele>3.2000000476837158203125</ele>
        <time>2024-04-10T12:51:19.000Z</time>
        <extensions>
          <ns3:TrackPointExtension>
            <ns3:cad>82</ns3:cad>
          </ns3:TrackPointExtension>
        </extensions>
      </trkpt>
      <trkpt lat="23.38584235869348049163818359375" lon="113.23681413196027278900146484375">
        <ele>5.19999980926513671875</ele>
        <time>2024-04-10T12:51:25.000Z</time>
        <extensions>
          <ns3:TrackPointExtension>
            <ns3:cad>82</ns3:cad>
          </ns3:TrackPointExtension>
        </extensions>
      </trkpt>
      <trkpt lat="23.38585208170115947723388671875" lon="113.2370172254741191864013671875">
        <ele>5.599999904632568359375</ele>
        <time>2024-04-10T12:51:37.000Z</time>
        <extensions>
          <ns3:TrackPointExtension>
            <ns3:cad>82</ns3:cad>
          </ns3:TrackPointExtension>
        </extensions>
      </trkpt>
      <trkpt lat="23.3858892135322093963623046875" lon="113.2372157089412212371826171875">
        <ele>6</ele>
        <time>2024-04-10T12:51:55.000Z</time>
        <extensions>
          <ns3:TrackPointExtension>
            <ns3:cad>61</ns3:cad>
          </ns3:TrackPointExtension>
        </extensions>
      </trkpt>
      <trkpt lat="23.38589617051184177398681640625" lon="113.23742148466408252716064453125">
        <ele>5.80000019073486328125</ele>
        <time>2024-04-10T12:52:14.000Z</time>
        <extensions>
          <ns3:TrackPointExtension>
            <ns3:cad>59</ns3:cad>
          </ns3:TrackPointExtension>
        </extensions>
      </trkpt>
      <trkpt lat="23.3858996070921421051025390625" lon="113.2376264221966266632080078125">
        <ele>4.19999980926513671875</ele>
        <time>2024-04-10T12:52:24.000Z</time>
        <extensions>
          <ns3:TrackPointExtension>
            <ns3:cad>79</ns3:cad>
          </ns3:TrackPointExtension>
        </extensions>
      </trkpt>
      <trkpt lat="23.3859059773385524749755859375" lon="113.23783789761364459991455078125">
        <ele>2.599999904632568359375</ele>
        <time>2024-04-10T12:52:30.000Z</time>
        <extensions>
          <ns3:TrackPointExtension>
            <ns3:cad>77</ns3:cad>
          </ns3:TrackPointExtension>
        </extensions>
      </trkpt>
      <trkpt lat="23.38590756990015506744384765625" lon="113.2380498759448528289794921875">
        <ele>1.7999999523162841796875</ele>
        <time>2024-04-10T12:52:37.000Z</time>
        <extensions>
          <ns3:TrackPointExtension>
            <ns3:cad>81</ns3:cad>
          </ns3:TrackPointExtension>
        </extensions>
      </trkpt>
      <trkpt lat="23.38589248247444629669189453125" lon="113.23827828280627727508544921875">
        <ele>2.400000095367431640625</ele>
        <time>2024-04-10T12:52:44.000Z</time>
        <extensions>
          <ns3:TrackPointExtension>
            <ns3:cad>80</ns3:cad>
          </ns3:TrackPointExtension>
        </extensions>
      </trkpt>
      <trkpt lat="23.38588468730449676513671875" lon="113.2385068573057651519775390625">
        <ele>6.599999904632568359375</ele>
        <time>2024-04-10T12:52:50.000Z</time>
        <extensions>
          <ns3:TrackPointExtension>
            <ns3:cad>80</ns3:cad>
          </ns3:TrackPointExtension>
        </extensions>
      </trkpt>
      <trkpt lat="23.385880999267101287841796875" lon="113.2387160696089267730712890625">
        <ele>6.80000019073486328125</ele>
        <time>2024-04-10T12:52:56.000Z</time>
        <extensions>
          <ns3:TrackPointExtension>
            <ns3:cad>80</ns3:cad>
          </ns3:TrackPointExtension>
        </extensions>
      </trkpt>
      <trkpt lat="23.38588158600032329559326171875" lon="113.238928802311420440673828125">
        <ele>6</ele>
        <time>2024-04-10T12:53:03.000Z</time>
        <extensions>
          <ns3:TrackPointExtension>
            <ns3:cad>80</ns3:cad>
          </ns3:TrackPointExtension>
        </extensions>
      </trkpt>
      <trkpt lat="23.38589130900800228118896484375" lon="113.23915000073611736297607421875">
        <ele>3.7999999523162841796875</ele>
        <time>2024-04-10T12:53:10.000Z</time>
        <extensions>
          <ns3:TrackPointExtension>
            <ns3:cad>82</ns3:cad>
          </ns3:TrackPointExtension>
        </extensions>
      </trkpt>
      <trkpt lat="23.385907150804996490478515625" lon="113.23936323635280132293701171875">
        <ele>2.599999904632568359375</ele>
        <time>2024-04-10T12:53:18.000Z</time>
        <extensions>
          <ns3:TrackPointExtension>
            <ns3:cad>83</ns3:cad>
          </ns3:TrackPointExtension>
        </extensions>
      </trkpt>
      <trkpt lat="23.385925590991973876953125" lon="113.239577896893024444580078125">
        <ele>5</ele>
        <time>2024-04-10T12:53:26.000Z</time>
        <extensions>
          <ns3:TrackPointExtension>
            <ns3:cad>82</ns3:cad>
          </ns3:TrackPointExtension>
        </extensions>
      </trkpt>
      <trkpt lat="23.38596657849848270416259765625" lon="113.239796496927738189697265625">
        <ele>7.400000095367431640625</ele>
        <time>2024-04-10T12:53:34.000Z</time>
        <extensions>
          <ns3:TrackPointExtension>
            <ns3:cad>82</ns3:cad>
          </ns3:TrackPointExtension>
        </extensions>
      </trkpt>
      <trkpt lat="23.38605777360498905181884765625" lon="113.23998349718749523162841796875">
        <ele>8.3999996185302734375</ele>
        <time>2024-04-10T12:53:42.000Z</time>
        <extensions>
          <ns3:TrackPointExtension>
            <ns3:cad>83</ns3:cad>
          </ns3:TrackPointExtension>
        </extensions>
      </trkpt>
      <trkpt lat="23.38616841472685337066650390625" lon="113.24014945887029170989990234375">
        <ele>6.80000019073486328125</ele>
        <time>2024-04-10T12:53:51.000Z</time>
        <extensions>
          <ns3:TrackPointExtension>
            <ns3:cad>83</ns3:cad>
          </ns3:TrackPointExtension>
        </extensions>
      </trkpt>
      <trkpt lat="23.3862660638988018035888671875" lon="113.24033034034073352813720703125">
        <ele>4.80000019073486328125</ele>
        <time>2024-04-10T12:54:01.000Z</time>
        <extensions>
          <ns3:TrackPointExtension>
            <ns3:cad>83</ns3:cad>
          </ns3:TrackPointExtension>
        </extensions>
      </trkpt>
      <trkpt lat="23.38632859289646148681640625" lon="113.24052765034139156341552734375">
        <ele>3.2000000476837158203125</ele>
        <time>2024-04-10T12:54:09.000Z</time>
        <extensions>
          <ns3:TrackPointExtension>
            <ns3:cad>83</ns3:cad>
          </ns3:TrackPointExtension>
        </extensions>
      </trkpt>
      <trkpt lat="23.38631040416657924652099609375" lon="113.24074926786124706268310546875">
        <ele>3</ele>
        <time>2024-04-10T12:54:16.000Z</time>
        <extensions>
          <ns3:TrackPointExtension>
            <ns3:cad>83</ns3:cad>
          </ns3:TrackPointExtension>
        </extensions>
      </trkpt>
      <trkpt lat="23.38632834143936634063720703125" lon="113.240954540669918060302734375">
        <ele>3.599999904632568359375</ele>
        <time>2024-04-10T12:54:24.000Z</time>
        <extensions>
          <ns3:TrackPointExtension>
            <ns3:cad>83</ns3:cad>
          </ns3:TrackPointExtension>
        </extensions>
      </trkpt>
      <trkpt lat="23.3863971568644046783447265625" lon="113.241098038852214813232421875">
        <ele>4</ele>
        <time>2024-04-10T12:54:29.000Z</time>
        <extensions>
          <ns3:TrackPointExtension>
            <ns3:cad>81</ns3:cad>
          </ns3:TrackPointExtension>
        </extensions>
      </trkpt>
      <trkpt lat="23.386552222073078155517578125" lon="113.24123307131230831146240234375">
        <ele>4</ele>
        <time>2024-04-10T12:54:35.000Z</time>
        <extensions>
          <ns3:TrackPointExtension>
            <ns3:cad>79</ns3:cad>
          </ns3:TrackPointExtension>
        </extensions>
      </trkpt>
      <trkpt lat="23.38667769916355609893798828125" lon="113.2413758151233196258544921875">
        <ele>4.400000095367431640625</ele>
        <time>2024-04-10T12:54:43.000Z</time>
        <extensions>
          <ns3:TrackPointExtension>
            <ns3:cad>85</ns3:cad>
          </ns3:TrackPointExtension>
        </extensions>
      </trkpt>
      <trkpt lat="23.3867771923542022705078125" lon="113.24159248732030391693115234375">
        <ele>6.400000095367431640625</ele>
        <time>2024-04-10T12:54:50.000Z</time>
        <extensions>
          <ns3:TrackPointExtension>
            <ns3:cad>83</ns3:cad>
          </ns3:TrackPointExtension>
        </extensions>
      </trkpt>
      <trkpt lat="23.386805690824985504150390625" lon="113.2416721992194652557373046875">
        <ele>7</ele>
        <time>2024-04-10T12:54:54.000Z</time>
        <extensions>
          <ns3:TrackPointExtension>
            <ns3:cad>85</ns3:cad>
          </ns3:TrackPointExtension>
        </extensions>
      </trkpt>
      <trkpt lat="23.386821784079074859619140625" lon="113.24185685254633426666259765625">
        <ele>8.19999980926513671875</ele>
        <time>2024-04-10T12:55:05.000Z</time>
        <extensions>
          <ns3:TrackPointExtension>
            <ns3:cad>55</ns3:cad>
          </ns3:TrackPointExtension>
        </extensions>
      </trkpt>
      <trkpt lat="23.38687618263065814971923828125" lon="113.24201627634465694427490234375">
        <ele>7</ele>
        <time>2024-04-10T12:55:18.000Z</time>
        <extensions>
          <ns3:TrackPointExtension>
            <ns3:cad>61</ns3:cad>
          </ns3:TrackPointExtension>
        </extensions>
      </trkpt>
      <trkpt lat="23.386991433799266815185546875" lon="113.242162205278873443603515625">
        <ele>5.400000095367431640625</ele>
        <time>2024-04-10T12:55:28.000Z</time>
        <extensions>
          <ns3:TrackPointExtension>
            <ns3:cad>80</ns3:cad>
          </ns3:TrackPointExtension>
        </extensions>
      </trkpt>
      <trkpt lat="23.38707667775452136993408203125" lon="113.24233445338904857635498046875">
        <ele>3.400000095367431640625</ele>
        <time>2024-04-10T12:55:38.000Z</time>
        <extensions>
          <ns3:TrackPointExtension>
            <ns3:cad>81</ns3:cad>
          </ns3:TrackPointExtension>
        </extensions>
      </trkpt>
      <trkpt lat="23.38717742823064327239990234375" lon="113.242504186928272247314453125">
        <ele>2.400000095367431640625</ele>
        <time>2024-04-10T12:55:46.000Z</time>
        <extensions>
          <ns3:TrackPointExtension>
            <ns3:cad>81</ns3:cad>
          </ns3:TrackPointExtension>
        </extensions>
      </trkpt>
      <trkpt lat="23.3872759155929088592529296875" lon="113.24268230237066745758056640625">
        <ele>3</ele>
        <time>2024-04-10T12:55:54.000Z</time>
        <extensions>
          <ns3:TrackPointExtension>
            <ns3:cad>81</ns3:cad>
          </ns3:TrackPointExtension>
        </extensions>
      </trkpt>
      <trkpt lat="23.38738647289574146270751953125" lon="113.24284172616899013519287109375">
        <ele>4</ele>
        <time>2024-04-10T12:56:02.000Z</time>
        <extensions>
          <ns3:TrackPointExtension>
            <ns3:cad>83</ns3:cad>
          </ns3:TrackPointExtension>
        </extensions>
      </trkpt>
      <trkpt lat="23.38748822920024394989013671875" lon="113.243006430566310882568359375">
        <ele>5.19999980926513671875</ele>
        <time>2024-04-10T12:56:09.000Z</time>
        <extensions>
          <ns3:TrackPointExtension>
            <ns3:cad>82</ns3:cad>
          </ns3:TrackPointExtension>
        </extensions>
      </trkpt>
      <trkpt lat="23.38759065605700016021728515625" lon="113.24319577775895595550537109375">
        <ele>7.599999904632568359375</ele>
        <time>2024-04-10T12:56:16.000Z</time>
        <extensions>
          <ns3:TrackPointExtension>
            <ns3:cad>81</ns3:cad>
          </ns3:TrackPointExtension>
        </extensions>
      </trkpt>
      <trkpt lat="23.38769073598086833953857421875" lon="113.243396021425724029541015625">
        <ele>9.19999980926513671875</ele>
        <time>2024-04-10T12:56:22.000Z</time>
        <extensions>
          <ns3:TrackPointExtension>
            <ns3:cad>81</ns3:cad>
          </ns3:TrackPointExtension>
        </extensions>
      </trkpt>
      <trkpt lat="23.38778092525899410247802734375" lon="113.24358050711452960968017578125">
        <ele>9.80000019073486328125</ele>
        <time>2024-04-10T12:56:28.000Z</time>
        <extensions>
          <ns3:TrackPointExtension>
            <ns3:cad>83</ns3:cad>
          </ns3:TrackPointExtension>
        </extensions>
      </trkpt>
      <trkpt lat="23.38787983171641826629638671875" lon="113.24378125369548797607421875">
        <ele>10</ele>
        <time>2024-04-10T12:56:34.000Z</time>
        <extensions>
          <ns3:TrackPointExtension>
            <ns3:cad>83</ns3:cad>
          </ns3:TrackPointExtension>
        </extensions>
      </trkpt>
      <trkpt lat="23.38795602321624755859375" lon="113.24397093616425991058349609375">
        <ele>10</ele>
        <time>2024-04-10T12:56:41.000Z</time>
        <extensions>
          <ns3:TrackPointExtension>
            <ns3:cad>83</ns3:cad>
          </ns3:TrackPointExtension>
        </extensions>
      </trkpt>
      <trkpt lat="23.38802752085030078887939453125" lon="113.24416807852685451507568359375">
        <ele>9.19999980926513671875</ele>
        <time>2024-04-10T12:56:50.000Z</time>
        <extensions>
          <ns3:TrackPointExtension>
            <ns3:cad>83</ns3:cad>
          </ns3:TrackPointExtension>
        </extensions>
      </trkpt>
      <trkpt lat="23.388107903301715850830078125" lon="113.24433512985706329345703125">
        <ele>8.3999996185302734375</ele>
        <time>2024-04-10T12:56:59.000Z</time>
        <extensions>
          <ns3:TrackPointExtension>
            <ns3:cad>83</ns3:cad>
          </ns3:TrackPointExtension>
        </extensions>
      </trkpt>
      <trkpt lat="23.388119302690029144287109375" lon="113.24438299052417278289794921875">
        <ele>8</ele>
        <time>2024-04-10T12:57:01.000Z</time>
        <extensions>
          <ns3:TrackPointExtension>
            <ns3:cad>83</ns3:cad>
          </ns3:TrackPointExtension>
        </extensions>
      </trkpt>
      <trkpt lat="23.38817236013710498809814453125" lon="113.2445991598069667816162109375">
        <ele>6.400000095367431640625</ele>
        <time>2024-04-10T12:57:09.000Z</time>
        <extensions>
          <ns3:TrackPointExtension>
            <ns3:cad>82</ns3:cad>
          </ns3:TrackPointExtension>
        </extensions>
      </trkpt>
      <trkpt lat="23.38823296129703521728515625" lon="113.24480543844401836395263671875">
        <ele>6.599999904632568359375</ele>
        <time>2024-04-10T12:57:16.000Z</time>
        <extensions>
          <ns3:TrackPointExtension>
            <ns3:cad>83</ns3:cad>
          </ns3:TrackPointExtension>
        </extensions>
      </trkpt>
      <trkpt lat="23.3882980048656463623046875" lon="113.24499269016087055206298828125">
        <ele>7.19999980926513671875</ele>
        <time>2024-04-10T12:57:24.000Z</time>
        <extensions>
          <ns3:TrackPointExtension>
            <ns3:cad>82</ns3:cad>
          </ns3:TrackPointExtension>
        </extensions>
      </trkpt>
      <trkpt lat="23.3883776329457759857177734375" lon="113.245192430913448333740234375">
        <ele>8</ele>
        <time>2024-04-10T12:57:31.000Z</time>
        <extensions>
          <ns3:TrackPointExtension>
            <ns3:cad>83</ns3:cad>
          </ns3:TrackPointExtension>
        </extensions>
      </trkpt>
      <trkpt lat="23.38844510726630687713623046875" lon="113.24537423439323902130126953125">
        <ele>6.80000019073486328125</ele>
        <time>2024-04-10T12:57:37.000Z</time>
        <extensions>
          <ns3:TrackPointExtension>
            <ns3:cad>82</ns3:cad>
          </ns3:TrackPointExtension>
        </extensions>
      </trkpt>
      <trkpt lat="23.38852020911872386932373046875" lon="113.24555846862494945526123046875">
        <ele>5.599999904632568359375</ele>
        <time>2024-04-10T12:57:44.000Z</time>
        <extensions>
          <ns3:TrackPointExtension>
            <ns3:cad>83</ns3:cad>
          </ns3:TrackPointExtension>
        </extensions>
      </trkpt>
      <trkpt lat="23.38855189271271228790283203125" lon="113.24565402232110500335693359375">
        <ele>4.80000019073486328125</ele>
        <time>2024-04-10T12:57:48.000Z</time>
        <extensions>
          <ns3:TrackPointExtension>
            <ns3:cad>82</ns3:cad>
          </ns3:TrackPointExtension>
        </extensions>
      </trkpt>
      <trkpt lat="23.3885751105844974517822265625" lon="113.24570280499756336212158203125">
        <ele>4.400000095367431640625</ele>
        <time>2024-04-10T12:57:51.000Z</time>
        <extensions>
          <ns3:TrackPointExtension>
            <ns3:cad>0</ns3:cad>
          </ns3:TrackPointExtension>
        </extensions>
      </trkpt>
      <trkpt lat="23.3885955624282360076904296875" lon="113.24575535953044891357421875">
        <ele>4.19999980926513671875</ele>
        <time>2024-04-10T12:57:55.000Z</time>
        <extensions>
          <ns3:TrackPointExtension>
            <ns3:cad>0</ns3:cad>
          </ns3:TrackPointExtension>
        </extensions>
      </trkpt>
      <trkpt lat="23.3886032737791538238525390625" lon="113.245781846344470977783203125">
        <ele>4.19999980926513671875</ele>
        <time>2024-04-10T12:57:57.000Z</time>
        <extensions>
          <ns3:TrackPointExtension>
            <ns3:cad>0</ns3:cad>
          </ns3:TrackPointExtension>
        </extensions>
      </trkpt>
      <trkpt lat="23.38869270868599414825439453125" lon="113.245956860482692718505859375">
        <ele>5.599999904632568359375</ele>
        <time>2024-04-10T12:58:11.000Z</time>
        <extensions>
          <ns3:TrackPointExtension>
            <ns3:cad>61</ns3:cad>
          </ns3:TrackPointExtension>
        </extensions>
      </trkpt>
      <trkpt lat="23.38877879083156585693359375" lon="113.24613246135413646697998046875">
        <ele>6</ele>
        <time>2024-04-10T12:58:26.000Z</time>
        <extensions>
          <ns3:TrackPointExtension>
            <ns3:cad>55</ns3:cad>
          </ns3:TrackPointExtension>
        </extensions>
      </trkpt>
      <trkpt lat="23.3887861669063568115234375" lon="113.24615743942558765411376953125">
        <ele>6</ele>
        <time>2024-04-10T12:58:28.000Z</time>
        <extensions>
          <ns3:TrackPointExtension>
            <ns3:cad>55</ns3:cad>
          </ns3:TrackPointExtension>
        </extensions>
      </trkpt>
      <trkpt lat="23.388799913227558135986328125" lon="113.246186859905719757080078125">
        <ele>6</ele>
        <time>2024-04-10T12:58:31.000Z</time>
        <extensions>
          <ns3:TrackPointExtension>
            <ns3:cad>0</ns3:cad>
          </ns3:TrackPointExtension>
        </extensions>
      </trkpt>
    </trkseg>
  </trk>
</gpx>
