<gpx xmlns:ns3="http://www.garmin.com/xmlschemas/TrackPointExtension/v1" xmlns="http://www.topografix.com/GPX/1/1" xmlns:xsi="http://www.w3.org/2001/XMLSchema-instance" xmlns:ns2="http://www.garmin.com/xmlschemas/GpxExtensions/v3" creator="Garmin Connect" version="1.1" xsi:schemaLocation="http://www.topografix.com/GPX/1/1 http://www.topografix.com/GPX/11.xsd">
  <extensions>
<distance>5206.43</distance>
<average_hr>169.0</average_hr>
<average_speed>2.135999917984009</average_speed>
<start_time>2024-06-26T21:24:45+00:00</start_time>
<end_time>2024-06-26T22:05:22.668000+00:00</end_time>
<moving_time>2349.326</moving_time>
<elapsed_time>2437.668</elapsed_time>
</extensions>
<metadata>
    <link href="connect.garmin.com">
      <text>Garmin Connect</text>
    </link>
    <time>2024-06-26T21:24:45.000Z</time>
  </metadata>
  <trk>
    <name>广州市 跑步</name>
    <type>running</type>
    <trkseg>
      <trkpt lat="23.38870645500719547271728515625" lon="113.24901558458805084228515625">
        <ele>11.19999980926513671875</ele>
        <time>2024-06-26T21:47:15.000Z</time>
        <extensions>
          <ns3:TrackPointExtension>
            <ns3:hr>172</ns3:hr>
            <ns3:cad>84</ns3:cad>
          </ns3:TrackPointExtension>
        </extensions>
      </trkpt>
      <trkpt lat="23.38883117772638797760009765625" lon="113.2491103000938892364501953125">
        <ele>11.80000019073486328125</ele>
        <time>2024-06-26T21:47:20.000Z</time>
        <extensions>
          <ns3:TrackPointExtension>
            <ns3:hr>172</ns3:hr>
            <ns3:cad>83</ns3:cad>
          </ns3:TrackPointExtension>
        </extensions>
      </trkpt>
      <trkpt lat="23.38900501839816570281982421875" lon="113.24921716935932636260986328125">
        <ele>11.3999996185302734375</ele>
        <time>2024-06-26T21:47:29.000Z</time>
        <extensions>
          <ns3:TrackPointExtension>
            <ns3:hr>174</ns3:hr>
            <ns3:cad>82</ns3:cad>
          </ns3:TrackPointExtension>
        </extensions>
      </trkpt>
      <trkpt lat="23.38912856765091419219970703125" lon="113.24923644773662090301513671875">
        <ele>11</ele>
        <time>2024-06-26T21:47:38.000Z</time>
        <extensions>
          <ns3:TrackPointExtension>
            <ns3:hr>174</ns3:hr>
            <ns3:cad>87</ns3:cad>
          </ns3:TrackPointExtension>
        </extensions>
      </trkpt>
      <trkpt lat="23.38915161788463592529296875" lon="113.2492320053279399871826171875">
        <ele>11</ele>
        <time>2024-06-26T21:47:40.000Z</time>
        <extensions>
          <ns3:TrackPointExtension>
            <ns3:hr>175</ns3:hr>
            <ns3:cad>61</ns3:cad>
          </ns3:TrackPointExtension>
        </extensions>
      </trkpt>
      <trkpt lat="23.3892523683607578277587890625" lon="113.24923225678503513336181640625">
        <ele>11</ele>
        <time>2024-06-26T21:47:50.000Z</time>
        <extensions>
          <ns3:TrackPointExtension>
            <ns3:hr>175</ns3:hr>
            <ns3:cad>62</ns3:cad>
          </ns3:TrackPointExtension>
        </extensions>
      </trkpt>
      <trkpt lat="23.38933610357344150543212890625" lon="113.24918917380273342132568359375">
        <ele>10.19999980926513671875</ele>
        <time>2024-06-26T21:48:00.000Z</time>
        <extensions>
          <ns3:TrackPointExtension>
            <ns3:hr>172</ns3:hr>
            <ns3:cad>61</ns3:cad>
          </ns3:TrackPointExtension>
        </extensions>
      </trkpt>
      <trkpt lat="23.389404751360416412353515625" lon="113.2491860724985599517822265625">
        <ele>9.80000019073486328125</ele>
        <time>2024-06-26T21:48:06.000Z</time>
        <extensions>
          <ns3:TrackPointExtension>
            <ns3:hr>169</ns3:hr>
            <ns3:cad>61</ns3:cad>
          </ns3:TrackPointExtension>
        </extensions>
      </trkpt>
      <trkpt lat="23.3894941024482250213623046875" lon="113.2491937838494777679443359375">
        <ele>9.3999996185302734375</ele>
        <time>2024-06-26T21:48:13.000Z</time>
        <extensions>
          <ns3:TrackPointExtension>
            <ns3:hr>166</ns3:hr>
            <ns3:cad>61</ns3:cad>
          </ns3:TrackPointExtension>
        </extensions>
      </trkpt>
      <trkpt lat="23.3895936794579029083251953125" lon="113.2491860724985599517822265625">
        <ele>10</ele>
        <time>2024-06-26T21:48:20.000Z</time>
        <extensions>
          <ns3:TrackPointExtension>
            <ns3:hr>163</ns3:hr>
            <ns3:cad>61</ns3:cad>
          </ns3:TrackPointExtension>
        </extensions>
      </trkpt>
      <trkpt lat="23.3896429650485515594482421875" lon="113.2491669617593288421630859375">
        <ele>10.3999996185302734375</ele>
        <time>2024-06-26T21:48:23.000Z</time>
        <extensions>
          <ns3:TrackPointExtension>
            <ns3:hr>160</ns3:hr>
            <ns3:cad>81</ns3:cad>
          </ns3:TrackPointExtension>
        </extensions>
      </trkpt>
      <trkpt lat="23.38979258202016353607177734375" lon="113.24915111996233463287353515625">
        <ele>9.80000019073486328125</ele>
        <time>2024-06-26T21:48:33.000Z</time>
        <extensions>
          <ns3:TrackPointExtension>
            <ns3:hr>156</ns3:hr>
            <ns3:cad>83</ns3:cad>
          </ns3:TrackPointExtension>
        </extensions>
      </trkpt>
      <trkpt lat="23.389858044683933258056640625" lon="113.249150700867176055908203125">
        <ele>8.80000019073486328125</ele>
        <time>2024-06-26T21:48:36.000Z</time>
        <extensions>
          <ns3:TrackPointExtension>
            <ns3:hr>160</ns3:hr>
            <ns3:cad>82</ns3:cad>
          </ns3:TrackPointExtension>
        </extensions>
      </trkpt>
      <trkpt lat="23.3900422789156436920166015625" lon="113.2491401396691799163818359375">
        <ele>6.19999980926513671875</ele>
        <time>2024-06-26T21:48:44.000Z</time>
        <extensions>
          <ns3:TrackPointExtension>
            <ns3:hr>163</ns3:hr>
            <ns3:cad>82</ns3:cad>
          </ns3:TrackPointExtension>
        </extensions>
      </trkpt>
      <trkpt lat="23.3900670893490314483642578125" lon="113.24913502670824527740478515625">
        <ele>5.80000019073486328125</ele>
        <time>2024-06-26T21:48:46.000Z</time>
        <extensions>
          <ns3:TrackPointExtension>
            <ns3:hr>162</ns3:hr>
            <ns3:cad>82</ns3:cad>
          </ns3:TrackPointExtension>
        </extensions>
      </trkpt>
      <trkpt lat="23.39016549289226531982421875" lon="113.249240554869174957275390625">
        <ele>4.599999904632568359375</ele>
        <time>2024-06-26T21:48:55.000Z</time>
        <extensions>
          <ns3:TrackPointExtension>
            <ns3:hr>168</ns3:hr>
            <ns3:cad>82</ns3:cad>
          </ns3:TrackPointExtension>
        </extensions>
      </trkpt>
      <trkpt lat="23.39016842655837535858154296875" lon="113.24924248270690441131591796875">
        <ele>4.599999904632568359375</ele>
        <time>2024-06-26T21:48:56.000Z</time>
        <extensions>
          <ns3:TrackPointExtension>
            <ns3:hr>173</ns3:hr>
            <ns3:cad>82</ns3:cad>
          </ns3:TrackPointExtension>
        </extensions>
      </trkpt>
      <trkpt lat="23.39017647318542003631591796875" lon="113.24925270862877368927001953125">
        <ele>4.599999904632568359375</ele>
        <time>2024-06-26T21:48:57.000Z</time>
        <extensions>
          <ns3:TrackPointExtension>
            <ns3:hr>176</ns3:hr>
            <ns3:cad>82</ns3:cad>
          </ns3:TrackPointExtension>
        </extensions>
      </trkpt>
      <trkpt lat="23.39021377265453338623046875" lon="113.249296210706233978271484375">
        <ele>4.19999980926513671875</ele>
        <time>2024-06-26T21:49:00.000Z</time>
        <extensions>
          <ns3:TrackPointExtension>
            <ns3:hr>179</ns3:hr>
            <ns3:cad>83</ns3:cad>
          </ns3:TrackPointExtension>
        </extensions>
      </trkpt>
      <trkpt lat="23.39021855033934116363525390625" lon="113.249326050281524658203125">
        <ele>4.19999980926513671875</ele>
        <time>2024-06-26T21:49:01.000Z</time>
        <extensions>
          <ns3:TrackPointExtension>
            <ns3:hr>172</ns3:hr>
            <ns3:cad>83</ns3:cad>
          </ns3:TrackPointExtension>
        </extensions>
      </trkpt>
      <trkpt lat="23.3902347274124622344970703125" lon="113.24936150573194026947021484375">
        <ele>4.19999980926513671875</ele>
        <time>2024-06-26T21:49:04.000Z</time>
        <extensions>
          <ns3:TrackPointExtension>
            <ns3:hr>175</ns3:hr>
            <ns3:cad>82</ns3:cad>
          </ns3:TrackPointExtension>
        </extensions>
      </trkpt>
      <trkpt lat="23.3902511559426784515380859375" lon="113.24937894009053707122802734375">
        <ele>4</ele>
        <time>2024-06-26T21:49:05.000Z</time>
        <extensions>
          <ns3:TrackPointExtension>
            <ns3:hr>172</ns3:hr>
            <ns3:cad>82</ns3:cad>
          </ns3:TrackPointExtension>
        </extensions>
      </trkpt>
      <trkpt lat="23.390356600284576416015625" lon="113.24953082017600536346435546875">
        <ele>6</ele>
        <time>2024-06-26T21:49:11.000Z</time>
        <extensions>
          <ns3:TrackPointExtension>
            <ns3:hr>169</ns3:hr>
            <ns3:cad>83</ns3:cad>
          </ns3:TrackPointExtension>
        </extensions>
      </trkpt>
      <trkpt lat="23.3904087357223033905029296875" lon="113.2496222667396068572998046875">
        <ele>7.19999980926513671875</ele>
        <time>2024-06-26T21:49:15.000Z</time>
        <extensions>
          <ns3:TrackPointExtension>
            <ns3:hr>174</ns3:hr>
            <ns3:cad>82</ns3:cad>
          </ns3:TrackPointExtension>
        </extensions>
      </trkpt>
      <trkpt lat="23.39052918367087841033935546875" lon="113.24979384429752826690673828125">
        <ele>8</ele>
        <time>2024-06-26T21:49:25.000Z</time>
        <extensions>
          <ns3:TrackPointExtension>
            <ns3:hr>172</ns3:hr>
            <ns3:cad>82</ns3:cad>
          </ns3:TrackPointExtension>
        </extensions>
      </trkpt>
      <trkpt lat="23.390559442341327667236328125" lon="113.24987615458667278289794921875">
        <ele>8.3999996185302734375</ele>
        <time>2024-06-26T21:49:29.000Z</time>
        <extensions>
          <ns3:TrackPointExtension>
            <ns3:hr>169</ns3:hr>
            <ns3:cad>82</ns3:cad>
          </ns3:TrackPointExtension>
        </extensions>
      </trkpt>
      <trkpt lat="23.3905564248561859130859375" lon="113.25011051259934902191162109375">
        <ele>8.19999980926513671875</ele>
        <time>2024-06-26T21:49:42.000Z</time>
        <extensions>
          <ns3:TrackPointExtension>
            <ns3:hr>171</ns3:hr>
            <ns3:cad>0</ns3:cad>
          </ns3:TrackPointExtension>
        </extensions>
      </trkpt>
      <trkpt lat="23.39057377539575099945068359375" lon="113.250275887548923492431640625">
        <ele>7</ele>
        <time>2024-06-26T21:49:55.000Z</time>
        <extensions>
          <ns3:TrackPointExtension>
            <ns3:hr>168</ns3:hr>
            <ns3:cad>61</ns3:cad>
          </ns3:TrackPointExtension>
        </extensions>
      </trkpt>
      <trkpt lat="23.3905803970992565155029296875" lon="113.25031511485576629638671875">
        <ele>6.400000095367431640625</ele>
        <time>2024-06-26T21:49:58.000Z</time>
        <extensions>
          <ns3:TrackPointExtension>
            <ns3:hr>167</ns3:hr>
            <ns3:cad>61</ns3:cad>
          </ns3:TrackPointExtension>
        </extensions>
      </trkpt>
      <trkpt lat="23.39058165438473224639892578125" lon="113.250405304133892059326171875">
        <ele>5.19999980926513671875</ele>
        <time>2024-06-26T21:50:04.000Z</time>
        <extensions>
          <ns3:TrackPointExtension>
            <ns3:hr>164</ns3:hr>
            <ns3:cad>61</ns3:cad>
          </ns3:TrackPointExtension>
        </extensions>
      </trkpt>
      <trkpt lat="23.39059221558272838592529296875" lon="113.25047495774924755096435546875">
        <ele>4.19999980926513671875</ele>
        <time>2024-06-26T21:50:09.000Z</time>
        <extensions>
          <ns3:TrackPointExtension>
            <ns3:hr>158</ns3:hr>
            <ns3:cad>61</ns3:cad>
          </ns3:TrackPointExtension>
        </extensions>
      </trkpt>
      <trkpt lat="23.3905911259353160858154296875" lon="113.25048543512821197509765625">
        <ele>4</ele>
        <time>2024-06-26T21:50:10.000Z</time>
        <extensions>
          <ns3:TrackPointExtension>
            <ns3:hr>158</ns3:hr>
            <ns3:cad>61</ns3:cad>
          </ns3:TrackPointExtension>
        </extensions>
      </trkpt>
      <trkpt lat="23.3905773796141147613525390625" lon="113.250546120107173919677734375">
        <ele>4.19999980926513671875</ele>
        <time>2024-06-26T21:50:15.000Z</time>
        <extensions>
          <ns3:TrackPointExtension>
            <ns3:hr>155</ns3:hr>
            <ns3:cad>61</ns3:cad>
          </ns3:TrackPointExtension>
        </extensions>
      </trkpt>
      <trkpt lat="23.39058249257504940032958984375" lon="113.2505818270146846771240234375">
        <ele>4.400000095367431640625</ele>
        <time>2024-06-26T21:50:18.000Z</time>
        <extensions>
          <ns3:TrackPointExtension>
            <ns3:hr>155</ns3:hr>
            <ns3:cad>82</ns3:cad>
          </ns3:TrackPointExtension>
        </extensions>
      </trkpt>
      <trkpt lat="23.39066145010292530059814453125" lon="113.2507068850100040435791015625">
        <ele>4.80000019073486328125</ele>
        <time>2024-06-26T21:50:25.000Z</time>
        <extensions>
          <ns3:TrackPointExtension>
            <ns3:hr>159</ns3:hr>
            <ns3:cad>81</ns3:cad>
          </ns3:TrackPointExtension>
        </extensions>
      </trkpt>
      <trkpt lat="23.3906803093850612640380859375" lon="113.25071853585541248321533203125">
        <ele>4.80000019073486328125</ele>
        <time>2024-06-26T21:50:26.000Z</time>
        <extensions>
          <ns3:TrackPointExtension>
            <ns3:hr>162</ns3:hr>
            <ns3:cad>81</ns3:cad>
          </ns3:TrackPointExtension>
        </extensions>
      </trkpt>
      <trkpt lat="23.39071408845484256744384765625" lon="113.250751309096813201904296875">
        <ele>5</ele>
        <time>2024-06-26T21:50:28.000Z</time>
        <extensions>
          <ns3:TrackPointExtension>
            <ns3:hr>167</ns3:hr>
            <ns3:cad>81</ns3:cad>
          </ns3:TrackPointExtension>
        </extensions>
      </trkpt>
      <trkpt lat="23.39078214950859546661376953125" lon="113.2508047856390476226806640625">
        <ele>5.19999980926513671875</ele>
        <time>2024-06-26T21:50:33.000Z</time>
        <extensions>
          <ns3:TrackPointExtension>
            <ns3:hr>163</ns3:hr>
            <ns3:cad>83</ns3:cad>
          </ns3:TrackPointExtension>
        </extensions>
      </trkpt>
      <trkpt lat="23.3908097259700298309326171875" lon="113.25081123970448970794677734375">
        <ele>5.400000095367431640625</ele>
        <time>2024-06-26T21:50:38.000Z</time>
        <extensions>
          <ns3:TrackPointExtension>
            <ns3:hr>165</ns3:hr>
            <ns3:cad>0</ns3:cad>
          </ns3:TrackPointExtension>
        </extensions>
      </trkpt>
      <trkpt lat="23.39081098325550556182861328125" lon="113.25081760995090007781982421875">
        <ele>5.400000095367431640625</ele>
        <time>2024-06-26T21:50:42.000Z</time>
        <extensions>
          <ns3:TrackPointExtension>
            <ns3:hr>162</ns3:hr>
            <ns3:cad>0</ns3:cad>
          </ns3:TrackPointExtension>
        </extensions>
      </trkpt>
      <trkpt lat="23.390815593302249908447265625" lon="113.2508165203034877777099609375">
        <ele>5.599999904632568359375</ele>
        <time>2024-06-26T21:50:43.000Z</time>
        <extensions>
          <ns3:TrackPointExtension>
            <ns3:hr>161</ns3:hr>
            <ns3:cad>0</ns3:cad>
          </ns3:TrackPointExtension>
        </extensions>
      </trkpt>
      <trkpt lat="23.39091022498905658721923828125" lon="113.25080436654388904571533203125">
        <ele>6.400000095367431640625</ele>
        <time>2024-06-26T21:50:50.000Z</time>
        <extensions>
          <ns3:TrackPointExtension>
            <ns3:hr>166</ns3:hr>
            <ns3:cad>61</ns3:cad>
          </ns3:TrackPointExtension>
        </extensions>
      </trkpt>
      <trkpt lat="23.3909260667860507965087890625" lon="113.25080067850649356842041015625">
        <ele>6.599999904632568359375</ele>
        <time>2024-06-26T21:50:51.000Z</time>
        <extensions>
          <ns3:TrackPointExtension>
            <ns3:hr>163</ns3:hr>
            <ns3:cad>61</ns3:cad>
          </ns3:TrackPointExtension>
        </extensions>
      </trkpt>
      <trkpt lat="23.39112698100507259368896484375" lon="113.25080889277160167694091796875">
        <ele>9</ele>
        <time>2024-06-26T21:51:00.000Z</time>
        <extensions>
          <ns3:TrackPointExtension>
            <ns3:hr>163</ns3:hr>
            <ns3:cad>80</ns3:cad>
          </ns3:TrackPointExtension>
        </extensions>
      </trkpt>
      <trkpt lat="23.3912918530404567718505859375" lon="113.250808306038379669189453125">
        <ele>11.3999996185302734375</ele>
        <time>2024-06-26T21:51:07.000Z</time>
        <extensions>
          <ns3:TrackPointExtension>
            <ns3:hr>166</ns3:hr>
            <ns3:cad>82</ns3:cad>
          </ns3:TrackPointExtension>
        </extensions>
      </trkpt>
      <trkpt lat="23.3913615904748439788818359375" lon="113.25081325136125087738037109375">
        <ele>12.3999996185302734375</ele>
        <time>2024-06-26T21:51:10.000Z</time>
        <extensions>
          <ns3:TrackPointExtension>
            <ns3:hr>172</ns3:hr>
            <ns3:cad>82</ns3:cad>
          </ns3:TrackPointExtension>
        </extensions>
      </trkpt>
      <trkpt lat="23.39138455688953399658203125" lon="113.2508141733705997467041015625">
        <ele>12.3999996185302734375</ele>
        <time>2024-06-26T21:51:11.000Z</time>
        <extensions>
          <ns3:TrackPointExtension>
            <ns3:hr>172</ns3:hr>
            <ns3:cad>82</ns3:cad>
          </ns3:TrackPointExtension>
        </extensions>
      </trkpt>
      <trkpt lat="23.3914269693195819854736328125" lon="113.25082465074956417083740234375">
        <ele>12.6000003814697265625</ele>
        <time>2024-06-26T21:51:13.000Z</time>
        <extensions>
          <ns3:TrackPointExtension>
            <ns3:hr>175</ns3:hr>
            <ns3:cad>83</ns3:cad>
          </ns3:TrackPointExtension>
        </extensions>
      </trkpt>
      <trkpt lat="23.39151875115931034088134765625" lon="113.25082615949213504791259765625">
        <ele>12.6000003814697265625</ele>
        <time>2024-06-26T21:51:17.000Z</time>
        <extensions>
          <ns3:TrackPointExtension>
            <ns3:hr>172</ns3:hr>
            <ns3:cad>83</ns3:cad>
          </ns3:TrackPointExtension>
        </extensions>
      </trkpt>
      <trkpt lat="23.3915640972554683685302734375" lon="113.25082314200699329376220703125">
        <ele>12.6000003814697265625</ele>
        <time>2024-06-26T21:51:19.000Z</time>
        <extensions>
          <ns3:TrackPointExtension>
            <ns3:hr>177</ns3:hr>
            <ns3:cad>83</ns3:cad>
          </ns3:TrackPointExtension>
        </extensions>
      </trkpt>
      <trkpt lat="23.39158513583242893218994140625" lon="113.25082599185407161712646484375">
        <ele>12.6000003814697265625</ele>
        <time>2024-06-26T21:51:20.000Z</time>
        <extensions>
          <ns3:TrackPointExtension>
            <ns3:hr>181</ns3:hr>
            <ns3:cad>82</ns3:cad>
          </ns3:TrackPointExtension>
        </extensions>
      </trkpt>
      <trkpt lat="23.39163039810955524444580078125" lon="113.2508289255201816558837890625">
        <ele>12.6000003814697265625</ele>
        <time>2024-06-26T21:51:22.000Z</time>
        <extensions>
          <ns3:TrackPointExtension>
            <ns3:hr>186</ns3:hr>
            <ns3:cad>82</ns3:cad>
          </ns3:TrackPointExtension>
        </extensions>
      </trkpt>
      <trkpt lat="23.3916522748768329620361328125" lon="113.25082875788211822509765625">
        <ele>12.6000003814697265625</ele>
        <time>2024-06-26T21:51:23.000Z</time>
        <extensions>
          <ns3:TrackPointExtension>
            <ns3:hr>180</ns3:hr>
            <ns3:cad>83</ns3:cad>
          </ns3:TrackPointExtension>
        </extensions>
      </trkpt>
      <trkpt lat="23.39170348830521106719970703125" lon="113.25082733295857906341552734375">
        <ele>12</ele>
        <time>2024-06-26T21:51:25.000Z</time>
        <extensions>
          <ns3:TrackPointExtension>
            <ns3:hr>177</ns3:hr>
            <ns3:cad>82</ns3:cad>
          </ns3:TrackPointExtension>
        </extensions>
      </trkpt>
      <trkpt lat="23.391881771385669708251953125" lon="113.250812999904155731201171875">
        <ele>10.6000003814697265625</ele>
        <time>2024-06-26T21:51:33.000Z</time>
        <extensions>
          <ns3:TrackPointExtension>
            <ns3:hr>182</ns3:hr>
            <ns3:cad>83</ns3:cad>
          </ns3:TrackPointExtension>
        </extensions>
      </trkpt>
      <trkpt lat="23.39190666563808917999267578125" lon="113.25080621056258678436279296875">
        <ele>10.3999996185302734375</ele>
        <time>2024-06-26T21:51:34.000Z</time>
        <extensions>
          <ns3:TrackPointExtension>
            <ns3:hr>182</ns3:hr>
            <ns3:cad>83</ns3:cad>
          </ns3:TrackPointExtension>
        </extensions>
      </trkpt>
      <trkpt lat="23.3920881338417530059814453125" lon="113.25077377259731292724609375">
        <ele>8</ele>
        <time>2024-06-26T21:51:41.000Z</time>
        <extensions>
          <ns3:TrackPointExtension>
            <ns3:hr>183</ns3:hr>
            <ns3:cad>84</ns3:cad>
          </ns3:TrackPointExtension>
        </extensions>
      </trkpt>
      <trkpt lat="23.392206989228725433349609375" lon="113.2507870160043239593505859375">
        <ele>6.599999904632568359375</ele>
        <time>2024-06-26T21:51:46.000Z</time>
        <extensions>
          <ns3:TrackPointExtension>
            <ns3:hr>186</ns3:hr>
            <ns3:cad>83</ns3:cad>
          </ns3:TrackPointExtension>
        </extensions>
      </trkpt>
      <trkpt lat="23.39239466004073619842529296875" lon="113.25087544508278369903564453125">
        <ele>3.2000000476837158203125</ele>
        <time>2024-06-26T21:51:54.000Z</time>
        <extensions>
          <ns3:TrackPointExtension>
            <ns3:hr>187</ns3:hr>
            <ns3:cad>81</ns3:cad>
          </ns3:TrackPointExtension>
        </extensions>
      </trkpt>
      <trkpt lat="23.3925078995525836944580078125" lon="113.2508959807455539703369140625">
        <ele>2</ele>
        <time>2024-06-26T21:51:58.000Z</time>
        <extensions>
          <ns3:TrackPointExtension>
            <ns3:hr>184</ns3:hr>
            <ns3:cad>82</ns3:cad>
          </ns3:TrackPointExtension>
        </extensions>
      </trkpt>
      <trkpt lat="23.3926973305642604827880859375" lon="113.25088533572852611541748046875">
        <ele>0.60000002384185791015625</ele>
        <time>2024-06-26T21:52:06.000Z</time>
        <extensions>
          <ns3:TrackPointExtension>
            <ns3:hr>182</ns3:hr>
            <ns3:cad>83</ns3:cad>
          </ns3:TrackPointExtension>
        </extensions>
      </trkpt>
      <trkpt lat="23.392880223691463470458984375" lon="113.250875361263751983642578125">
        <ele>1.39999997615814208984375</ele>
        <time>2024-06-26T21:52:13.000Z</time>
        <extensions>
          <ns3:TrackPointExtension>
            <ns3:hr>181</ns3:hr>
            <ns3:cad>82</ns3:cad>
          </ns3:TrackPointExtension>
        </extensions>
      </trkpt>
      <trkpt lat="23.39307367801666259765625" lon="113.25087712146341800689697265625">
        <ele>1.7999999523162841796875</ele>
        <time>2024-06-26T21:52:20.000Z</time>
        <extensions>
          <ns3:TrackPointExtension>
            <ns3:hr>179</ns3:hr>
            <ns3:cad>84</ns3:cad>
          </ns3:TrackPointExtension>
        </extensions>
      </trkpt>
      <trkpt lat="23.3932485245168209075927734375" lon="113.25085432268679141998291015625">
        <ele>3.400000095367431640625</ele>
        <time>2024-06-26T21:52:26.000Z</time>
        <extensions>
          <ns3:TrackPointExtension>
            <ns3:hr>176</ns3:hr>
            <ns3:cad>83</ns3:cad>
          </ns3:TrackPointExtension>
        </extensions>
      </trkpt>
      <trkpt lat="23.393413983285427093505859375" lon="113.25078978203237056732177734375">
        <ele>4.400000095367431640625</ele>
        <time>2024-06-26T21:52:33.000Z</time>
        <extensions>
          <ns3:TrackPointExtension>
            <ns3:hr>173</ns3:hr>
            <ns3:cad>83</ns3:cad>
          </ns3:TrackPointExtension>
        </extensions>
      </trkpt>
      <trkpt lat="23.39360970072448253631591796875" lon="113.2507501356303691864013671875">
        <ele>4.80000019073486328125</ele>
        <time>2024-06-26T21:52:40.000Z</time>
        <extensions>
          <ns3:TrackPointExtension>
            <ns3:hr>175</ns3:hr>
            <ns3:cad>84</ns3:cad>
          </ns3:TrackPointExtension>
        </extensions>
      </trkpt>
      <trkpt lat="23.39379477314651012420654296875" lon="113.25075089000165462493896484375">
        <ele>4.19999980926513671875</ele>
        <time>2024-06-26T21:52:45.000Z</time>
        <extensions>
          <ns3:TrackPointExtension>
            <ns3:hr>175</ns3:hr>
            <ns3:cad>81</ns3:cad>
          </ns3:TrackPointExtension>
        </extensions>
      </trkpt>
      <trkpt lat="23.393980599939823150634765625" lon="113.25072959996759891510009765625">
        <ele>3.599999904632568359375</ele>
        <time>2024-06-26T21:52:52.000Z</time>
        <extensions>
          <ns3:TrackPointExtension>
            <ns3:hr>175</ns3:hr>
            <ns3:cad>82</ns3:cad>
          </ns3:TrackPointExtension>
        </extensions>
      </trkpt>
      <trkpt lat="23.39417673647403717041015625" lon="113.25070403516292572021484375">
        <ele>3.7999999523162841796875</ele>
        <time>2024-06-26T21:53:01.000Z</time>
        <extensions>
          <ns3:TrackPointExtension>
            <ns3:hr>176</ns3:hr>
            <ns3:cad>83</ns3:cad>
          </ns3:TrackPointExtension>
        </extensions>
      </trkpt>
      <trkpt lat="23.39428209699690341949462890625" lon="113.250693976879119873046875">
        <ele>5.599999904632568359375</ele>
        <time>2024-06-26T21:53:07.000Z</time>
        <extensions>
          <ns3:TrackPointExtension>
            <ns3:hr>179</ns3:hr>
            <ns3:cad>83</ns3:cad>
          </ns3:TrackPointExtension>
        </extensions>
      </trkpt>
      <trkpt lat="23.394465409219264984130859375" lon="113.25068534351885318756103515625">
        <ele>9.6000003814697265625</ele>
        <time>2024-06-26T21:53:20.000Z</time>
        <extensions>
          <ns3:TrackPointExtension>
            <ns3:hr>180</ns3:hr>
            <ns3:cad>0</ns3:cad>
          </ns3:TrackPointExtension>
        </extensions>
      </trkpt>
      <trkpt lat="23.394489549100399017333984375" lon="113.25067930854856967926025390625">
        <ele>10.3999996185302734375</ele>
        <time>2024-06-26T21:53:21.000Z</time>
        <extensions>
          <ns3:TrackPointExtension>
            <ns3:hr>181</ns3:hr>
            <ns3:cad>0</ns3:cad>
          </ns3:TrackPointExtension>
        </extensions>
      </trkpt>
      <trkpt lat="23.39452005922794342041015625" lon="113.250674866139888763427734375">
        <ele>11.3999996185302734375</ele>
        <time>2024-06-26T21:53:23.000Z</time>
        <extensions>
          <ns3:TrackPointExtension>
            <ns3:hr>181</ns3:hr>
            <ns3:cad>0</ns3:cad>
          </ns3:TrackPointExtension>
        </extensions>
      </trkpt>
      <trkpt lat="23.39458334259688854217529296875" lon="113.2506710104644298553466796875">
        <ele>13.80000019073486328125</ele>
        <time>2024-06-26T21:53:27.000Z</time>
        <extensions>
          <ns3:TrackPointExtension>
            <ns3:hr>178</ns3:hr>
            <ns3:cad>59</ns3:cad>
          </ns3:TrackPointExtension>
        </extensions>
      </trkpt>
      <trkpt lat="23.394669927656650543212890625" lon="113.25065969489514827728271484375">
        <ele>15.3999996185302734375</ele>
        <time>2024-06-26T21:53:31.000Z</time>
        <extensions>
          <ns3:TrackPointExtension>
            <ns3:hr>175</ns3:hr>
            <ns3:cad>81</ns3:cad>
          </ns3:TrackPointExtension>
        </extensions>
      </trkpt>
      <trkpt lat="23.39476011693477630615234375" lon="113.250623233616352081298828125">
        <ele>16.3999996185302734375</ele>
        <time>2024-06-26T21:53:35.000Z</time>
        <extensions>
          <ns3:TrackPointExtension>
            <ns3:hr>172</ns3:hr>
            <ns3:cad>83</ns3:cad>
          </ns3:TrackPointExtension>
        </extensions>
      </trkpt>
      <trkpt lat="23.394879139959812164306640625" lon="113.250577636063098907470703125">
        <ele>17.3999996185302734375</ele>
        <time>2024-06-26T21:53:43.000Z</time>
        <extensions>
          <ns3:TrackPointExtension>
            <ns3:hr>170</ns3:hr>
            <ns3:cad>0</ns3:cad>
          </ns3:TrackPointExtension>
        </extensions>
      </trkpt>
      <trkpt lat="23.39490504004061222076416015625" lon="113.25057956390082836151123046875">
        <ele>17.799999237060546875</ele>
        <time>2024-06-26T21:53:49.000Z</time>
        <extensions>
          <ns3:TrackPointExtension>
            <ns3:hr>175</ns3:hr>
            <ns3:cad>0</ns3:cad>
          </ns3:TrackPointExtension>
        </extensions>
      </trkpt>
      <trkpt lat="23.3949168585240840911865234375" lon="113.25058400630950927734375">
        <ele>18</ele>
        <time>2024-06-26T21:53:51.000Z</time>
        <extensions>
          <ns3:TrackPointExtension>
            <ns3:hr>170</ns3:hr>
            <ns3:cad>0</ns3:cad>
          </ns3:TrackPointExtension>
        </extensions>
      </trkpt>
      <trkpt lat="23.39492104947566986083984375" lon="113.25058526359498500823974609375">
        <ele>18.200000762939453125</ele>
        <time>2024-06-26T21:53:52.000Z</time>
        <extensions>
          <ns3:TrackPointExtension>
            <ns3:hr>170</ns3:hr>
            <ns3:cad>0</ns3:cad>
          </ns3:TrackPointExtension>
        </extensions>
      </trkpt>
      <trkpt lat="23.3949306048452854156494140625" lon="113.250563554465770721435546875">
        <ele>17.6000003814697265625</ele>
        <time>2024-06-26T21:53:55.000Z</time>
        <extensions>
          <ns3:TrackPointExtension>
            <ns3:hr>173</ns3:hr>
            <ns3:cad>61</ns3:cad>
          </ns3:TrackPointExtension>
        </extensions>
      </trkpt>
      <trkpt lat="23.394938148558139801025390625" lon="113.2505536638200283050537109375">
        <ele>17.3999996185302734375</ele>
        <time>2024-06-26T21:53:56.000Z</time>
        <extensions>
          <ns3:TrackPointExtension>
            <ns3:hr>177</ns3:hr>
            <ns3:cad>61</ns3:cad>
          </ns3:TrackPointExtension>
        </extensions>
      </trkpt>
      <trkpt lat="23.39494862593710422515869140625" lon="113.25054016895592212677001953125">
        <ele>17.200000762939453125</ele>
        <time>2024-06-26T21:53:57.000Z</time>
        <extensions>
          <ns3:TrackPointExtension>
            <ns3:hr>180</ns3:hr>
            <ns3:cad>61</ns3:cad>
          </ns3:TrackPointExtension>
        </extensions>
      </trkpt>
      <trkpt lat="23.3949601091444492340087890625" lon="113.2505258359014987945556640625">
        <ele>17</ele>
        <time>2024-06-26T21:53:58.000Z</time>
        <extensions>
          <ns3:TrackPointExtension>
            <ns3:hr>180</ns3:hr>
            <ns3:cad>61</ns3:cad>
          </ns3:TrackPointExtension>
        </extensions>
      </trkpt>
      <trkpt lat="23.39499305002391338348388671875" lon="113.250495493412017822265625">
        <ele>16</ele>
        <time>2024-06-26T21:54:00.000Z</time>
        <extensions>
          <ns3:TrackPointExtension>
            <ns3:hr>184</ns3:hr>
            <ns3:cad>81</ns3:cad>
          </ns3:TrackPointExtension>
        </extensions>
      </trkpt>
      <trkpt lat="23.395041413605213165283203125" lon="113.25043891556560993194580078125">
        <ele>14</ele>
        <time>2024-06-26T21:54:03.000Z</time>
        <extensions>
          <ns3:TrackPointExtension>
            <ns3:hr>190</ns3:hr>
            <ns3:cad>82</ns3:cad>
          </ns3:TrackPointExtension>
        </extensions>
      </trkpt>
      <trkpt lat="23.39505909942090511322021484375" lon="113.250420391559600830078125">
        <ele>13.3999996185302734375</ele>
        <time>2024-06-26T21:54:04.000Z</time>
        <extensions>
          <ns3:TrackPointExtension>
            <ns3:hr>187</ns3:hr>
            <ns3:cad>82</ns3:cad>
          </ns3:TrackPointExtension>
        </extensions>
      </trkpt>
      <trkpt lat="23.395073600113391876220703125" lon="113.250404633581638336181640625">
        <ele>12.80000019073486328125</ele>
        <time>2024-06-26T21:54:05.000Z</time>
        <extensions>
          <ns3:TrackPointExtension>
            <ns3:hr>184</ns3:hr>
            <ns3:cad>82</ns3:cad>
          </ns3:TrackPointExtension>
        </extensions>
      </trkpt>
      <trkpt lat="23.39510603807866573333740234375" lon="113.250370435416698455810546875">
        <ele>11.6000003814697265625</ele>
        <time>2024-06-26T21:54:07.000Z</time>
        <extensions>
          <ns3:TrackPointExtension>
            <ns3:hr>177</ns3:hr>
            <ns3:cad>82</ns3:cad>
          </ns3:TrackPointExtension>
        </extensions>
      </trkpt>
      <trkpt lat="23.3951575867831707000732421875" lon="113.2503062300384044647216796875">
        <ele>9.3999996185302734375</ele>
        <time>2024-06-26T21:54:10.000Z</time>
        <extensions>
          <ns3:TrackPointExtension>
            <ns3:hr>173</ns3:hr>
            <ns3:cad>83</ns3:cad>
          </ns3:TrackPointExtension>
        </extensions>
      </trkpt>
      <trkpt lat="23.3952705748379230499267578125" lon="113.25015208683907985687255859375">
        <ele>6.400000095367431640625</ele>
        <time>2024-06-26T21:54:17.000Z</time>
        <extensions>
          <ns3:TrackPointExtension>
            <ns3:hr>172</ns3:hr>
            <ns3:cad>82</ns3:cad>
          </ns3:TrackPointExtension>
        </extensions>
      </trkpt>
      <trkpt lat="23.39534894563257694244384765625" lon="113.25005435384809970855712890625">
        <ele>7.400000095367431640625</ele>
        <time>2024-06-26T21:54:22.000Z</time>
        <extensions>
          <ns3:TrackPointExtension>
            <ns3:hr>176</ns3:hr>
            <ns3:cad>81</ns3:cad>
          </ns3:TrackPointExtension>
        </extensions>
      </trkpt>
      <trkpt lat="23.39538113214075565338134765625" lon="113.250019736588001251220703125">
        <ele>8.19999980926513671875</ele>
        <time>2024-06-26T21:54:25.000Z</time>
        <extensions>
          <ns3:TrackPointExtension>
            <ns3:hr>179</ns3:hr>
            <ns3:cad>81</ns3:cad>
          </ns3:TrackPointExtension>
        </extensions>
      </trkpt>
      <trkpt lat="23.39538909494876861572265625" lon="113.25001143850386142730712890625">
        <ele>8.3999996185302734375</ele>
        <time>2024-06-26T21:54:27.000Z</time>
        <extensions>
          <ns3:TrackPointExtension>
            <ns3:hr>180</ns3:hr>
            <ns3:cad>81</ns3:cad>
          </ns3:TrackPointExtension>
        </extensions>
      </trkpt>
      <trkpt lat="23.395392782986164093017578125" lon="113.249995596706867218017578125">
        <ele>8.6000003814697265625</ele>
        <time>2024-06-26T21:54:36.000Z</time>
        <extensions>
          <ns3:TrackPointExtension>
            <ns3:hr>177</ns3:hr>
            <ns3:cad>0</ns3:cad>
          </ns3:TrackPointExtension>
        </extensions>
      </trkpt>
      <trkpt lat="23.3953929506242275238037109375" lon="113.24999350123107433319091796875">
        <ele>8.6000003814697265625</ele>
        <time>2024-06-26T21:54:41.000Z</time>
        <extensions>
          <ns3:TrackPointExtension>
            <ns3:hr>174</ns3:hr>
            <ns3:cad>0</ns3:cad>
          </ns3:TrackPointExtension>
        </extensions>
      </trkpt>
      <trkpt lat="23.3953932859003543853759765625" lon="113.2499934174120426177978515625">
        <ele>8.6000003814697265625</ele>
        <time>2024-06-26T21:54:44.000Z</time>
        <extensions>
          <ns3:TrackPointExtension>
            <ns3:hr>166</ns3:hr>
            <ns3:cad>0</ns3:cad>
          </ns3:TrackPointExtension>
        </extensions>
      </trkpt>
      <trkpt lat="23.3953919447958469390869140625" lon="113.24999165721237659454345703125">
        <ele>8.6000003814697265625</ele>
        <time>2024-06-26T21:54:45.000Z</time>
        <extensions>
          <ns3:TrackPointExtension>
            <ns3:hr>166</ns3:hr>
            <ns3:cad>0</ns3:cad>
          </ns3:TrackPointExtension>
        </extensions>
      </trkpt>
      <trkpt lat="23.3954066969454288482666015625" lon="113.2499521784484386444091796875">
        <ele>9.3999996185302734375</ele>
        <time>2024-06-26T21:54:50.000Z</time>
        <extensions>
          <ns3:TrackPointExtension>
            <ns3:hr>166</ns3:hr>
            <ns3:cad>61</ns3:cad>
          </ns3:TrackPointExtension>
        </extensions>
      </trkpt>
      <trkpt lat="23.395450450479984283447265625" lon="113.249753527343273162841796875">
        <ele>11.6000003814697265625</ele>
        <time>2024-06-26T21:55:00.000Z</time>
        <extensions>
          <ns3:TrackPointExtension>
            <ns3:hr>166</ns3:hr>
            <ns3:cad>83</ns3:cad>
          </ns3:TrackPointExtension>
        </extensions>
      </trkpt>
      <trkpt lat="23.39544533751904964447021484375" lon="113.24968613684177398681640625">
        <ele>12.19999980926513671875</ele>
        <time>2024-06-26T21:55:03.000Z</time>
        <extensions>
          <ns3:TrackPointExtension>
            <ns3:hr>169</ns3:hr>
            <ns3:cad>82</ns3:cad>
          </ns3:TrackPointExtension>
        </extensions>
      </trkpt>
      <trkpt lat="23.3954305015504360198974609375" lon="113.2496195845305919647216796875">
        <ele>11.6000003814697265625</ele>
        <time>2024-06-26T21:55:06.000Z</time>
        <extensions>
          <ns3:TrackPointExtension>
            <ns3:hr>166</ns3:hr>
            <ns3:cad>82</ns3:cad>
          </ns3:TrackPointExtension>
        </extensions>
      </trkpt>
      <trkpt lat="23.39535715989768505096435546875" lon="113.24942101724445819854736328125">
        <ele>5.80000019073486328125</ele>
        <time>2024-06-26T21:55:15.000Z</time>
        <extensions>
          <ns3:TrackPointExtension>
            <ns3:hr>164</ns3:hr>
            <ns3:cad>82</ns3:cad>
          </ns3:TrackPointExtension>
        </extensions>
      </trkpt>
      <trkpt lat="23.3952665515244007110595703125" lon="113.24923661537468433380126953125">
        <ele>4</ele>
        <time>2024-06-26T21:55:24.000Z</time>
        <extensions>
          <ns3:TrackPointExtension>
            <ns3:hr>166</ns3:hr>
            <ns3:cad>83</ns3:cad>
          </ns3:TrackPointExtension>
        </extensions>
      </trkpt>
      <trkpt lat="23.39525473304092884063720703125" lon="113.24903293512761592864990234375">
        <ele>5.19999980926513671875</ele>
        <time>2024-06-26T21:55:31.000Z</time>
        <extensions>
          <ns3:TrackPointExtension>
            <ns3:hr>164</ns3:hr>
            <ns3:cad>83</ns3:cad>
          </ns3:TrackPointExtension>
        </extensions>
      </trkpt>
      <trkpt lat="23.39526479132473468780517578125" lon="113.2488621957600116729736328125">
        <ele>8.3999996185302734375</ele>
        <time>2024-06-26T21:55:36.000Z</time>
        <extensions>
          <ns3:TrackPointExtension>
            <ns3:hr>167</ns3:hr>
            <ns3:cad>82</ns3:cad>
          </ns3:TrackPointExtension>
        </extensions>
      </trkpt>
      <trkpt lat="23.3952829800546169281005859375" lon="113.24870285578072071075439453125">
        <ele>9.80000019073486328125</ele>
        <time>2024-06-26T21:55:41.000Z</time>
        <extensions>
          <ns3:TrackPointExtension>
            <ns3:hr>164</ns3:hr>
            <ns3:cad>82</ns3:cad>
          </ns3:TrackPointExtension>
        </extensions>
      </trkpt>
      <trkpt lat="23.39531457982957363128662109375" lon="113.24849716387689113616943359375">
        <ele>10.3999996185302734375</ele>
        <time>2024-06-26T21:55:48.000Z</time>
        <extensions>
          <ns3:TrackPointExtension>
            <ns3:hr>161</ns3:hr>
            <ns3:cad>82</ns3:cad>
          </ns3:TrackPointExtension>
        </extensions>
      </trkpt>
      <trkpt lat="23.39529446326196193695068359375" lon="113.24836858548223972320556640625">
        <ele>9.80000019073486328125</ele>
        <time>2024-06-26T21:55:53.000Z</time>
        <extensions>
          <ns3:TrackPointExtension>
            <ns3:hr>163</ns3:hr>
            <ns3:cad>81</ns3:cad>
          </ns3:TrackPointExtension>
        </extensions>
      </trkpt>
      <trkpt lat="23.39510939083993434906005859375" lon="113.248323239386081695556640625">
        <ele>6.19999980926513671875</ele>
        <time>2024-06-26T21:56:02.000Z</time>
        <extensions>
          <ns3:TrackPointExtension>
            <ns3:hr>165</ns3:hr>
            <ns3:cad>83</ns3:cad>
          </ns3:TrackPointExtension>
        </extensions>
      </trkpt>
      <trkpt lat="23.39500159956514835357666015625" lon="113.24830471538007259368896484375">
        <ele>3.7999999523162841796875</ele>
        <time>2024-06-26T21:56:07.000Z</time>
        <extensions>
          <ns3:TrackPointExtension>
            <ns3:hr>168</ns3:hr>
            <ns3:cad>82</ns3:cad>
          </ns3:TrackPointExtension>
        </extensions>
      </trkpt>
      <trkpt lat="23.3948223106563091278076171875" lon="113.2482694275677204132080078125">
        <ele>0.4000000059604644775390625</ele>
        <time>2024-06-26T21:56:16.000Z</time>
        <extensions>
          <ns3:TrackPointExtension>
            <ns3:hr>166</ns3:hr>
            <ns3:cad>83</ns3:cad>
          </ns3:TrackPointExtension>
        </extensions>
      </trkpt>
      <trkpt lat="23.39478266425430774688720703125" lon="113.248254843056201934814453125">
        <ele>-0.4000000059604644775390625</ele>
        <time>2024-06-26T21:56:20.000Z</time>
        <extensions>
          <ns3:TrackPointExtension>
            <ns3:hr>163</ns3:hr>
            <ns3:cad>82</ns3:cad>
          </ns3:TrackPointExtension>
        </extensions>
      </trkpt>
      <trkpt lat="23.39478551410138607025146484375" lon="113.248263895511627197265625">
        <ele>-0.4000000059604644775390625</ele>
        <time>2024-06-26T21:56:24.000Z</time>
        <extensions>
          <ns3:TrackPointExtension>
            <ns3:hr>162</ns3:hr>
            <ns3:cad>82</ns3:cad>
          </ns3:TrackPointExtension>
        </extensions>
      </trkpt>
      <trkpt lat="23.39476170949637889862060546875" lon="113.24826045893132686614990234375">
        <ele>-0.800000011920928955078125</ele>
        <time>2024-06-26T21:56:31.000Z</time>
        <extensions>
          <ns3:TrackPointExtension>
            <ns3:hr>165</ns3:hr>
            <ns3:cad>0</ns3:cad>
          </ns3:TrackPointExtension>
        </extensions>
      </trkpt>
      <trkpt lat="23.3947488851845264434814453125" lon="113.24826364405453205108642578125">
        <ele>-1</ele>
        <time>2024-06-26T21:56:35.000Z</time>
        <extensions>
          <ns3:TrackPointExtension>
            <ns3:hr>168</ns3:hr>
            <ns3:cad>0</ns3:cad>
          </ns3:TrackPointExtension>
        </extensions>
      </trkpt>
      <trkpt lat="23.39474762789905071258544921875" lon="113.24826297350227832794189453125">
        <ele>-1</ele>
        <time>2024-06-26T21:56:36.000Z</time>
        <extensions>
          <ns3:TrackPointExtension>
            <ns3:hr>171</ns3:hr>
            <ns3:cad>0</ns3:cad>
          </ns3:TrackPointExtension>
        </extensions>
      </trkpt>
      <trkpt lat="23.39472197927534580230712890625" lon="113.24821293354034423828125">
        <ele>-1.2000000476837158203125</ele>
        <time>2024-06-26T21:56:43.000Z</time>
        <extensions>
          <ns3:TrackPointExtension>
            <ns3:hr>172</ns3:hr>
            <ns3:cad>61</ns3:cad>
          </ns3:TrackPointExtension>
        </extensions>
      </trkpt>
      <trkpt lat="23.39467688463628292083740234375" lon="113.24819340370595455169677734375">
        <ele>-1.60000002384185791015625</ele>
        <time>2024-06-26T21:56:46.000Z</time>
        <extensions>
          <ns3:TrackPointExtension>
            <ns3:hr>172</ns3:hr>
            <ns3:cad>81</ns3:cad>
          </ns3:TrackPointExtension>
        </extensions>
      </trkpt>
      <trkpt lat="23.39448762126266956329345703125" lon="113.24815484695136547088623046875">
        <ele>-0.800000011920928955078125</ele>
        <time>2024-06-26T21:56:55.000Z</time>
        <extensions>
          <ns3:TrackPointExtension>
            <ns3:hr>172</ns3:hr>
            <ns3:cad>82</ns3:cad>
          </ns3:TrackPointExtension>
        </extensions>
      </trkpt>
      <trkpt lat="23.39430590160191059112548828125" lon="113.2481152005493640899658203125">
        <ele>0.800000011920928955078125</ele>
        <time>2024-06-26T21:57:03.000Z</time>
        <extensions>
          <ns3:TrackPointExtension>
            <ns3:hr>170</ns3:hr>
            <ns3:cad>82</ns3:cad>
          </ns3:TrackPointExtension>
        </extensions>
      </trkpt>
      <trkpt lat="23.39410657994449138641357421875" lon="113.2480645738542079925537109375">
        <ele>3.599999904632568359375</ele>
        <time>2024-06-26T21:57:11.000Z</time>
        <extensions>
          <ns3:TrackPointExtension>
            <ns3:hr>172</ns3:hr>
            <ns3:cad>83</ns3:cad>
          </ns3:TrackPointExtension>
        </extensions>
      </trkpt>
      <trkpt lat="23.393926955759525299072265625" lon="113.24802593328058719635009765625">
        <ele>4.400000095367431640625</ele>
        <time>2024-06-26T21:57:18.000Z</time>
        <extensions>
          <ns3:TrackPointExtension>
            <ns3:hr>171</ns3:hr>
            <ns3:cad>82</ns3:cad>
          </ns3:TrackPointExtension>
        </extensions>
      </trkpt>
      <trkpt lat="23.39372478425502777099609375" lon="113.2480179704725742340087890625">
        <ele>2.599999904632568359375</ele>
        <time>2024-06-26T21:57:24.000Z</time>
        <extensions>
          <ns3:TrackPointExtension>
            <ns3:hr>169</ns3:hr>
            <ns3:cad>82</ns3:cad>
          </ns3:TrackPointExtension>
        </extensions>
      </trkpt>
      <trkpt lat="23.39352940209209918975830078125" lon="113.24803364463150501251220703125">
        <ele>0.4000000059604644775390625</ele>
        <time>2024-06-26T21:57:29.000Z</time>
        <extensions>
          <ns3:TrackPointExtension>
            <ns3:hr>169</ns3:hr>
            <ns3:cad>82</ns3:cad>
          </ns3:TrackPointExtension>
        </extensions>
      </trkpt>
      <trkpt lat="23.39334634132683277130126953125" lon="113.24802442453801631927490234375">
        <ele>-0.4000000059604644775390625</ele>
        <time>2024-06-26T21:57:36.000Z</time>
        <extensions>
          <ns3:TrackPointExtension>
            <ns3:hr>172</ns3:hr>
            <ns3:cad>82</ns3:cad>
          </ns3:TrackPointExtension>
        </extensions>
      </trkpt>
      <trkpt lat="23.3932649530470371246337890625" lon="113.2480290345847606658935546875">
        <ele>0.60000002384185791015625</ele>
        <time>2024-06-26T21:57:39.000Z</time>
        <extensions>
          <ns3:TrackPointExtension>
            <ns3:hr>175</ns3:hr>
            <ns3:cad>83</ns3:cad>
          </ns3:TrackPointExtension>
        </extensions>
      </trkpt>
      <trkpt lat="23.39314542710781097412109375" lon="113.248035907745361328125">
        <ele>3.400000095367431640625</ele>
        <time>2024-06-26T21:57:44.000Z</time>
        <extensions>
          <ns3:TrackPointExtension>
            <ns3:hr>172</ns3:hr>
            <ns3:cad>83</ns3:cad>
          </ns3:TrackPointExtension>
        </extensions>
      </trkpt>
      <trkpt lat="23.39303051121532917022705078125" lon="113.2480354048311710357666015625">
        <ele>5.400000095367431640625</ele>
        <time>2024-06-26T21:57:49.000Z</time>
        <extensions>
          <ns3:TrackPointExtension>
            <ns3:hr>169</ns3:hr>
            <ns3:cad>83</ns3:cad>
          </ns3:TrackPointExtension>
        </extensions>
      </trkpt>
      <trkpt lat="23.39284325949847698211669921875" lon="113.24801889248192310333251953125">
        <ele>5.80000019073486328125</ele>
        <time>2024-06-26T21:57:57.000Z</time>
        <extensions>
          <ns3:TrackPointExtension>
            <ns3:hr>169</ns3:hr>
            <ns3:cad>83</ns3:cad>
          </ns3:TrackPointExtension>
        </extensions>
      </trkpt>
      <trkpt lat="23.3926780521869659423828125" lon="113.24802878312766551971435546875">
        <ele>6</ele>
        <time>2024-06-26T21:58:04.000Z</time>
        <extensions>
          <ns3:TrackPointExtension>
            <ns3:hr>172</ns3:hr>
            <ns3:cad>83</ns3:cad>
          </ns3:TrackPointExtension>
        </extensions>
      </trkpt>
      <trkpt lat="23.3925716020166873931884765625" lon="113.2479934953153133392333984375">
        <ele>5.400000095367431640625</ele>
        <time>2024-06-26T21:58:09.000Z</time>
        <extensions>
          <ns3:TrackPointExtension>
            <ns3:hr>175</ns3:hr>
            <ns3:cad>83</ns3:cad>
          </ns3:TrackPointExtension>
        </extensions>
      </trkpt>
      <trkpt lat="23.3923883736133575439453125" lon="113.24791126884520053863525390625">
        <ele>5</ele>
        <time>2024-06-26T21:58:16.000Z</time>
        <extensions>
          <ns3:TrackPointExtension>
            <ns3:hr>176</ns3:hr>
            <ns3:cad>84</ns3:cad>
          </ns3:TrackPointExtension>
        </extensions>
      </trkpt>
      <trkpt lat="23.39226943440735340118408203125" lon="113.24784572236239910125732421875">
        <ele>5</ele>
        <time>2024-06-26T21:58:21.000Z</time>
        <extensions>
          <ns3:TrackPointExtension>
            <ns3:hr>173</ns3:hr>
            <ns3:cad>83</ns3:cad>
          </ns3:TrackPointExtension>
        </extensions>
      </trkpt>
      <trkpt lat="23.39213021099567413330078125" lon="113.24777330271899700164794921875">
        <ele>5.19999980926513671875</ele>
        <time>2024-06-26T21:58:27.000Z</time>
        <extensions>
          <ns3:TrackPointExtension>
            <ns3:hr>170</ns3:hr>
            <ns3:cad>83</ns3:cad>
          </ns3:TrackPointExtension>
        </extensions>
      </trkpt>
      <trkpt lat="23.39209727011620998382568359375" lon="113.24777782894670963287353515625">
        <ele>5.400000095367431640625</ele>
        <time>2024-06-26T21:58:30.000Z</time>
        <extensions>
          <ns3:TrackPointExtension>
            <ns3:hr>169</ns3:hr>
            <ns3:cad>83</ns3:cad>
          </ns3:TrackPointExtension>
        </extensions>
      </trkpt>
      <trkpt lat="23.392090983688831329345703125" lon="113.24779224582016468048095703125">
        <ele>5.400000095367431640625</ele>
        <time>2024-06-26T21:58:32.000Z</time>
        <extensions>
          <ns3:TrackPointExtension>
            <ns3:hr>168</ns3:hr>
            <ns3:cad>83</ns3:cad>
          </ns3:TrackPointExtension>
        </extensions>
      </trkpt>
      <trkpt lat="23.3920948393642902374267578125" lon="113.24779962189495563507080078125">
        <ele>5.400000095367431640625</ele>
        <time>2024-06-26T21:58:34.000Z</time>
        <extensions>
          <ns3:TrackPointExtension>
            <ns3:hr>168</ns3:hr>
            <ns3:cad>0</ns3:cad>
          </ns3:TrackPointExtension>
        </extensions>
      </trkpt>
      <trkpt lat="23.3922676742076873779296875" lon="113.24786491692066192626953125">
        <ele>5</ele>
        <time>2024-06-26T21:58:50.000Z</time>
        <extensions>
          <ns3:TrackPointExtension>
            <ns3:hr>167</ns3:hr>
            <ns3:cad>81</ns3:cad>
          </ns3:TrackPointExtension>
        </extensions>
      </trkpt>
      <trkpt lat="23.3924576081335544586181640625" lon="113.24794596992433071136474609375">
        <ele>5</ele>
        <time>2024-06-26T21:59:00.000Z</time>
        <extensions>
          <ns3:TrackPointExtension>
            <ns3:hr>166</ns3:hr>
            <ns3:cad>83</ns3:cad>
          </ns3:TrackPointExtension>
        </extensions>
      </trkpt>
      <trkpt lat="23.392636477947235107421875" lon="113.24798720888793468475341796875">
        <ele>5.599999904632568359375</ele>
        <time>2024-06-26T21:59:08.000Z</time>
        <extensions>
          <ns3:TrackPointExtension>
            <ns3:hr>167</ns3:hr>
            <ns3:cad>84</ns3:cad>
          </ns3:TrackPointExtension>
        </extensions>
      </trkpt>
      <trkpt lat="23.39272658340632915496826171875" lon="113.24800145812332630157470703125">
        <ele>6</ele>
        <time>2024-06-26T21:59:12.000Z</time>
        <extensions>
          <ns3:TrackPointExtension>
            <ns3:hr>170</ns3:hr>
            <ns3:cad>83</ns3:cad>
          </ns3:TrackPointExtension>
        </extensions>
      </trkpt>
      <trkpt lat="23.39288382790982723236083984375" lon="113.24803045950829982757568359375">
        <ele>5.80000019073486328125</ele>
        <time>2024-06-26T21:59:19.000Z</time>
        <extensions>
          <ns3:TrackPointExtension>
            <ns3:hr>173</ns3:hr>
            <ns3:cad>83</ns3:cad>
          </ns3:TrackPointExtension>
        </extensions>
      </trkpt>
      <trkpt lat="23.393028415739536285400390625" lon="113.248039595782756805419921875">
        <ele>5.400000095367431640625</ele>
        <time>2024-06-26T21:59:26.000Z</time>
        <extensions>
          <ns3:TrackPointExtension>
            <ns3:hr>172</ns3:hr>
            <ns3:cad>83</ns3:cad>
          </ns3:TrackPointExtension>
        </extensions>
      </trkpt>
      <trkpt lat="23.39311030693352222442626953125" lon="113.2480357401072978973388671875">
        <ele>4</ele>
        <time>2024-06-26T21:59:30.000Z</time>
        <extensions>
          <ns3:TrackPointExtension>
            <ns3:hr>175</ns3:hr>
            <ns3:cad>83</ns3:cad>
          </ns3:TrackPointExtension>
        </extensions>
      </trkpt>
      <trkpt lat="23.39328247122466564178466796875" lon="113.24802543036639690399169921875">
        <ele>0.20000000298023223876953125</ele>
        <time>2024-06-26T21:59:38.000Z</time>
        <extensions>
          <ns3:TrackPointExtension>
            <ns3:hr>172</ns3:hr>
            <ns3:cad>84</ns3:cad>
          </ns3:TrackPointExtension>
        </extensions>
      </trkpt>
      <trkpt lat="23.39346150867640972137451171875" lon="113.2480105943977832794189453125">
        <ele>-0.20000000298023223876953125</ele>
        <time>2024-06-26T21:59:46.000Z</time>
        <extensions>
          <ns3:TrackPointExtension>
            <ns3:hr>169</ns3:hr>
            <ns3:cad>82</ns3:cad>
          </ns3:TrackPointExtension>
        </extensions>
      </trkpt>
      <trkpt lat="23.39350174181163311004638671875" lon="113.24801218695938587188720703125">
        <ele>0</ele>
        <time>2024-06-26T21:59:48.000Z</time>
        <extensions>
          <ns3:TrackPointExtension>
            <ns3:hr>172</ns3:hr>
            <ns3:cad>83</ns3:cad>
          </ns3:TrackPointExtension>
        </extensions>
      </trkpt>
      <trkpt lat="23.39356577955186367034912109375" lon="113.24801704846322536468505859375">
        <ele>0.20000000298023223876953125</ele>
        <time>2024-06-26T21:59:51.000Z</time>
        <extensions>
          <ns3:TrackPointExtension>
            <ns3:hr>175</ns3:hr>
            <ns3:cad>83</ns3:cad>
          </ns3:TrackPointExtension>
        </extensions>
      </trkpt>
      <trkpt lat="23.39368094690144062042236328125" lon="113.24798687361180782318115234375">
        <ele>1.7999999523162841796875</ele>
        <time>2024-06-26T21:59:56.000Z</time>
        <extensions>
          <ns3:TrackPointExtension>
            <ns3:hr>178</ns3:hr>
            <ns3:cad>83</ns3:cad>
          </ns3:TrackPointExtension>
        </extensions>
      </trkpt>
      <trkpt lat="23.39371782727539539337158203125" lon="113.24795753695070743560791015625">
        <ele>2.599999904632568359375</ele>
        <time>2024-06-26T21:59:58.000Z</time>
        <extensions>
          <ns3:TrackPointExtension>
            <ns3:hr>179</ns3:hr>
            <ns3:cad>82</ns3:cad>
          </ns3:TrackPointExtension>
        </extensions>
      </trkpt>
      <trkpt lat="23.3937896601855754852294921875" lon="113.247850500047206878662109375">
        <ele>4</ele>
        <time>2024-06-26T22:00:02.000Z</time>
        <extensions>
          <ns3:TrackPointExtension>
            <ns3:hr>182</ns3:hr>
            <ns3:cad>81</ns3:cad>
          </ns3:TrackPointExtension>
        </extensions>
      </trkpt>
      <trkpt lat="23.39387590996921062469482421875" lon="113.24768210761249065399169921875">
        <ele>5.400000095367431640625</ele>
        <time>2024-06-26T22:00:08.000Z</time>
        <extensions>
          <ns3:TrackPointExtension>
            <ns3:hr>179</ns3:hr>
            <ns3:cad>81</ns3:cad>
          </ns3:TrackPointExtension>
        </extensions>
      </trkpt>
      <trkpt lat="23.39395947754383087158203125" lon="113.24749208986759185791015625">
        <ele>6.80000019073486328125</ele>
        <time>2024-06-26T22:00:16.000Z</time>
        <extensions>
          <ns3:TrackPointExtension>
            <ns3:hr>176</ns3:hr>
            <ns3:cad>82</ns3:cad>
          </ns3:TrackPointExtension>
        </extensions>
      </trkpt>
      <trkpt lat="23.39404455386102199554443359375" lon="113.24729251675307750701904296875">
        <ele>5.80000019073486328125</ele>
        <time>2024-06-26T22:00:25.000Z</time>
        <extensions>
          <ns3:TrackPointExtension>
            <ns3:hr>176</ns3:hr>
            <ns3:cad>83</ns3:cad>
          </ns3:TrackPointExtension>
        </extensions>
      </trkpt>
      <trkpt lat="23.39410004206001758575439453125" lon="113.24710140936076641082763671875">
        <ele>5.19999980926513671875</ele>
        <time>2024-06-26T22:00:33.000Z</time>
        <extensions>
          <ns3:TrackPointExtension>
            <ns3:hr>178</ns3:hr>
            <ns3:cad>83</ns3:cad>
          </ns3:TrackPointExtension>
        </extensions>
      </trkpt>
      <trkpt lat="23.39409920386970043182373046875" lon="113.24706159532070159912109375">
        <ele>5.19999980926513671875</ele>
        <time>2024-06-26T22:00:36.000Z</time>
        <extensions>
          <ns3:TrackPointExtension>
            <ns3:hr>177</ns3:hr>
            <ns3:cad>83</ns3:cad>
          </ns3:TrackPointExtension>
        </extensions>
      </trkpt>
      <trkpt lat="23.39411429129540920257568359375" lon="113.24701289646327495574951171875">
        <ele>5</ele>
        <time>2024-06-26T22:00:40.000Z</time>
        <extensions>
          <ns3:TrackPointExtension>
            <ns3:hr>174</ns3:hr>
            <ns3:cad>83</ns3:cad>
          </ns3:TrackPointExtension>
        </extensions>
      </trkpt>
      <trkpt lat="23.39411797933280467987060546875" lon="113.2469858229160308837890625">
        <ele>5</ele>
        <time>2024-06-26T22:00:42.000Z</time>
        <extensions>
          <ns3:TrackPointExtension>
            <ns3:hr>173</ns3:hr>
            <ns3:cad>57</ns3:cad>
          </ns3:TrackPointExtension>
        </extensions>
      </trkpt>
      <trkpt lat="23.39417941868305206298828125" lon="113.24680410325527191162109375">
        <ele>5.19999980926513671875</ele>
        <time>2024-06-26T22:00:55.000Z</time>
        <extensions>
          <ns3:TrackPointExtension>
            <ns3:hr>170</ns3:hr>
            <ns3:cad>61</ns3:cad>
          </ns3:TrackPointExtension>
        </extensions>
      </trkpt>
      <trkpt lat="23.39421889744699001312255859375" lon="113.24673864059150218963623046875">
        <ele>5.400000095367431640625</ele>
        <time>2024-06-26T22:00:59.000Z</time>
        <extensions>
          <ns3:TrackPointExtension>
            <ns3:hr>167</ns3:hr>
            <ns3:cad>79</ns3:cad>
          </ns3:TrackPointExtension>
        </extensions>
      </trkpt>
      <trkpt lat="23.39425443671643733978271484375" lon="113.24671902693808078765869140625">
        <ele>5.599999904632568359375</ele>
        <time>2024-06-26T22:01:01.000Z</time>
        <extensions>
          <ns3:TrackPointExtension>
            <ns3:hr>167</ns3:hr>
            <ns3:cad>79</ns3:cad>
          </ns3:TrackPointExtension>
        </extensions>
      </trkpt>
      <trkpt lat="23.3943623118102550506591796875" lon="113.24670008383691310882568359375">
        <ele>6</ele>
        <time>2024-06-26T22:01:07.000Z</time>
        <extensions>
          <ns3:TrackPointExtension>
            <ns3:hr>168</ns3:hr>
            <ns3:cad>81</ns3:cad>
          </ns3:TrackPointExtension>
        </extensions>
      </trkpt>
      <trkpt lat="23.39439332485198974609375" lon="113.24661442078649997711181640625">
        <ele>6.80000019073486328125</ele>
        <time>2024-06-26T22:01:11.000Z</time>
        <extensions>
          <ns3:TrackPointExtension>
            <ns3:hr>171</ns3:hr>
            <ns3:cad>82</ns3:cad>
          </ns3:TrackPointExtension>
        </extensions>
      </trkpt>
      <trkpt lat="23.394404388964176177978515625" lon="113.24656111188232898712158203125">
        <ele>7.19999980926513671875</ele>
        <time>2024-06-26T22:01:14.000Z</time>
        <extensions>
          <ns3:TrackPointExtension>
            <ns3:hr>168</ns3:hr>
            <ns3:cad>80</ns3:cad>
          </ns3:TrackPointExtension>
        </extensions>
      </trkpt>
      <trkpt lat="23.39440296404063701629638671875" lon="113.24645809829235076904296875">
        <ele>8</ele>
        <time>2024-06-26T22:01:21.000Z</time>
        <extensions>
          <ns3:TrackPointExtension>
            <ns3:hr>170</ns3:hr>
            <ns3:cad>81</ns3:cad>
          </ns3:TrackPointExtension>
        </extensions>
      </trkpt>
      <trkpt lat="23.39440732263028621673583984375" lon="113.24644896201789379119873046875">
        <ele>8</ele>
        <time>2024-06-26T22:01:22.000Z</time>
        <extensions>
          <ns3:TrackPointExtension>
            <ns3:hr>178</ns3:hr>
            <ns3:cad>81</ns3:cad>
          </ns3:TrackPointExtension>
        </extensions>
      </trkpt>
      <trkpt lat="23.3944142796099185943603515625" lon="113.24642079882323741912841796875">
        <ele>8.19999980926513671875</ele>
        <time>2024-06-26T22:01:24.000Z</time>
        <extensions>
          <ns3:TrackPointExtension>
            <ns3:hr>183</ns3:hr>
            <ns3:cad>81</ns3:cad>
          </ns3:TrackPointExtension>
        </extensions>
      </trkpt>
      <trkpt lat="23.3944015391170978546142578125" lon="113.24639364145696163177490234375">
        <ele>8.3999996185302734375</ele>
        <time>2024-06-26T22:01:28.000Z</time>
        <extensions>
          <ns3:TrackPointExtension>
            <ns3:hr>180</ns3:hr>
            <ns3:cad>61</ns3:cad>
          </ns3:TrackPointExtension>
        </extensions>
      </trkpt>
      <trkpt lat="23.394367508590221405029296875" lon="113.2464089803397655487060546875">
        <ele>8</ele>
        <time>2024-06-26T22:01:32.000Z</time>
        <extensions>
          <ns3:TrackPointExtension>
            <ns3:hr>174</ns3:hr>
            <ns3:cad>61</ns3:cad>
          </ns3:TrackPointExtension>
        </extensions>
      </trkpt>
      <trkpt lat="23.39430875144898891448974609375" lon="113.24643789790570735931396484375">
        <ele>7.400000095367431640625</ele>
        <time>2024-06-26T22:01:36.000Z</time>
        <extensions>
          <ns3:TrackPointExtension>
            <ns3:hr>178</ns3:hr>
            <ns3:cad>61</ns3:cad>
          </ns3:TrackPointExtension>
        </extensions>
      </trkpt>
      <trkpt lat="23.3942805044353008270263671875" lon="113.246460445225238800048828125">
        <ele>7</ele>
        <time>2024-06-26T22:01:38.000Z</time>
        <extensions>
          <ns3:TrackPointExtension>
            <ns3:hr>175</ns3:hr>
            <ns3:cad>61</ns3:cad>
          </ns3:TrackPointExtension>
        </extensions>
      </trkpt>
      <trkpt lat="23.39426751248538494110107421875" lon="113.2464735209941864013671875">
        <ele>7</ele>
        <time>2024-06-26T22:01:39.000Z</time>
        <extensions>
          <ns3:TrackPointExtension>
            <ns3:hr>172</ns3:hr>
            <ns3:cad>81</ns3:cad>
          </ns3:TrackPointExtension>
        </extensions>
      </trkpt>
      <trkpt lat="23.394258208572864532470703125" lon="113.24648399837315082550048828125">
        <ele>6.80000019073486328125</ele>
        <time>2024-06-26T22:01:40.000Z</time>
        <extensions>
          <ns3:TrackPointExtension>
            <ns3:hr>172</ns3:hr>
            <ns3:cad>81</ns3:cad>
          </ns3:TrackPointExtension>
        </extensions>
      </trkpt>
      <trkpt lat="23.3941956795752048492431640625" lon="113.24656077660620212554931640625">
        <ele>6.400000095367431640625</ele>
        <time>2024-06-26T22:01:45.000Z</time>
        <extensions>
          <ns3:TrackPointExtension>
            <ns3:hr>170</ns3:hr>
            <ns3:cad>81</ns3:cad>
          </ns3:TrackPointExtension>
        </extensions>
      </trkpt>
      <trkpt lat="23.39400566183030605316162109375" lon="113.24653194285929203033447265625">
        <ele>6.599999904632568359375</ele>
        <time>2024-06-26T22:01:53.000Z</time>
        <extensions>
          <ns3:TrackPointExtension>
            <ns3:hr>172</ns3:hr>
            <ns3:cad>82</ns3:cad>
          </ns3:TrackPointExtension>
        </extensions>
      </trkpt>
      <trkpt lat="23.39388647116720676422119140625" lon="113.24652381241321563720703125">
        <ele>6.80000019073486328125</ele>
        <time>2024-06-26T22:01:58.000Z</time>
        <extensions>
          <ns3:TrackPointExtension>
            <ns3:hr>175</ns3:hr>
            <ns3:cad>82</ns3:cad>
          </ns3:TrackPointExtension>
        </extensions>
      </trkpt>
      <trkpt lat="23.3938018977642059326171875" lon="113.24649187736213207244873046875">
        <ele>7.19999980926513671875</ele>
        <time>2024-06-26T22:02:03.000Z</time>
        <extensions>
          <ns3:TrackPointExtension>
            <ns3:hr>178</ns3:hr>
            <ns3:cad>80</ns3:cad>
          </ns3:TrackPointExtension>
        </extensions>
      </trkpt>
      <trkpt lat="23.39376828633248805999755859375" lon="113.24647293426096439361572265625">
        <ele>7.400000095367431640625</ele>
        <time>2024-06-26T22:02:05.000Z</time>
        <extensions>
          <ns3:TrackPointExtension>
            <ns3:hr>173</ns3:hr>
            <ns3:cad>81</ns3:cad>
          </ns3:TrackPointExtension>
        </extensions>
      </trkpt>
      <trkpt lat="23.3937246166169643402099609375" lon="113.24644292704761028289794921875">
        <ele>7.599999904632568359375</ele>
        <time>2024-06-26T22:02:08.000Z</time>
        <extensions>
          <ns3:TrackPointExtension>
            <ns3:hr>177</ns3:hr>
            <ns3:cad>82</ns3:cad>
          </ns3:TrackPointExtension>
        </extensions>
      </trkpt>
      <trkpt lat="23.39367390610277652740478515625" lon="113.24643387459218502044677734375">
        <ele>7.599999904632568359375</ele>
        <time>2024-06-26T22:02:15.000Z</time>
        <extensions>
          <ns3:TrackPointExtension>
            <ns3:hr>178</ns3:hr>
            <ns3:cad>82</ns3:cad>
          </ns3:TrackPointExtension>
        </extensions>
      </trkpt>
      <trkpt lat="23.3936746604740619659423828125" lon="113.2464824058115482330322265625">
        <ele>6.80000019073486328125</ele>
        <time>2024-06-26T22:02:23.000Z</time>
        <extensions>
          <ns3:TrackPointExtension>
            <ns3:hr>174</ns3:hr>
            <ns3:cad>0</ns3:cad>
          </ns3:TrackPointExtension>
        </extensions>
      </trkpt>
      <trkpt lat="23.39366334490478038787841796875" lon="113.246492631733417510986328125">
        <ele>6.400000095367431640625</ele>
        <time>2024-06-26T22:02:32.000Z</time>
        <extensions>
          <ns3:TrackPointExtension>
            <ns3:hr>171</ns3:hr>
            <ns3:cad>0</ns3:cad>
          </ns3:TrackPointExtension>
        </extensions>
      </trkpt>
      <trkpt lat="23.393660746514797210693359375" lon="113.24648986570537090301513671875">
        <ele>6.400000095367431640625</ele>
        <time>2024-06-26T22:02:36.000Z</time>
        <extensions>
          <ns3:TrackPointExtension>
            <ns3:hr>168</ns3:hr>
            <ns3:cad>61</ns3:cad>
          </ns3:TrackPointExtension>
        </extensions>
      </trkpt>
      <trkpt lat="23.39364297688007354736328125" lon="113.24648366309702396392822265625">
        <ele>6.400000095367431640625</ele>
        <time>2024-06-26T22:02:46.000Z</time>
        <extensions>
          <ns3:TrackPointExtension>
            <ns3:hr>165</ns3:hr>
            <ns3:cad>0</ns3:cad>
          </ns3:TrackPointExtension>
        </extensions>
      </trkpt>
      <trkpt lat="23.39363132603466510772705078125" lon="113.2464505545794963836669921875">
        <ele>7</ele>
        <time>2024-06-26T22:02:58.000Z</time>
        <extensions>
          <ns3:TrackPointExtension>
            <ns3:hr>162</ns3:hr>
            <ns3:cad>61</ns3:cad>
          </ns3:TrackPointExtension>
        </extensions>
      </trkpt>
      <trkpt lat="23.39346150867640972137451171875" lon="113.24635944329202175140380859375">
        <ele>7.80000019073486328125</ele>
        <time>2024-06-26T22:03:08.000Z</time>
        <extensions>
          <ns3:TrackPointExtension>
            <ns3:hr>161</ns3:hr>
            <ns3:cad>81</ns3:cad>
          </ns3:TrackPointExtension>
        </extensions>
      </trkpt>
      <trkpt lat="23.39338657446205615997314453125" lon="113.2463206350803375244140625">
        <ele>8.19999980926513671875</ele>
        <time>2024-06-26T22:03:12.000Z</time>
        <extensions>
          <ns3:TrackPointExtension>
            <ns3:hr>164</ns3:hr>
            <ns3:cad>82</ns3:cad>
          </ns3:TrackPointExtension>
        </extensions>
      </trkpt>
      <trkpt lat="23.39329722337424755096435546875" lon="113.24624930508434772491455078125">
        <ele>9</ele>
        <time>2024-06-26T22:03:17.000Z</time>
        <extensions>
          <ns3:TrackPointExtension>
            <ns3:hr>167</ns3:hr>
            <ns3:cad>83</ns3:cad>
          </ns3:TrackPointExtension>
        </extensions>
      </trkpt>
      <trkpt lat="23.3932538889348506927490234375" lon="113.2462316192686557769775390625">
        <ele>9</ele>
        <time>2024-06-26T22:03:19.000Z</time>
        <extensions>
          <ns3:TrackPointExtension>
            <ns3:hr>170</ns3:hr>
            <ns3:cad>82</ns3:cad>
          </ns3:TrackPointExtension>
        </extensions>
      </trkpt>
      <trkpt lat="23.3931697346270084381103515625" lon="113.24619130231440067291259765625">
        <ele>9.3999996185302734375</ele>
        <time>2024-06-26T22:03:23.000Z</time>
        <extensions>
          <ns3:TrackPointExtension>
            <ns3:hr>174</ns3:hr>
            <ns3:cad>82</ns3:cad>
          </ns3:TrackPointExtension>
        </extensions>
      </trkpt>
      <trkpt lat="23.3930533938109874725341796875" lon="113.24612257070839405059814453125">
        <ele>10</ele>
        <time>2024-06-26T22:03:29.000Z</time>
        <extensions>
          <ns3:TrackPointExtension>
            <ns3:hr>171</ns3:hr>
            <ns3:cad>81</ns3:cad>
          </ns3:TrackPointExtension>
        </extensions>
      </trkpt>
      <trkpt lat="23.39300989173352718353271484375" lon="113.24609373696148395538330078125">
        <ele>10.19999980926513671875</ele>
        <time>2024-06-26T22:03:32.000Z</time>
        <extensions>
          <ns3:TrackPointExtension>
            <ns3:hr>168</ns3:hr>
            <ns3:cad>81</ns3:cad>
          </ns3:TrackPointExtension>
        </extensions>
      </trkpt>
      <trkpt lat="23.39298943988978862762451171875" lon="113.24608250521123409271240234375">
        <ele>10.19999980926513671875</ele>
        <time>2024-06-26T22:03:34.000Z</time>
        <extensions>
          <ns3:TrackPointExtension>
            <ns3:hr>165</ns3:hr>
            <ns3:cad>81</ns3:cad>
          </ns3:TrackPointExtension>
        </extensions>
      </trkpt>
      <trkpt lat="23.39291903190314769744873046875" lon="113.24589206837117671966552734375">
        <ele>10.3999996185302734375</ele>
        <time>2024-06-26T22:03:50.000Z</time>
        <extensions>
          <ns3:TrackPointExtension>
            <ns3:hr>164</ns3:hr>
            <ns3:cad>88</ns3:cad>
          </ns3:TrackPointExtension>
        </extensions>
      </trkpt>
      <trkpt lat="23.39290210045874118804931640625" lon="113.2458551041781902313232421875">
        <ele>10.3999996185302734375</ele>
        <time>2024-06-26T22:03:52.000Z</time>
        <extensions>
          <ns3:TrackPointExtension>
            <ns3:hr>164</ns3:hr>
            <ns3:cad>81</ns3:cad>
          </ns3:TrackPointExtension>
        </extensions>
      </trkpt>
      <trkpt lat="23.39284040965139865875244140625" lon="113.2456608116626739501953125">
        <ele>10</ele>
        <time>2024-06-26T22:04:00.000Z</time>
        <extensions>
          <ns3:TrackPointExtension>
            <ns3:hr>159</ns3:hr>
            <ns3:cad>81</ns3:cad>
          </ns3:TrackPointExtension>
        </extensions>
      </trkpt>
      <trkpt lat="23.392832614481449127197265625" lon="113.2456393539905548095703125">
        <ele>10</ele>
        <time>2024-06-26T22:04:01.000Z</time>
        <extensions>
          <ns3:TrackPointExtension>
            <ns3:hr>159</ns3:hr>
            <ns3:cad>81</ns3:cad>
          </ns3:TrackPointExtension>
        </extensions>
      </trkpt>
      <trkpt lat="23.39279866777360439300537109375" lon="113.2455347478389739990234375">
        <ele>10</ele>
        <time>2024-06-26T22:04:06.000Z</time>
        <extensions>
          <ns3:TrackPointExtension>
            <ns3:hr>162</ns3:hr>
            <ns3:cad>81</ns3:cad>
          </ns3:TrackPointExtension>
        </extensions>
      </trkpt>
      <trkpt lat="23.39271350763738155364990234375" lon="113.2453521899878978729248046875">
        <ele>9.19999980926513671875</ele>
        <time>2024-06-26T22:04:14.000Z</time>
        <extensions>
          <ns3:TrackPointExtension>
            <ns3:hr>163</ns3:hr>
            <ns3:cad>82</ns3:cad>
          </ns3:TrackPointExtension>
        </extensions>
      </trkpt>
      <trkpt lat="23.39260521344840526580810546875" lon="113.24516753666102886199951171875">
        <ele>8.6000003814697265625</ele>
        <time>2024-06-26T22:04:24.000Z</time>
        <extensions>
          <ns3:TrackPointExtension>
            <ns3:hr>162</ns3:hr>
            <ns3:cad>81</ns3:cad>
          </ns3:TrackPointExtension>
        </extensions>
      </trkpt>
      <trkpt lat="23.392500020563602447509765625" lon="113.2449900917708873748779296875">
        <ele>7.400000095367431640625</ele>
        <time>2024-06-26T22:04:32.000Z</time>
        <extensions>
          <ns3:TrackPointExtension>
            <ns3:hr>162</ns3:hr>
            <ns3:cad>82</ns3:cad>
          </ns3:TrackPointExtension>
        </extensions>
      </trkpt>
      <trkpt lat="23.392436318099498748779296875" lon="113.24478666298091411590576171875">
        <ele>6.80000019073486328125</ele>
        <time>2024-06-26T22:04:41.000Z</time>
        <extensions>
          <ns3:TrackPointExtension>
            <ns3:hr>165</ns3:hr>
            <ns3:cad>82</ns3:cad>
          </ns3:TrackPointExtension>
        </extensions>
      </trkpt>
      <trkpt lat="23.39240421541035175323486328125" lon="113.24468272738158702850341796875">
        <ele>6.80000019073486328125</ele>
        <time>2024-06-26T22:04:47.000Z</time>
        <extensions>
          <ns3:TrackPointExtension>
            <ns3:hr>162</ns3:hr>
            <ns3:cad>81</ns3:cad>
          </ns3:TrackPointExtension>
        </extensions>
      </trkpt>
      <trkpt lat="23.3924079872667789459228515625" lon="113.24466814287006855010986328125">
        <ele>6.80000019073486328125</ele>
        <time>2024-06-26T22:04:48.000Z</time>
        <extensions>
          <ns3:TrackPointExtension>
            <ns3:hr>161</ns3:hr>
            <ns3:cad>81</ns3:cad>
          </ns3:TrackPointExtension>
        </extensions>
      </trkpt>
      <trkpt lat="23.39256875216960906982421875" lon="113.2445825636386871337890625">
        <ele>7.80000019073486328125</ele>
        <time>2024-06-26T22:04:58.000Z</time>
        <extensions>
          <ns3:TrackPointExtension>
            <ns3:hr>160</ns3:hr>
            <ns3:cad>79</ns3:cad>
          </ns3:TrackPointExtension>
        </extensions>
      </trkpt>
      <trkpt lat="23.39273731224238872528076171875" lon="113.24450167827308177947998046875">
        <ele>8.6000003814697265625</ele>
        <time>2024-06-26T22:05:12.000Z</time>
        <extensions>
          <ns3:TrackPointExtension>
            <ns3:hr>161</ns3:hr>
            <ns3:cad>81</ns3:cad>
          </ns3:TrackPointExtension>
        </extensions>
      </trkpt>
      <trkpt lat="23.39277788065373897552490234375" lon="113.24446119368076324462890625">
        <ele>8.6000003814697265625</ele>
        <time>2024-06-26T22:05:13.000Z</time>
        <extensions>
          <ns3:TrackPointExtension>
            <ns3:hr>160</ns3:hr>
            <ns3:cad>80</ns3:cad>
          </ns3:TrackPointExtension>
        </extensions>
      </trkpt>
      <trkpt lat="23.39297804050147533416748046875" lon="113.24437879957258701324462890625">
        <ele>9</ele>
        <time>2024-06-26T22:05:23.000Z</time>
        <extensions>
          <ns3:TrackPointExtension>
            <ns3:hr>159</ns3:hr>
            <ns3:cad>81</ns3:cad>
          </ns3:TrackPointExtension>
        </extensions>
      </trkpt>
    </trkseg>
  </trk>
</gpx>
