<gpx xmlns:ns3="http://www.garmin.com/xmlschemas/TrackPointExtension/v1" xmlns="http://www.topografix.com/GPX/1/1" xmlns:xsi="http://www.w3.org/2001/XMLSchema-instance" xmlns:ns2="http://www.garmin.com/xmlschemas/GpxExtensions/v3" creator="Garmin Connect" version="1.1" xsi:schemaLocation="http://www.topografix.com/GPX/1/1 http://www.topografix.com/GPX/11.xsd">
  <extensions>
<distance>4068.56</distance>
<average_hr></average_hr>
<average_speed>1.2280000448226929</average_speed>
<start_time>2024-07-14T21:13:15+00:00</start_time>
<end_time>2024-07-14T22:08:29.216000+00:00</end_time>
<moving_time>3276.038</moving_time>
<elapsed_time>3314.216</elapsed_time>
</extensions>
<metadata>
    <link href="connect.garmin.com">
      <text>Garmin Connect</text>
    </link>
    <time>2024-07-14T21:13:15.000Z</time>
  </metadata>
  <trk>
    <name>广州市 跑步</name>
    <type>running</type>
    <trkseg>
      <trkpt lat="23.39328213594853878021240234375" lon="113.24615810997784137725830078125">
        <ele>10.19999980926513671875</ele>
        <time>2024-07-14T21:17:06.000Z</time>
        <extensions>
          <ns3:TrackPointExtension>
            <ns3:cad>57</ns3:cad>
          </ns3:TrackPointExtension>
        </extensions>
      </trkpt>
      <trkpt lat="23.39343418367207050323486328125" lon="113.24630814604461193084716796875">
        <ele>8.6000003814697265625</ele>
        <time>2024-07-14T21:17:29.000Z</time>
        <extensions>
          <ns3:TrackPointExtension>
            <ns3:cad>58</ns3:cad>
          </ns3:TrackPointExtension>
        </extensions>
      </trkpt>
      <trkpt lat="23.393617831170558929443359375" lon="113.2463439367711544036865234375">
        <ele>8.80000019073486328125</ele>
        <time>2024-07-14T21:17:44.000Z</time>
        <extensions>
          <ns3:TrackPointExtension>
            <ns3:cad>58</ns3:cad>
          </ns3:TrackPointExtension>
        </extensions>
      </trkpt>
      <trkpt lat="23.39369687251746654510498046875" lon="113.2463848404586315155029296875">
        <ele>8.19999980926513671875</ele>
        <time>2024-07-14T21:17:52.000Z</time>
        <extensions>
          <ns3:TrackPointExtension>
            <ns3:cad>57</ns3:cad>
          </ns3:TrackPointExtension>
        </extensions>
      </trkpt>
      <trkpt lat="23.39371816255152225494384765625" lon="113.24638777412474155426025390625">
        <ele>8.19999980926513671875</ele>
        <time>2024-07-14T21:17:54.000Z</time>
        <extensions>
          <ns3:TrackPointExtension>
            <ns3:cad>61</ns3:cad>
          </ns3:TrackPointExtension>
        </extensions>
      </trkpt>
      <trkpt lat="23.3938218466937541961669921875" lon="113.24641074053943157196044921875">
        <ele>8</ele>
        <time>2024-07-14T21:18:02.000Z</time>
        <extensions>
          <ns3:TrackPointExtension>
            <ns3:cad>57</ns3:cad>
          </ns3:TrackPointExtension>
        </extensions>
      </trkpt>
      <trkpt lat="23.393819667398929595947265625" lon="113.24646086432039737701416015625">
        <ele>7.400000095367431640625</ele>
        <time>2024-07-14T21:18:05.000Z</time>
        <extensions>
          <ns3:TrackPointExtension>
            <ns3:cad>57</ns3:cad>
          </ns3:TrackPointExtension>
        </extensions>
      </trkpt>
      <trkpt lat="23.39396215975284576416015625" lon="113.24652515351772308349609375">
        <ele>6.80000019073486328125</ele>
        <time>2024-07-14T21:18:19.000Z</time>
        <extensions>
          <ns3:TrackPointExtension>
            <ns3:cad>57</ns3:cad>
          </ns3:TrackPointExtension>
        </extensions>
      </trkpt>
      <trkpt lat="23.39408713392913341522216796875" lon="113.24659799225628376007080078125">
        <ele>6</ele>
        <time>2024-07-14T21:18:31.000Z</time>
        <extensions>
          <ns3:TrackPointExtension>
            <ns3:cad>55</ns3:cad>
          </ns3:TrackPointExtension>
        </extensions>
      </trkpt>
      <trkpt lat="23.39419542811810970306396484375" lon="113.24663436971604824066162109375">
        <ele>6</ele>
        <time>2024-07-14T21:18:41.000Z</time>
        <extensions>
          <ns3:TrackPointExtension>
            <ns3:cad>56</ns3:cad>
          </ns3:TrackPointExtension>
        </extensions>
      </trkpt>
      <trkpt lat="23.394219987094402313232421875" lon="113.24666001833975315093994140625">
        <ele>5.80000019073486328125</ele>
        <time>2024-07-14T21:18:45.000Z</time>
        <extensions>
          <ns3:TrackPointExtension>
            <ns3:cad>56</ns3:cad>
          </ns3:TrackPointExtension>
        </extensions>
      </trkpt>
      <trkpt lat="23.39417866431176662445068359375" lon="113.24674651958048343658447265625">
        <ele>5.400000095367431640625</ele>
        <time>2024-07-14T21:18:53.000Z</time>
        <extensions>
          <ns3:TrackPointExtension>
            <ns3:cad>56</ns3:cad>
          </ns3:TrackPointExtension>
        </extensions>
      </trkpt>
      <trkpt lat="23.39415335096418857574462890625" lon="113.2467873394489288330078125">
        <ele>5.400000095367431640625</ele>
        <time>2024-07-14T21:18:58.000Z</time>
        <extensions>
          <ns3:TrackPointExtension>
            <ns3:cad>55</ns3:cad>
          </ns3:TrackPointExtension>
        </extensions>
      </trkpt>
      <trkpt lat="23.39407875202596187591552734375" lon="113.2469206117093563079833984375">
        <ele>5.19999980926513671875</ele>
        <time>2024-07-14T21:19:08.000Z</time>
        <extensions>
          <ns3:TrackPointExtension>
            <ns3:cad>57</ns3:cad>
          </ns3:TrackPointExtension>
        </extensions>
      </trkpt>
      <trkpt lat="23.39406936429440975189208984375" lon="113.2469350285828113555908203125">
        <ele>5.19999980926513671875</ele>
        <time>2024-07-14T21:19:10.000Z</time>
        <extensions>
          <ns3:TrackPointExtension>
            <ns3:cad>56</ns3:cad>
          </ns3:TrackPointExtension>
        </extensions>
      </trkpt>
      <trkpt lat="23.3940632455050945281982421875" lon="113.246948607265949249267578125">
        <ele>5.19999980926513671875</ele>
        <time>2024-07-14T21:19:12.000Z</time>
        <extensions>
          <ns3:TrackPointExtension>
            <ns3:cad>57</ns3:cad>
          </ns3:TrackPointExtension>
        </extensions>
      </trkpt>
      <trkpt lat="23.39405243285000324249267578125" lon="113.24697467498481273651123046875">
        <ele>5.400000095367431640625</ele>
        <time>2024-07-14T21:19:14.000Z</time>
        <extensions>
          <ns3:TrackPointExtension>
            <ns3:cad>55</ns3:cad>
          </ns3:TrackPointExtension>
        </extensions>
      </trkpt>
      <trkpt lat="23.39400247670710086822509765625" lon="113.2471281476318836212158203125">
        <ele>5.400000095367431640625</ele>
        <time>2024-07-14T21:19:26.000Z</time>
        <extensions>
          <ns3:TrackPointExtension>
            <ns3:cad>57</ns3:cad>
          </ns3:TrackPointExtension>
        </extensions>
      </trkpt>
      <trkpt lat="23.39399510063230991363525390625" lon="113.2471462525427341461181640625">
        <ele>5.599999904632568359375</ele>
        <time>2024-07-14T21:19:30.000Z</time>
        <extensions>
          <ns3:TrackPointExtension>
            <ns3:cad>55</ns3:cad>
          </ns3:TrackPointExtension>
        </extensions>
      </trkpt>
      <trkpt lat="23.39399124495685100555419921875" lon="113.24715740047395229339599609375">
        <ele>5.599999904632568359375</ele>
        <time>2024-07-14T21:19:31.000Z</time>
        <extensions>
          <ns3:TrackPointExtension>
            <ns3:cad>56</ns3:cad>
          </ns3:TrackPointExtension>
        </extensions>
      </trkpt>
      <trkpt lat="23.39392402209341526031494140625" lon="113.24734465219080448150634765625">
        <ele>6.400000095367431640625</ele>
        <time>2024-07-14T21:19:44.000Z</time>
        <extensions>
          <ns3:TrackPointExtension>
            <ns3:cad>59</ns3:cad>
          </ns3:TrackPointExtension>
        </extensions>
      </trkpt>
      <trkpt lat="23.39391983114182949066162109375" lon="113.2473544590175151824951171875">
        <ele>6.599999904632568359375</ele>
        <time>2024-07-14T21:19:46.000Z</time>
        <extensions>
          <ns3:TrackPointExtension>
            <ns3:cad>59</ns3:cad>
          </ns3:TrackPointExtension>
        </extensions>
      </trkpt>
      <trkpt lat="23.39384707622230052947998046875" lon="113.24754196219146251678466796875">
        <ele>6.19999980926513671875</ele>
        <time>2024-07-14T21:20:00.000Z</time>
        <extensions>
          <ns3:TrackPointExtension>
            <ns3:cad>59</ns3:cad>
          </ns3:TrackPointExtension>
        </extensions>
      </trkpt>
      <trkpt lat="23.393826372921466827392578125" lon="113.24760046787559986114501953125">
        <ele>5.599999904632568359375</ele>
        <time>2024-07-14T21:20:06.000Z</time>
        <extensions>
          <ns3:TrackPointExtension>
            <ns3:cad>57</ns3:cad>
          </ns3:TrackPointExtension>
        </extensions>
      </trkpt>
      <trkpt lat="23.3938282169401645660400390625" lon="113.2476206682622432708740234375">
        <ele>5.400000095367431640625</ele>
        <time>2024-07-14T21:20:08.000Z</time>
        <extensions>
          <ns3:TrackPointExtension>
            <ns3:cad>58</ns3:cad>
          </ns3:TrackPointExtension>
        </extensions>
      </trkpt>
      <trkpt lat="23.39381991885602474212646484375" lon="113.24764430522918701171875">
        <ele>5.19999980926513671875</ele>
        <time>2024-07-14T21:20:11.000Z</time>
        <extensions>
          <ns3:TrackPointExtension>
            <ns3:cad>58</ns3:cad>
          </ns3:TrackPointExtension>
        </extensions>
      </trkpt>
      <trkpt lat="23.393743224442005157470703125" lon="113.24782459996640682220458984375">
        <ele>3.400000095367431640625</ele>
        <time>2024-07-14T21:20:24.000Z</time>
        <extensions>
          <ns3:TrackPointExtension>
            <ns3:cad>57</ns3:cad>
          </ns3:TrackPointExtension>
        </extensions>
      </trkpt>
      <trkpt lat="23.3937482535839080810546875" lon="113.24783264659345149993896484375">
        <ele>3.400000095367431640625</ele>
        <time>2024-07-14T21:20:26.000Z</time>
        <extensions>
          <ns3:TrackPointExtension>
            <ns3:cad>53</ns3:cad>
          </ns3:TrackPointExtension>
        </extensions>
      </trkpt>
      <trkpt lat="23.39374355971813201904296875" lon="113.2478945888578891754150390625">
        <ele>3.2000000476837158203125</ele>
        <time>2024-07-14T21:20:36.000Z</time>
        <extensions>
          <ns3:TrackPointExtension>
            <ns3:cad>61</ns3:cad>
          </ns3:TrackPointExtension>
        </extensions>
      </trkpt>
      <trkpt lat="23.39373576454818248748779296875" lon="113.2479116879403591156005859375">
        <ele>3</ele>
        <time>2024-07-14T21:20:38.000Z</time>
        <extensions>
          <ns3:TrackPointExtension>
            <ns3:cad>61</ns3:cad>
          </ns3:TrackPointExtension>
        </extensions>
      </trkpt>
      <trkpt lat="23.3937125466763973236083984375" lon="113.24796424247324466705322265625">
        <ele>2.400000095367431640625</ele>
        <time>2024-07-14T21:20:47.000Z</time>
        <extensions>
          <ns3:TrackPointExtension>
            <ns3:cad>52</ns3:cad>
          </ns3:TrackPointExtension>
        </extensions>
      </trkpt>
      <trkpt lat="23.39372553862631320953369140625" lon="113.2479847781360149383544921875">
        <ele>2.599999904632568359375</ele>
        <time>2024-07-14T21:20:49.000Z</time>
        <extensions>
          <ns3:TrackPointExtension>
            <ns3:cad>52</ns3:cad>
          </ns3:TrackPointExtension>
        </extensions>
      </trkpt>
      <trkpt lat="23.3939016424119472503662109375" lon="113.24804504401981830596923828125">
        <ele>4.599999904632568359375</ele>
        <time>2024-07-14T21:21:00.000Z</time>
        <extensions>
          <ns3:TrackPointExtension>
            <ns3:cad>80</ns3:cad>
          </ns3:TrackPointExtension>
        </extensions>
      </trkpt>
      <trkpt lat="23.394078500568866729736328125" lon="113.2480793260037899017333984375">
        <ele>3.599999904632568359375</ele>
        <time>2024-07-14T21:21:08.000Z</time>
        <extensions>
          <ns3:TrackPointExtension>
            <ns3:cad>82</ns3:cad>
          </ns3:TrackPointExtension>
        </extensions>
      </trkpt>
      <trkpt lat="23.3942632377147674560546875" lon="113.24811779893934726715087890625">
        <ele>1.2000000476837158203125</ele>
        <time>2024-07-14T21:21:16.000Z</time>
        <extensions>
          <ns3:TrackPointExtension>
            <ns3:cad>84</ns3:cad>
          </ns3:TrackPointExtension>
        </extensions>
      </trkpt>
      <trkpt lat="23.39445577003061771392822265625" lon="113.24814445339143276214599609375">
        <ele>-0.800000011920928955078125</ele>
        <time>2024-07-14T21:21:24.000Z</time>
        <extensions>
          <ns3:TrackPointExtension>
            <ns3:cad>83</ns3:cad>
          </ns3:TrackPointExtension>
        </extensions>
      </trkpt>
      <trkpt lat="23.3946516551077365875244140625" lon="113.248188458383083343505859375">
        <ele>-1.39999997615814208984375</ele>
        <time>2024-07-14T21:21:32.000Z</time>
        <extensions>
          <ns3:TrackPointExtension>
            <ns3:cad>84</ns3:cad>
          </ns3:TrackPointExtension>
        </extensions>
      </trkpt>
      <trkpt lat="23.394840918481349945068359375" lon="113.2482362352311611175537109375">
        <ele>0.800000011920928955078125</ele>
        <time>2024-07-14T21:21:40.000Z</time>
        <extensions>
          <ns3:TrackPointExtension>
            <ns3:cad>82</ns3:cad>
          </ns3:TrackPointExtension>
        </extensions>
      </trkpt>
      <trkpt lat="23.39501014910638332366943359375" lon="113.24832550249993801116943359375">
        <ele>4.19999980926513671875</ele>
        <time>2024-07-14T21:21:51.000Z</time>
        <extensions>
          <ns3:TrackPointExtension>
            <ns3:cad>82</ns3:cad>
          </ns3:TrackPointExtension>
        </extensions>
      </trkpt>
      <trkpt lat="23.39503261260688304901123046875" lon="113.24832491576671600341796875">
        <ele>4.599999904632568359375</ele>
        <time>2024-07-14T21:21:53.000Z</time>
        <extensions>
          <ns3:TrackPointExtension>
            <ns3:cad>82</ns3:cad>
          </ns3:TrackPointExtension>
        </extensions>
      </trkpt>
      <trkpt lat="23.39511190541088581085205078125" lon="113.24838132597506046295166015625">
        <ele>6.400000095367431640625</ele>
        <time>2024-07-14T21:22:00.000Z</time>
        <extensions>
          <ns3:TrackPointExtension>
            <ns3:cad>57</ns3:cad>
          </ns3:TrackPointExtension>
        </extensions>
      </trkpt>
      <trkpt lat="23.39511441998183727264404296875" lon="113.2484112493693828582763671875">
        <ele>6.599999904632568359375</ele>
        <time>2024-07-14T21:22:02.000Z</time>
        <extensions>
          <ns3:TrackPointExtension>
            <ns3:cad>57</ns3:cad>
          </ns3:TrackPointExtension>
        </extensions>
      </trkpt>
      <trkpt lat="23.395078964531421661376953125" lon="113.24855013750493526458740234375">
        <ele>7</ele>
        <time>2024-07-14T21:22:15.000Z</time>
        <extensions>
          <ns3:TrackPointExtension>
            <ns3:cad>57</ns3:cad>
          </ns3:TrackPointExtension>
        </extensions>
      </trkpt>
      <trkpt lat="23.39508332312107086181640625" lon="113.24857545085251331329345703125">
        <ele>7</ele>
        <time>2024-07-14T21:22:17.000Z</time>
        <extensions>
          <ns3:TrackPointExtension>
            <ns3:cad>57</ns3:cad>
          </ns3:TrackPointExtension>
        </extensions>
      </trkpt>
      <trkpt lat="23.39507661759853363037109375" lon="113.2486228086054325103759765625">
        <ele>6.599999904632568359375</ele>
        <time>2024-07-14T21:22:21.000Z</time>
        <extensions>
          <ns3:TrackPointExtension>
            <ns3:cad>57</ns3:cad>
          </ns3:TrackPointExtension>
        </extensions>
      </trkpt>
      <trkpt lat="23.3950191177427768707275390625" lon="113.2488172687590122222900390625">
        <ele>6.599999904632568359375</ele>
        <time>2024-07-14T21:22:31.000Z</time>
        <extensions>
          <ns3:TrackPointExtension>
            <ns3:cad>58</ns3:cad>
          </ns3:TrackPointExtension>
        </extensions>
      </trkpt>
      <trkpt lat="23.3949981629848480224609375" lon="113.24888239614665508270263671875">
        <ele>5.599999904632568359375</ele>
        <time>2024-07-14T21:22:41.000Z</time>
        <extensions>
          <ns3:TrackPointExtension>
            <ns3:cad>57</ns3:cad>
          </ns3:TrackPointExtension>
        </extensions>
      </trkpt>
      <trkpt lat="23.39502699673175811767578125" lon="113.24891139753162860870361328125">
        <ele>5.400000095367431640625</ele>
        <time>2024-07-14T21:22:46.000Z</time>
        <extensions>
          <ns3:TrackPointExtension>
            <ns3:cad>57</ns3:cad>
          </ns3:TrackPointExtension>
        </extensions>
      </trkpt>
      <trkpt lat="23.39501358568668365478515625" lon="113.2491116411983966827392578125">
        <ele>4</ele>
        <time>2024-07-14T21:22:55.000Z</time>
        <extensions>
          <ns3:TrackPointExtension>
            <ns3:cad>58</ns3:cad>
          </ns3:TrackPointExtension>
        </extensions>
      </trkpt>
      <trkpt lat="23.39506446383893489837646484375" lon="113.2492496073246002197265625">
        <ele>4.19999980926513671875</ele>
        <time>2024-07-14T21:23:09.000Z</time>
        <extensions>
          <ns3:TrackPointExtension>
            <ns3:cad>57</ns3:cad>
          </ns3:TrackPointExtension>
        </extensions>
      </trkpt>
      <trkpt lat="23.3951287530362606048583984375" lon="113.24943845160305500030517578125">
        <ele>5.599999904632568359375</ele>
        <time>2024-07-14T21:23:21.000Z</time>
        <extensions>
          <ns3:TrackPointExtension>
            <ns3:cad>55</ns3:cad>
          </ns3:TrackPointExtension>
        </extensions>
      </trkpt>
      <trkpt lat="23.3952041901648044586181640625" lon="113.249470889568328857421875">
        <ele>5.80000019073486328125</ele>
        <time>2024-07-14T21:23:30.000Z</time>
        <extensions>
          <ns3:TrackPointExtension>
            <ns3:cad>57</ns3:cad>
          </ns3:TrackPointExtension>
        </extensions>
      </trkpt>
      <trkpt lat="23.3952243067324161529541015625" lon="113.2496692053973674774169921875">
        <ele>9</ele>
        <time>2024-07-14T21:23:40.000Z</time>
        <extensions>
          <ns3:TrackPointExtension>
            <ns3:cad>56</ns3:cad>
          </ns3:TrackPointExtension>
        </extensions>
      </trkpt>
      <trkpt lat="23.3952368795871734619140625" lon="113.24971153400838375091552734375">
        <ele>8.80000019073486328125</ele>
        <time>2024-07-14T21:23:46.000Z</time>
        <extensions>
          <ns3:TrackPointExtension>
            <ns3:cad>57</ns3:cad>
          </ns3:TrackPointExtension>
        </extensions>
      </trkpt>
      <trkpt lat="23.39520377106964588165283203125" lon="113.24990901164710521697998046875">
        <ele>8.19999980926513671875</ele>
        <time>2024-07-14T21:24:02.000Z</time>
        <extensions>
          <ns3:TrackPointExtension>
            <ns3:cad>55</ns3:cad>
          </ns3:TrackPointExtension>
        </extensions>
      </trkpt>
      <trkpt lat="23.39520226232707500457763671875" lon="113.24990968219935894012451171875">
        <ele>8.19999980926513671875</ele>
        <time>2024-07-14T21:24:04.000Z</time>
        <extensions>
          <ns3:TrackPointExtension>
            <ns3:cad>55</ns3:cad>
          </ns3:TrackPointExtension>
        </extensions>
      </trkpt>
      <trkpt lat="23.39518952183425426483154296875" lon="113.2499163039028644561767578125">
        <ele>8.19999980926513671875</ele>
        <time>2024-07-14T21:24:06.000Z</time>
        <extensions>
          <ns3:TrackPointExtension>
            <ns3:cad>57</ns3:cad>
          </ns3:TrackPointExtension>
        </extensions>
      </trkpt>
      <trkpt lat="23.395102433860301971435546875" lon="113.25005787424743175506591796875">
        <ele>7.599999904632568359375</ele>
        <time>2024-07-14T21:24:23.000Z</time>
        <extensions>
          <ns3:TrackPointExtension>
            <ns3:cad>56</ns3:cad>
          </ns3:TrackPointExtension>
        </extensions>
      </trkpt>
      <trkpt lat="23.39509095065295696258544921875" lon="113.25010749511420726776123046875">
        <ele>7.80000019073486328125</ele>
        <time>2024-07-14T21:24:28.000Z</time>
        <extensions>
          <ns3:TrackPointExtension>
            <ns3:cad>56</ns3:cad>
          </ns3:TrackPointExtension>
        </extensions>
      </trkpt>
      <trkpt lat="23.39499891735613346099853515625" lon="113.25028158724308013916015625">
        <ele>10.6000003814697265625</ele>
        <time>2024-07-14T21:24:45.000Z</time>
        <extensions>
          <ns3:TrackPointExtension>
            <ns3:cad>55</ns3:cad>
          </ns3:TrackPointExtension>
        </extensions>
      </trkpt>
      <trkpt lat="23.394931443035602569580078125" lon="113.25039717368781566619873046875">
        <ele>13.80000019073486328125</ele>
        <time>2024-07-14T21:25:02.000Z</time>
        <extensions>
          <ns3:TrackPointExtension>
            <ns3:cad>49</ns3:cad>
          </ns3:TrackPointExtension>
        </extensions>
      </trkpt>
      <trkpt lat="23.39483815245330333709716796875" lon="113.25046557001769542694091796875">
        <ele>13.80000019073486328125</ele>
        <time>2024-07-14T21:25:14.000Z</time>
        <extensions>
          <ns3:TrackPointExtension>
            <ns3:cad>57</ns3:cad>
          </ns3:TrackPointExtension>
        </extensions>
      </trkpt>
      <trkpt lat="23.39482474140822887420654296875" lon="113.25047294609248638153076171875">
        <ele>13.80000019073486328125</ele>
        <time>2024-07-14T21:25:16.000Z</time>
        <extensions>
          <ns3:TrackPointExtension>
            <ns3:cad>57</ns3:cad>
          </ns3:TrackPointExtension>
        </extensions>
      </trkpt>
      <trkpt lat="23.3948031999170780181884765625" lon="113.25048811733722686767578125">
        <ele>13.6000003814697265625</ele>
        <time>2024-07-14T21:25:18.000Z</time>
        <extensions>
          <ns3:TrackPointExtension>
            <ns3:cad>56</ns3:cad>
          </ns3:TrackPointExtension>
        </extensions>
      </trkpt>
      <trkpt lat="23.39478115551173686981201171875" lon="113.250493817031383514404296875">
        <ele>13.3999996185302734375</ele>
        <time>2024-07-14T21:25:21.000Z</time>
        <extensions>
          <ns3:TrackPointExtension>
            <ns3:cad>59</ns3:cad>
          </ns3:TrackPointExtension>
        </extensions>
      </trkpt>
      <trkpt lat="23.3947445265948772430419921875" lon="113.250484764575958251953125">
        <ele>12.80000019073486328125</ele>
        <time>2024-07-14T21:25:26.000Z</time>
        <extensions>
          <ns3:TrackPointExtension>
            <ns3:cad>57</ns3:cad>
          </ns3:TrackPointExtension>
        </extensions>
      </trkpt>
      <trkpt lat="23.3947150222957134246826171875" lon="113.25048434548079967498779296875">
        <ele>12.19999980926513671875</ele>
        <time>2024-07-14T21:25:29.000Z</time>
        <extensions>
          <ns3:TrackPointExtension>
            <ns3:cad>57</ns3:cad>
          </ns3:TrackPointExtension>
        </extensions>
      </trkpt>
      <trkpt lat="23.39463195763528347015380859375" lon="113.25053505599498748779296875">
        <ele>12</ele>
        <time>2024-07-14T21:25:33.000Z</time>
        <extensions>
          <ns3:TrackPointExtension>
            <ns3:cad>57</ns3:cad>
          </ns3:TrackPointExtension>
        </extensions>
      </trkpt>
      <trkpt lat="23.39444353245198726654052734375" lon="113.25060990639030933380126953125">
        <ele>8.3999996185302734375</ele>
        <time>2024-07-14T21:25:47.000Z</time>
        <extensions>
          <ns3:TrackPointExtension>
            <ns3:cad>57</ns3:cad>
          </ns3:TrackPointExtension>
        </extensions>
      </trkpt>
      <trkpt lat="23.39428938925266265869140625" lon="113.250627927482128143310546875">
        <ele>5.599999904632568359375</ele>
        <time>2024-07-14T21:26:03.000Z</time>
        <extensions>
          <ns3:TrackPointExtension>
            <ns3:cad>57</ns3:cad>
          </ns3:TrackPointExtension>
        </extensions>
      </trkpt>
      <trkpt lat="23.3941772393882274627685546875" lon="113.25060990639030933380126953125">
        <ele>3.7999999523162841796875</ele>
        <time>2024-07-14T21:26:14.000Z</time>
        <extensions>
          <ns3:TrackPointExtension>
            <ns3:cad>58</ns3:cad>
          </ns3:TrackPointExtension>
        </extensions>
      </trkpt>
      <trkpt lat="23.39399032294750213623046875" lon="113.25060890056192874908447265625">
        <ele>3.599999904632568359375</ele>
        <time>2024-07-14T21:26:31.000Z</time>
        <extensions>
          <ns3:TrackPointExtension>
            <ns3:cad>58</ns3:cad>
          </ns3:TrackPointExtension>
        </extensions>
      </trkpt>
      <trkpt lat="23.393798209726810455322265625" lon="113.2506508938968181610107421875">
        <ele>4.19999980926513671875</ele>
        <time>2024-07-14T21:26:45.000Z</time>
        <extensions>
          <ns3:TrackPointExtension>
            <ns3:cad>57</ns3:cad>
          </ns3:TrackPointExtension>
        </extensions>
      </trkpt>
      <trkpt lat="23.39378521777689456939697265625" lon="113.2506555877625942230224609375">
        <ele>4.19999980926513671875</ele>
        <time>2024-07-14T21:26:47.000Z</time>
        <extensions>
          <ns3:TrackPointExtension>
            <ns3:cad>57</ns3:cad>
          </ns3:TrackPointExtension>
        </extensions>
      </trkpt>
      <trkpt lat="23.3937477506697177886962890625" lon="113.2506643049418926239013671875">
        <ele>4.400000095367431640625</ele>
        <time>2024-07-14T21:26:52.000Z</time>
        <extensions>
          <ns3:TrackPointExtension>
            <ns3:cad>55</ns3:cad>
          </ns3:TrackPointExtension>
        </extensions>
      </trkpt>
      <trkpt lat="23.39373559691011905670166015625" lon="113.25066623277962207794189453125">
        <ele>4.400000095367431640625</ele>
        <time>2024-07-14T21:26:54.000Z</time>
        <extensions>
          <ns3:TrackPointExtension>
            <ns3:cad>55</ns3:cad>
          </ns3:TrackPointExtension>
        </extensions>
      </trkpt>
      <trkpt lat="23.39355018921196460723876953125" lon="113.25067193247377872467041015625">
        <ele>4.80000019073486328125</ele>
        <time>2024-07-14T21:27:09.000Z</time>
        <extensions>
          <ns3:TrackPointExtension>
            <ns3:cad>55</ns3:cad>
          </ns3:TrackPointExtension>
        </extensions>
      </trkpt>
      <trkpt lat="23.39350442402064800262451171875" lon="113.25067184865474700927734375">
        <ele>4.80000019073486328125</ele>
        <time>2024-07-14T21:27:14.000Z</time>
        <extensions>
          <ns3:TrackPointExtension>
            <ns3:cad>58</ns3:cad>
          </ns3:TrackPointExtension>
        </extensions>
      </trkpt>
      <trkpt lat="23.39348606765270233154296875" lon="113.25067461468279361724853515625">
        <ele>4.599999904632568359375</ele>
        <time>2024-07-14T21:27:16.000Z</time>
        <extensions>
          <ns3:TrackPointExtension>
            <ns3:cad>57</ns3:cad>
          </ns3:TrackPointExtension>
        </extensions>
      </trkpt>
      <trkpt lat="23.393456898629665374755859375" lon="113.25067712925374507904052734375">
        <ele>4.599999904632568359375</ele>
        <time>2024-07-14T21:27:19.000Z</time>
        <extensions>
          <ns3:TrackPointExtension>
            <ns3:cad>57</ns3:cad>
          </ns3:TrackPointExtension>
        </extensions>
      </trkpt>
      <trkpt lat="23.39343636296689510345458984375" lon="113.25068199075758457183837890625">
        <ele>4.400000095367431640625</ele>
        <time>2024-07-14T21:27:21.000Z</time>
        <extensions>
          <ns3:TrackPointExtension>
            <ns3:cad>57</ns3:cad>
          </ns3:TrackPointExtension>
        </extensions>
      </trkpt>
      <trkpt lat="23.393415994942188262939453125" lon="113.25068886391818523406982421875">
        <ele>4.400000095367431640625</ele>
        <time>2024-07-14T21:27:23.000Z</time>
        <extensions>
          <ns3:TrackPointExtension>
            <ns3:cad>57</ns3:cad>
          </ns3:TrackPointExtension>
        </extensions>
      </trkpt>
      <trkpt lat="23.39323125779628753662109375" lon="113.2507444359362125396728515625">
        <ele>3.2000000476837158203125</ele>
        <time>2024-07-14T21:27:42.000Z</time>
        <extensions>
          <ns3:TrackPointExtension>
            <ns3:cad>53</ns3:cad>
          </ns3:TrackPointExtension>
        </extensions>
      </trkpt>
      <trkpt lat="23.3930520527064800262451171875" lon="113.25078106485307216644287109375">
        <ele>1.2000000476837158203125</ele>
        <time>2024-07-14T21:28:00.000Z</time>
        <extensions>
          <ns3:TrackPointExtension>
            <ns3:cad>56</ns3:cad>
          </ns3:TrackPointExtension>
        </extensions>
      </trkpt>
      <trkpt lat="23.39295440353453159332275390625" lon="113.25078123249113559722900390625">
        <ele>1</ele>
        <time>2024-07-14T21:28:11.000Z</time>
        <extensions>
          <ns3:TrackPointExtension>
            <ns3:cad>56</ns3:cad>
          </ns3:TrackPointExtension>
        </extensions>
      </trkpt>
      <trkpt lat="23.39293177239596843719482421875" lon="113.25078642927110195159912109375">
        <ele>1</ele>
        <time>2024-07-14T21:28:13.000Z</time>
        <extensions>
          <ns3:TrackPointExtension>
            <ns3:cad>56</ns3:cad>
          </ns3:TrackPointExtension>
        </extensions>
      </trkpt>
      <trkpt lat="23.39289505966007709503173828125" lon="113.25078609399497509002685546875">
        <ele>1</ele>
        <time>2024-07-14T21:28:16.000Z</time>
        <extensions>
          <ns3:TrackPointExtension>
            <ns3:cad>56</ns3:cad>
          </ns3:TrackPointExtension>
        </extensions>
      </trkpt>
      <trkpt lat="23.39270956814289093017578125" lon="113.25079112313687801361083984375">
        <ele>1.2000000476837158203125</ele>
        <time>2024-07-14T21:28:32.000Z</time>
        <extensions>
          <ns3:TrackPointExtension>
            <ns3:cad>57</ns3:cad>
          </ns3:TrackPointExtension>
        </extensions>
      </trkpt>
      <trkpt lat="23.39252315461635589599609375" lon="113.250804953277111053466796875">
        <ele>3.2000000476837158203125</ele>
        <time>2024-07-14T21:28:49.000Z</time>
        <extensions>
          <ns3:TrackPointExtension>
            <ns3:cad>54</ns3:cad>
          </ns3:TrackPointExtension>
        </extensions>
      </trkpt>
      <trkpt lat="23.3923623897135257720947265625" lon="113.2507025264203548431396484375">
        <ele>5.19999980926513671875</ele>
        <time>2024-07-14T21:29:06.000Z</time>
        <extensions>
          <ns3:TrackPointExtension>
            <ns3:cad>51</ns3:cad>
          </ns3:TrackPointExtension>
        </extensions>
      </trkpt>
      <trkpt lat="23.39217714965343475341796875" lon="113.25067453086376190185546875">
        <ele>7</ele>
        <time>2024-07-14T21:29:25.000Z</time>
        <extensions>
          <ns3:TrackPointExtension>
            <ns3:cad>57</ns3:cad>
          </ns3:TrackPointExtension>
        </extensions>
      </trkpt>
      <trkpt lat="23.39199316687881946563720703125" lon="113.25069255195558071136474609375">
        <ele>8.3999996185302734375</ele>
        <time>2024-07-14T21:29:41.000Z</time>
        <extensions>
          <ns3:TrackPointExtension>
            <ns3:cad>55</ns3:cad>
          </ns3:TrackPointExtension>
        </extensions>
      </trkpt>
      <trkpt lat="23.39180767536163330078125" lon="113.2506968267261981964111328125">
        <ele>9.6000003814697265625</ele>
        <time>2024-07-14T21:29:56.000Z</time>
        <extensions>
          <ns3:TrackPointExtension>
            <ns3:cad>61</ns3:cad>
          </ns3:TrackPointExtension>
        </extensions>
      </trkpt>
      <trkpt lat="23.3916267938911914825439453125" lon="113.2507112435996532440185546875">
        <ele>11</ele>
        <time>2024-07-14T21:30:14.000Z</time>
        <extensions>
          <ns3:TrackPointExtension>
            <ns3:cad>0</ns3:cad>
          </ns3:TrackPointExtension>
        </extensions>
      </trkpt>
      <trkpt lat="23.39143820106983184814453125" lon="113.25071803294122219085693359375">
        <ele>11.19999980926513671875</ele>
        <time>2024-07-14T21:30:33.000Z</time>
        <extensions>
          <ns3:TrackPointExtension>
            <ns3:cad>0</ns3:cad>
          </ns3:TrackPointExtension>
        </extensions>
      </trkpt>
      <trkpt lat="23.3912452496588230133056640625" lon="113.2507404126226902008056640625">
        <ele>10.19999980926513671875</ele>
        <time>2024-07-14T21:30:49.000Z</time>
        <extensions>
          <ns3:TrackPointExtension>
            <ns3:cad>58</ns3:cad>
          </ns3:TrackPointExtension>
        </extensions>
      </trkpt>
      <trkpt lat="23.39104969985783100128173828125" lon="113.25074921362102031707763671875">
        <ele>7.599999904632568359375</ele>
        <time>2024-07-14T21:31:04.000Z</time>
        <extensions>
          <ns3:TrackPointExtension>
            <ns3:cad>60</ns3:cad>
          </ns3:TrackPointExtension>
        </extensions>
      </trkpt>
      <trkpt lat="23.39087334461510181427001953125" lon="113.25079196132719516754150390625">
        <ele>6</ele>
        <time>2024-07-14T21:31:19.000Z</time>
        <extensions>
          <ns3:TrackPointExtension>
            <ns3:cad>61</ns3:cad>
          </ns3:TrackPointExtension>
        </extensions>
      </trkpt>
      <trkpt lat="23.39085054583847522735595703125" lon="113.2508138380944728851318359375">
        <ele>5.80000019073486328125</ele>
        <time>2024-07-14T21:31:23.000Z</time>
        <extensions>
          <ns3:TrackPointExtension>
            <ns3:cad>0</ns3:cad>
          </ns3:TrackPointExtension>
        </extensions>
      </trkpt>
      <trkpt lat="23.39066974818706512451171875" lon="113.250819705426692962646484375">
        <ele>5.400000095367431640625</ele>
        <time>2024-07-14T21:31:53.000Z</time>
        <extensions>
          <ns3:TrackPointExtension>
            <ns3:cad>57</ns3:cad>
          </ns3:TrackPointExtension>
        </extensions>
      </trkpt>
      <trkpt lat="23.390616439282894134521484375" lon="113.25079631991684436798095703125">
        <ele>5.19999980926513671875</ele>
        <time>2024-07-14T21:31:59.000Z</time>
        <extensions>
          <ns3:TrackPointExtension>
            <ns3:cad>61</ns3:cad>
          </ns3:TrackPointExtension>
        </extensions>
      </trkpt>
      <trkpt lat="23.39061073958873748779296875" lon="113.25059616006910800933837890625">
        <ele>4.400000095367431640625</ele>
        <time>2024-07-14T21:32:16.000Z</time>
        <extensions>
          <ns3:TrackPointExtension>
            <ns3:cad>57</ns3:cad>
          </ns3:TrackPointExtension>
        </extensions>
      </trkpt>
      <trkpt lat="23.39059389196336269378662109375" lon="113.250399939715862274169921875">
        <ele>5.19999980926513671875</ele>
        <time>2024-07-14T21:32:31.000Z</time>
        <extensions>
          <ns3:TrackPointExtension>
            <ns3:cad>56</ns3:cad>
          </ns3:TrackPointExtension>
        </extensions>
      </trkpt>
      <trkpt lat="23.39053831994533538818359375" lon="113.25020170770585536956787109375">
        <ele>8</ele>
        <time>2024-07-14T21:32:45.000Z</time>
        <extensions>
          <ns3:TrackPointExtension>
            <ns3:cad>58</ns3:cad>
          </ns3:TrackPointExtension>
        </extensions>
      </trkpt>
      <trkpt lat="23.39050705544650554656982421875" lon="113.24999861419200897216796875">
        <ele>8.80000019073486328125</ele>
        <time>2024-07-14T21:33:01.000Z</time>
        <extensions>
          <ns3:TrackPointExtension>
            <ns3:cad>55</ns3:cad>
          </ns3:TrackPointExtension>
        </extensions>
      </trkpt>
      <trkpt lat="23.3904610387980937957763671875" lon="113.24979535304009914398193359375">
        <ele>8.3999996185302734375</ele>
        <time>2024-07-14T21:33:16.000Z</time>
        <extensions>
          <ns3:TrackPointExtension>
            <ns3:cad>58</ns3:cad>
          </ns3:TrackPointExtension>
        </extensions>
      </trkpt>
      <trkpt lat="23.39039943180978298187255859375" lon="113.24959360063076019287109375">
        <ele>6.80000019073486328125</ele>
        <time>2024-07-14T21:33:32.000Z</time>
        <extensions>
          <ns3:TrackPointExtension>
            <ns3:cad>59</ns3:cad>
          </ns3:TrackPointExtension>
        </extensions>
      </trkpt>
      <trkpt lat="23.39031636714935302734375" lon="113.24941162951290607452392578125">
        <ele>4.19999980926513671875</ele>
        <time>2024-07-14T21:33:48.000Z</time>
        <extensions>
          <ns3:TrackPointExtension>
            <ns3:cad>57</ns3:cad>
          </ns3:TrackPointExtension>
        </extensions>
      </trkpt>
      <trkpt lat="23.390290550887584686279296875" lon="113.249211050570011138916015625">
        <ele>3.2000000476837158203125</ele>
        <time>2024-07-14T21:34:03.000Z</time>
        <extensions>
          <ns3:TrackPointExtension>
            <ns3:cad>57</ns3:cad>
          </ns3:TrackPointExtension>
        </extensions>
      </trkpt>
      <trkpt lat="23.39023531414568424224853515625" lon="113.24901985935866832733154296875">
        <ele>3</ele>
        <time>2024-07-14T21:34:19.000Z</time>
        <extensions>
          <ns3:TrackPointExtension>
            <ns3:cad>56</ns3:cad>
          </ns3:TrackPointExtension>
        </extensions>
      </trkpt>
      <trkpt lat="23.3901780657470226287841796875" lon="113.2488256506621837615966796875">
        <ele>3.7999999523162841796875</ele>
        <time>2024-07-14T21:34:35.000Z</time>
        <extensions>
          <ns3:TrackPointExtension>
            <ns3:cad>57</ns3:cad>
          </ns3:TrackPointExtension>
        </extensions>
      </trkpt>
      <trkpt lat="23.3901452086865901947021484375" lon="113.24863278307020664215087890625">
        <ele>5.19999980926513671875</ele>
        <time>2024-07-14T21:34:51.000Z</time>
        <extensions>
          <ns3:TrackPointExtension>
            <ns3:cad>55</ns3:cad>
          </ns3:TrackPointExtension>
        </extensions>
      </trkpt>
      <trkpt lat="23.3900885470211505889892578125" lon="113.24844050221145153045654296875">
        <ele>8</ele>
        <time>2024-07-14T21:35:06.000Z</time>
        <extensions>
          <ns3:TrackPointExtension>
            <ns3:cad>57</ns3:cad>
          </ns3:TrackPointExtension>
        </extensions>
      </trkpt>
      <trkpt lat="23.38999324478209018707275390625" lon="113.24827185831964015960693359375">
        <ele>11.3999996185302734375</ele>
        <time>2024-07-14T21:35:22.000Z</time>
        <extensions>
          <ns3:TrackPointExtension>
            <ns3:cad>55</ns3:cad>
          </ns3:TrackPointExtension>
        </extensions>
      </trkpt>
      <trkpt lat="23.38990322314202785491943359375" lon="113.248092234134674072265625">
        <ele>13</ele>
        <time>2024-07-14T21:35:38.000Z</time>
        <extensions>
          <ns3:TrackPointExtension>
            <ns3:cad>57</ns3:cad>
          </ns3:TrackPointExtension>
        </extensions>
      </trkpt>
      <trkpt lat="23.389808423817157745361328125" lon="113.247912190854549407958984375">
        <ele>14</ele>
        <time>2024-07-14T21:35:54.000Z</time>
        <extensions>
          <ns3:TrackPointExtension>
            <ns3:cad>57</ns3:cad>
          </ns3:TrackPointExtension>
        </extensions>
      </trkpt>
      <trkpt lat="23.38968764059245586395263671875" lon="113.24775226414203643798828125">
        <ele>15.19999980926513671875</ele>
        <time>2024-07-14T21:36:10.000Z</time>
        <extensions>
          <ns3:TrackPointExtension>
            <ns3:cad>61</ns3:cad>
          </ns3:TrackPointExtension>
        </extensions>
      </trkpt>
      <trkpt lat="23.38958705775439739227294921875" lon="113.2475811056792736053466796875">
        <ele>13</ele>
        <time>2024-07-14T21:36:27.000Z</time>
        <extensions>
          <ns3:TrackPointExtension>
            <ns3:cad>57</ns3:cad>
          </ns3:TrackPointExtension>
        </extensions>
      </trkpt>
      <trkpt lat="23.38946417905390262603759765625" lon="113.24742377735674381256103515625">
        <ele>10.80000019073486328125</ele>
        <time>2024-07-14T21:36:42.000Z</time>
        <extensions>
          <ns3:TrackPointExtension>
            <ns3:cad>59</ns3:cad>
          </ns3:TrackPointExtension>
        </extensions>
      </trkpt>
      <trkpt lat="23.38937968946993350982666015625" lon="113.2472454942762851715087890625">
        <ele>8</ele>
        <time>2024-07-14T21:36:56.000Z</time>
        <extensions>
          <ns3:TrackPointExtension>
            <ns3:cad>56</ns3:cad>
          </ns3:TrackPointExtension>
        </extensions>
      </trkpt>
      <trkpt lat="23.38926619850099086761474609375" lon="113.24708900414407253265380859375">
        <ele>6.599999904632568359375</ele>
        <time>2024-07-14T21:37:12.000Z</time>
        <extensions>
          <ns3:TrackPointExtension>
            <ns3:cad>56</ns3:cad>
          </ns3:TrackPointExtension>
        </extensions>
      </trkpt>
      <trkpt lat="23.38920216076076030731201171875" lon="113.24699747376143932342529296875">
        <ele>6.400000095367431640625</ele>
        <time>2024-07-14T21:37:22.000Z</time>
        <extensions>
          <ns3:TrackPointExtension>
            <ns3:cad>61</ns3:cad>
          </ns3:TrackPointExtension>
        </extensions>
      </trkpt>
      <trkpt lat="23.3891993947327136993408203125" lon="113.24698054231703281402587890625">
        <ele>6.400000095367431640625</ele>
        <time>2024-07-14T21:37:53.000Z</time>
        <extensions>
          <ns3:TrackPointExtension>
            <ns3:cad>61</ns3:cad>
          </ns3:TrackPointExtension>
        </extensions>
      </trkpt>
      <trkpt lat="23.3890999853610992431640625" lon="113.2468096353113651275634765625">
        <ele>5.80000019073486328125</ele>
        <time>2024-07-14T21:38:10.000Z</time>
        <extensions>
          <ns3:TrackPointExtension>
            <ns3:cad>57</ns3:cad>
          </ns3:TrackPointExtension>
        </extensions>
      </trkpt>
      <trkpt lat="23.38900133036077022552490234375" lon="113.2466406561434268951416015625">
        <ele>5.599999904632568359375</ele>
        <time>2024-07-14T21:38:26.000Z</time>
        <extensions>
          <ns3:TrackPointExtension>
            <ns3:cad>61</ns3:cad>
          </ns3:TrackPointExtension>
        </extensions>
      </trkpt>
      <trkpt lat="23.38898121379315853118896484375" lon="113.24658659286797046661376953125">
        <ele>5.599999904632568359375</ele>
        <time>2024-07-14T21:38:32.000Z</time>
        <extensions>
          <ns3:TrackPointExtension>
            <ns3:cad>61</ns3:cad>
          </ns3:TrackPointExtension>
        </extensions>
      </trkpt>
      <trkpt lat="23.38887459598481655120849609375" lon="113.2464279234409332275390625">
        <ele>6</ele>
        <time>2024-07-14T21:39:05.000Z</time>
        <extensions>
          <ns3:TrackPointExtension>
            <ns3:cad>61</ns3:cad>
          </ns3:TrackPointExtension>
        </extensions>
      </trkpt>
      <trkpt lat="23.38879614137113094329833984375" lon="113.24627847410738468170166015625">
        <ele>6</ele>
        <time>2024-07-14T21:39:21.000Z</time>
        <extensions>
          <ns3:TrackPointExtension>
            <ns3:cad>0</ns3:cad>
          </ns3:TrackPointExtension>
        </extensions>
      </trkpt>
      <trkpt lat="23.38875976391136646270751953125" lon="113.2461918890476226806640625">
        <ele>5.80000019073486328125</ele>
        <time>2024-07-14T21:39:58.000Z</time>
        <extensions>
          <ns3:TrackPointExtension>
            <ns3:cad>0</ns3:cad>
          </ns3:TrackPointExtension>
        </extensions>
      </trkpt>
      <trkpt lat="23.38876378722488880157470703125" lon="113.24628752656280994415283203125">
        <ele>6.400000095367431640625</ele>
        <time>2024-07-14T21:40:16.000Z</time>
        <extensions>
          <ns3:TrackPointExtension>
            <ns3:cad>57</ns3:cad>
          </ns3:TrackPointExtension>
        </extensions>
      </trkpt>
      <trkpt lat="23.388777785003185272216796875" lon="113.24632524512708187103271484375">
        <ele>6.599999904632568359375</ele>
        <time>2024-07-14T21:40:19.000Z</time>
        <extensions>
          <ns3:TrackPointExtension>
            <ns3:cad>56</ns3:cad>
          </ns3:TrackPointExtension>
        </extensions>
      </trkpt>
      <trkpt lat="23.38886252604424953460693359375" lon="113.24650746770203113555908203125">
        <ele>6</ele>
        <time>2024-07-14T21:40:36.000Z</time>
        <extensions>
          <ns3:TrackPointExtension>
            <ns3:cad>57</ns3:cad>
          </ns3:TrackPointExtension>
        </extensions>
      </trkpt>
      <trkpt lat="23.38895422406494617462158203125" lon="113.24667803943157196044921875">
        <ele>6</ele>
        <time>2024-07-14T21:40:50.000Z</time>
        <extensions>
          <ns3:TrackPointExtension>
            <ns3:cad>56</ns3:cad>
          </ns3:TrackPointExtension>
        </extensions>
      </trkpt>
      <trkpt lat="23.3889885060489177703857421875" lon="113.246707879006862640380859375">
        <ele>6</ele>
        <time>2024-07-14T21:40:54.000Z</time>
        <extensions>
          <ns3:TrackPointExtension>
            <ns3:cad>57</ns3:cad>
          </ns3:TrackPointExtension>
        </extensions>
      </trkpt>
      <trkpt lat="23.38902153074741363525390625" lon="113.2467516325414180755615234375">
        <ele>6</ele>
        <time>2024-07-14T21:40:59.000Z</time>
        <extensions>
          <ns3:TrackPointExtension>
            <ns3:cad>57</ns3:cad>
          </ns3:TrackPointExtension>
        </extensions>
      </trkpt>
      <trkpt lat="23.389118425548076629638671875" lon="113.246930502355098724365234375">
        <ele>6.599999904632568359375</ele>
        <time>2024-07-14T21:41:16.000Z</time>
        <extensions>
          <ns3:TrackPointExtension>
            <ns3:cad>59</ns3:cad>
          </ns3:TrackPointExtension>
        </extensions>
      </trkpt>
      <trkpt lat="23.38914566673338413238525390625" lon="113.24697132222354412078857421875">
        <ele>6.599999904632568359375</ele>
        <time>2024-07-14T21:41:20.000Z</time>
        <extensions>
          <ns3:TrackPointExtension>
            <ns3:cad>57</ns3:cad>
          </ns3:TrackPointExtension>
        </extensions>
      </trkpt>
      <trkpt lat="23.389169387519359588623046875" lon="113.2470208592712879180908203125">
        <ele>6.80000019073486328125</ele>
        <time>2024-07-14T21:41:26.000Z</time>
        <extensions>
          <ns3:TrackPointExtension>
            <ns3:cad>61</ns3:cad>
          </ns3:TrackPointExtension>
        </extensions>
      </trkpt>
      <trkpt lat="23.3891812898218631744384765625" lon="113.24703955091536045074462890625">
        <ele>6.80000019073486328125</ele>
        <time>2024-07-14T21:41:28.000Z</time>
        <extensions>
          <ns3:TrackPointExtension>
            <ns3:cad>59</ns3:cad>
          </ns3:TrackPointExtension>
        </extensions>
      </trkpt>
      <trkpt lat="23.389280699193477630615234375" lon="113.24720350094139575958251953125">
        <ele>7.80000019073486328125</ele>
        <time>2024-07-14T21:41:45.000Z</time>
        <extensions>
          <ns3:TrackPointExtension>
            <ns3:cad>58</ns3:cad>
          </ns3:TrackPointExtension>
        </extensions>
      </trkpt>
      <trkpt lat="23.3893767558038234710693359375" lon="113.24737901799380779266357421875">
        <ele>10.3999996185302734375</ele>
        <time>2024-07-14T21:42:03.000Z</time>
        <extensions>
          <ns3:TrackPointExtension>
            <ns3:cad>55</ns3:cad>
          </ns3:TrackPointExtension>
        </extensions>
      </trkpt>
      <trkpt lat="23.38949787430465221405029296875" lon="113.247540704905986785888671875">
        <ele>12.3999996185302734375</ele>
        <time>2024-07-14T21:42:22.000Z</time>
        <extensions>
          <ns3:TrackPointExtension>
            <ns3:cad>57</ns3:cad>
          </ns3:TrackPointExtension>
        </extensions>
      </trkpt>
      <trkpt lat="23.38961069472134113311767578125" lon="113.24770490638911724090576171875">
        <ele>14.6000003814697265625</ele>
        <time>2024-07-14T21:42:41.000Z</time>
        <extensions>
          <ns3:TrackPointExtension>
            <ns3:cad>55</ns3:cad>
          </ns3:TrackPointExtension>
        </extensions>
      </trkpt>
      <trkpt lat="23.3897070027887821197509765625" lon="113.2478749752044677734375">
        <ele>15.3999996185302734375</ele>
        <time>2024-07-14T21:42:58.000Z</time>
        <extensions>
          <ns3:TrackPointExtension>
            <ns3:cad>57</ns3:cad>
          </ns3:TrackPointExtension>
        </extensions>
      </trkpt>
      <trkpt lat="23.389814794063568115234375" lon="113.24803833849728107452392578125">
        <ele>14.19999980926513671875</ele>
        <time>2024-07-14T21:43:14.000Z</time>
        <extensions>
          <ns3:TrackPointExtension>
            <ns3:cad>57</ns3:cad>
          </ns3:TrackPointExtension>
        </extensions>
      </trkpt>
      <trkpt lat="23.38991328142583370208740234375" lon="113.24820287525653839111328125">
        <ele>12.80000019073486328125</ele>
        <time>2024-07-14T21:43:29.000Z</time>
        <extensions>
          <ns3:TrackPointExtension>
            <ns3:cad>61</ns3:cad>
          </ns3:TrackPointExtension>
        </extensions>
      </trkpt>
      <trkpt lat="23.3900146186351776123046875" lon="113.24837059713900089263916015625">
        <ele>10</ele>
        <time>2024-07-14T21:43:46.000Z</time>
        <extensions>
          <ns3:TrackPointExtension>
            <ns3:cad>61</ns3:cad>
          </ns3:TrackPointExtension>
        </extensions>
      </trkpt>
      <trkpt lat="23.39007371105253696441650390625" lon="113.2485549151897430419921875">
        <ele>7</ele>
        <time>2024-07-14T21:44:02.000Z</time>
        <extensions>
          <ns3:TrackPointExtension>
            <ns3:cad>61</ns3:cad>
          </ns3:TrackPointExtension>
        </extensions>
      </trkpt>
      <trkpt lat="23.39011847041547298431396484375" lon="113.248749040067195892333984375">
        <ele>5.19999980926513671875</ele>
        <time>2024-07-14T21:44:19.000Z</time>
        <extensions>
          <ns3:TrackPointExtension>
            <ns3:cad>61</ns3:cad>
          </ns3:TrackPointExtension>
        </extensions>
      </trkpt>
      <trkpt lat="23.39017798192799091339111328125" lon="113.24894878081977367401123046875">
        <ele>4.19999980926513671875</ele>
        <time>2024-07-14T21:44:33.000Z</time>
        <extensions>
          <ns3:TrackPointExtension>
            <ns3:cad>60</ns3:cad>
          </ns3:TrackPointExtension>
        </extensions>
      </trkpt>
      <trkpt lat="23.39019759558141231536865234375" lon="113.249154388904571533203125">
        <ele>4</ele>
        <time>2024-07-14T21:44:49.000Z</time>
        <extensions>
          <ns3:TrackPointExtension>
            <ns3:cad>58</ns3:cad>
          </ns3:TrackPointExtension>
        </extensions>
      </trkpt>
      <trkpt lat="23.39020262472331523895263671875" lon="113.24918850325047969818115234375">
        <ele>4</ele>
        <time>2024-07-14T21:44:52.000Z</time>
        <extensions>
          <ns3:TrackPointExtension>
            <ns3:cad>58</ns3:cad>
          </ns3:TrackPointExtension>
        </extensions>
      </trkpt>
      <trkpt lat="23.3902206458151340484619140625" lon="113.2492343522608280181884765625">
        <ele>3.7999999523162841796875</ele>
        <time>2024-07-14T21:44:56.000Z</time>
        <extensions>
          <ns3:TrackPointExtension>
            <ns3:cad>55</ns3:cad>
          </ns3:TrackPointExtension>
        </extensions>
      </trkpt>
      <trkpt lat="23.39028661139309406280517578125" lon="113.249420933425426483154296875">
        <ele>4.599999904632568359375</ele>
        <time>2024-07-14T21:45:11.000Z</time>
        <extensions>
          <ns3:TrackPointExtension>
            <ns3:cad>59</ns3:cad>
          </ns3:TrackPointExtension>
        </extensions>
      </trkpt>
      <trkpt lat="23.390303291380405426025390625" lon="113.249622099101543426513671875">
        <ele>8</ele>
        <time>2024-07-14T21:45:25.000Z</time>
        <extensions>
          <ns3:TrackPointExtension>
            <ns3:cad>56</ns3:cad>
          </ns3:TrackPointExtension>
        </extensions>
      </trkpt>
      <trkpt lat="23.39035165496170520782470703125" lon="113.2498254440724849700927734375">
        <ele>9.3999996185302734375</ele>
        <time>2024-07-14T21:45:41.000Z</time>
        <extensions>
          <ns3:TrackPointExtension>
            <ns3:cad>61</ns3:cad>
          </ns3:TrackPointExtension>
        </extensions>
      </trkpt>
      <trkpt lat="23.3903631381690502166748046875" lon="113.2498663477599620819091796875">
        <ele>9.80000019073486328125</ele>
        <time>2024-07-14T21:45:44.000Z</time>
        <extensions>
          <ns3:TrackPointExtension>
            <ns3:cad>57</ns3:cad>
          </ns3:TrackPointExtension>
        </extensions>
      </trkpt>
      <trkpt lat="23.3904154412448406219482421875" lon="113.25005804188549518585205078125">
        <ele>9.3999996185302734375</ele>
        <time>2024-07-14T21:45:58.000Z</time>
        <extensions>
          <ns3:TrackPointExtension>
            <ns3:cad>58</ns3:cad>
          </ns3:TrackPointExtension>
        </extensions>
      </trkpt>
      <trkpt lat="23.3904657326638698577880859375" lon="113.25025551952421665191650390625">
        <ele>7.400000095367431640625</ele>
        <time>2024-07-14T21:46:16.000Z</time>
        <extensions>
          <ns3:TrackPointExtension>
            <ns3:cad>61</ns3:cad>
          </ns3:TrackPointExtension>
        </extensions>
      </trkpt>
      <trkpt lat="23.39052666909992694854736328125" lon="113.25045266188681125640869140625">
        <ele>4.400000095367431640625</ele>
        <time>2024-07-14T21:46:32.000Z</time>
        <extensions>
          <ns3:TrackPointExtension>
            <ns3:cad>58</ns3:cad>
          </ns3:TrackPointExtension>
        </extensions>
      </trkpt>
      <trkpt lat="23.39054276235401630401611328125" lon="113.250657431781291961669921875">
        <ele>4.599999904632568359375</ele>
        <time>2024-07-14T21:46:45.000Z</time>
        <extensions>
          <ns3:TrackPointExtension>
            <ns3:cad>59</ns3:cad>
          </ns3:TrackPointExtension>
        </extensions>
      </trkpt>
      <trkpt lat="23.3906474523246288299560546875" lon="113.25080730020999908447265625">
        <ele>5.400000095367431640625</ele>
        <time>2024-07-14T21:46:57.000Z</time>
        <extensions>
          <ns3:TrackPointExtension>
            <ns3:cad>61</ns3:cad>
          </ns3:TrackPointExtension>
        </extensions>
      </trkpt>
      <trkpt lat="23.3908244781196117401123046875" lon="113.2508420012891292572021484375">
        <ele>5.80000019073486328125</ele>
        <time>2024-07-14T21:47:14.000Z</time>
        <extensions>
          <ns3:TrackPointExtension>
            <ns3:cad>61</ns3:cad>
          </ns3:TrackPointExtension>
        </extensions>
      </trkpt>
      <trkpt lat="23.3910102210938930511474609375" lon="113.250817358493804931640625">
        <ele>7.599999904632568359375</ele>
        <time>2024-07-14T21:47:33.000Z</time>
        <extensions>
          <ns3:TrackPointExtension>
            <ns3:cad>55</ns3:cad>
          </ns3:TrackPointExtension>
        </extensions>
      </trkpt>
      <trkpt lat="23.39119319804012775421142578125" lon="113.25080931186676025390625">
        <ele>10</ele>
        <time>2024-07-14T21:47:48.000Z</time>
        <extensions>
          <ns3:TrackPointExtension>
            <ns3:cad>0</ns3:cad>
          </ns3:TrackPointExtension>
        </extensions>
      </trkpt>
      <trkpt lat="23.39137273840606212615966796875" lon="113.25079347006976604461669921875">
        <ele>12.19999980926513671875</ele>
        <time>2024-07-14T21:48:05.000Z</time>
        <extensions>
          <ns3:TrackPointExtension>
            <ns3:cad>0</ns3:cad>
          </ns3:TrackPointExtension>
        </extensions>
      </trkpt>
      <trkpt lat="23.3915533684194087982177734375" lon="113.25079699046909809112548828125">
        <ele>12.3999996185302734375</ele>
        <time>2024-07-14T21:48:23.000Z</time>
        <extensions>
          <ns3:TrackPointExtension>
            <ns3:cad>57</ns3:cad>
          </ns3:TrackPointExtension>
        </extensions>
      </trkpt>
      <trkpt lat="23.39174254797399044036865234375" lon="113.25078860856592655181884765625">
        <ele>11.3999996185302734375</ele>
        <time>2024-07-14T21:48:40.000Z</time>
        <extensions>
          <ns3:TrackPointExtension>
            <ns3:cad>57</ns3:cad>
          </ns3:TrackPointExtension>
        </extensions>
      </trkpt>
      <trkpt lat="23.39192527346312999725341796875" lon="113.25075927190482616424560546875">
        <ele>9.80000019073486328125</ele>
        <time>2024-07-14T21:48:56.000Z</time>
        <extensions>
          <ns3:TrackPointExtension>
            <ns3:cad>57</ns3:cad>
          </ns3:TrackPointExtension>
        </extensions>
      </trkpt>
      <trkpt lat="23.3919764868915081024169921875" lon="113.25075826607644557952880859375">
        <ele>9.19999980926513671875</ele>
        <time>2024-07-14T21:49:02.000Z</time>
        <extensions>
          <ns3:TrackPointExtension>
            <ns3:cad>57</ns3:cad>
          </ns3:TrackPointExtension>
        </extensions>
      </trkpt>
      <trkpt lat="23.39199417270720005035400390625" lon="113.25076765380799770355224609375">
        <ele>9.19999980926513671875</ele>
        <time>2024-07-14T21:49:04.000Z</time>
        <extensions>
          <ns3:TrackPointExtension>
            <ns3:cad>57</ns3:cad>
          </ns3:TrackPointExtension>
        </extensions>
      </trkpt>
      <trkpt lat="23.3920240961015224456787109375" lon="113.25076849199831485748291015625">
        <ele>8.80000019073486328125</ele>
        <time>2024-07-14T21:49:08.000Z</time>
        <extensions>
          <ns3:TrackPointExtension>
            <ns3:cad>57</ns3:cad>
          </ns3:TrackPointExtension>
        </extensions>
      </trkpt>
      <trkpt lat="23.39204706251621246337890625" lon="113.25076798908412456512451171875">
        <ele>8.6000003814697265625</ele>
        <time>2024-07-14T21:49:10.000Z</time>
        <extensions>
          <ns3:TrackPointExtension>
            <ns3:cad>57</ns3:cad>
          </ns3:TrackPointExtension>
        </extensions>
      </trkpt>
      <trkpt lat="23.39223054237663745880126953125" lon="113.25078089721500873565673828125">
        <ele>6.400000095367431640625</ele>
        <time>2024-07-14T21:49:28.000Z</time>
        <extensions>
          <ns3:TrackPointExtension>
            <ns3:cad>56</ns3:cad>
          </ns3:TrackPointExtension>
        </extensions>
      </trkpt>
      <trkpt lat="23.39225468225777149200439453125" lon="113.250815011560916900634765625">
        <ele>5.599999904632568359375</ele>
        <time>2024-07-14T21:49:34.000Z</time>
        <extensions>
          <ns3:TrackPointExtension>
            <ns3:cad>53</ns3:cad>
          </ns3:TrackPointExtension>
        </extensions>
      </trkpt>
      <trkpt lat="23.39227379299700260162353515625" lon="113.25083202682435512542724609375">
        <ele>5.19999980926513671875</ele>
        <time>2024-07-14T21:49:37.000Z</time>
        <extensions>
          <ns3:TrackPointExtension>
            <ns3:cad>53</ns3:cad>
          </ns3:TrackPointExtension>
        </extensions>
      </trkpt>
      <trkpt lat="23.39238661341369152069091796875" lon="113.2508849166333675384521484375">
        <ele>3.2000000476837158203125</ele>
        <time>2024-07-14T21:49:48.000Z</time>
        <extensions>
          <ns3:TrackPointExtension>
            <ns3:cad>57</ns3:cad>
          </ns3:TrackPointExtension>
        </extensions>
      </trkpt>
      <trkpt lat="23.39256875216960906982421875" lon="113.250886090099811553955078125">
        <ele>1.7999999523162841796875</ele>
        <time>2024-07-14T21:50:02.000Z</time>
        <extensions>
          <ns3:TrackPointExtension>
            <ns3:cad>54</ns3:cad>
          </ns3:TrackPointExtension>
        </extensions>
      </trkpt>
      <trkpt lat="23.39260772801935672760009765625" lon="113.25088432990014553070068359375">
        <ele>1.60000002384185791015625</ele>
        <time>2024-07-14T21:50:06.000Z</time>
        <extensions>
          <ns3:TrackPointExtension>
            <ns3:cad>59</ns3:cad>
          </ns3:TrackPointExtension>
        </extensions>
      </trkpt>
      <trkpt lat="23.39265592396259307861328125" lon="113.25087712146341800689697265625">
        <ele>1.2000000476837158203125</ele>
        <time>2024-07-14T21:50:10.000Z</time>
        <extensions>
          <ns3:TrackPointExtension>
            <ns3:cad>57</ns3:cad>
          </ns3:TrackPointExtension>
        </extensions>
      </trkpt>
      <trkpt lat="23.3928143419325351715087890625" lon="113.2508698292076587677001953125">
        <ele>1</ele>
        <time>2024-07-14T21:50:25.000Z</time>
        <extensions>
          <ns3:TrackPointExtension>
            <ns3:cad>54</ns3:cad>
          </ns3:TrackPointExtension>
        </extensions>
      </trkpt>
      <trkpt lat="23.3929953910410404205322265625" lon="113.25086756609380245208740234375">
        <ele>1.39999997615814208984375</ele>
        <time>2024-07-14T21:50:40.000Z</time>
        <extensions>
          <ns3:TrackPointExtension>
            <ns3:cad>61</ns3:cad>
          </ns3:TrackPointExtension>
        </extensions>
      </trkpt>
      <trkpt lat="23.39317903853952884674072265625" lon="113.250841163098812103271484375">
        <ele>2.599999904632568359375</ele>
        <time>2024-07-14T21:50:58.000Z</time>
        <extensions>
          <ns3:TrackPointExtension>
            <ns3:cad>61</ns3:cad>
          </ns3:TrackPointExtension>
        </extensions>
      </trkpt>
      <trkpt lat="23.393360674381256103515625" lon="113.25077385641634464263916015625">
        <ele>4.19999980926513671875</ele>
        <time>2024-07-14T21:51:13.000Z</time>
        <extensions>
          <ns3:TrackPointExtension>
            <ns3:cad>61</ns3:cad>
          </ns3:TrackPointExtension>
        </extensions>
      </trkpt>
      <trkpt lat="23.393546082079410552978515625" lon="113.25072792358696460723876953125">
        <ele>4.80000019073486328125</ele>
        <time>2024-07-14T21:51:31.000Z</time>
        <extensions>
          <ns3:TrackPointExtension>
            <ns3:cad>61</ns3:cad>
          </ns3:TrackPointExtension>
        </extensions>
      </trkpt>
      <trkpt lat="23.3937373571097850799560546875" lon="113.2507313601672649383544921875">
        <ele>4.400000095367431640625</ele>
        <time>2024-07-14T21:51:46.000Z</time>
        <extensions>
          <ns3:TrackPointExtension>
            <ns3:cad>61</ns3:cad>
          </ns3:TrackPointExtension>
        </extensions>
      </trkpt>
      <trkpt lat="23.39391656219959259033203125" lon="113.2506991736590862274169921875">
        <ele>3.7999999523162841796875</ele>
        <time>2024-07-14T21:52:01.000Z</time>
        <extensions>
          <ns3:TrackPointExtension>
            <ns3:cad>61</ns3:cad>
          </ns3:TrackPointExtension>
        </extensions>
      </trkpt>
      <trkpt lat="23.39410389773547649383544921875" lon="113.2506926357746124267578125">
        <ele>3.2000000476837158203125</ele>
        <time>2024-07-14T21:52:17.000Z</time>
        <extensions>
          <ns3:TrackPointExtension>
            <ns3:cad>61</ns3:cad>
          </ns3:TrackPointExtension>
        </extensions>
      </trkpt>
      <trkpt lat="23.3942905627191066741943359375" lon="113.25067310594022274017333984375">
        <ele>5.80000019073486328125</ele>
        <time>2024-07-14T21:52:33.000Z</time>
        <extensions>
          <ns3:TrackPointExtension>
            <ns3:cad>61</ns3:cad>
          </ns3:TrackPointExtension>
        </extensions>
      </trkpt>
      <trkpt lat="23.39447043836116790771484375" lon="113.2506532408297061920166015625">
        <ele>9.6000003814697265625</ele>
        <time>2024-07-14T21:52:47.000Z</time>
        <extensions>
          <ns3:TrackPointExtension>
            <ns3:cad>61</ns3:cad>
          </ns3:TrackPointExtension>
        </extensions>
      </trkpt>
      <trkpt lat="23.39465777389705181121826171875" lon="113.25064376927912235260009765625">
        <ele>14.80000019073486328125</ele>
        <time>2024-07-14T21:53:01.000Z</time>
        <extensions>
          <ns3:TrackPointExtension>
            <ns3:cad>57</ns3:cad>
          </ns3:TrackPointExtension>
        </extensions>
      </trkpt>
      <trkpt lat="23.3947755396366119384765625" lon="113.2506260834634304046630859375">
        <ele>16.799999237060546875</ele>
        <time>2024-07-14T21:53:12.000Z</time>
        <extensions>
          <ns3:TrackPointExtension>
            <ns3:cad>59</ns3:cad>
          </ns3:TrackPointExtension>
        </extensions>
      </trkpt>
      <trkpt lat="23.39492197148501873016357421875" lon="113.2504861056804656982421875">
        <ele>15.19999980926513671875</ele>
        <time>2024-07-14T21:53:27.000Z</time>
        <extensions>
          <ns3:TrackPointExtension>
            <ns3:cad>61</ns3:cad>
          </ns3:TrackPointExtension>
        </extensions>
      </trkpt>
      <trkpt lat="23.39497645385563373565673828125" lon="113.25041527859866619110107421875">
        <ele>14.19999980926513671875</ele>
        <time>2024-07-14T21:53:33.000Z</time>
        <extensions>
          <ns3:TrackPointExtension>
            <ns3:cad>54</ns3:cad>
          </ns3:TrackPointExtension>
        </extensions>
      </trkpt>
      <trkpt lat="23.3951005898416042327880859375" lon="113.25025417841970920562744140625">
        <ele>8.80000019073486328125</ele>
        <time>2024-07-14T21:53:45.000Z</time>
        <extensions>
          <ns3:TrackPointExtension>
            <ns3:cad>57</ns3:cad>
          </ns3:TrackPointExtension>
        </extensions>
      </trkpt>
      <trkpt lat="23.39517376385629177093505859375" lon="113.2501302100718021392822265625">
        <ele>6.80000019073486328125</ele>
        <time>2024-07-14T21:53:57.000Z</time>
        <extensions>
          <ns3:TrackPointExtension>
            <ns3:cad>59</ns3:cad>
          </ns3:TrackPointExtension>
        </extensions>
      </trkpt>
      <trkpt lat="23.39527484960854053497314453125" lon="113.2499555312097072601318359375">
        <ele>8</ele>
        <time>2024-07-14T21:54:12.000Z</time>
        <extensions>
          <ns3:TrackPointExtension>
            <ns3:cad>59</ns3:cad>
          </ns3:TrackPointExtension>
        </extensions>
      </trkpt>
      <trkpt lat="23.39529798366129398345947265625" lon="113.24989040382206439971923828125">
        <ele>8.6000003814697265625</ele>
        <time>2024-07-14T21:54:19.000Z</time>
        <extensions>
          <ns3:TrackPointExtension>
            <ns3:cad>60</ns3:cad>
          </ns3:TrackPointExtension>
        </extensions>
      </trkpt>
      <trkpt lat="23.39530653320252895355224609375" lon="113.24986760504543781280517578125">
        <ele>8.80000019073486328125</ele>
        <time>2024-07-14T21:54:22.000Z</time>
        <extensions>
          <ns3:TrackPointExtension>
            <ns3:cad>59</ns3:cad>
          </ns3:TrackPointExtension>
        </extensions>
      </trkpt>
      <trkpt lat="23.3953131549060344696044921875" lon="113.2498469017446041107177734375">
        <ele>9</ele>
        <time>2024-07-14T21:54:24.000Z</time>
        <extensions>
          <ns3:TrackPointExtension>
            <ns3:cad>59</ns3:cad>
          </ns3:TrackPointExtension>
        </extensions>
      </trkpt>
      <trkpt lat="23.3953255601227283477783203125" lon="113.24980004690587520599365234375">
        <ele>9.19999980926513671875</ele>
        <time>2024-07-14T21:54:28.000Z</time>
        <extensions>
          <ns3:TrackPointExtension>
            <ns3:cad>57</ns3:cad>
          </ns3:TrackPointExtension>
        </extensions>
      </trkpt>
      <trkpt lat="23.395361937582492828369140625" lon="113.24963559396564960479736328125">
        <ele>10.80000019073486328125</ele>
        <time>2024-07-14T21:54:39.000Z</time>
        <extensions>
          <ns3:TrackPointExtension>
            <ns3:cad>57</ns3:cad>
          </ns3:TrackPointExtension>
        </extensions>
      </trkpt>
      <trkpt lat="23.39534861035645008087158203125" lon="113.24953727424144744873046875">
        <ele>8.80000019073486328125</ele>
        <time>2024-07-14T21:54:47.000Z</time>
        <extensions>
          <ns3:TrackPointExtension>
            <ns3:cad>57</ns3:cad>
          </ns3:TrackPointExtension>
        </extensions>
      </trkpt>
      <trkpt lat="23.39526914991438388824462890625" lon="113.24936049990355968475341796875">
        <ele>4</ele>
        <time>2024-07-14T21:55:02.000Z</time>
        <extensions>
          <ns3:TrackPointExtension>
            <ns3:cad>57</ns3:cad>
          </ns3:TrackPointExtension>
        </extensions>
      </trkpt>
      <trkpt lat="23.39519170112907886505126953125" lon="113.2491825520992279052734375">
        <ele>4</ele>
        <time>2024-07-14T21:55:19.000Z</time>
        <extensions>
          <ns3:TrackPointExtension>
            <ns3:cad>56</ns3:cad>
          </ns3:TrackPointExtension>
        </extensions>
      </trkpt>
      <trkpt lat="23.3951129950582981109619140625" lon="113.24900259263813495635986328125">
        <ele>4.599999904632568359375</ele>
        <time>2024-07-14T21:55:35.000Z</time>
        <extensions>
          <ns3:TrackPointExtension>
            <ns3:cad>56</ns3:cad>
          </ns3:TrackPointExtension>
        </extensions>
      </trkpt>
      <trkpt lat="23.395112492144107818603515625" lon="113.24880662374198436737060546875">
        <ele>7.400000095367431640625</ele>
        <time>2024-07-14T21:55:50.000Z</time>
        <extensions>
          <ns3:TrackPointExtension>
            <ns3:cad>57</ns3:cad>
          </ns3:TrackPointExtension>
        </extensions>
      </trkpt>
      <trkpt lat="23.39514107443392276763916015625" lon="113.24873101897537708282470703125">
        <ele>7.599999904632568359375</ele>
        <time>2024-07-14T21:55:59.000Z</time>
        <extensions>
          <ns3:TrackPointExtension>
            <ns3:cad>0</ns3:cad>
          </ns3:TrackPointExtension>
        </extensions>
      </trkpt>
      <trkpt lat="23.3951220475137233734130859375" lon="113.24853370897471904754638671875">
        <ele>7.599999904632568359375</ele>
        <time>2024-07-14T21:56:26.000Z</time>
        <extensions>
          <ns3:TrackPointExtension>
            <ns3:cad>55</ns3:cad>
          </ns3:TrackPointExtension>
        </extensions>
      </trkpt>
      <trkpt lat="23.395144678652286529541015625" lon="113.2483626343309879302978515625">
        <ele>7.19999980926513671875</ele>
        <time>2024-07-14T21:56:39.000Z</time>
        <extensions>
          <ns3:TrackPointExtension>
            <ns3:cad>57</ns3:cad>
          </ns3:TrackPointExtension>
        </extensions>
      </trkpt>
      <trkpt lat="23.39512028731405735015869140625" lon="113.24832365848124027252197265625">
        <ele>6.400000095367431640625</ele>
        <time>2024-07-14T21:56:43.000Z</time>
        <extensions>
          <ns3:TrackPointExtension>
            <ns3:cad>57</ns3:cad>
          </ns3:TrackPointExtension>
        </extensions>
      </trkpt>
      <trkpt lat="23.39494049549102783203125" lon="113.2482598721981048583984375">
        <ele>2.400000095367431640625</ele>
        <time>2024-07-14T21:57:01.000Z</time>
        <extensions>
          <ns3:TrackPointExtension>
            <ns3:cad>53</ns3:cad>
          </ns3:TrackPointExtension>
        </extensions>
      </trkpt>
      <trkpt lat="23.3947676606476306915283203125" lon="113.24820421636104583740234375">
        <ele>-0.4000000059604644775390625</ele>
        <time>2024-07-14T21:57:17.000Z</time>
        <extensions>
          <ns3:TrackPointExtension>
            <ns3:cad>53</ns3:cad>
          </ns3:TrackPointExtension>
        </extensions>
      </trkpt>
      <trkpt lat="23.39458753354847431182861328125" lon="113.24815233238041400909423828125">
        <ele>-0.800000011920928955078125</ele>
        <time>2024-07-14T21:57:33.000Z</time>
        <extensions>
          <ns3:TrackPointExtension>
            <ns3:cad>57</ns3:cad>
          </ns3:TrackPointExtension>
        </extensions>
      </trkpt>
      <trkpt lat="23.39440313167870044708251953125" lon="113.2481038011610507965087890625">
        <ele>-0.20000000298023223876953125</ele>
        <time>2024-07-14T21:57:49.000Z</time>
        <extensions>
          <ns3:TrackPointExtension>
            <ns3:cad>59</ns3:cad>
          </ns3:TrackPointExtension>
        </extensions>
      </trkpt>
      <trkpt lat="23.3942268602550029754638671875" lon="113.2480632327497005462646484375">
        <ele>2.2000000476837158203125</ele>
        <time>2024-07-14T21:58:05.000Z</time>
        <extensions>
          <ns3:TrackPointExtension>
            <ns3:cad>57</ns3:cad>
          </ns3:TrackPointExtension>
        </extensions>
      </trkpt>
      <trkpt lat="23.3940468169748783111572265625" lon="113.2480172999203205108642578125">
        <ele>4</ele>
        <time>2024-07-14T21:58:20.000Z</time>
        <extensions>
          <ns3:TrackPointExtension>
            <ns3:cad>56</ns3:cad>
          </ns3:TrackPointExtension>
        </extensions>
      </trkpt>
      <trkpt lat="23.39397582225501537322998046875" lon="113.2480337284505367279052734375">
        <ele>4.19999980926513671875</ele>
        <time>2024-07-14T21:58:26.000Z</time>
        <extensions>
          <ns3:TrackPointExtension>
            <ns3:cad>58</ns3:cad>
          </ns3:TrackPointExtension>
        </extensions>
      </trkpt>
      <trkpt lat="23.393912203609943389892578125" lon="113.24802140705287456512451171875">
        <ele>4.599999904632568359375</ele>
        <time>2024-07-14T21:58:34.000Z</time>
        <extensions>
          <ns3:TrackPointExtension>
            <ns3:cad>0</ns3:cad>
          </ns3:TrackPointExtension>
        </extensions>
      </trkpt>
      <trkpt lat="23.39388764463365077972412109375" lon="113.24801889248192310333251953125">
        <ele>4.599999904632568359375</ele>
        <time>2024-07-14T21:58:38.000Z</time>
        <extensions>
          <ns3:TrackPointExtension>
            <ns3:cad>0</ns3:cad>
          </ns3:TrackPointExtension>
        </extensions>
      </trkpt>
      <trkpt lat="23.39384087361395359039306640625" lon="113.2479871250689029693603515625">
        <ele>4.599999904632568359375</ele>
        <time>2024-07-14T21:59:21.000Z</time>
        <extensions>
          <ns3:TrackPointExtension>
            <ns3:cad>61</ns3:cad>
          </ns3:TrackPointExtension>
        </extensions>
      </trkpt>
      <trkpt lat="23.3937829546630382537841796875" lon="113.24790908955037593841552734375">
        <ele>3.7999999523162841796875</ele>
        <time>2024-07-14T21:59:33.000Z</time>
        <extensions>
          <ns3:TrackPointExtension>
            <ns3:cad>61</ns3:cad>
          </ns3:TrackPointExtension>
        </extensions>
      </trkpt>
      <trkpt lat="23.393878675997257232666015625" lon="113.2477423734962940216064453125">
        <ele>5</ele>
        <time>2024-07-14T21:59:50.000Z</time>
        <extensions>
          <ns3:TrackPointExtension>
            <ns3:cad>57</ns3:cad>
          </ns3:TrackPointExtension>
        </extensions>
      </trkpt>
      <trkpt lat="23.3939247764647006988525390625" lon="113.24754900299012660980224609375">
        <ele>6.599999904632568359375</ele>
        <time>2024-07-14T22:00:07.000Z</time>
        <extensions>
          <ns3:TrackPointExtension>
            <ns3:cad>60</ns3:cad>
          </ns3:TrackPointExtension>
        </extensions>
      </trkpt>
      <trkpt lat="23.39401219971477985382080078125" lon="113.2473725639283657073974609375">
        <ele>6.19999980926513671875</ele>
        <time>2024-07-14T22:00:21.000Z</time>
        <extensions>
          <ns3:TrackPointExtension>
            <ns3:cad>57</ns3:cad>
          </ns3:TrackPointExtension>
        </extensions>
      </trkpt>
      <trkpt lat="23.3940608985722064971923828125" lon="113.2471844740211963653564453125">
        <ele>5.400000095367431640625</ele>
        <time>2024-07-14T22:00:37.000Z</time>
        <extensions>
          <ns3:TrackPointExtension>
            <ns3:cad>56</ns3:cad>
          </ns3:TrackPointExtension>
        </extensions>
      </trkpt>
      <trkpt lat="23.3941225893795490264892578125" lon="113.24698783457279205322265625">
        <ele>5</ele>
        <time>2024-07-14T22:00:52.000Z</time>
        <extensions>
          <ns3:TrackPointExtension>
            <ns3:cad>53</ns3:cad>
          </ns3:TrackPointExtension>
        </extensions>
      </trkpt>
      <trkpt lat="23.39418184943497180938720703125" lon="113.24680217541754245758056640625">
        <ele>5.19999980926513671875</ele>
        <time>2024-07-14T22:01:07.000Z</time>
        <extensions>
          <ns3:TrackPointExtension>
            <ns3:cad>60</ns3:cad>
          </ns3:TrackPointExtension>
        </extensions>
      </trkpt>
      <trkpt lat="23.39425879530608654022216796875" lon="113.246622383594512939453125">
        <ele>6.19999980926513671875</ele>
        <time>2024-07-14T22:01:20.000Z</time>
        <extensions>
          <ns3:TrackPointExtension>
            <ns3:cad>57</ns3:cad>
          </ns3:TrackPointExtension>
        </extensions>
      </trkpt>
      <trkpt lat="23.3942553587257862091064453125" lon="113.24661307968199253082275390625">
        <ele>6.400000095367431640625</ele>
        <time>2024-07-14T22:01:21.000Z</time>
        <extensions>
          <ns3:TrackPointExtension>
            <ns3:cad>57</ns3:cad>
          </ns3:TrackPointExtension>
        </extensions>
      </trkpt>
      <trkpt lat="23.39420934207737445831298828125" lon="113.24657787568867206573486328125">
        <ele>6.400000095367431640625</ele>
        <time>2024-07-14T22:01:27.000Z</time>
        <extensions>
          <ns3:TrackPointExtension>
            <ns3:cad>57</ns3:cad>
          </ns3:TrackPointExtension>
        </extensions>
      </trkpt>
      <trkpt lat="23.3940347470343112945556640625" lon="113.246511407196521759033203125">
        <ele>7</ele>
        <time>2024-07-14T22:01:40.000Z</time>
        <extensions>
          <ns3:TrackPointExtension>
            <ns3:cad>57</ns3:cad>
          </ns3:TrackPointExtension>
        </extensions>
      </trkpt>
      <trkpt lat="23.394014127552509307861328125" lon="113.24649573303759098052978515625">
        <ele>7</ele>
        <time>2024-07-14T22:01:41.000Z</time>
        <extensions>
          <ns3:TrackPointExtension>
            <ns3:cad>56</ns3:cad>
          </ns3:TrackPointExtension>
        </extensions>
      </trkpt>
      <trkpt lat="23.393863923847675323486328125" lon="113.24644871056079864501953125">
        <ele>7.599999904632568359375</ele>
        <time>2024-07-14T22:01:55.000Z</time>
        <extensions>
          <ns3:TrackPointExtension>
            <ns3:cad>56</ns3:cad>
          </ns3:TrackPointExtension>
        </extensions>
      </trkpt>
      <trkpt lat="23.39371112175285816192626953125" lon="113.2463291846215724945068359375">
        <ele>8.80000019073486328125</ele>
        <time>2024-07-14T22:02:10.000Z</time>
        <extensions>
          <ns3:TrackPointExtension>
            <ns3:cad>57</ns3:cad>
          </ns3:TrackPointExtension>
        </extensions>
      </trkpt>
      <trkpt lat="23.39365647174417972564697265625" lon="113.24630646966397762298583984375">
        <ele>9</ele>
        <time>2024-07-14T22:02:15.000Z</time>
        <extensions>
          <ns3:TrackPointExtension>
            <ns3:cad>57</ns3:cad>
          </ns3:TrackPointExtension>
        </extensions>
      </trkpt>
      <trkpt lat="23.39364230632781982421875" lon="113.24632893316447734832763671875">
        <ele>8.80000019073486328125</ele>
        <time>2024-07-14T22:02:18.000Z</time>
        <extensions>
          <ns3:TrackPointExtension>
            <ns3:cad>57</ns3:cad>
          </ns3:TrackPointExtension>
        </extensions>
      </trkpt>
      <trkpt lat="23.39363157749176025390625" lon="113.2463707588613033294677734375">
        <ele>8.3999996185302734375</ele>
        <time>2024-07-14T22:02:21.000Z</time>
        <extensions>
          <ns3:TrackPointExtension>
            <ns3:cad>61</ns3:cad>
          </ns3:TrackPointExtension>
        </extensions>
      </trkpt>
      <trkpt lat="23.3935931883752346038818359375" lon="113.2464254088699817657470703125">
        <ele>7.19999980926513671875</ele>
        <time>2024-07-14T22:02:27.000Z</time>
        <extensions>
          <ns3:TrackPointExtension>
            <ns3:cad>0</ns3:cad>
          </ns3:TrackPointExtension>
        </extensions>
      </trkpt>
      <trkpt lat="23.393557481467723846435546875" lon="113.24642783962190151214599609375">
        <ele>7</ele>
        <time>2024-07-14T22:03:09.000Z</time>
        <extensions>
          <ns3:TrackPointExtension>
            <ns3:cad>61</ns3:cad>
          </ns3:TrackPointExtension>
        </extensions>
      </trkpt>
      <trkpt lat="23.39347274042665958404541015625" lon="113.2463313639163970947265625">
        <ele>8.3999996185302734375</ele>
        <time>2024-07-14T22:03:19.000Z</time>
        <extensions>
          <ns3:TrackPointExtension>
            <ns3:cad>56</ns3:cad>
          </ns3:TrackPointExtension>
        </extensions>
      </trkpt>
      <trkpt lat="23.393322117626667022705078125" lon="113.24623337946832180023193359375">
        <ele>9.19999980926513671875</ele>
        <time>2024-07-14T22:03:36.000Z</time>
        <extensions>
          <ns3:TrackPointExtension>
            <ns3:cad>57</ns3:cad>
          </ns3:TrackPointExtension>
        </extensions>
      </trkpt>
      <trkpt lat="23.39315305463969707489013671875" lon="113.246162049472332000732421875">
        <ele>9.80000019073486328125</ele>
        <time>2024-07-14T22:03:51.000Z</time>
        <extensions>
          <ns3:TrackPointExtension>
            <ns3:cad>57</ns3:cad>
          </ns3:TrackPointExtension>
        </extensions>
      </trkpt>
      <trkpt lat="23.392979465425014495849609375" lon="113.24610061012208461761474609375">
        <ele>10</ele>
        <time>2024-07-14T22:04:06.000Z</time>
        <extensions>
          <ns3:TrackPointExtension>
            <ns3:cad>57</ns3:cad>
          </ns3:TrackPointExtension>
        </extensions>
      </trkpt>
      <trkpt lat="23.39287242852151393890380859375" lon="113.2459747977554798126220703125">
        <ele>10.3999996185302734375</ele>
        <time>2024-07-14T22:04:21.000Z</time>
        <extensions>
          <ns3:TrackPointExtension>
            <ns3:cad>56</ns3:cad>
          </ns3:TrackPointExtension>
        </extensions>
      </trkpt>
      <trkpt lat="23.3928683213889598846435546875" lon="113.24592928402125835418701171875">
        <ele>10.3999996185302734375</ele>
        <time>2024-07-14T22:04:25.000Z</time>
        <extensions>
          <ns3:TrackPointExtension>
            <ns3:cad>57</ns3:cad>
          </ns3:TrackPointExtension>
        </extensions>
      </trkpt>
      <trkpt lat="23.39281828142702579498291015625" lon="113.245739601552486419677734375">
        <ele>10</ele>
        <time>2024-07-14T22:04:42.000Z</time>
        <extensions>
          <ns3:TrackPointExtension>
            <ns3:cad>57</ns3:cad>
          </ns3:TrackPointExtension>
        </extensions>
      </trkpt>
      <trkpt lat="23.39276396669447422027587890625" lon="113.24555260129272937774658203125">
        <ele>10</ele>
        <time>2024-07-14T22:04:57.000Z</time>
        <extensions>
          <ns3:TrackPointExtension>
            <ns3:cad>61</ns3:cad>
          </ns3:TrackPointExtension>
        </extensions>
      </trkpt>
      <trkpt lat="23.39275424368679523468017578125" lon="113.24551605619490146636962890625">
        <ele>10</ele>
        <time>2024-07-14T22:05:00.000Z</time>
        <extensions>
          <ns3:TrackPointExtension>
            <ns3:cad>61</ns3:cad>
          </ns3:TrackPointExtension>
        </extensions>
      </trkpt>
      <trkpt lat="23.3926815725862979888916015625" lon="113.245327211916446685791015625">
        <ele>9.3999996185302734375</ele>
        <time>2024-07-14T22:05:16.000Z</time>
        <extensions>
          <ns3:TrackPointExtension>
            <ns3:cad>55</ns3:cad>
          </ns3:TrackPointExtension>
        </extensions>
      </trkpt>
      <trkpt lat="23.39263119734823703765869140625" lon="113.24513719417154788970947265625">
        <ele>8</ele>
        <time>2024-07-14T22:05:31.000Z</time>
        <extensions>
          <ns3:TrackPointExtension>
            <ns3:cad>55</ns3:cad>
          </ns3:TrackPointExtension>
        </extensions>
      </trkpt>
      <trkpt lat="23.392550982534885406494140625" lon="113.24495849199593067169189453125">
        <ele>7.19999980926513671875</ele>
        <time>2024-07-14T22:05:46.000Z</time>
        <extensions>
          <ns3:TrackPointExtension>
            <ns3:cad>56</ns3:cad>
          </ns3:TrackPointExtension>
        </extensions>
      </trkpt>
      <trkpt lat="23.3925122581422328948974609375" lon="113.24475883506238460540771484375">
        <ele>7.19999980926513671875</ele>
        <time>2024-07-14T22:06:02.000Z</time>
        <extensions>
          <ns3:TrackPointExtension>
            <ns3:cad>56</ns3:cad>
          </ns3:TrackPointExtension>
        </extensions>
      </trkpt>
      <trkpt lat="23.392509408295154571533203125" lon="113.2447205297648906707763671875">
        <ele>7.19999980926513671875</ele>
        <time>2024-07-14T22:06:06.000Z</time>
        <extensions>
          <ns3:TrackPointExtension>
            <ns3:cad>54</ns3:cad>
          </ns3:TrackPointExtension>
        </extensions>
      </trkpt>
      <trkpt lat="23.3925018645823001861572265625" lon="113.2446222938597202301025390625">
        <ele>7.400000095367431640625</ele>
        <time>2024-07-14T22:06:19.000Z</time>
        <extensions>
          <ns3:TrackPointExtension>
            <ns3:cad>58</ns3:cad>
          </ns3:TrackPointExtension>
        </extensions>
      </trkpt>
      <trkpt lat="23.39263714849948883056640625" lon="113.244531266391277313232421875">
        <ele>8.3999996185302734375</ele>
        <time>2024-07-14T22:06:39.000Z</time>
        <extensions>
          <ns3:TrackPointExtension>
            <ns3:cad>53</ns3:cad>
          </ns3:TrackPointExtension>
        </extensions>
      </trkpt>
      <trkpt lat="23.39266489259898662567138671875" lon="113.2445388101041316986083984375">
        <ele>8.3999996185302734375</ele>
        <time>2024-07-14T22:06:40.000Z</time>
        <extensions>
          <ns3:TrackPointExtension>
            <ns3:cad>53</ns3:cad>
          </ns3:TrackPointExtension>
        </extensions>
      </trkpt>
      <trkpt lat="23.39273848570883274078369140625" lon="113.2445217110216617584228515625">
        <ele>8.3999996185302734375</ele>
        <time>2024-07-14T22:06:46.000Z</time>
        <extensions>
          <ns3:TrackPointExtension>
            <ns3:cad>55</ns3:cad>
          </ns3:TrackPointExtension>
        </extensions>
      </trkpt>
      <trkpt lat="23.3928901143372058868408203125" lon="113.24439950287342071533203125">
        <ele>9</ele>
        <time>2024-07-14T22:07:10.000Z</time>
        <extensions>
          <ns3:TrackPointExtension>
            <ns3:cad>55</ns3:cad>
          </ns3:TrackPointExtension>
        </extensions>
      </trkpt>
      <trkpt lat="23.39306906796991825103759765625" lon="113.24435683898627758026123046875">
        <ele>9.19999980926513671875</ele>
        <time>2024-07-14T22:07:25.000Z</time>
        <extensions>
          <ns3:TrackPointExtension>
            <ns3:cad>53</ns3:cad>
          </ns3:TrackPointExtension>
        </extensions>
      </trkpt>
      <trkpt lat="23.39312438853085041046142578125" lon="113.2443547435104846954345703125">
        <ele>9.3999996185302734375</ele>
        <time>2024-07-14T22:07:29.000Z</time>
        <extensions>
          <ns3:TrackPointExtension>
            <ns3:cad>53</ns3:cad>
          </ns3:TrackPointExtension>
        </extensions>
      </trkpt>
      <trkpt lat="23.39314131997525691986083984375" lon="113.24435315094888210296630859375">
        <ele>9.6000003814697265625</ele>
        <time>2024-07-14T22:07:30.000Z</time>
        <extensions>
          <ns3:TrackPointExtension>
            <ns3:cad>53</ns3:cad>
          </ns3:TrackPointExtension>
        </extensions>
      </trkpt>
      <trkpt lat="23.39329303242266178131103515625" lon="113.24432984925806522369384765625">
        <ele>10</ele>
        <time>2024-07-14T22:07:41.000Z</time>
        <extensions>
          <ns3:TrackPointExtension>
            <ns3:cad>55</ns3:cad>
          </ns3:TrackPointExtension>
        </extensions>
      </trkpt>
      <trkpt lat="23.39345027692615985870361328125" lon="113.24422256089746952056884765625">
        <ele>11</ele>
        <time>2024-07-14T22:07:54.000Z</time>
        <extensions>
          <ns3:TrackPointExtension>
            <ns3:cad>57</ns3:cad>
          </ns3:TrackPointExtension>
        </extensions>
      </trkpt>
      <trkpt lat="23.393462933599948883056640625" lon="113.24420898221433162689208984375">
        <ele>11</ele>
        <time>2024-07-14T22:07:55.000Z</time>
        <extensions>
          <ns3:TrackPointExtension>
            <ns3:cad>57</ns3:cad>
          </ns3:TrackPointExtension>
        </extensions>
      </trkpt>
      <trkpt lat="23.39346268214285373687744140625" lon="113.244033046066761016845703125">
        <ele>11</ele>
        <time>2024-07-14T22:08:13.000Z</time>
        <extensions>
          <ns3:TrackPointExtension>
            <ns3:cad>0</ns3:cad>
          </ns3:TrackPointExtension>
        </extensions>
      </trkpt>
    </trkseg>
  </trk>
</gpx>
