<gpx xmlns:ns3="http://www.garmin.com/xmlschemas/TrackPointExtension/v1" xmlns="http://www.topografix.com/GPX/1/1" xmlns:xsi="http://www.w3.org/2001/XMLSchema-instance" xmlns:ns2="http://www.garmin.com/xmlschemas/GpxExtensions/v3" creator="Garmin Connect" version="1.1" xsi:schemaLocation="http://www.topografix.com/GPX/1/1 http://www.topografix.com/GPX/11.xsd">
  <extensions>
<distance>5204.17</distance>
<average_hr>169.0</average_hr>
<average_speed>2.3980000019073486</average_speed>
<start_time>2025-01-09T12:58:53+00:00</start_time>
<end_time>2025-01-09T13:35:02.928000+00:00</end_time>
<moving_time>2167.495</moving_time>
<elapsed_time>2169.928</elapsed_time>
</extensions>
<metadata>
    <link href="connect.garmin.com">
      <text>Garmin Connect</text>
    </link>
    <time>2025-01-09T12:58:53.000Z</time>
  </metadata>
  <trk>
    <name>广州市 跑步</name>
    <type>running</type>
    <trkseg>
      <trkpt lat="23.38734137825667858123779296875" lon="113.24100692756474018096923828125">
        <ele>2.7999999523162841796875</ele>
        <time>2025-01-09T13:09:29.000Z</time>
        <extensions>
          <ns3:TrackPointExtension>
            <ns3:hr>171</ns3:hr>
            <ns3:cad>53</ns3:cad>
          </ns3:TrackPointExtension>
        </extensions>
      </trkpt>
      <trkpt lat="23.3873728103935718536376953125" lon="113.240921683609485626220703125">
        <ele>3.2000000476837158203125</ele>
        <time>2025-01-09T13:09:35.000Z</time>
        <extensions>
          <ns3:TrackPointExtension>
            <ns3:hr>171</ns3:hr>
            <ns3:cad>53</ns3:cad>
          </ns3:TrackPointExtension>
        </extensions>
      </trkpt>
      <trkpt lat="23.38742050342261791229248046875" lon="113.24072194285690784454345703125">
        <ele>3.400000095367431640625</ele>
        <time>2025-01-09T13:09:46.000Z</time>
        <extensions>
          <ns3:TrackPointExtension>
            <ns3:hr>170</ns3:hr>
            <ns3:cad>55</ns3:cad>
          </ns3:TrackPointExtension>
        </extensions>
      </trkpt>
      <trkpt lat="23.38740952312946319580078125" lon="113.2405208609998226165771484375">
        <ele>1.39999997615814208984375</ele>
        <time>2025-01-09T13:09:54.000Z</time>
        <extensions>
          <ns3:TrackPointExtension>
            <ns3:hr>168</ns3:hr>
            <ns3:cad>80</ns3:cad>
          </ns3:TrackPointExtension>
        </extensions>
      </trkpt>
      <trkpt lat="23.3873872272670269012451171875" lon="113.24036277830600738525390625">
        <ele>0.4000000059604644775390625</ele>
        <time>2025-01-09T13:10:01.000Z</time>
        <extensions>
          <ns3:TrackPointExtension>
            <ns3:hr>165</ns3:hr>
            <ns3:cad>81</ns3:cad>
          </ns3:TrackPointExtension>
        </extensions>
      </trkpt>
      <trkpt lat="23.387347161769866943359375" lon="113.24018315412104129791259765625">
        <ele>-0.4000000059604644775390625</ele>
        <time>2025-01-09T13:10:08.000Z</time>
        <extensions>
          <ns3:TrackPointExtension>
            <ns3:hr>158</ns3:hr>
            <ns3:cad>81</ns3:cad>
          </ns3:TrackPointExtension>
        </extensions>
      </trkpt>
      <trkpt lat="23.38733752258121967315673828125" lon="113.2401564158499240875244140625">
        <ele>0</ele>
        <time>2025-01-09T13:10:09.000Z</time>
        <extensions>
          <ns3:TrackPointExtension>
            <ns3:hr>153</ns3:hr>
            <ns3:cad>81</ns3:cad>
          </ns3:TrackPointExtension>
        </extensions>
      </trkpt>
      <trkpt lat="23.38732830248773097991943359375" lon="113.2401316054165363311767578125">
        <ele>0.4000000059604644775390625</ele>
        <time>2025-01-09T13:10:10.000Z</time>
        <extensions>
          <ns3:TrackPointExtension>
            <ns3:hr>154</ns3:hr>
            <ns3:cad>82</ns3:cad>
          </ns3:TrackPointExtension>
        </extensions>
      </trkpt>
      <trkpt lat="23.38730768300592899322509765625" lon="113.240053653717041015625">
        <ele>1.2000000476837158203125</ele>
        <time>2025-01-09T13:10:14.000Z</time>
        <extensions>
          <ns3:TrackPointExtension>
            <ns3:hr>158</ns3:hr>
            <ns3:cad>82</ns3:cad>
          </ns3:TrackPointExtension>
        </extensions>
      </trkpt>
      <trkpt lat="23.38729552924633026123046875" lon="113.23999657295644283294677734375">
        <ele>1.7999999523162841796875</ele>
        <time>2025-01-09T13:10:16.000Z</time>
        <extensions>
          <ns3:TrackPointExtension>
            <ns3:hr>161</ns3:hr>
            <ns3:cad>82</ns3:cad>
          </ns3:TrackPointExtension>
        </extensions>
      </trkpt>
      <trkpt lat="23.38726225309073925018310546875" lon="113.23987805284559726715087890625">
        <ele>2.599999904632568359375</ele>
        <time>2025-01-09T13:10:21.000Z</time>
        <extensions>
          <ns3:TrackPointExtension>
            <ns3:hr>164</ns3:hr>
            <ns3:cad>83</ns3:cad>
          </ns3:TrackPointExtension>
        </extensions>
      </trkpt>
      <trkpt lat="23.38724314235150814056396484375" lon="113.23980479501187801361083984375">
        <ele>3</ele>
        <time>2025-01-09T13:10:24.000Z</time>
        <extensions>
          <ns3:TrackPointExtension>
            <ns3:hr>167</ns3:hr>
            <ns3:cad>83</ns3:cad>
          </ns3:TrackPointExtension>
        </extensions>
      </trkpt>
      <trkpt lat="23.38721883483231067657470703125" lon="113.239610753953456878662109375">
        <ele>3.599999904632568359375</ele>
        <time>2025-01-09T13:10:32.000Z</time>
        <extensions>
          <ns3:TrackPointExtension>
            <ns3:hr>169</ns3:hr>
            <ns3:cad>83</ns3:cad>
          </ns3:TrackPointExtension>
        </extensions>
      </trkpt>
      <trkpt lat="23.38719201274216175079345703125" lon="113.23939584195613861083984375">
        <ele>3</ele>
        <time>2025-01-09T13:10:41.000Z</time>
        <extensions>
          <ns3:TrackPointExtension>
            <ns3:hr>171</ns3:hr>
            <ns3:cad>83</ns3:cad>
          </ns3:TrackPointExtension>
        </extensions>
      </trkpt>
      <trkpt lat="23.38716904632747173309326171875" lon="113.2391730509698390960693359375">
        <ele>-0.20000000298023223876953125</ele>
        <time>2025-01-09T13:10:51.000Z</time>
        <extensions>
          <ns3:TrackPointExtension>
            <ns3:hr>171</ns3:hr>
            <ns3:cad>84</ns3:cad>
          </ns3:TrackPointExtension>
        </extensions>
      </trkpt>
      <trkpt lat="23.38716720230877399444580078125" lon="113.23898118920624256134033203125">
        <ele>-1.60000002384185791015625</ele>
        <time>2025-01-09T13:11:08.000Z</time>
        <extensions>
          <ns3:TrackPointExtension>
            <ns3:hr>171</ns3:hr>
            <ns3:cad>61</ns3:cad>
          </ns3:TrackPointExtension>
        </extensions>
      </trkpt>
      <trkpt lat="23.38712646625936031341552734375" lon="113.2387757487595081329345703125">
        <ele>-0.800000011920928955078125</ele>
        <time>2025-01-09T13:11:16.000Z</time>
        <extensions>
          <ns3:TrackPointExtension>
            <ns3:hr>170</ns3:hr>
            <ns3:cad>82</ns3:cad>
          </ns3:TrackPointExtension>
        </extensions>
      </trkpt>
      <trkpt lat="23.3870923519134521484375" lon="113.23857910931110382080078125">
        <ele>2.2000000476837158203125</ele>
        <time>2025-01-09T13:11:24.000Z</time>
        <extensions>
          <ns3:TrackPointExtension>
            <ns3:hr>168</ns3:hr>
            <ns3:cad>81</ns3:cad>
          </ns3:TrackPointExtension>
        </extensions>
      </trkpt>
      <trkpt lat="23.3870708942413330078125" lon="113.2383625209331512451171875">
        <ele>3.599999904632568359375</ele>
        <time>2025-01-09T13:11:32.000Z</time>
        <extensions>
          <ns3:TrackPointExtension>
            <ns3:hr>164</ns3:hr>
            <ns3:cad>81</ns3:cad>
          </ns3:TrackPointExtension>
        </extensions>
      </trkpt>
      <trkpt lat="23.38707022368907928466796875" lon="113.238335363566875457763671875">
        <ele>4</ele>
        <time>2025-01-09T13:11:33.000Z</time>
        <extensions>
          <ns3:TrackPointExtension>
            <ns3:hr>159</ns3:hr>
            <ns3:cad>81</ns3:cad>
          </ns3:TrackPointExtension>
        </extensions>
      </trkpt>
      <trkpt lat="23.3870695531368255615234375" lon="113.2382460124790668487548828125">
        <ele>5.19999980926513671875</ele>
        <time>2025-01-09T13:11:36.000Z</time>
        <extensions>
          <ns3:TrackPointExtension>
            <ns3:hr>162</ns3:hr>
            <ns3:cad>81</ns3:cad>
          </ns3:TrackPointExtension>
        </extensions>
      </trkpt>
      <trkpt lat="23.3870717324316501617431640625" lon="113.2381296716630458831787109375">
        <ele>5.19999980926513671875</ele>
        <time>2025-01-09T13:11:40.000Z</time>
        <extensions>
          <ns3:TrackPointExtension>
            <ns3:hr>165</ns3:hr>
            <ns3:cad>81</ns3:cad>
          </ns3:TrackPointExtension>
        </extensions>
      </trkpt>
      <trkpt lat="23.3870576508343219757080078125" lon="113.2379868440330028533935546875">
        <ele>5.599999904632568359375</ele>
        <time>2025-01-09T13:11:45.000Z</time>
        <extensions>
          <ns3:TrackPointExtension>
            <ns3:hr>168</ns3:hr>
            <ns3:cad>81</ns3:cad>
          </ns3:TrackPointExtension>
        </extensions>
      </trkpt>
      <trkpt lat="23.38703912682831287384033203125" lon="113.23777503333985805511474609375">
        <ele>7</ele>
        <time>2025-01-09T13:11:52.000Z</time>
        <extensions>
          <ns3:TrackPointExtension>
            <ns3:hr>170</ns3:hr>
            <ns3:cad>81</ns3:cad>
          </ns3:TrackPointExtension>
        </extensions>
      </trkpt>
      <trkpt lat="23.387024961411952972412109375" lon="113.23756028898060321807861328125">
        <ele>8</ele>
        <time>2025-01-09T13:12:00.000Z</time>
        <extensions>
          <ns3:TrackPointExtension>
            <ns3:hr>171</ns3:hr>
            <ns3:cad>81</ns3:cad>
          </ns3:TrackPointExtension>
        </extensions>
      </trkpt>
      <trkpt lat="23.3870338462293148040771484375" lon="113.23735610581934452056884765625">
        <ele>8.6000003814697265625</ele>
        <time>2025-01-09T13:12:06.000Z</time>
        <extensions>
          <ns3:TrackPointExtension>
            <ns3:hr>171</ns3:hr>
            <ns3:cad>79</ns3:cad>
          </ns3:TrackPointExtension>
        </extensions>
      </trkpt>
      <trkpt lat="23.38705941103398799896240234375" lon="113.237159885466098785400390625">
        <ele>9</ele>
        <time>2025-01-09T13:12:14.000Z</time>
        <extensions>
          <ns3:TrackPointExtension>
            <ns3:hr>171</ns3:hr>
            <ns3:cad>81</ns3:cad>
          </ns3:TrackPointExtension>
        </extensions>
      </trkpt>
      <trkpt lat="23.38708363473415374755859375" lon="113.2369488291442394256591796875">
        <ele>9.80000019073486328125</ele>
        <time>2025-01-09T13:12:22.000Z</time>
        <extensions>
          <ns3:TrackPointExtension>
            <ns3:hr>171</ns3:hr>
            <ns3:cad>82</ns3:cad>
          </ns3:TrackPointExtension>
        </extensions>
      </trkpt>
      <trkpt lat="23.3871138095855712890625" lon="113.23673970066010951995849609375">
        <ele>10.19999980926513671875</ele>
        <time>2025-01-09T13:12:29.000Z</time>
        <extensions>
          <ns3:TrackPointExtension>
            <ns3:hr>172</ns3:hr>
            <ns3:cad>82</ns3:cad>
          </ns3:TrackPointExtension>
        </extensions>
      </trkpt>
      <trkpt lat="23.38713937439024448394775390625" lon="113.23652428574860095977783203125">
        <ele>8.19999980926513671875</ele>
        <time>2025-01-09T13:12:36.000Z</time>
        <extensions>
          <ns3:TrackPointExtension>
            <ns3:hr>172</ns3:hr>
            <ns3:cad>82</ns3:cad>
          </ns3:TrackPointExtension>
        </extensions>
      </trkpt>
      <trkpt lat="23.38716619648039340972900390625" lon="113.23631725274026393890380859375">
        <ele>6.400000095367431640625</ele>
        <time>2025-01-09T13:12:42.000Z</time>
        <extensions>
          <ns3:TrackPointExtension>
            <ns3:hr>172</ns3:hr>
            <ns3:cad>82</ns3:cad>
          </ns3:TrackPointExtension>
        </extensions>
      </trkpt>
      <trkpt lat="23.3871676214039325714111328125" lon="113.2362355291843414306640625">
        <ele>5.599999904632568359375</ele>
        <time>2025-01-09T13:12:45.000Z</time>
        <extensions>
          <ns3:TrackPointExtension>
            <ns3:hr>172</ns3:hr>
            <ns3:cad>82</ns3:cad>
          </ns3:TrackPointExtension>
        </extensions>
      </trkpt>
      <trkpt lat="23.38716368190944194793701171875" lon="113.2360244728624820709228515625">
        <ele>4</ele>
        <time>2025-01-09T13:12:58.000Z</time>
        <extensions>
          <ns3:TrackPointExtension>
            <ns3:hr>172</ns3:hr>
            <ns3:cad>85</ns3:cad>
          </ns3:TrackPointExtension>
        </extensions>
      </trkpt>
      <trkpt lat="23.3871887437999248504638671875" lon="113.2358078844845294952392578125">
        <ele>3.2000000476837158203125</ele>
        <time>2025-01-09T13:13:07.000Z</time>
        <extensions>
          <ns3:TrackPointExtension>
            <ns3:hr>172</ns3:hr>
            <ns3:cad>82</ns3:cad>
          </ns3:TrackPointExtension>
        </extensions>
      </trkpt>
      <trkpt lat="23.3872296474874019622802734375" lon="113.2355912961065769195556640625">
        <ele>2.599999904632568359375</ele>
        <time>2025-01-09T13:13:16.000Z</time>
        <extensions>
          <ns3:TrackPointExtension>
            <ns3:hr>171</ns3:hr>
            <ns3:cad>81</ns3:cad>
          </ns3:TrackPointExtension>
        </extensions>
      </trkpt>
      <trkpt lat="23.3872490935027599334716796875" lon="113.23538032360374927520751953125">
        <ele>2</ele>
        <time>2025-01-09T13:13:24.000Z</time>
        <extensions>
          <ns3:TrackPointExtension>
            <ns3:hr>168</ns3:hr>
            <ns3:cad>81</ns3:cad>
          </ns3:TrackPointExtension>
        </extensions>
      </trkpt>
      <trkpt lat="23.3872661925852298736572265625" lon="113.23525425978004932403564453125">
        <ele>1.7999999523162841796875</ele>
        <time>2025-01-09T13:13:29.000Z</time>
        <extensions>
          <ns3:TrackPointExtension>
            <ns3:hr>161</ns3:hr>
            <ns3:cad>83</ns3:cad>
          </ns3:TrackPointExtension>
        </extensions>
      </trkpt>
      <trkpt lat="23.38727700524032115936279296875" lon="113.2352003641426563262939453125">
        <ele>2</ele>
        <time>2025-01-09T13:13:30.000Z</time>
        <extensions>
          <ns3:TrackPointExtension>
            <ns3:hr>161</ns3:hr>
            <ns3:cad>82</ns3:cad>
          </ns3:TrackPointExtension>
        </extensions>
      </trkpt>
      <trkpt lat="23.3872896619141101837158203125" lon="113.23515133000910282135009765625">
        <ele>2</ele>
        <time>2025-01-09T13:13:33.000Z</time>
        <extensions>
          <ns3:TrackPointExtension>
            <ns3:hr>164</ns3:hr>
            <ns3:cad>82</ns3:cad>
          </ns3:TrackPointExtension>
        </extensions>
      </trkpt>
      <trkpt lat="23.3873114548623561859130859375" lon="113.2350474782288074493408203125">
        <ele>2.400000095367431640625</ele>
        <time>2025-01-09T13:13:37.000Z</time>
        <extensions>
          <ns3:TrackPointExtension>
            <ns3:hr>167</ns3:hr>
            <ns3:cad>82</ns3:cad>
          </ns3:TrackPointExtension>
        </extensions>
      </trkpt>
      <trkpt lat="23.38733249343931674957275390625" lon="113.23488495312631130218505859375">
        <ele>0.20000000298023223876953125</ele>
        <time>2025-01-09T13:13:44.000Z</time>
        <extensions>
          <ns3:TrackPointExtension>
            <ns3:hr>170</ns3:hr>
            <ns3:cad>82</ns3:cad>
          </ns3:TrackPointExtension>
        </extensions>
      </trkpt>
      <trkpt lat="23.38735579513013362884521484375" lon="113.2346800155937671661376953125">
        <ele>-0.800000011920928955078125</ele>
        <time>2025-01-09T13:13:52.000Z</time>
        <extensions>
          <ns3:TrackPointExtension>
            <ns3:hr>172</ns3:hr>
            <ns3:cad>82</ns3:cad>
          </ns3:TrackPointExtension>
        </extensions>
      </trkpt>
      <trkpt lat="23.38739250786602497100830078125" lon="113.2344583980739116668701171875">
        <ele>4.19999980926513671875</ele>
        <time>2025-01-09T13:14:00.000Z</time>
        <extensions>
          <ns3:TrackPointExtension>
            <ns3:hr>172</ns3:hr>
            <ns3:cad>82</ns3:cad>
          </ns3:TrackPointExtension>
        </extensions>
      </trkpt>
      <trkpt lat="23.3874343335628509521484375" lon="113.23425547219812870025634765625">
        <ele>8</ele>
        <time>2025-01-09T13:14:07.000Z</time>
        <extensions>
          <ns3:TrackPointExtension>
            <ns3:hr>172</ns3:hr>
            <ns3:cad>81</ns3:cad>
          </ns3:TrackPointExtension>
        </extensions>
      </trkpt>
      <trkpt lat="23.38746258057653903961181640625" lon="113.234031088650226593017578125">
        <ele>8.80000019073486328125</ele>
        <time>2025-01-09T13:14:14.000Z</time>
        <extensions>
          <ns3:TrackPointExtension>
            <ns3:hr>172</ns3:hr>
            <ns3:cad>81</ns3:cad>
          </ns3:TrackPointExtension>
        </extensions>
      </trkpt>
      <trkpt lat="23.3874764107167720794677734375" lon="113.23383721522986888885498046875">
        <ele>8.19999980926513671875</ele>
        <time>2025-01-09T13:14:21.000Z</time>
        <extensions>
          <ns3:TrackPointExtension>
            <ns3:hr>172</ns3:hr>
            <ns3:cad>80</ns3:cad>
          </ns3:TrackPointExtension>
        </extensions>
      </trkpt>
      <trkpt lat="23.387338109314441680908203125" lon="113.233698494732379913330078125">
        <ele>7.19999980926513671875</ele>
        <time>2025-01-09T13:14:28.000Z</time>
        <extensions>
          <ns3:TrackPointExtension>
            <ns3:hr>172</ns3:hr>
            <ns3:cad>81</ns3:cad>
          </ns3:TrackPointExtension>
        </extensions>
      </trkpt>
      <trkpt lat="23.387161754071712493896484375" lon="113.233654908835887908935546875">
        <ele>5.80000019073486328125</ele>
        <time>2025-01-09T13:14:35.000Z</time>
        <extensions>
          <ns3:TrackPointExtension>
            <ns3:hr>172</ns3:hr>
            <ns3:cad>81</ns3:cad>
          </ns3:TrackPointExtension>
        </extensions>
      </trkpt>
      <trkpt lat="23.38697726838290691375732421875" lon="113.233638815581798553466796875">
        <ele>2</ele>
        <time>2025-01-09T13:14:42.000Z</time>
        <extensions>
          <ns3:TrackPointExtension>
            <ns3:hr>173</ns3:hr>
            <ns3:cad>81</ns3:cad>
          </ns3:TrackPointExtension>
        </extensions>
      </trkpt>
      <trkpt lat="23.3868564851582050323486328125" lon="113.23349590413272380828857421875">
        <ele>0</ele>
        <time>2025-01-09T13:14:51.000Z</time>
        <extensions>
          <ns3:TrackPointExtension>
            <ns3:hr>173</ns3:hr>
            <ns3:cad>79</ns3:cad>
          </ns3:TrackPointExtension>
        </extensions>
      </trkpt>
      <trkpt lat="23.386872746050357818603515625" lon="113.233292140066623687744140625">
        <ele>0.20000000298023223876953125</ele>
        <time>2025-01-09T13:15:00.000Z</time>
        <extensions>
          <ns3:TrackPointExtension>
            <ns3:hr>173</ns3:hr>
            <ns3:cad>81</ns3:cad>
          </ns3:TrackPointExtension>
        </extensions>
      </trkpt>
      <trkpt lat="23.3869312517344951629638671875" lon="113.2330985181033611297607421875">
        <ele>2</ele>
        <time>2025-01-09T13:15:08.000Z</time>
        <extensions>
          <ns3:TrackPointExtension>
            <ns3:hr>173</ns3:hr>
            <ns3:cad>81</ns3:cad>
          </ns3:TrackPointExtension>
        </extensions>
      </trkpt>
      <trkpt lat="23.38697768747806549072265625" lon="113.232904560863971710205078125">
        <ele>3.599999904632568359375</ele>
        <time>2025-01-09T13:15:17.000Z</time>
        <extensions>
          <ns3:TrackPointExtension>
            <ns3:hr>173</ns3:hr>
            <ns3:cad>81</ns3:cad>
          </ns3:TrackPointExtension>
        </extensions>
      </trkpt>
      <trkpt lat="23.3869810402393341064453125" lon="113.23269878514111042022705078125">
        <ele>5.80000019073486328125</ele>
        <time>2025-01-09T13:15:26.000Z</time>
        <extensions>
          <ns3:TrackPointExtension>
            <ns3:hr>173</ns3:hr>
            <ns3:cad>82</ns3:cad>
          </ns3:TrackPointExtension>
        </extensions>
      </trkpt>
      <trkpt lat="23.3870529569685459136962890625" lon="113.23253265582025051116943359375">
        <ele>8</ele>
        <time>2025-01-09T13:15:37.000Z</time>
        <extensions>
          <ns3:TrackPointExtension>
            <ns3:hr>173</ns3:hr>
            <ns3:cad>61</ns3:cad>
          </ns3:TrackPointExtension>
        </extensions>
      </trkpt>
      <trkpt lat="23.38709302246570587158203125" lon="113.232510946691036224365234375">
        <ele>7.400000095367431640625</ele>
        <time>2025-01-09T13:15:43.000Z</time>
        <extensions>
          <ns3:TrackPointExtension>
            <ns3:hr>173</ns3:hr>
            <ns3:cad>61</ns3:cad>
          </ns3:TrackPointExtension>
        </extensions>
      </trkpt>
      <trkpt lat="23.38712252676486968994140625" lon="113.23250063695013523101806640625">
        <ele>7</ele>
        <time>2025-01-09T13:15:45.000Z</time>
        <extensions>
          <ns3:TrackPointExtension>
            <ns3:hr>173</ns3:hr>
            <ns3:cad>61</ns3:cad>
          </ns3:TrackPointExtension>
        </extensions>
      </trkpt>
      <trkpt lat="23.387175835669040679931640625" lon="113.2324913330376148223876953125">
        <ele>6</ele>
        <time>2025-01-09T13:15:49.000Z</time>
        <extensions>
          <ns3:TrackPointExtension>
            <ns3:hr>173</ns3:hr>
            <ns3:cad>61</ns3:cad>
          </ns3:TrackPointExtension>
        </extensions>
      </trkpt>
      <trkpt lat="23.38733400218188762664794921875" lon="113.23238194920122623443603515625">
        <ele>4.400000095367431640625</ele>
        <time>2025-01-09T13:16:02.000Z</time>
        <extensions>
          <ns3:TrackPointExtension>
            <ns3:hr>172</ns3:hr>
            <ns3:cad>61</ns3:cad>
          </ns3:TrackPointExtension>
        </extensions>
      </trkpt>
      <trkpt lat="23.38744732551276683807373046875" lon="113.23227248154580593109130859375">
        <ele>3.2000000476837158203125</ele>
        <time>2025-01-09T13:16:10.000Z</time>
        <extensions>
          <ns3:TrackPointExtension>
            <ns3:hr>169</ns3:hr>
            <ns3:cad>80</ns3:cad>
          </ns3:TrackPointExtension>
        </extensions>
      </trkpt>
      <trkpt lat="23.38746760971844196319580078125" lon="113.23224482126533985137939453125">
        <ele>3</ele>
        <time>2025-01-09T13:16:12.000Z</time>
        <extensions>
          <ns3:TrackPointExtension>
            <ns3:hr>169</ns3:hr>
            <ns3:cad>80</ns3:cad>
          </ns3:TrackPointExtension>
        </extensions>
      </trkpt>
      <trkpt lat="23.3875337429344654083251953125" lon="113.2321262173354625701904296875">
        <ele>3.2000000476837158203125</ele>
        <time>2025-01-09T13:16:18.000Z</time>
        <extensions>
          <ns3:TrackPointExtension>
            <ns3:hr>166</ns3:hr>
            <ns3:cad>80</ns3:cad>
          </ns3:TrackPointExtension>
        </extensions>
      </trkpt>
      <trkpt lat="23.38758110068738460540771484375" lon="113.2319320924580097198486328125">
        <ele>4.19999980926513671875</ele>
        <time>2025-01-09T13:16:26.000Z</time>
        <extensions>
          <ns3:TrackPointExtension>
            <ns3:hr>163</ns3:hr>
            <ns3:cad>83</ns3:cad>
          </ns3:TrackPointExtension>
        </extensions>
      </trkpt>
      <trkpt lat="23.38759384118020534515380859375" lon="113.23188565671443939208984375">
        <ele>4</ele>
        <time>2025-01-09T13:16:27.000Z</time>
        <extensions>
          <ns3:TrackPointExtension>
            <ns3:hr>158</ns3:hr>
            <ns3:cad>83</ns3:cad>
          </ns3:TrackPointExtension>
        </extensions>
      </trkpt>
      <trkpt lat="23.38759384118020534515380859375" lon="113.23188565671443939208984375">
        <ele>4</ele>
        <time>2025-01-09T13:16:28.000Z</time>
        <extensions>
          <ns3:TrackPointExtension>
            <ns3:hr>153</ns3:hr>
            <ns3:cad>83</ns3:cad>
          </ns3:TrackPointExtension>
        </extensions>
      </trkpt>
      <trkpt lat="23.3876088447868824005126953125" lon="113.231839723885059356689453125">
        <ele>3.7999999523162841796875</ele>
        <time>2025-01-09T13:16:29.000Z</time>
        <extensions>
          <ns3:TrackPointExtension>
            <ns3:hr>153</ns3:hr>
            <ns3:cad>82</ns3:cad>
          </ns3:TrackPointExtension>
        </extensions>
      </trkpt>
      <trkpt lat="23.38762678205966949462890625" lon="113.23179622180759906768798828125">
        <ele>3.599999904632568359375</ele>
        <time>2025-01-09T13:16:32.000Z</time>
        <extensions>
          <ns3:TrackPointExtension>
            <ns3:hr>157</ns3:hr>
            <ns3:cad>82</ns3:cad>
          </ns3:TrackPointExtension>
        </extensions>
      </trkpt>
      <trkpt lat="23.38764480315148830413818359375" lon="113.23175984434783458709716796875">
        <ele>3.400000095367431640625</ele>
        <time>2025-01-09T13:16:34.000Z</time>
        <extensions>
          <ns3:TrackPointExtension>
            <ns3:hr>160</ns3:hr>
            <ns3:cad>82</ns3:cad>
          </ns3:TrackPointExtension>
        </extensions>
      </trkpt>
      <trkpt lat="23.38766927830874919891357421875" lon="113.23171801865100860595703125">
        <ele>3.599999904632568359375</ele>
        <time>2025-01-09T13:16:36.000Z</time>
        <extensions>
          <ns3:TrackPointExtension>
            <ns3:hr>163</ns3:hr>
            <ns3:cad>83</ns3:cad>
          </ns3:TrackPointExtension>
        </extensions>
      </trkpt>
      <trkpt lat="23.38770230300724506378173828125" lon="113.23161433450877666473388671875">
        <ele>4</ele>
        <time>2025-01-09T13:16:40.000Z</time>
        <extensions>
          <ns3:TrackPointExtension>
            <ns3:hr>166</ns3:hr>
            <ns3:cad>83</ns3:cad>
          </ns3:TrackPointExtension>
        </extensions>
      </trkpt>
      <trkpt lat="23.38772174902260303497314453125" lon="113.2315089739859104156494140625">
        <ele>3.599999904632568359375</ele>
        <time>2025-01-09T13:16:44.000Z</time>
        <extensions>
          <ns3:TrackPointExtension>
            <ns3:hr>169</ns3:hr>
            <ns3:cad>82</ns3:cad>
          </ns3:TrackPointExtension>
        </extensions>
      </trkpt>
      <trkpt lat="23.38776986114680767059326171875" lon="113.231336809694766998291015625">
        <ele>3</ele>
        <time>2025-01-09T13:16:51.000Z</time>
        <extensions>
          <ns3:TrackPointExtension>
            <ns3:hr>172</ns3:hr>
            <ns3:cad>81</ns3:cad>
          </ns3:TrackPointExtension>
        </extensions>
      </trkpt>
      <trkpt lat="23.3878398500382900238037109375" lon="113.23115265928208827972412109375">
        <ele>2.400000095367431640625</ele>
        <time>2025-01-09T13:16:59.000Z</time>
        <extensions>
          <ns3:TrackPointExtension>
            <ns3:hr>173</ns3:hr>
            <ns3:cad>82</ns3:cad>
          </ns3:TrackPointExtension>
        </extensions>
      </trkpt>
      <trkpt lat="23.387905396521091461181640625" lon="113.23094629682600498199462890625">
        <ele>1.7999999523162841796875</ele>
        <time>2025-01-09T13:17:05.000Z</time>
        <extensions>
          <ns3:TrackPointExtension>
            <ns3:hr>173</ns3:hr>
            <ns3:cad>82</ns3:cad>
          </ns3:TrackPointExtension>
        </extensions>
      </trkpt>
      <trkpt lat="23.38796214200556278228759765625" lon="113.23074261657893657684326171875">
        <ele>1.60000002384185791015625</ele>
        <time>2025-01-09T13:17:12.000Z</time>
        <extensions>
          <ns3:TrackPointExtension>
            <ns3:hr>174</ns3:hr>
            <ns3:cad>79</ns3:cad>
          </ns3:TrackPointExtension>
        </extensions>
      </trkpt>
      <trkpt lat="23.38801897130906581878662109375" lon="113.23054379783570766448974609375">
        <ele>1.7999999523162841796875</ele>
        <time>2025-01-09T13:17:19.000Z</time>
        <extensions>
          <ns3:TrackPointExtension>
            <ns3:hr>174</ns3:hr>
            <ns3:cad>81</ns3:cad>
          </ns3:TrackPointExtension>
        </extensions>
      </trkpt>
      <trkpt lat="23.38804411701858043670654296875" lon="113.23031078092753887176513671875">
        <ele>2.599999904632568359375</ele>
        <time>2025-01-09T13:17:27.000Z</time>
        <extensions>
          <ns3:TrackPointExtension>
            <ns3:hr>174</ns3:hr>
            <ns3:cad>81</ns3:cad>
          </ns3:TrackPointExtension>
        </extensions>
      </trkpt>
      <trkpt lat="23.3880155347287654876708984375" lon="113.2301102019846439361572265625">
        <ele>4</ele>
        <time>2025-01-09T13:17:34.000Z</time>
        <extensions>
          <ns3:TrackPointExtension>
            <ns3:hr>174</ns3:hr>
            <ns3:cad>79</ns3:cad>
          </ns3:TrackPointExtension>
        </extensions>
      </trkpt>
      <trkpt lat="23.387969098985195159912109375" lon="113.22992018423974514007568359375">
        <ele>5.80000019073486328125</ele>
        <time>2025-01-09T13:17:43.000Z</time>
        <extensions>
          <ns3:TrackPointExtension>
            <ns3:hr>174</ns3:hr>
            <ns3:cad>81</ns3:cad>
          </ns3:TrackPointExtension>
        </extensions>
      </trkpt>
      <trkpt lat="23.3879447914659976959228515625" lon="113.22966788895428180694580078125">
        <ele>7.19999980926513671875</ele>
        <time>2025-01-09T13:17:49.000Z</time>
        <extensions>
          <ns3:TrackPointExtension>
            <ns3:hr>174</ns3:hr>
            <ns3:cad>81</ns3:cad>
          </ns3:TrackPointExtension>
        </extensions>
      </trkpt>
      <trkpt lat="23.38789911009371280670166015625" lon="113.2294617779552936553955078125">
        <ele>7.400000095367431640625</ele>
        <time>2025-01-09T13:17:53.000Z</time>
        <extensions>
          <ns3:TrackPointExtension>
            <ns3:hr>174</ns3:hr>
            <ns3:cad>81</ns3:cad>
          </ns3:TrackPointExtension>
        </extensions>
      </trkpt>
      <trkpt lat="23.387843035161495208740234375" lon="113.2292572595179080963134765625">
        <ele>5.80000019073486328125</ele>
        <time>2025-01-09T13:18:02.000Z</time>
        <extensions>
          <ns3:TrackPointExtension>
            <ns3:hr>174</ns3:hr>
            <ns3:cad>82</ns3:cad>
          </ns3:TrackPointExtension>
        </extensions>
      </trkpt>
      <trkpt lat="23.3878076635301113128662109375" lon="113.2290480472147464752197265625">
        <ele>3.599999904632568359375</ele>
        <time>2025-01-09T13:18:10.000Z</time>
        <extensions>
          <ns3:TrackPointExtension>
            <ns3:hr>174</ns3:hr>
            <ns3:cad>81</ns3:cad>
          </ns3:TrackPointExtension>
        </extensions>
      </trkpt>
      <trkpt lat="23.38782367296516895294189453125" lon="113.2288324646651744842529296875">
        <ele>-1.2000000476837158203125</ele>
        <time>2025-01-09T13:18:16.000Z</time>
        <extensions>
          <ns3:TrackPointExtension>
            <ns3:hr>174</ns3:hr>
            <ns3:cad>82</ns3:cad>
          </ns3:TrackPointExtension>
        </extensions>
      </trkpt>
      <trkpt lat="23.387819565832614898681640625" lon="113.2287007011473178863525390625">
        <ele>-5.400000095367431640625</ele>
        <time>2025-01-09T13:18:22.000Z</time>
        <extensions>
          <ns3:TrackPointExtension>
            <ns3:hr>174</ns3:hr>
            <ns3:cad>79</ns3:cad>
          </ns3:TrackPointExtension>
        </extensions>
      </trkpt>
      <trkpt lat="23.38779307901859283447265625" lon="113.2286953367292881011962890625">
        <ele>-6</ele>
        <time>2025-01-09T13:18:24.000Z</time>
        <extensions>
          <ns3:TrackPointExtension>
            <ns3:hr>174</ns3:hr>
            <ns3:cad>79</ns3:cad>
          </ns3:TrackPointExtension>
        </extensions>
      </trkpt>
      <trkpt lat="23.3877768181264400482177734375" lon="113.22874738834798336029052734375">
        <ele>-4.599999904632568359375</ele>
        <time>2025-01-09T13:18:27.000Z</time>
        <extensions>
          <ns3:TrackPointExtension>
            <ns3:hr>174</ns3:hr>
            <ns3:cad>80</ns3:cad>
          </ns3:TrackPointExtension>
        </extensions>
      </trkpt>
      <trkpt lat="23.38781730271875858306884765625" lon="113.2289615459740161895751953125">
        <ele>1.39999997615814208984375</ele>
        <time>2025-01-09T13:18:37.000Z</time>
        <extensions>
          <ns3:TrackPointExtension>
            <ns3:hr>174</ns3:hr>
            <ns3:cad>82</ns3:cad>
          </ns3:TrackPointExtension>
        </extensions>
      </trkpt>
      <trkpt lat="23.387868516147136688232421875" lon="113.2291714288294315338134765625">
        <ele>5.400000095367431640625</ele>
        <time>2025-01-09T13:18:44.000Z</time>
        <extensions>
          <ns3:TrackPointExtension>
            <ns3:hr>175</ns3:hr>
            <ns3:cad>82</ns3:cad>
          </ns3:TrackPointExtension>
        </extensions>
      </trkpt>
      <trkpt lat="23.3879136107861995697021484375" lon="113.2293652184307575225830078125">
        <ele>7</ele>
        <time>2025-01-09T13:18:53.000Z</time>
        <extensions>
          <ns3:TrackPointExtension>
            <ns3:hr>175</ns3:hr>
            <ns3:cad>0</ns3:cad>
          </ns3:TrackPointExtension>
        </extensions>
      </trkpt>
      <trkpt lat="23.3879293687641620635986328125" lon="113.22946387343108654022216796875">
        <ele>7.400000095367431640625</ele>
        <time>2025-01-09T13:19:01.000Z</time>
        <extensions>
          <ns3:TrackPointExtension>
            <ns3:hr>175</ns3:hr>
            <ns3:cad>61</ns3:cad>
          </ns3:TrackPointExtension>
        </extensions>
      </trkpt>
      <trkpt lat="23.387961722910404205322265625" lon="113.229671157896518707275390625">
        <ele>7.400000095367431640625</ele>
        <time>2025-01-09T13:19:12.000Z</time>
        <extensions>
          <ns3:TrackPointExtension>
            <ns3:hr>175</ns3:hr>
            <ns3:cad>78</ns3:cad>
          </ns3:TrackPointExtension>
        </extensions>
      </trkpt>
      <trkpt lat="23.3879404328763484954833984375" lon="113.22975556366145610809326171875">
        <ele>6.599999904632568359375</ele>
        <time>2025-01-09T13:19:19.000Z</time>
        <extensions>
          <ns3:TrackPointExtension>
            <ns3:hr>174</ns3:hr>
            <ns3:cad>61</ns3:cad>
          </ns3:TrackPointExtension>
        </extensions>
      </trkpt>
      <trkpt lat="23.387929536402225494384765625" lon="113.22978573851287364959716796875">
        <ele>6.400000095367431640625</ele>
        <time>2025-01-09T13:19:21.000Z</time>
        <extensions>
          <ns3:TrackPointExtension>
            <ns3:hr>173</ns3:hr>
            <ns3:cad>61</ns3:cad>
          </ns3:TrackPointExtension>
        </extensions>
      </trkpt>
      <trkpt lat="23.38790715672075748443603515625" lon="113.22986637242138385772705078125">
        <ele>5.80000019073486328125</ele>
        <time>2025-01-09T13:19:27.000Z</time>
        <extensions>
          <ns3:TrackPointExtension>
            <ns3:hr>171</ns3:hr>
            <ns3:cad>61</ns3:cad>
          </ns3:TrackPointExtension>
        </extensions>
      </trkpt>
      <trkpt lat="23.38791252113878726959228515625" lon="113.2299355231225490570068359375">
        <ele>5.400000095367431640625</ele>
        <time>2025-01-09T13:19:32.000Z</time>
        <extensions>
          <ns3:TrackPointExtension>
            <ns3:hr>170</ns3:hr>
            <ns3:cad>61</ns3:cad>
          </ns3:TrackPointExtension>
        </extensions>
      </trkpt>
      <trkpt lat="23.3879092521965503692626953125" lon="113.22996276430785655975341796875">
        <ele>5.19999980926513671875</ele>
        <time>2025-01-09T13:19:33.000Z</time>
        <extensions>
          <ns3:TrackPointExtension>
            <ns3:hr>169</ns3:hr>
            <ns3:cad>61</ns3:cad>
          </ns3:TrackPointExtension>
        </extensions>
      </trkpt>
      <trkpt lat="23.3879092521965503692626953125" lon="113.22996276430785655975341796875">
        <ele>5.19999980926513671875</ele>
        <time>2025-01-09T13:19:34.000Z</time>
        <extensions>
          <ns3:TrackPointExtension>
            <ns3:hr>169</ns3:hr>
            <ns3:cad>61</ns3:cad>
          </ns3:TrackPointExtension>
        </extensions>
      </trkpt>
      <trkpt lat="23.38790263049304485321044921875" lon="113.22999277152121067047119140625">
        <ele>4.80000019073486328125</ele>
        <time>2025-01-09T13:19:37.000Z</time>
        <extensions>
          <ns3:TrackPointExtension>
            <ns3:hr>168</ns3:hr>
            <ns3:cad>61</ns3:cad>
          </ns3:TrackPointExtension>
        </extensions>
      </trkpt>
      <trkpt lat="23.3879109285771846771240234375" lon="113.2300448231399059295654296875">
        <ele>4.19999980926513671875</ele>
        <time>2025-01-09T13:19:40.000Z</time>
        <extensions>
          <ns3:TrackPointExtension>
            <ns3:hr>167</ns3:hr>
            <ns3:cad>80</ns3:cad>
          </ns3:TrackPointExtension>
        </extensions>
      </trkpt>
      <trkpt lat="23.38792677037417888641357421875" lon="113.23012419976294040679931640625">
        <ele>3.599999904632568359375</ele>
        <time>2025-01-09T13:19:44.000Z</time>
        <extensions>
          <ns3:TrackPointExtension>
            <ns3:hr>165</ns3:hr>
            <ns3:cad>81</ns3:cad>
          </ns3:TrackPointExtension>
        </extensions>
      </trkpt>
      <trkpt lat="23.3879506587982177734375" lon="113.23029519058763980865478515625">
        <ele>2.599999904632568359375</ele>
        <time>2025-01-09T13:19:50.000Z</time>
        <extensions>
          <ns3:TrackPointExtension>
            <ns3:hr>162</ns3:hr>
            <ns3:cad>82</ns3:cad>
          </ns3:TrackPointExtension>
        </extensions>
      </trkpt>
      <trkpt lat="23.38794688694179058074951171875" lon="113.23049736209213733673095703125">
        <ele>2.400000095367431640625</ele>
        <time>2025-01-09T13:19:57.000Z</time>
        <extensions>
          <ns3:TrackPointExtension>
            <ns3:hr>160</ns3:hr>
            <ns3:cad>82</ns3:cad>
          </ns3:TrackPointExtension>
        </extensions>
      </trkpt>
      <trkpt lat="23.3879367448389530181884765625" lon="113.2306312210857868194580078125">
        <ele>2</ele>
        <time>2025-01-09T13:20:02.000Z</time>
        <extensions>
          <ns3:TrackPointExtension>
            <ns3:hr>153</ns3:hr>
            <ns3:cad>82</ns3:cad>
          </ns3:TrackPointExtension>
        </extensions>
      </trkpt>
      <trkpt lat="23.38793112896382808685302734375" lon="113.230647146701812744140625">
        <ele>2</ele>
        <time>2025-01-09T13:20:03.000Z</time>
        <extensions>
          <ns3:TrackPointExtension>
            <ns3:hr>148</ns3:hr>
            <ns3:cad>82</ns3:cad>
          </ns3:TrackPointExtension>
        </extensions>
      </trkpt>
      <trkpt lat="23.38790799491107463836669921875" lon="113.2307683490216732025146484375">
        <ele>1.7999999523162841796875</ele>
        <time>2025-01-09T13:20:08.000Z</time>
        <extensions>
          <ns3:TrackPointExtension>
            <ns3:hr>152</ns3:hr>
            <ns3:cad>81</ns3:cad>
          </ns3:TrackPointExtension>
        </extensions>
      </trkpt>
      <trkpt lat="23.3878975175321102142333984375" lon="113.23081956245005130767822265625">
        <ele>2</ele>
        <time>2025-01-09T13:20:10.000Z</time>
        <extensions>
          <ns3:TrackPointExtension>
            <ns3:hr>156</ns3:hr>
            <ns3:cad>81</ns3:cad>
          </ns3:TrackPointExtension>
        </extensions>
      </trkpt>
      <trkpt lat="23.38788234628736972808837890625" lon="113.23087320663034915924072265625">
        <ele>2</ele>
        <time>2025-01-09T13:20:12.000Z</time>
        <extensions>
          <ns3:TrackPointExtension>
            <ns3:hr>160</ns3:hr>
            <ns3:cad>81</ns3:cad>
          </ns3:TrackPointExtension>
        </extensions>
      </trkpt>
      <trkpt lat="23.38784261606633663177490234375" lon="113.23098041117191314697265625">
        <ele>1.7999999523162841796875</ele>
        <time>2025-01-09T13:20:15.000Z</time>
        <extensions>
          <ns3:TrackPointExtension>
            <ns3:hr>163</ns3:hr>
            <ns3:cad>82</ns3:cad>
          </ns3:TrackPointExtension>
        </extensions>
      </trkpt>
      <trkpt lat="23.3878291212022304534912109375" lon="113.2310266792774200439453125">
        <ele>1.7999999523162841796875</ele>
        <time>2025-01-09T13:20:17.000Z</time>
        <extensions>
          <ns3:TrackPointExtension>
            <ns3:hr>166</ns3:hr>
            <ns3:cad>82</ns3:cad>
          </ns3:TrackPointExtension>
        </extensions>
      </trkpt>
      <trkpt lat="23.38780992664396762847900390625" lon="113.23113857768476009368896484375">
        <ele>2.400000095367431640625</ele>
        <time>2025-01-09T13:20:21.000Z</time>
        <extensions>
          <ns3:TrackPointExtension>
            <ns3:hr>169</ns3:hr>
            <ns3:cad>82</ns3:cad>
          </ns3:TrackPointExtension>
        </extensions>
      </trkpt>
      <trkpt lat="23.38778696022927761077880859375" lon="113.23129129596054553985595703125">
        <ele>3</ele>
        <time>2025-01-09T13:20:26.000Z</time>
        <extensions>
          <ns3:TrackPointExtension>
            <ns3:hr>172</ns3:hr>
            <ns3:cad>83</ns3:cad>
          </ns3:TrackPointExtension>
        </extensions>
      </trkpt>
      <trkpt lat="23.3877427875995635986328125" lon="113.23148667812347412109375">
        <ele>3.599999904632568359375</ele>
        <time>2025-01-09T13:20:34.000Z</time>
        <extensions>
          <ns3:TrackPointExtension>
            <ns3:hr>173</ns3:hr>
            <ns3:cad>82</ns3:cad>
          </ns3:TrackPointExtension>
        </extensions>
      </trkpt>
      <trkpt lat="23.38771554641425609588623046875" lon="113.23169027455151081085205078125">
        <ele>3.599999904632568359375</ele>
        <time>2025-01-09T13:20:43.000Z</time>
        <extensions>
          <ns3:TrackPointExtension>
            <ns3:hr>175</ns3:hr>
            <ns3:cad>82</ns3:cad>
          </ns3:TrackPointExtension>
        </extensions>
      </trkpt>
      <trkpt lat="23.3877010457217693328857421875" lon="113.2318999059498310089111328125">
        <ele>3.400000095367431640625</ele>
        <time>2025-01-09T13:20:52.000Z</time>
        <extensions>
          <ns3:TrackPointExtension>
            <ns3:hr>175</ns3:hr>
            <ns3:cad>82</ns3:cad>
          </ns3:TrackPointExtension>
        </extensions>
      </trkpt>
      <trkpt lat="23.387649916112422943115234375" lon="113.23209277354180812835693359375">
        <ele>3.400000095367431640625</ele>
        <time>2025-01-09T13:20:59.000Z</time>
        <extensions>
          <ns3:TrackPointExtension>
            <ns3:hr>175</ns3:hr>
            <ns3:cad>83</ns3:cad>
          </ns3:TrackPointExtension>
        </extensions>
      </trkpt>
      <trkpt lat="23.387593924999237060546875" lon="113.23214759118854999542236328125">
        <ele>3</ele>
        <time>2025-01-09T13:21:00.000Z</time>
        <extensions>
          <ns3:TrackPointExtension>
            <ns3:hr>175</ns3:hr>
            <ns3:cad>82</ns3:cad>
          </ns3:TrackPointExtension>
        </extensions>
      </trkpt>
      <trkpt lat="23.38740491308271884918212890625" lon="113.23223342187702655792236328125">
        <ele>3.599999904632568359375</ele>
        <time>2025-01-09T13:21:08.000Z</time>
        <extensions>
          <ns3:TrackPointExtension>
            <ns3:hr>175</ns3:hr>
            <ns3:cad>80</ns3:cad>
          </ns3:TrackPointExtension>
        </extensions>
      </trkpt>
      <trkpt lat="23.38724993169307708740234375" lon="113.232336603105068206787109375">
        <ele>5.400000095367431640625</ele>
        <time>2025-01-09T13:21:14.000Z</time>
        <extensions>
          <ns3:TrackPointExtension>
            <ns3:hr>175</ns3:hr>
            <ns3:cad>81</ns3:cad>
          </ns3:TrackPointExtension>
        </extensions>
      </trkpt>
      <trkpt lat="23.38707801885902881622314453125" lon="113.23242939077317714691162109375">
        <ele>8</ele>
        <time>2025-01-09T13:21:21.000Z</time>
        <extensions>
          <ns3:TrackPointExtension>
            <ns3:hr>175</ns3:hr>
            <ns3:cad>81</ns3:cad>
          </ns3:TrackPointExtension>
        </extensions>
      </trkpt>
      <trkpt lat="23.3869617618620395660400390625" lon="113.2326120324432849884033203125">
        <ele>7.400000095367431640625</ele>
        <time>2025-01-09T13:21:32.000Z</time>
        <extensions>
          <ns3:TrackPointExtension>
            <ns3:hr>175</ns3:hr>
            <ns3:cad>81</ns3:cad>
          </ns3:TrackPointExtension>
        </extensions>
      </trkpt>
      <trkpt lat="23.3869595825672149658203125" lon="113.23270934633910655975341796875">
        <ele>5.80000019073486328125</ele>
        <time>2025-01-09T13:21:34.000Z</time>
        <extensions>
          <ns3:TrackPointExtension>
            <ns3:hr>175</ns3:hr>
            <ns3:cad>82</ns3:cad>
          </ns3:TrackPointExtension>
        </extensions>
      </trkpt>
      <trkpt lat="23.386930413544178009033203125" lon="113.23290883563458919525146484375">
        <ele>3.7999999523162841796875</ele>
        <time>2025-01-09T13:21:41.000Z</time>
        <extensions>
          <ns3:TrackPointExtension>
            <ns3:hr>175</ns3:hr>
            <ns3:cad>83</ns3:cad>
          </ns3:TrackPointExtension>
        </extensions>
      </trkpt>
      <trkpt lat="23.38685740716755390167236328125" lon="113.23310337960720062255859375">
        <ele>1.39999997615814208984375</ele>
        <time>2025-01-09T13:21:46.000Z</time>
        <extensions>
          <ns3:TrackPointExtension>
            <ns3:hr>175</ns3:hr>
            <ns3:cad>83</ns3:cad>
          </ns3:TrackPointExtension>
        </extensions>
      </trkpt>
      <trkpt lat="23.38681784458458423614501953125" lon="113.23330613784492015838623046875">
        <ele>0.4000000059604644775390625</ele>
        <time>2025-01-09T13:21:54.000Z</time>
        <extensions>
          <ns3:TrackPointExtension>
            <ns3:hr>175</ns3:hr>
            <ns3:cad>82</ns3:cad>
          </ns3:TrackPointExtension>
        </extensions>
      </trkpt>
      <trkpt lat="23.38680191896855831146240234375" lon="113.23338543064892292022705078125">
        <ele>0.4000000059604644775390625</ele>
        <time>2025-01-09T13:21:59.000Z</time>
        <extensions>
          <ns3:TrackPointExtension>
            <ns3:hr>176</ns3:hr>
            <ns3:cad>81</ns3:cad>
          </ns3:TrackPointExtension>
        </extensions>
      </trkpt>
      <trkpt lat="23.3867951296269893646240234375" lon="113.233536891639232635498046875">
        <ele>-1.2000000476837158203125</ele>
        <time>2025-01-09T13:22:11.000Z</time>
        <extensions>
          <ns3:TrackPointExtension>
            <ns3:hr>176</ns3:hr>
            <ns3:cad>61</ns3:cad>
          </ns3:TrackPointExtension>
        </extensions>
      </trkpt>
      <trkpt lat="23.38683594949543476104736328125" lon="113.233661614358425140380859375">
        <ele>0.60000002384185791015625</ele>
        <time>2025-01-09T13:22:24.000Z</time>
        <extensions>
          <ns3:TrackPointExtension>
            <ns3:hr>175</ns3:hr>
            <ns3:cad>61</ns3:cad>
          </ns3:TrackPointExtension>
        </extensions>
      </trkpt>
      <trkpt lat="23.3868898451328277587890625" lon="113.23368080891668796539306640625">
        <ele>1.39999997615814208984375</ele>
        <time>2025-01-09T13:22:28.000Z</time>
        <extensions>
          <ns3:TrackPointExtension>
            <ns3:hr>175</ns3:hr>
            <ns3:cad>61</ns3:cad>
          </ns3:TrackPointExtension>
        </extensions>
      </trkpt>
      <trkpt lat="23.38702018372714519500732421875" lon="113.23362372815608978271484375">
        <ele>2.599999904632568359375</ele>
        <time>2025-01-09T13:22:36.000Z</time>
        <extensions>
          <ns3:TrackPointExtension>
            <ns3:hr>172</ns3:hr>
            <ns3:cad>81</ns3:cad>
          </ns3:TrackPointExtension>
        </extensions>
      </trkpt>
      <trkpt lat="23.38717793114483356475830078125" lon="113.2336798869073390960693359375">
        <ele>6.19999980926513671875</ele>
        <time>2025-01-09T13:22:44.000Z</time>
        <extensions>
          <ns3:TrackPointExtension>
            <ns3:hr>169</ns3:hr>
            <ns3:cad>81</ns3:cad>
          </ns3:TrackPointExtension>
        </extensions>
      </trkpt>
      <trkpt lat="23.38727147318422794342041015625" lon="113.2337774522602558135986328125">
        <ele>7.19999980926513671875</ele>
        <time>2025-01-09T13:22:50.000Z</time>
        <extensions>
          <ns3:TrackPointExtension>
            <ns3:hr>163</ns3:hr>
            <ns3:cad>81</ns3:cad>
          </ns3:TrackPointExtension>
        </extensions>
      </trkpt>
      <trkpt lat="23.38727767579257488250732421875" lon="113.2338032685220241546630859375">
        <ele>7.19999980926513671875</ele>
        <time>2025-01-09T13:22:51.000Z</time>
        <extensions>
          <ns3:TrackPointExtension>
            <ns3:hr>159</ns3:hr>
            <ns3:cad>81</ns3:cad>
          </ns3:TrackPointExtension>
        </extensions>
      </trkpt>
      <trkpt lat="23.387280441820621490478515625" lon="113.233854062855243682861328125">
        <ele>7.400000095367431640625</ele>
        <time>2025-01-09T13:22:52.000Z</time>
        <extensions>
          <ns3:TrackPointExtension>
            <ns3:hr>160</ns3:hr>
            <ns3:cad>81</ns3:cad>
          </ns3:TrackPointExtension>
        </extensions>
      </trkpt>
      <trkpt lat="23.387277089059352874755859375" lon="113.23387853801250457763671875">
        <ele>7.599999904632568359375</ele>
        <time>2025-01-09T13:22:54.000Z</time>
        <extensions>
          <ns3:TrackPointExtension>
            <ns3:hr>163</ns3:hr>
            <ns3:cad>81</ns3:cad>
          </ns3:TrackPointExtension>
        </extensions>
      </trkpt>
      <trkpt lat="23.38726342655718326568603515625" lon="113.23395255021750926971435546875">
        <ele>8.3999996185302734375</ele>
        <time>2025-01-09T13:22:57.000Z</time>
        <extensions>
          <ns3:TrackPointExtension>
            <ns3:hr>166</ns3:hr>
            <ns3:cad>82</ns3:cad>
          </ns3:TrackPointExtension>
        </extensions>
      </trkpt>
      <trkpt lat="23.3872519433498382568359375" lon="113.23402631096541881561279296875">
        <ele>9.6000003814697265625</ele>
        <time>2025-01-09T13:23:00.000Z</time>
        <extensions>
          <ns3:TrackPointExtension>
            <ns3:hr>169</ns3:hr>
            <ns3:cad>81</ns3:cad>
          </ns3:TrackPointExtension>
        </extensions>
      </trkpt>
      <trkpt lat="23.3872356824576854705810546875" lon="113.23412354104220867156982421875">
        <ele>10.3999996185302734375</ele>
        <time>2025-01-09T13:23:04.000Z</time>
        <extensions>
          <ns3:TrackPointExtension>
            <ns3:hr>172</ns3:hr>
            <ns3:cad>81</ns3:cad>
          </ns3:TrackPointExtension>
        </extensions>
      </trkpt>
      <trkpt lat="23.3872021548449993133544921875" lon="113.23431682772934436798095703125">
        <ele>7</ele>
        <time>2025-01-09T13:23:12.000Z</time>
        <extensions>
          <ns3:TrackPointExtension>
            <ns3:hr>174</ns3:hr>
            <ns3:cad>82</ns3:cad>
          </ns3:TrackPointExtension>
        </extensions>
      </trkpt>
      <trkpt lat="23.3871538750827312469482421875" lon="113.2345331646502017974853515625">
        <ele>1.60000002384185791015625</ele>
        <time>2025-01-09T13:23:20.000Z</time>
        <extensions>
          <ns3:TrackPointExtension>
            <ns3:hr>175</ns3:hr>
            <ns3:cad>81</ns3:cad>
          </ns3:TrackPointExtension>
        </extensions>
      </trkpt>
      <trkpt lat="23.3871243707835674285888671875" lon="113.23473122902214527130126953125">
        <ele>1</ele>
        <time>2025-01-09T13:23:28.000Z</time>
        <extensions>
          <ns3:TrackPointExtension>
            <ns3:hr>176</ns3:hr>
            <ns3:cad>82</ns3:cad>
          </ns3:TrackPointExtension>
        </extensions>
      </trkpt>
      <trkpt lat="23.38709427975118160247802734375" lon="113.23493038304150104522705078125">
        <ele>1.60000002384185791015625</ele>
        <time>2025-01-09T13:23:36.000Z</time>
        <extensions>
          <ns3:TrackPointExtension>
            <ns3:hr>176</ns3:hr>
            <ns3:cad>83</ns3:cad>
          </ns3:TrackPointExtension>
        </extensions>
      </trkpt>
      <trkpt lat="23.3870630152523517608642578125" lon="113.23514512740075588226318359375">
        <ele>1.39999997615814208984375</ele>
        <time>2025-01-09T13:23:44.000Z</time>
        <extensions>
          <ns3:TrackPointExtension>
            <ns3:hr>176</ns3:hr>
            <ns3:cad>83</ns3:cad>
          </ns3:TrackPointExtension>
        </extensions>
      </trkpt>
      <trkpt lat="23.3870402164757251739501953125" lon="113.23534972965717315673828125">
        <ele>1.39999997615814208984375</ele>
        <time>2025-01-09T13:23:49.000Z</time>
        <extensions>
          <ns3:TrackPointExtension>
            <ns3:hr>176</ns3:hr>
            <ns3:cad>82</ns3:cad>
          </ns3:TrackPointExtension>
        </extensions>
      </trkpt>
      <trkpt lat="23.3870036713778972625732421875" lon="113.235569000244140625">
        <ele>1.60000002384185791015625</ele>
        <time>2025-01-09T13:23:54.000Z</time>
        <extensions>
          <ns3:TrackPointExtension>
            <ns3:hr>176</ns3:hr>
            <ns3:cad>86</ns3:cad>
          </ns3:TrackPointExtension>
        </extensions>
      </trkpt>
      <trkpt lat="23.38696368969976902008056640625" lon="113.235799334943294525146484375">
        <ele>2.400000095367431640625</ele>
        <time>2025-01-09T13:24:00.000Z</time>
        <extensions>
          <ns3:TrackPointExtension>
            <ns3:hr>176</ns3:hr>
            <ns3:cad>86</ns3:cad>
          </ns3:TrackPointExtension>
        </extensions>
      </trkpt>
      <trkpt lat="23.386946506798267364501953125" lon="113.236006535589694976806640625">
        <ele>5.400000095367431640625</ele>
        <time>2025-01-09T13:24:06.000Z</time>
        <extensions>
          <ns3:TrackPointExtension>
            <ns3:hr>176</ns3:hr>
            <ns3:cad>82</ns3:cad>
          </ns3:TrackPointExtension>
        </extensions>
      </trkpt>
      <trkpt lat="23.3869238756597042083740234375" lon="113.2362055219709873199462890625">
        <ele>8.19999980926513671875</ele>
        <time>2025-01-09T13:24:12.000Z</time>
        <extensions>
          <ns3:TrackPointExtension>
            <ns3:hr>176</ns3:hr>
            <ns3:cad>82</ns3:cad>
          </ns3:TrackPointExtension>
        </extensions>
      </trkpt>
      <trkpt lat="23.38689596392214298248291015625" lon="113.23643107898533344268798828125">
        <ele>11</ele>
        <time>2025-01-09T13:24:18.000Z</time>
        <extensions>
          <ns3:TrackPointExtension>
            <ns3:hr>176</ns3:hr>
            <ns3:cad>84</ns3:cad>
          </ns3:TrackPointExtension>
        </extensions>
      </trkpt>
      <trkpt lat="23.38685489259660243988037109375" lon="113.2366356812417507171630859375">
        <ele>12.19999980926513671875</ele>
        <time>2025-01-09T13:24:27.000Z</time>
        <extensions>
          <ns3:TrackPointExtension>
            <ns3:hr>176</ns3:hr>
            <ns3:cad>81</ns3:cad>
          </ns3:TrackPointExtension>
        </extensions>
      </trkpt>
      <trkpt lat="23.38683527894318103790283203125" lon="113.23683701455593109130859375">
        <ele>10.3999996185302734375</ele>
        <time>2025-01-09T13:24:38.000Z</time>
        <extensions>
          <ns3:TrackPointExtension>
            <ns3:hr>176</ns3:hr>
            <ns3:cad>82</ns3:cad>
          </ns3:TrackPointExtension>
        </extensions>
      </trkpt>
      <trkpt lat="23.38684852235019207000732421875" lon="113.2370410300791263580322265625">
        <ele>9.3999996185302734375</ele>
        <time>2025-01-09T13:24:55.000Z</time>
        <extensions>
          <ns3:TrackPointExtension>
            <ns3:hr>177</ns3:hr>
            <ns3:cad>61</ns3:cad>
          </ns3:TrackPointExtension>
        </extensions>
      </trkpt>
      <trkpt lat="23.3868316747248172760009765625" lon="113.2372304610908031463623046875">
        <ele>8.80000019073486328125</ele>
        <time>2025-01-09T13:25:11.000Z</time>
        <extensions>
          <ns3:TrackPointExtension>
            <ns3:hr>174</ns3:hr>
            <ns3:cad>61</ns3:cad>
          </ns3:TrackPointExtension>
        </extensions>
      </trkpt>
      <trkpt lat="23.38682136498391628265380859375" lon="113.23734973557293415069580078125">
        <ele>8.80000019073486328125</ele>
        <time>2025-01-09T13:25:21.000Z</time>
        <extensions>
          <ns3:TrackPointExtension>
            <ns3:hr>171</ns3:hr>
            <ns3:cad>61</ns3:cad>
          </ns3:TrackPointExtension>
        </extensions>
      </trkpt>
      <trkpt lat="23.386817760765552520751953125" lon="113.237429447472095489501953125">
        <ele>9.3999996185302734375</ele>
        <time>2025-01-09T13:25:29.000Z</time>
        <extensions>
          <ns3:TrackPointExtension>
            <ns3:hr>152</ns3:hr>
            <ns3:cad>61</ns3:cad>
          </ns3:TrackPointExtension>
        </extensions>
      </trkpt>
      <trkpt lat="23.3868182636797428131103515625" lon="113.2374420203268527984619140625">
        <ele>9.19999980926513671875</ele>
        <time>2025-01-09T13:25:30.000Z</time>
        <extensions>
          <ns3:TrackPointExtension>
            <ns3:hr>152</ns3:hr>
            <ns3:cad>61</ns3:cad>
          </ns3:TrackPointExtension>
        </extensions>
      </trkpt>
      <trkpt lat="23.38683553040027618408203125" lon="113.23758535087108612060546875">
        <ele>8.19999980926513671875</ele>
        <time>2025-01-09T13:25:37.000Z</time>
        <extensions>
          <ns3:TrackPointExtension>
            <ns3:hr>149</ns3:hr>
            <ns3:cad>79</ns3:cad>
          </ns3:TrackPointExtension>
        </extensions>
      </trkpt>
      <trkpt lat="23.3868809603154659271240234375" lon="113.2377880252897739410400390625">
        <ele>6.19999980926513671875</ele>
        <time>2025-01-09T13:25:45.000Z</time>
        <extensions>
          <ns3:TrackPointExtension>
            <ns3:hr>148</ns3:hr>
            <ns3:cad>80</ns3:cad>
          </ns3:TrackPointExtension>
        </extensions>
      </trkpt>
      <trkpt lat="23.38690434582531452178955078125" lon="113.237982653081417083740234375">
        <ele>4</ele>
        <time>2025-01-09T13:25:52.000Z</time>
        <extensions>
          <ns3:TrackPointExtension>
            <ns3:hr>147</ns3:hr>
            <ns3:cad>81</ns3:cad>
          </ns3:TrackPointExtension>
        </extensions>
      </trkpt>
      <trkpt lat="23.38688758201897144317626953125" lon="113.23819882236421108245849609375">
        <ele>4</ele>
        <time>2025-01-09T13:26:00.000Z</time>
        <extensions>
          <ns3:TrackPointExtension>
            <ns3:hr>145</ns3:hr>
            <ns3:cad>82</ns3:cad>
          </ns3:TrackPointExtension>
        </extensions>
      </trkpt>
      <trkpt lat="23.38688590563833713531494140625" lon="113.2382265664637088775634765625">
        <ele>4</ele>
        <time>2025-01-09T13:26:01.000Z</time>
        <extensions>
          <ns3:TrackPointExtension>
            <ns3:hr>140</ns3:hr>
            <ns3:cad>82</ns3:cad>
          </ns3:TrackPointExtension>
        </extensions>
      </trkpt>
      <trkpt lat="23.3868844807147979736328125" lon="113.23825456202030181884765625">
        <ele>4</ele>
        <time>2025-01-09T13:26:02.000Z</time>
        <extensions>
          <ns3:TrackPointExtension>
            <ns3:hr>141</ns3:hr>
            <ns3:cad>82</ns3:cad>
          </ns3:TrackPointExtension>
        </extensions>
      </trkpt>
      <trkpt lat="23.3868812955915927886962890625" lon="113.23834097944200038909912109375">
        <ele>4</ele>
        <time>2025-01-09T13:26:05.000Z</time>
        <extensions>
          <ns3:TrackPointExtension>
            <ns3:hr>145</ns3:hr>
            <ns3:cad>81</ns3:cad>
          </ns3:TrackPointExtension>
        </extensions>
      </trkpt>
      <trkpt lat="23.3868819661438465118408203125" lon="113.23837618343532085418701171875">
        <ele>4</ele>
        <time>2025-01-09T13:26:06.000Z</time>
        <extensions>
          <ns3:TrackPointExtension>
            <ns3:hr>148</ns3:hr>
            <ns3:cad>81</ns3:cad>
          </ns3:TrackPointExtension>
        </extensions>
      </trkpt>
      <trkpt lat="23.38688624091446399688720703125" lon="113.238407783210277557373046875">
        <ele>4</ele>
        <time>2025-01-09T13:26:07.000Z</time>
        <extensions>
          <ns3:TrackPointExtension>
            <ns3:hr>151</ns3:hr>
            <ns3:cad>81</ns3:cad>
          </ns3:TrackPointExtension>
        </extensions>
      </trkpt>
      <trkpt lat="23.38689194060862064361572265625" lon="113.238465785980224609375">
        <ele>4</ele>
        <time>2025-01-09T13:26:09.000Z</time>
        <extensions>
          <ns3:TrackPointExtension>
            <ns3:hr>156</ns3:hr>
            <ns3:cad>81</ns3:cad>
          </ns3:TrackPointExtension>
        </extensions>
      </trkpt>
      <trkpt lat="23.38689588010311126708984375" lon="113.23852269910275936126708984375">
        <ele>4</ele>
        <time>2025-01-09T13:26:11.000Z</time>
        <extensions>
          <ns3:TrackPointExtension>
            <ns3:hr>160</ns3:hr>
            <ns3:cad>80</ns3:cad>
          </ns3:TrackPointExtension>
        </extensions>
      </trkpt>
      <trkpt lat="23.38690929114818572998046875" lon="113.2385755889117717742919921875">
        <ele>3.7999999523162841796875</ele>
        <time>2025-01-09T13:26:13.000Z</time>
        <extensions>
          <ns3:TrackPointExtension>
            <ns3:hr>163</ns3:hr>
            <ns3:cad>80</ns3:cad>
          </ns3:TrackPointExtension>
        </extensions>
      </trkpt>
      <trkpt lat="23.386922366917133331298828125" lon="113.23863065801560878753662109375">
        <ele>3.2000000476837158203125</ele>
        <time>2025-01-09T13:26:15.000Z</time>
        <extensions>
          <ns3:TrackPointExtension>
            <ns3:hr>166</ns3:hr>
            <ns3:cad>80</ns3:cad>
          </ns3:TrackPointExtension>
        </extensions>
      </trkpt>
      <trkpt lat="23.3869349397718906402587890625" lon="113.238725624978542327880859375">
        <ele>2.400000095367431640625</ele>
        <time>2025-01-09T13:26:19.000Z</time>
        <extensions>
          <ns3:TrackPointExtension>
            <ns3:hr>169</ns3:hr>
            <ns3:cad>80</ns3:cad>
          </ns3:TrackPointExtension>
        </extensions>
      </trkpt>
      <trkpt lat="23.38694424368441104888916015625" lon="113.2387931831181049346923828125">
        <ele>1.7999999523162841796875</ele>
        <time>2025-01-09T13:26:22.000Z</time>
        <extensions>
          <ns3:TrackPointExtension>
            <ns3:hr>172</ns3:hr>
            <ns3:cad>81</ns3:cad>
          </ns3:TrackPointExtension>
        </extensions>
      </trkpt>
      <trkpt lat="23.38695782236754894256591796875" lon="113.23899040929973125457763671875">
        <ele>1.7999999523162841796875</ele>
        <time>2025-01-09T13:26:30.000Z</time>
        <extensions>
          <ns3:TrackPointExtension>
            <ns3:hr>175</ns3:hr>
            <ns3:cad>81</ns3:cad>
          </ns3:TrackPointExtension>
        </extensions>
      </trkpt>
      <trkpt lat="23.38698548264801502227783203125" lon="113.239190988242626190185546875">
        <ele>3.2000000476837158203125</ele>
        <time>2025-01-09T13:26:39.000Z</time>
        <extensions>
          <ns3:TrackPointExtension>
            <ns3:hr>176</ns3:hr>
            <ns3:cad>80</ns3:cad>
          </ns3:TrackPointExtension>
        </extensions>
      </trkpt>
      <trkpt lat="23.38700115680694580078125" lon="113.2394094206392765045166015625">
        <ele>4.599999904632568359375</ele>
        <time>2025-01-09T13:26:48.000Z</time>
        <extensions>
          <ns3:TrackPointExtension>
            <ns3:hr>177</ns3:hr>
            <ns3:cad>82</ns3:cad>
          </ns3:TrackPointExtension>
        </extensions>
      </trkpt>
      <trkpt lat="23.387036025524139404296875" lon="113.23961972258985042572021484375">
        <ele>5</ele>
        <time>2025-01-09T13:26:57.000Z</time>
        <extensions>
          <ns3:TrackPointExtension>
            <ns3:hr>177</ns3:hr>
            <ns3:cad>81</ns3:cad>
          </ns3:TrackPointExtension>
        </extensions>
      </trkpt>
      <trkpt lat="23.3870864845812320709228515625" lon="113.23983195237815380096435546875">
        <ele>4</ele>
        <time>2025-01-09T13:27:06.000Z</time>
        <extensions>
          <ns3:TrackPointExtension>
            <ns3:hr>177</ns3:hr>
            <ns3:cad>83</ns3:cad>
          </ns3:TrackPointExtension>
        </extensions>
      </trkpt>
      <trkpt lat="23.38713057339191436767578125" lon="113.2400290109217166900634765625">
        <ele>2.400000095367431640625</ele>
        <time>2025-01-09T13:27:14.000Z</time>
        <extensions>
          <ns3:TrackPointExtension>
            <ns3:hr>177</ns3:hr>
            <ns3:cad>81</ns3:cad>
          </ns3:TrackPointExtension>
        </extensions>
      </trkpt>
      <trkpt lat="23.38719620369374752044677734375" lon="113.24022942222654819488525390625">
        <ele>0</ele>
        <time>2025-01-09T13:27:21.000Z</time>
        <extensions>
          <ns3:TrackPointExtension>
            <ns3:hr>177</ns3:hr>
            <ns3:cad>82</ns3:cad>
          </ns3:TrackPointExtension>
        </extensions>
      </trkpt>
      <trkpt lat="23.38726677931845188140869140625" lon="113.240432180464267730712890625">
        <ele>0.800000011920928955078125</ele>
        <time>2025-01-09T13:27:28.000Z</time>
        <extensions>
          <ns3:TrackPointExtension>
            <ns3:hr>177</ns3:hr>
            <ns3:cad>81</ns3:cad>
          </ns3:TrackPointExtension>
        </extensions>
      </trkpt>
      <trkpt lat="23.3873070962727069854736328125" lon="113.240634687244892120361328125">
        <ele>2.2000000476837158203125</ele>
        <time>2025-01-09T13:27:35.000Z</time>
        <extensions>
          <ns3:TrackPointExtension>
            <ns3:hr>177</ns3:hr>
            <ns3:cad>82</ns3:cad>
          </ns3:TrackPointExtension>
        </extensions>
      </trkpt>
      <trkpt lat="23.38723073713481426239013671875" lon="113.2408381998538970947265625">
        <ele>0.800000011920928955078125</ele>
        <time>2025-01-09T13:27:43.000Z</time>
        <extensions>
          <ns3:TrackPointExtension>
            <ns3:hr>177</ns3:hr>
            <ns3:cad>81</ns3:cad>
          </ns3:TrackPointExtension>
        </extensions>
      </trkpt>
      <trkpt lat="23.38725219480693340301513671875" lon="113.24104565195739269256591796875">
        <ele>1.2000000476837158203125</ele>
        <time>2025-01-09T13:27:50.000Z</time>
        <extensions>
          <ns3:TrackPointExtension>
            <ns3:hr>177</ns3:hr>
            <ns3:cad>81</ns3:cad>
          </ns3:TrackPointExtension>
        </extensions>
      </trkpt>
      <trkpt lat="23.3873003907501697540283203125" lon="113.241242207586765289306640625">
        <ele>3.400000095367431640625</ele>
        <time>2025-01-09T13:27:58.000Z</time>
        <extensions>
          <ns3:TrackPointExtension>
            <ns3:hr>177</ns3:hr>
            <ns3:cad>83</ns3:cad>
          </ns3:TrackPointExtension>
        </extensions>
      </trkpt>
      <trkpt lat="23.3873349241912364959716796875" lon="113.24137003161013126373291015625">
        <ele>4.400000095367431640625</ele>
        <time>2025-01-09T13:28:03.000Z</time>
        <extensions>
          <ns3:TrackPointExtension>
            <ns3:hr>177</ns3:hr>
            <ns3:cad>84</ns3:cad>
          </ns3:TrackPointExtension>
        </extensions>
      </trkpt>
      <trkpt lat="23.3874526061117649078369140625" lon="113.24155443347990512847900390625">
        <ele>5.80000019073486328125</ele>
        <time>2025-01-09T13:28:10.000Z</time>
        <extensions>
          <ns3:TrackPointExtension>
            <ns3:hr>177</ns3:hr>
            <ns3:cad>83</ns3:cad>
          </ns3:TrackPointExtension>
        </extensions>
      </trkpt>
      <trkpt lat="23.3875562064349651336669921875" lon="113.24172592721879482269287109375">
        <ele>6</ele>
        <time>2025-01-09T13:28:18.000Z</time>
        <extensions>
          <ns3:TrackPointExtension>
            <ns3:hr>178</ns3:hr>
            <ns3:cad>83</ns3:cad>
          </ns3:TrackPointExtension>
        </extensions>
      </trkpt>
      <trkpt lat="23.38766877539455890655517578125" lon="113.24188761413097381591796875">
        <ele>6</ele>
        <time>2025-01-09T13:28:33.000Z</time>
        <extensions>
          <ns3:TrackPointExtension>
            <ns3:hr>178</ns3:hr>
            <ns3:cad>53</ns3:cad>
          </ns3:TrackPointExtension>
        </extensions>
      </trkpt>
      <trkpt lat="23.38777405209839344024658203125" lon="113.242046535015106201171875">
        <ele>5.400000095367431640625</ele>
        <time>2025-01-09T13:28:48.000Z</time>
        <extensions>
          <ns3:TrackPointExtension>
            <ns3:hr>177</ns3:hr>
            <ns3:cad>61</ns3:cad>
          </ns3:TrackPointExtension>
        </extensions>
      </trkpt>
      <trkpt lat="23.3877878822386264801025390625" lon="113.242059610784053802490234375">
        <ele>5.400000095367431640625</ele>
        <time>2025-01-09T13:28:50.000Z</time>
        <extensions>
          <ns3:TrackPointExtension>
            <ns3:hr>176</ns3:hr>
            <ns3:cad>61</ns3:cad>
          </ns3:TrackPointExtension>
        </extensions>
      </trkpt>
      <trkpt lat="23.3878259360790252685546875" lon="113.24215826578438282012939453125">
        <ele>4.80000019073486328125</ele>
        <time>2025-01-09T13:28:58.000Z</time>
        <extensions>
          <ns3:TrackPointExtension>
            <ns3:hr>173</ns3:hr>
            <ns3:cad>61</ns3:cad>
          </ns3:TrackPointExtension>
        </extensions>
      </trkpt>
      <trkpt lat="23.387872539460659027099609375" lon="113.2422579266130924224853515625">
        <ele>3.400000095367431640625</ele>
        <time>2025-01-09T13:29:07.000Z</time>
        <extensions>
          <ns3:TrackPointExtension>
            <ns3:hr>170</ns3:hr>
            <ns3:cad>60</ns3:cad>
          </ns3:TrackPointExtension>
        </extensions>
      </trkpt>
      <trkpt lat="23.38791755028069019317626953125" lon="113.242354653775691986083984375">
        <ele>2.400000095367431640625</ele>
        <time>2025-01-09T13:29:13.000Z</time>
        <extensions>
          <ns3:TrackPointExtension>
            <ns3:hr>167</ns3:hr>
            <ns3:cad>80</ns3:cad>
          </ns3:TrackPointExtension>
        </extensions>
      </trkpt>
      <trkpt lat="23.38798820972442626953125" lon="113.24251919053494930267333984375">
        <ele>0.20000000298023223876953125</ele>
        <time>2025-01-09T13:29:20.000Z</time>
        <extensions>
          <ns3:TrackPointExtension>
            <ns3:hr>164</ns3:hr>
            <ns3:cad>81</ns3:cad>
          </ns3:TrackPointExtension>
        </extensions>
      </trkpt>
      <trkpt lat="23.38807781226933002471923828125" lon="113.24271080084145069122314453125">
        <ele>-2</ele>
        <time>2025-01-09T13:29:27.000Z</time>
        <extensions>
          <ns3:TrackPointExtension>
            <ns3:hr>162</ns3:hr>
            <ns3:cad>81</ns3:cad>
          </ns3:TrackPointExtension>
        </extensions>
      </trkpt>
      <trkpt lat="23.38814847171306610107421875" lon="113.2428647764027118682861328125">
        <ele>0.800000011920928955078125</ele>
        <time>2025-01-09T13:29:32.000Z</time>
        <extensions>
          <ns3:TrackPointExtension>
            <ns3:hr>159</ns3:hr>
            <ns3:cad>80</ns3:cad>
          </ns3:TrackPointExtension>
        </extensions>
      </trkpt>
      <trkpt lat="23.38815961964428424835205078125" lon="113.24289478361606597900390625">
        <ele>1.2000000476837158203125</ele>
        <time>2025-01-09T13:29:33.000Z</time>
        <extensions>
          <ns3:TrackPointExtension>
            <ns3:hr>154</ns3:hr>
            <ns3:cad>80</ns3:cad>
          </ns3:TrackPointExtension>
        </extensions>
      </trkpt>
      <trkpt lat="23.38818543590605258941650390625" lon="113.24296007864177227020263671875">
        <ele>2.2000000476837158203125</ele>
        <time>2025-01-09T13:29:34.000Z</time>
        <extensions>
          <ns3:TrackPointExtension>
            <ns3:hr>149</ns3:hr>
            <ns3:cad>80</ns3:cad>
          </ns3:TrackPointExtension>
        </extensions>
      </trkpt>
      <trkpt lat="23.38818543590605258941650390625" lon="113.24296007864177227020263671875">
        <ele>2.2000000476837158203125</ele>
        <time>2025-01-09T13:29:35.000Z</time>
        <extensions>
          <ns3:TrackPointExtension>
            <ns3:hr>149</ns3:hr>
            <ns3:cad>81</ns3:cad>
          </ns3:TrackPointExtension>
        </extensions>
      </trkpt>
      <trkpt lat="23.38822181336581707000732421875" lon="113.24304725043475627899169921875">
        <ele>3.7999999523162841796875</ele>
        <time>2025-01-09T13:29:38.000Z</time>
        <extensions>
          <ns3:TrackPointExtension>
            <ns3:hr>152</ns3:hr>
            <ns3:cad>81</ns3:cad>
          </ns3:TrackPointExtension>
        </extensions>
      </trkpt>
      <trkpt lat="23.38824494741857051849365234375" lon="113.2431179098784923553466796875">
        <ele>5.19999980926513671875</ele>
        <time>2025-01-09T13:29:40.000Z</time>
        <extensions>
          <ns3:TrackPointExtension>
            <ns3:hr>156</ns3:hr>
            <ns3:cad>81</ns3:cad>
          </ns3:TrackPointExtension>
        </extensions>
      </trkpt>
      <trkpt lat="23.38826724328100681304931640625" lon="113.24318286962807178497314453125">
        <ele>6.400000095367431640625</ele>
        <time>2025-01-09T13:29:42.000Z</time>
        <extensions>
          <ns3:TrackPointExtension>
            <ns3:hr>159</ns3:hr>
            <ns3:cad>81</ns3:cad>
          </ns3:TrackPointExtension>
        </extensions>
      </trkpt>
      <trkpt lat="23.38829104788601398468017578125" lon="113.2432409562170505523681640625">
        <ele>7.599999904632568359375</ele>
        <time>2025-01-09T13:29:44.000Z</time>
        <extensions>
          <ns3:TrackPointExtension>
            <ns3:hr>162</ns3:hr>
            <ns3:cad>81</ns3:cad>
          </ns3:TrackPointExtension>
        </extensions>
      </trkpt>
      <trkpt lat="23.38830077089369297027587890625" lon="113.24326802976429462432861328125">
        <ele>8</ele>
        <time>2025-01-09T13:29:45.000Z</time>
        <extensions>
          <ns3:TrackPointExtension>
            <ns3:hr>165</ns3:hr>
            <ns3:cad>80</ns3:cad>
          </ns3:TrackPointExtension>
        </extensions>
      </trkpt>
      <trkpt lat="23.3883199654519557952880859375" lon="113.24332267977297306060791015625">
        <ele>7.599999904632568359375</ele>
        <time>2025-01-09T13:29:47.000Z</time>
        <extensions>
          <ns3:TrackPointExtension>
            <ns3:hr>168</ns3:hr>
            <ns3:cad>80</ns3:cad>
          </ns3:TrackPointExtension>
        </extensions>
      </trkpt>
      <trkpt lat="23.3883715979754924774169921875" lon="113.24343097396194934844970703125">
        <ele>6.599999904632568359375</ele>
        <time>2025-01-09T13:29:51.000Z</time>
        <extensions>
          <ns3:TrackPointExtension>
            <ns3:hr>171</ns3:hr>
            <ns3:cad>81</ns3:cad>
          </ns3:TrackPointExtension>
        </extensions>
      </trkpt>
      <trkpt lat="23.38842884637415409088134765625" lon="113.24356541968882083892822265625">
        <ele>5.80000019073486328125</ele>
        <time>2025-01-09T13:29:56.000Z</time>
        <extensions>
          <ns3:TrackPointExtension>
            <ns3:hr>174</ns3:hr>
            <ns3:cad>80</ns3:cad>
          </ns3:TrackPointExtension>
        </extensions>
      </trkpt>
      <trkpt lat="23.3885080553591251373291015625" lon="113.24375702999532222747802734375">
        <ele>6.400000095367431640625</ele>
        <time>2025-01-09T13:30:04.000Z</time>
        <extensions>
          <ns3:TrackPointExtension>
            <ns3:hr>176</ns3:hr>
            <ns3:cad>80</ns3:cad>
          </ns3:TrackPointExtension>
        </extensions>
      </trkpt>
      <trkpt lat="23.38857837952673435211181640625" lon="113.243947885930538177490234375">
        <ele>7.80000019073486328125</ele>
        <time>2025-01-09T13:30:10.000Z</time>
        <extensions>
          <ns3:TrackPointExtension>
            <ns3:hr>177</ns3:hr>
            <ns3:cad>81</ns3:cad>
          </ns3:TrackPointExtension>
        </extensions>
      </trkpt>
      <trkpt lat="23.38866412639617919921875" lon="113.24414175935089588165283203125">
        <ele>8.6000003814697265625</ele>
        <time>2025-01-09T13:30:16.000Z</time>
        <extensions>
          <ns3:TrackPointExtension>
            <ns3:hr>178</ns3:hr>
            <ns3:cad>80</ns3:cad>
          </ns3:TrackPointExtension>
        </extensions>
      </trkpt>
      <trkpt lat="23.3887719176709651947021484375" lon="113.2443091459572315216064453125">
        <ele>6.400000095367431640625</ele>
        <time>2025-01-09T13:30:26.000Z</time>
        <extensions>
          <ns3:TrackPointExtension>
            <ns3:hr>178</ns3:hr>
            <ns3:cad>81</ns3:cad>
          </ns3:TrackPointExtension>
        </extensions>
      </trkpt>
      <trkpt lat="23.38885984383523464202880859375" lon="113.2444932125508785247802734375">
        <ele>5.80000019073486328125</ele>
        <time>2025-01-09T13:30:36.000Z</time>
        <extensions>
          <ns3:TrackPointExtension>
            <ns3:hr>178</ns3:hr>
            <ns3:cad>81</ns3:cad>
          </ns3:TrackPointExtension>
        </extensions>
      </trkpt>
      <trkpt lat="23.38894399814307689666748046875" lon="113.2446722500026226043701171875">
        <ele>6.19999980926513671875</ele>
        <time>2025-01-09T13:30:45.000Z</time>
        <extensions>
          <ns3:TrackPointExtension>
            <ns3:hr>178</ns3:hr>
            <ns3:cad>81</ns3:cad>
          </ns3:TrackPointExtension>
        </extensions>
      </trkpt>
      <trkpt lat="23.3889576606452465057373046875" lon="113.24471038766205310821533203125">
        <ele>6.19999980926513671875</ele>
        <time>2025-01-09T13:30:47.000Z</time>
        <extensions>
          <ns3:TrackPointExtension>
            <ns3:hr>178</ns3:hr>
            <ns3:cad>81</ns3:cad>
          </ns3:TrackPointExtension>
        </extensions>
      </trkpt>
      <trkpt lat="23.3890116401016712188720703125" lon="113.24490551836788654327392578125">
        <ele>6.19999980926513671875</ele>
        <time>2025-01-09T13:30:58.000Z</time>
        <extensions>
          <ns3:TrackPointExtension>
            <ns3:hr>178</ns3:hr>
            <ns3:cad>61</ns3:cad>
          </ns3:TrackPointExtension>
        </extensions>
      </trkpt>
      <trkpt lat="23.38909202255308628082275390625" lon="113.24509687721729278564453125">
        <ele>5.400000095367431640625</ele>
        <time>2025-01-09T13:31:09.000Z</time>
        <extensions>
          <ns3:TrackPointExtension>
            <ns3:hr>178</ns3:hr>
            <ns3:cad>80</ns3:cad>
          </ns3:TrackPointExtension>
        </extensions>
      </trkpt>
      <trkpt lat="23.389182798564434051513671875" lon="113.24528220109641551971435546875">
        <ele>5</ele>
        <time>2025-01-09T13:31:18.000Z</time>
        <extensions>
          <ns3:TrackPointExtension>
            <ns3:hr>177</ns3:hr>
            <ns3:cad>81</ns3:cad>
          </ns3:TrackPointExtension>
        </extensions>
      </trkpt>
      <trkpt lat="23.389270640909671783447265625" lon="113.24546190910041332244873046875">
        <ele>5</ele>
        <time>2025-01-09T13:31:28.000Z</time>
        <extensions>
          <ns3:TrackPointExtension>
            <ns3:hr>175</ns3:hr>
            <ns3:cad>81</ns3:cad>
          </ns3:TrackPointExtension>
        </extensions>
      </trkpt>
      <trkpt lat="23.3892775140702724456787109375" lon="113.24547666124999523162841796875">
        <ele>5</ele>
        <time>2025-01-09T13:31:29.000Z</time>
        <extensions>
          <ns3:TrackPointExtension>
            <ns3:hr>174</ns3:hr>
            <ns3:cad>81</ns3:cad>
          </ns3:TrackPointExtension>
        </extensions>
      </trkpt>
      <trkpt lat="23.38929637335240840911865234375" lon="113.24552745558321475982666015625">
        <ele>5</ele>
        <time>2025-01-09T13:31:33.000Z</time>
        <extensions>
          <ns3:TrackPointExtension>
            <ns3:hr>168</ns3:hr>
            <ns3:cad>61</ns3:cad>
          </ns3:TrackPointExtension>
        </extensions>
      </trkpt>
      <trkpt lat="23.38930475525557994842529296875" lon="113.24556265957653522491455078125">
        <ele>5</ele>
        <time>2025-01-09T13:31:34.000Z</time>
        <extensions>
          <ns3:TrackPointExtension>
            <ns3:hr>169</ns3:hr>
            <ns3:cad>61</ns3:cad>
          </ns3:TrackPointExtension>
        </extensions>
      </trkpt>
      <trkpt lat="23.3893137238919734954833984375" lon="113.245595432817935943603515625">
        <ele>5.19999980926513671875</ele>
        <time>2025-01-09T13:31:37.000Z</time>
        <extensions>
          <ns3:TrackPointExtension>
            <ns3:hr>172</ns3:hr>
            <ns3:cad>0</ns3:cad>
          </ns3:TrackPointExtension>
        </extensions>
      </trkpt>
      <trkpt lat="23.389345072209835052490234375" lon="113.24567631818354129791259765625">
        <ele>5.19999980926513671875</ele>
        <time>2025-01-09T13:31:42.000Z</time>
        <extensions>
          <ns3:TrackPointExtension>
            <ns3:hr>175</ns3:hr>
            <ns3:cad>0</ns3:cad>
          </ns3:TrackPointExtension>
        </extensions>
      </trkpt>
      <trkpt lat="23.38941757567226886749267578125" lon="113.2458566129207611083984375">
        <ele>5.19999980926513671875</ele>
        <time>2025-01-09T13:31:49.000Z</time>
        <extensions>
          <ns3:TrackPointExtension>
            <ns3:hr>175</ns3:hr>
            <ns3:cad>79</ns3:cad>
          </ns3:TrackPointExtension>
        </extensions>
      </trkpt>
      <trkpt lat="23.38949359953403472900390625" lon="113.24606138281524181365966796875">
        <ele>5</ele>
        <time>2025-01-09T13:31:56.000Z</time>
        <extensions>
          <ns3:TrackPointExtension>
            <ns3:hr>174</ns3:hr>
            <ns3:cad>81</ns3:cad>
          </ns3:TrackPointExtension>
        </extensions>
      </trkpt>
      <trkpt lat="23.38956174440681934356689453125" lon="113.24626120738685131072998046875">
        <ele>3.599999904632568359375</ele>
        <time>2025-01-09T13:32:02.000Z</time>
        <extensions>
          <ns3:TrackPointExtension>
            <ns3:hr>173</ns3:hr>
            <ns3:cad>81</ns3:cad>
          </ns3:TrackPointExtension>
        </extensions>
      </trkpt>
      <trkpt lat="23.389641456305980682373046875" lon="113.24644996784627437591552734375">
        <ele>2</ele>
        <time>2025-01-09T13:32:08.000Z</time>
        <extensions>
          <ns3:TrackPointExtension>
            <ns3:hr>171</ns3:hr>
            <ns3:cad>81</ns3:cad>
          </ns3:TrackPointExtension>
        </extensions>
      </trkpt>
      <trkpt lat="23.38965411297976970672607421875" lon="113.24647796340286731719970703125">
        <ele>1.7999999523162841796875</ele>
        <time>2025-01-09T13:32:09.000Z</time>
        <extensions>
          <ns3:TrackPointExtension>
            <ns3:hr>166</ns3:hr>
            <ns3:cad>81</ns3:cad>
          </ns3:TrackPointExtension>
        </extensions>
      </trkpt>
      <trkpt lat="23.38968914933502674102783203125" lon="113.24653051793575286865234375">
        <ele>1.2000000476837158203125</ele>
        <time>2025-01-09T13:32:10.000Z</time>
        <extensions>
          <ns3:TrackPointExtension>
            <ns3:hr>166</ns3:hr>
            <ns3:cad>82</ns3:cad>
          </ns3:TrackPointExtension>
        </extensions>
      </trkpt>
      <trkpt lat="23.38972049765288829803466796875" lon="113.2465826533734798431396484375">
        <ele>1.2000000476837158203125</ele>
        <time>2025-01-09T13:32:13.000Z</time>
        <extensions>
          <ns3:TrackPointExtension>
            <ns3:hr>169</ns3:hr>
            <ns3:cad>83</ns3:cad>
          </ns3:TrackPointExtension>
        </extensions>
      </trkpt>
      <trkpt lat="23.38977414183318614959716796875" lon="113.24665985070168972015380859375">
        <ele>1.60000002384185791015625</ele>
        <time>2025-01-09T13:32:16.000Z</time>
        <extensions>
          <ns3:TrackPointExtension>
            <ns3:hr>172</ns3:hr>
            <ns3:cad>83</ns3:cad>
          </ns3:TrackPointExtension>
        </extensions>
      </trkpt>
      <trkpt lat="23.389856033027172088623046875" lon="113.24677015654742717742919921875">
        <ele>2.2000000476837158203125</ele>
        <time>2025-01-09T13:32:21.000Z</time>
        <extensions>
          <ns3:TrackPointExtension>
            <ns3:hr>175</ns3:hr>
            <ns3:cad>81</ns3:cad>
          </ns3:TrackPointExtension>
        </extensions>
      </trkpt>
      <trkpt lat="23.389999866485595703125" lon="113.24691474437713623046875">
        <ele>3.599999904632568359375</ele>
        <time>2025-01-09T13:32:29.000Z</time>
        <extensions>
          <ns3:TrackPointExtension>
            <ns3:hr>177</ns3:hr>
            <ns3:cad>82</ns3:cad>
          </ns3:TrackPointExtension>
        </extensions>
      </trkpt>
      <trkpt lat="23.3901314623653888702392578125" lon="113.24705229140818119049072265625">
        <ele>5.400000095367431640625</ele>
        <time>2025-01-09T13:32:36.000Z</time>
        <extensions>
          <ns3:TrackPointExtension>
            <ns3:hr>178</ns3:hr>
            <ns3:cad>82</ns3:cad>
          </ns3:TrackPointExtension>
        </extensions>
      </trkpt>
      <trkpt lat="23.39029013179242610931396484375" lon="113.2471561431884765625">
        <ele>6.80000019073486328125</ele>
        <time>2025-01-09T13:32:44.000Z</time>
        <extensions>
          <ns3:TrackPointExtension>
            <ns3:hr>178</ns3:hr>
            <ns3:cad>81</ns3:cad>
          </ns3:TrackPointExtension>
        </extensions>
      </trkpt>
      <trkpt lat="23.3904679119586944580078125" lon="113.2472401298582553863525390625">
        <ele>6.599999904632568359375</ele>
        <time>2025-01-09T13:32:51.000Z</time>
        <extensions>
          <ns3:TrackPointExtension>
            <ns3:hr>178</ns3:hr>
            <ns3:cad>81</ns3:cad>
          </ns3:TrackPointExtension>
        </extensions>
      </trkpt>
      <trkpt lat="23.390657007694244384765625" lon="113.24728949926793575286865234375">
        <ele>5</ele>
        <time>2025-01-09T13:32:58.000Z</time>
        <extensions>
          <ns3:TrackPointExtension>
            <ns3:hr>178</ns3:hr>
            <ns3:cad>82</ns3:cad>
          </ns3:TrackPointExtension>
        </extensions>
      </trkpt>
      <trkpt lat="23.3908328600227832794189453125" lon="113.247346580028533935546875">
        <ele>3.599999904632568359375</ele>
        <time>2025-01-09T13:33:05.000Z</time>
        <extensions>
          <ns3:TrackPointExtension>
            <ns3:hr>178</ns3:hr>
            <ns3:cad>83</ns3:cad>
          </ns3:TrackPointExtension>
        </extensions>
      </trkpt>
      <trkpt lat="23.39101575314998626708984375" lon="113.24742511846125125885009765625">
        <ele>1.7999999523162841796875</ele>
        <time>2025-01-09T13:33:12.000Z</time>
        <extensions>
          <ns3:TrackPointExtension>
            <ns3:hr>179</ns3:hr>
            <ns3:cad>83</ns3:cad>
          </ns3:TrackPointExtension>
        </extensions>
      </trkpt>
      <trkpt lat="23.3911802060902118682861328125" lon="113.24751614592969417572021484375">
        <ele>2</ele>
        <time>2025-01-09T13:33:21.000Z</time>
        <extensions>
          <ns3:TrackPointExtension>
            <ns3:hr>179</ns3:hr>
            <ns3:cad>84</ns3:cad>
          </ns3:TrackPointExtension>
        </extensions>
      </trkpt>
      <trkpt lat="23.391353376209735870361328125" lon="113.24760197661817073822021484375">
        <ele>3.2000000476837158203125</ele>
        <time>2025-01-09T13:33:36.000Z</time>
        <extensions>
          <ns3:TrackPointExtension>
            <ns3:hr>179</ns3:hr>
            <ns3:cad>61</ns3:cad>
          </ns3:TrackPointExtension>
        </extensions>
      </trkpt>
      <trkpt lat="23.39148019440472126007080078125" lon="113.24766500853002071380615234375">
        <ele>5</ele>
        <time>2025-01-09T13:33:48.000Z</time>
        <extensions>
          <ns3:TrackPointExtension>
            <ns3:hr>177</ns3:hr>
            <ns3:cad>60</ns3:cad>
          </ns3:TrackPointExtension>
        </extensions>
      </trkpt>
      <trkpt lat="23.39156921021640300750732421875" lon="113.24769333936274051666259765625">
        <ele>6.19999980926513671875</ele>
        <time>2025-01-09T13:33:56.000Z</time>
        <extensions>
          <ns3:TrackPointExtension>
            <ns3:hr>174</ns3:hr>
            <ns3:cad>61</ns3:cad>
          </ns3:TrackPointExtension>
        </extensions>
      </trkpt>
      <trkpt lat="23.39167247526347637176513671875" lon="113.2477341592311859130859375">
        <ele>7</ele>
        <time>2025-01-09T13:34:03.000Z</time>
        <extensions>
          <ns3:TrackPointExtension>
            <ns3:hr>171</ns3:hr>
            <ns3:cad>61</ns3:cad>
          </ns3:TrackPointExtension>
        </extensions>
      </trkpt>
      <trkpt lat="23.39174891822040081024169921875" lon="113.24776810593903064727783203125">
        <ele>6.80000019073486328125</ele>
        <time>2025-01-09T13:34:10.000Z</time>
        <extensions>
          <ns3:TrackPointExtension>
            <ns3:hr>168</ns3:hr>
            <ns3:cad>61</ns3:cad>
          </ns3:TrackPointExtension>
        </extensions>
      </trkpt>
      <trkpt lat="23.39179200120270252227783203125" lon="113.2478047348558902740478515625">
        <ele>6.80000019073486328125</ele>
        <time>2025-01-09T13:34:15.000Z</time>
        <extensions>
          <ns3:TrackPointExtension>
            <ns3:hr>165</ns3:hr>
            <ns3:cad>61</ns3:cad>
          </ns3:TrackPointExtension>
        </extensions>
      </trkpt>
      <trkpt lat="23.39184799231588840484619140625" lon="113.24782870709896087646484375">
        <ele>6.599999904632568359375</ele>
        <time>2025-01-09T13:34:20.000Z</time>
        <extensions>
          <ns3:TrackPointExtension>
            <ns3:hr>163</ns3:hr>
            <ns3:cad>61</ns3:cad>
          </ns3:TrackPointExtension>
        </extensions>
      </trkpt>
      <trkpt lat="23.391916640102863311767578125" lon="113.2478707842528820037841796875">
        <ele>6.599999904632568359375</ele>
        <time>2025-01-09T13:34:27.000Z</time>
        <extensions>
          <ns3:TrackPointExtension>
            <ns3:hr>160</ns3:hr>
            <ns3:cad>61</ns3:cad>
          </ns3:TrackPointExtension>
        </extensions>
      </trkpt>
      <trkpt lat="23.39197120629251003265380859375" lon="113.2479111850261688232421875">
        <ele>6.400000095367431640625</ele>
        <time>2025-01-09T13:34:33.000Z</time>
        <extensions>
          <ns3:TrackPointExtension>
            <ns3:hr>157</ns3:hr>
            <ns3:cad>61</ns3:cad>
          </ns3:TrackPointExtension>
        </extensions>
      </trkpt>
      <trkpt lat="23.3921018801629543304443359375" lon="113.24796658940613269805908203125">
        <ele>5.599999904632568359375</ele>
        <time>2025-01-09T13:34:42.000Z</time>
        <extensions>
          <ns3:TrackPointExtension>
            <ns3:hr>154</ns3:hr>
            <ns3:cad>61</ns3:cad>
          </ns3:TrackPointExtension>
        </extensions>
      </trkpt>
      <trkpt lat="23.3922054804861545562744140625" lon="113.2479970157146453857421875">
        <ele>5</ele>
        <time>2025-01-09T13:34:52.000Z</time>
        <extensions>
          <ns3:TrackPointExtension>
            <ns3:hr>151</ns3:hr>
            <ns3:cad>61</ns3:cad>
          </ns3:TrackPointExtension>
        </extensions>
      </trkpt>
      <trkpt lat="23.39234185405075550079345703125" lon="113.2480377517640590667724609375">
        <ele>5.19999980926513671875</ele>
        <time>2025-01-09T13:35:05.000Z</time>
        <extensions>
          <ns3:TrackPointExtension>
            <ns3:hr>148</ns3:hr>
            <ns3:cad>0</ns3:cad>
          </ns3:TrackPointExtension>
        </extensions>
      </trkpt>
    </trkseg>
  </trk>
</gpx>
