<gpx xmlns:ns3="http://www.garmin.com/xmlschemas/TrackPointExtension/v1" xmlns="http://www.topografix.com/GPX/1/1" xmlns:xsi="http://www.w3.org/2001/XMLSchema-instance" xmlns:ns2="http://www.garmin.com/xmlschemas/GpxExtensions/v3" creator="Garmin Connect" version="1.1" xsi:schemaLocation="http://www.topografix.com/GPX/1/1 http://www.topografix.com/GPX/11.xsd">
  <extensions>
<distance>4040.9</distance>
<average_hr></average_hr>
<average_speed>1.894999980926514</average_speed>
<start_time>2025-03-17T12:15:40+00:00</start_time>
<end_time>2025-03-17T12:51:12.157000+00:00</end_time>
<moving_time>2131.853</moving_time>
<elapsed_time>2136.665</elapsed_time>
</extensions>
<metadata>
    <link href="connect.garmin.com">
      <text>Garmin Connect</text>
    </link>
    <time>2025-03-17T12:15:40.000Z</time>
  </metadata>
  <trk>
    <name>广州市 跑步</name>
    <type>running</type>
    <trkseg>
      <trkpt lat="23.387006856501102447509765625" lon="113.2335720956325531005859375">
        <ele>2.2000000476837158203125</ele>
        <time>2025-03-17T12:15:40.000Z</time>
        <extensions>
          <ns3:TrackPointExtension>
            <ns3:cad>84</ns3:cad>
          </ns3:TrackPointExtension>
        </extensions>
      </trkpt>
      <trkpt lat="23.38700140826404094696044921875" lon="113.23356748558580875396728515625">
        <ele>2</ele>
        <time>2025-03-17T12:15:41.000Z</time>
        <extensions>
          <ns3:TrackPointExtension>
            <ns3:cad>77</ns3:cad>
          </ns3:TrackPointExtension>
        </extensions>
      </trkpt>
      <trkpt lat="23.38699067942798137664794921875" lon="113.2335104048252105712890625">
        <ele>1.60000002384185791015625</ele>
        <time>2025-03-17T12:15:45.000Z</time>
        <extensions>
          <ns3:TrackPointExtension>
            <ns3:cad>61</ns3:cad>
          </ns3:TrackPointExtension>
        </extensions>
      </trkpt>
      <trkpt lat="23.38700224645435810089111328125" lon="113.233306892216205596923828125">
        <ele>1.39999997615814208984375</ele>
        <time>2025-03-17T12:16:01.000Z</time>
        <extensions>
          <ns3:TrackPointExtension>
            <ns3:cad>61</ns3:cad>
          </ns3:TrackPointExtension>
        </extensions>
      </trkpt>
      <trkpt lat="23.3870599977672100067138671875" lon="113.233120478689670562744140625">
        <ele>3</ele>
        <time>2025-03-17T12:16:16.000Z</time>
        <extensions>
          <ns3:TrackPointExtension>
            <ns3:cad>58</ns3:cad>
          </ns3:TrackPointExtension>
        </extensions>
      </trkpt>
      <trkpt lat="23.3871471695601940155029296875" lon="113.23294647037982940673828125">
        <ele>2.599999904632568359375</ele>
        <time>2025-03-17T12:16:27.000Z</time>
        <extensions>
          <ns3:TrackPointExtension>
            <ns3:cad>80</ns3:cad>
          </ns3:TrackPointExtension>
        </extensions>
      </trkpt>
      <trkpt lat="23.387167789041996002197265625" lon="113.23287698440253734588623046875">
        <ele>3.2000000476837158203125</ele>
        <time>2025-03-17T12:16:35.000Z</time>
        <extensions>
          <ns3:TrackPointExtension>
            <ns3:cad>82</ns3:cad>
          </ns3:TrackPointExtension>
        </extensions>
      </trkpt>
      <trkpt lat="23.38716787286102771759033203125" lon="113.23266525752842426300048828125">
        <ele>5.599999904632568359375</ele>
        <time>2025-03-17T12:16:45.000Z</time>
        <extensions>
          <ns3:TrackPointExtension>
            <ns3:cad>83</ns3:cad>
          </ns3:TrackPointExtension>
        </extensions>
      </trkpt>
      <trkpt lat="23.3872249536216259002685546875" lon="113.23246157728135585784912109375">
        <ele>5.80000019073486328125</ele>
        <time>2025-03-17T12:16:52.000Z</time>
        <extensions>
          <ns3:TrackPointExtension>
            <ns3:cad>83</ns3:cad>
          </ns3:TrackPointExtension>
        </extensions>
      </trkpt>
      <trkpt lat="23.38735830970108509063720703125" lon="113.23231472633779048919677734375">
        <ele>4.19999980926513671875</ele>
        <time>2025-03-17T12:17:00.000Z</time>
        <extensions>
          <ns3:TrackPointExtension>
            <ns3:cad>83</ns3:cad>
          </ns3:TrackPointExtension>
        </extensions>
      </trkpt>
      <trkpt lat="23.387516476213932037353515625" lon="113.23218514211475849151611328125">
        <ele>3.400000095367431640625</ele>
        <time>2025-03-17T12:17:08.000Z</time>
        <extensions>
          <ns3:TrackPointExtension>
            <ns3:cad>83</ns3:cad>
          </ns3:TrackPointExtension>
        </extensions>
      </trkpt>
      <trkpt lat="23.38759233243763446807861328125" lon="113.232155553996562957763671875">
        <ele>3</ele>
        <time>2025-03-17T12:17:13.000Z</time>
        <extensions>
          <ns3:TrackPointExtension>
            <ns3:cad>84</ns3:cad>
          </ns3:TrackPointExtension>
        </extensions>
      </trkpt>
      <trkpt lat="23.38771537877619266510009765625" lon="113.2320065237581729888916015625">
        <ele>3.2000000476837158203125</ele>
        <time>2025-03-17T12:17:23.000Z</time>
        <extensions>
          <ns3:TrackPointExtension>
            <ns3:cad>84</ns3:cad>
          </ns3:TrackPointExtension>
        </extensions>
      </trkpt>
      <trkpt lat="23.38777874596416950225830078125" lon="113.23182128369808197021484375">
        <ele>2.7999999523162841796875</ele>
        <time>2025-03-17T12:17:33.000Z</time>
        <extensions>
          <ns3:TrackPointExtension>
            <ns3:cad>84</ns3:cad>
          </ns3:TrackPointExtension>
        </extensions>
      </trkpt>
      <trkpt lat="23.3878425322473049163818359375" lon="113.231594301760196685791015625">
        <ele>3.2000000476837158203125</ele>
        <time>2025-03-17T12:17:41.000Z</time>
        <extensions>
          <ns3:TrackPointExtension>
            <ns3:cad>84</ns3:cad>
          </ns3:TrackPointExtension>
        </extensions>
      </trkpt>
      <trkpt lat="23.38786407373845577239990234375" lon="113.23138902895152568817138671875">
        <ele>2.7999999523162841796875</ele>
        <time>2025-03-17T12:17:46.000Z</time>
        <extensions>
          <ns3:TrackPointExtension>
            <ns3:cad>84</ns3:cad>
          </ns3:TrackPointExtension>
        </extensions>
      </trkpt>
      <trkpt lat="23.387904725968837738037109375" lon="113.23118702508509159088134765625">
        <ele>2.599999904632568359375</ele>
        <time>2025-03-17T12:17:53.000Z</time>
        <extensions>
          <ns3:TrackPointExtension>
            <ns3:cad>83</ns3:cad>
          </ns3:TrackPointExtension>
        </extensions>
      </trkpt>
      <trkpt lat="23.387973792850971221923828125" lon="113.23098317719995975494384765625">
        <ele>1.39999997615814208984375</ele>
        <time>2025-03-17T12:18:01.000Z</time>
        <extensions>
          <ns3:TrackPointExtension>
            <ns3:cad>84</ns3:cad>
          </ns3:TrackPointExtension>
        </extensions>
      </trkpt>
      <trkpt lat="23.38802265934646129608154296875" lon="113.2307800836861133575439453125">
        <ele>1</ele>
        <time>2025-03-17T12:18:08.000Z</time>
        <extensions>
          <ns3:TrackPointExtension>
            <ns3:cad>83</ns3:cad>
          </ns3:TrackPointExtension>
        </extensions>
      </trkpt>
      <trkpt lat="23.38807144202291965484619140625" lon="113.230567686259746551513671875">
        <ele>1.60000002384185791015625</ele>
        <time>2025-03-17T12:18:15.000Z</time>
        <extensions>
          <ns3:TrackPointExtension>
            <ns3:cad>83</ns3:cad>
          </ns3:TrackPointExtension>
        </extensions>
      </trkpt>
      <trkpt lat="23.38809004984796047210693359375" lon="113.230365179479122161865234375">
        <ele>2.2000000476837158203125</ele>
        <time>2025-03-17T12:18:22.000Z</time>
        <extensions>
          <ns3:TrackPointExtension>
            <ns3:cad>83</ns3:cad>
          </ns3:TrackPointExtension>
        </extensions>
      </trkpt>
      <trkpt lat="23.38812072761356830596923828125" lon="113.2301628403365612030029296875">
        <ele>3.400000095367431640625</ele>
        <time>2025-03-17T12:18:30.000Z</time>
        <extensions>
          <ns3:TrackPointExtension>
            <ns3:cad>83</ns3:cad>
          </ns3:TrackPointExtension>
        </extensions>
      </trkpt>
      <trkpt lat="23.38814176619052886962890625" lon="113.229960165917873382568359375">
        <ele>6</ele>
        <time>2025-03-17T12:18:37.000Z</time>
        <extensions>
          <ns3:TrackPointExtension>
            <ns3:cad>83</ns3:cad>
          </ns3:TrackPointExtension>
        </extensions>
      </trkpt>
      <trkpt lat="23.38812944479286670684814453125" lon="113.2297618500888347625732421875">
        <ele>7.599999904632568359375</ele>
        <time>2025-03-17T12:18:45.000Z</time>
        <extensions>
          <ns3:TrackPointExtension>
            <ns3:cad>83</ns3:cad>
          </ns3:TrackPointExtension>
        </extensions>
      </trkpt>
      <trkpt lat="23.388099856674671173095703125" lon="113.229539394378662109375">
        <ele>6.80000019073486328125</ele>
        <time>2025-03-17T12:18:53.000Z</time>
        <extensions>
          <ns3:TrackPointExtension>
            <ns3:cad>82</ns3:cad>
          </ns3:TrackPointExtension>
        </extensions>
      </trkpt>
      <trkpt lat="23.3880815841257572174072265625" lon="113.22934065945446491241455078125">
        <ele>6.599999904632568359375</ele>
        <time>2025-03-17T12:19:01.000Z</time>
        <extensions>
          <ns3:TrackPointExtension>
            <ns3:cad>82</ns3:cad>
          </ns3:TrackPointExtension>
        </extensions>
      </trkpt>
      <trkpt lat="23.3880638144910335540771484375" lon="113.22913664393126964569091796875">
        <ele>6.80000019073486328125</ele>
        <time>2025-03-17T12:19:10.000Z</time>
        <extensions>
          <ns3:TrackPointExtension>
            <ns3:cad>83</ns3:cad>
          </ns3:TrackPointExtension>
        </extensions>
      </trkpt>
      <trkpt lat="23.388063646852970123291015625" lon="113.22895475663244724273681640625">
        <ele>4.400000095367431640625</ele>
        <time>2025-03-17T12:19:24.000Z</time>
        <extensions>
          <ns3:TrackPointExtension>
            <ns3:cad>61</ns3:cad>
          </ns3:TrackPointExtension>
        </extensions>
      </trkpt>
      <trkpt lat="23.388030789792537689208984375" lon="113.22878359816968441009521484375">
        <ele>1.2000000476837158203125</ele>
        <time>2025-03-17T12:19:41.000Z</time>
        <extensions>
          <ns3:TrackPointExtension>
            <ns3:cad>61</ns3:cad>
          </ns3:TrackPointExtension>
        </extensions>
      </trkpt>
      <trkpt lat="23.38803112506866455078125" lon="113.22876448743045330047607421875">
        <ele>0.60000002384185791015625</ele>
        <time>2025-03-17T12:19:43.000Z</time>
        <extensions>
          <ns3:TrackPointExtension>
            <ns3:cad>61</ns3:cad>
          </ns3:TrackPointExtension>
        </extensions>
      </trkpt>
      <trkpt lat="23.38797622360289096832275390625" lon="113.22857103310525417327880859375">
        <ele>-6</ele>
        <time>2025-03-17T12:19:54.000Z</time>
        <extensions>
          <ns3:TrackPointExtension>
            <ns3:cad>81</ns3:cad>
          </ns3:TrackPointExtension>
        </extensions>
      </trkpt>
      <trkpt lat="23.38795275427401065826416015625" lon="113.22835721075534820556640625">
        <ele>-13.3999996185302734375</ele>
        <time>2025-03-17T12:20:05.000Z</time>
        <extensions>
          <ns3:TrackPointExtension>
            <ns3:cad>80</ns3:cad>
          </ns3:TrackPointExtension>
        </extensions>
      </trkpt>
      <trkpt lat="23.38803221471607685089111328125" lon="113.22816048748791217803955078125">
        <ele>-12.3999996185302734375</ele>
        <time>2025-03-17T12:20:10.000Z</time>
        <extensions>
          <ns3:TrackPointExtension>
            <ns3:cad>81</ns3:cad>
          </ns3:TrackPointExtension>
        </extensions>
      </trkpt>
      <trkpt lat="23.38809357024729251861572265625" lon="113.22797231376171112060546875">
        <ele>-11</ele>
        <time>2025-03-17T12:20:20.000Z</time>
        <extensions>
          <ns3:TrackPointExtension>
            <ns3:cad>81</ns3:cad>
          </ns3:TrackPointExtension>
        </extensions>
      </trkpt>
      <trkpt lat="23.38813547976315021514892578125" lon="113.2277746684849262237548828125">
        <ele>-8.6000003814697265625</ele>
        <time>2025-03-17T12:20:29.000Z</time>
        <extensions>
          <ns3:TrackPointExtension>
            <ns3:cad>82</ns3:cad>
          </ns3:TrackPointExtension>
        </extensions>
      </trkpt>
      <trkpt lat="23.38820077478885650634765625" lon="113.22757626883685588836669921875">
        <ele>-3</ele>
        <time>2025-03-17T12:20:42.000Z</time>
        <extensions>
          <ns3:TrackPointExtension>
            <ns3:cad>81</ns3:cad>
          </ns3:TrackPointExtension>
        </extensions>
      </trkpt>
      <trkpt lat="23.38820622302591800689697265625" lon="113.22752681560814380645751953125">
        <ele>-2.400000095367431640625</ele>
        <time>2025-03-17T12:20:46.000Z</time>
        <extensions>
          <ns3:TrackPointExtension>
            <ns3:cad>81</ns3:cad>
          </ns3:TrackPointExtension>
        </extensions>
      </trkpt>
      <trkpt lat="23.38816749863326549530029296875" lon="113.22732053697109222412109375">
        <ele>1</ele>
        <time>2025-03-17T12:20:59.000Z</time>
        <extensions>
          <ns3:TrackPointExtension>
            <ns3:cad>83</ns3:cad>
          </ns3:TrackPointExtension>
        </extensions>
      </trkpt>
      <trkpt lat="23.38823966681957244873046875" lon="113.22711191140115261077880859375">
        <ele>12.3999996185302734375</ele>
        <time>2025-03-17T12:21:04.000Z</time>
        <extensions>
          <ns3:TrackPointExtension>
            <ns3:cad>84</ns3:cad>
          </ns3:TrackPointExtension>
        </extensions>
      </trkpt>
      <trkpt lat="23.38823371566832065582275390625" lon="113.22691912762820720672607421875">
        <ele>14</ele>
        <time>2025-03-17T12:21:12.000Z</time>
        <extensions>
          <ns3:TrackPointExtension>
            <ns3:cad>85</ns3:cad>
          </ns3:TrackPointExtension>
        </extensions>
      </trkpt>
      <trkpt lat="23.38817059993743896484375" lon="113.2267296127974987030029296875">
        <ele>10.6000003814697265625</ele>
        <time>2025-03-17T12:21:20.000Z</time>
        <extensions>
          <ns3:TrackPointExtension>
            <ns3:cad>84</ns3:cad>
          </ns3:TrackPointExtension>
        </extensions>
      </trkpt>
      <trkpt lat="23.38806590996682643890380859375" lon="113.22655669413506984710693359375">
        <ele>7</ele>
        <time>2025-03-17T12:21:33.000Z</time>
        <extensions>
          <ns3:TrackPointExtension>
            <ns3:cad>0</ns3:cad>
          </ns3:TrackPointExtension>
        </extensions>
      </trkpt>
      <trkpt lat="23.3878924883902072906494140625" lon="113.2264674268662929534912109375">
        <ele>3.599999904632568359375</ele>
        <time>2025-03-17T12:21:45.000Z</time>
        <extensions>
          <ns3:TrackPointExtension>
            <ns3:cad>81</ns3:cad>
          </ns3:TrackPointExtension>
        </extensions>
      </trkpt>
      <trkpt lat="23.3877409435808658599853515625" lon="113.22633775882422924041748046875">
        <ele>1</ele>
        <time>2025-03-17T12:21:56.000Z</time>
        <extensions>
          <ns3:TrackPointExtension>
            <ns3:cad>83</ns3:cad>
          </ns3:TrackPointExtension>
        </extensions>
      </trkpt>
      <trkpt lat="23.38765083812177181243896484375" lon="113.226146399974822998046875">
        <ele>0.800000011920928955078125</ele>
        <time>2025-03-17T12:22:04.000Z</time>
        <extensions>
          <ns3:TrackPointExtension>
            <ns3:cad>83</ns3:cad>
          </ns3:TrackPointExtension>
        </extensions>
      </trkpt>
      <trkpt lat="23.387516476213932037353515625" lon="113.22599225677549839019775390625">
        <ele>0</ele>
        <time>2025-03-17T12:22:12.000Z</time>
        <extensions>
          <ns3:TrackPointExtension>
            <ns3:cad>82</ns3:cad>
          </ns3:TrackPointExtension>
        </extensions>
      </trkpt>
      <trkpt lat="23.38735126890242099761962890625" lon="113.22590072639286518096923828125">
        <ele>-0.800000011920928955078125</ele>
        <time>2025-03-17T12:22:21.000Z</time>
        <extensions>
          <ns3:TrackPointExtension>
            <ns3:cad>83</ns3:cad>
          </ns3:TrackPointExtension>
        </extensions>
      </trkpt>
      <trkpt lat="23.38718631304800510406494140625" lon="113.22576896287500858306884765625">
        <ele>-1.2000000476837158203125</ele>
        <time>2025-03-17T12:22:29.000Z</time>
        <extensions>
          <ns3:TrackPointExtension>
            <ns3:cad>82</ns3:cad>
          </ns3:TrackPointExtension>
        </extensions>
      </trkpt>
      <trkpt lat="23.387028314173221588134765625" lon="113.22563652880489826202392578125">
        <ele>-0.20000000298023223876953125</ele>
        <time>2025-03-17T12:22:37.000Z</time>
        <extensions>
          <ns3:TrackPointExtension>
            <ns3:cad>83</ns3:cad>
          </ns3:TrackPointExtension>
        </extensions>
      </trkpt>
      <trkpt lat="23.38687316514551639556884765625" lon="113.2255075313150882720947265625">
        <ele>0.800000011920928955078125</ele>
        <time>2025-03-17T12:22:46.000Z</time>
        <extensions>
          <ns3:TrackPointExtension>
            <ns3:cad>83</ns3:cad>
          </ns3:TrackPointExtension>
        </extensions>
      </trkpt>
      <trkpt lat="23.38670703582465648651123046875" lon="113.22542580775916576385498046875">
        <ele>1.39999997615814208984375</ele>
        <time>2025-03-17T12:22:55.000Z</time>
        <extensions>
          <ns3:TrackPointExtension>
            <ns3:cad>84</ns3:cad>
          </ns3:TrackPointExtension>
        </extensions>
      </trkpt>
      <trkpt lat="23.3866871707141399383544921875" lon="113.22538607753813266754150390625">
        <ele>1.60000002384185791015625</ele>
        <time>2025-03-17T12:22:57.000Z</time>
        <extensions>
          <ns3:TrackPointExtension>
            <ns3:cad>84</ns3:cad>
          </ns3:TrackPointExtension>
        </extensions>
      </trkpt>
      <trkpt lat="23.38658365420997142791748046875" lon="113.22521978057920932769775390625">
        <ele>2.7999999523162841796875</ele>
        <time>2025-03-17T12:23:06.000Z</time>
        <extensions>
          <ns3:TrackPointExtension>
            <ns3:cad>80</ns3:cad>
          </ns3:TrackPointExtension>
        </extensions>
      </trkpt>
      <trkpt lat="23.38660595007240772247314453125" lon="113.2252171821892261505126953125">
        <ele>2.7999999523162841796875</ele>
        <time>2025-03-17T12:23:08.000Z</time>
        <extensions>
          <ns3:TrackPointExtension>
            <ns3:cad>79</ns3:cad>
          </ns3:TrackPointExtension>
        </extensions>
      </trkpt>
      <trkpt lat="23.38675263337790966033935546875" lon="113.2253298349678516387939453125">
        <ele>2</ele>
        <time>2025-03-17T12:23:19.000Z</time>
        <extensions>
          <ns3:TrackPointExtension>
            <ns3:cad>82</ns3:cad>
          </ns3:TrackPointExtension>
        </extensions>
      </trkpt>
      <trkpt lat="23.38676118291914463043212890625" lon="113.2253486104309558868408203125">
        <ele>2</ele>
        <time>2025-03-17T12:23:20.000Z</time>
        <extensions>
          <ns3:TrackPointExtension>
            <ns3:cad>82</ns3:cad>
          </ns3:TrackPointExtension>
        </extensions>
      </trkpt>
      <trkpt lat="23.3868772722780704498291015625" lon="113.22551012970507144927978515625">
        <ele>0.800000011920928955078125</ele>
        <time>2025-03-17T12:23:29.000Z</time>
        <extensions>
          <ns3:TrackPointExtension>
            <ns3:cad>82</ns3:cad>
          </ns3:TrackPointExtension>
        </extensions>
      </trkpt>
      <trkpt lat="23.387024961411952972412109375" lon="113.22563066147267818450927734375">
        <ele>0</ele>
        <time>2025-03-17T12:23:39.000Z</time>
        <extensions>
          <ns3:TrackPointExtension>
            <ns3:cad>83</ns3:cad>
          </ns3:TrackPointExtension>
        </extensions>
      </trkpt>
      <trkpt lat="23.3871672861278057098388671875" lon="113.22576577775180339813232421875">
        <ele>-1</ele>
        <time>2025-03-17T12:23:49.000Z</time>
        <extensions>
          <ns3:TrackPointExtension>
            <ns3:cad>81</ns3:cad>
          </ns3:TrackPointExtension>
        </extensions>
      </trkpt>
      <trkpt lat="23.38727080263197422027587890625" lon="113.22593224234879016876220703125">
        <ele>-2</ele>
        <time>2025-03-17T12:23:58.000Z</time>
        <extensions>
          <ns3:TrackPointExtension>
            <ns3:cad>81</ns3:cad>
          </ns3:TrackPointExtension>
        </extensions>
      </trkpt>
      <trkpt lat="23.38742955587804317474365234375" lon="113.2260490022599697113037109375">
        <ele>-1.39999997615814208984375</ele>
        <time>2025-03-17T12:24:07.000Z</time>
        <extensions>
          <ns3:TrackPointExtension>
            <ns3:cad>83</ns3:cad>
          </ns3:TrackPointExtension>
        </extensions>
      </trkpt>
      <trkpt lat="23.38755897246301174163818359375" lon="113.226213119924068450927734375">
        <ele>-0.4000000059604644775390625</ele>
        <time>2025-03-17T12:24:16.000Z</time>
        <extensions>
          <ns3:TrackPointExtension>
            <ns3:cad>84</ns3:cad>
          </ns3:TrackPointExtension>
        </extensions>
      </trkpt>
      <trkpt lat="23.38768922723829746246337890625" lon="113.22637195698916912078857421875">
        <ele>0.800000011920928955078125</ele>
        <time>2025-03-17T12:24:24.000Z</time>
        <extensions>
          <ns3:TrackPointExtension>
            <ns3:cad>83</ns3:cad>
          </ns3:TrackPointExtension>
        </extensions>
      </trkpt>
      <trkpt lat="23.38784814812242984771728515625" lon="113.2264965958893299102783203125">
        <ele>3.2000000476837158203125</ele>
        <time>2025-03-17T12:24:31.000Z</time>
        <extensions>
          <ns3:TrackPointExtension>
            <ns3:cad>83</ns3:cad>
          </ns3:TrackPointExtension>
        </extensions>
      </trkpt>
      <trkpt lat="23.38796884752810001373291015625" lon="113.22665224783122539520263671875">
        <ele>6.599999904632568359375</ele>
        <time>2025-03-17T12:24:38.000Z</time>
        <extensions>
          <ns3:TrackPointExtension>
            <ns3:cad>84</ns3:cad>
          </ns3:TrackPointExtension>
        </extensions>
      </trkpt>
      <trkpt lat="23.38810010813176631927490234375" lon="113.2268100790679454803466796875">
        <ele>11.6000003814697265625</ele>
        <time>2025-03-17T12:24:45.000Z</time>
        <extensions>
          <ns3:TrackPointExtension>
            <ns3:cad>84</ns3:cad>
          </ns3:TrackPointExtension>
        </extensions>
      </trkpt>
      <trkpt lat="23.38810781948268413543701171875" lon="113.22701602242887020111083984375">
        <ele>9.80000019073486328125</ele>
        <time>2025-03-17T12:24:52.000Z</time>
        <extensions>
          <ns3:TrackPointExtension>
            <ns3:cad>85</ns3:cad>
          </ns3:TrackPointExtension>
        </extensions>
      </trkpt>
      <trkpt lat="23.38813816197216510772705078125" lon="113.22722892276942729949951171875">
        <ele>3</ele>
        <time>2025-03-17T12:25:02.000Z</time>
        <extensions>
          <ns3:TrackPointExtension>
            <ns3:cad>84</ns3:cad>
          </ns3:TrackPointExtension>
        </extensions>
      </trkpt>
      <trkpt lat="23.38818258605897426605224609375" lon="113.2272570021450519561767578125">
        <ele>4.400000095367431640625</ele>
        <time>2025-03-17T12:25:06.000Z</time>
        <extensions>
          <ns3:TrackPointExtension>
            <ns3:cad>84</ns3:cad>
          </ns3:TrackPointExtension>
        </extensions>
      </trkpt>
      <trkpt lat="23.3881531655788421630859375" lon="113.227402679622173309326171875">
        <ele>-4.19999980926513671875</ele>
        <time>2025-03-17T12:25:15.000Z</time>
        <extensions>
          <ns3:TrackPointExtension>
            <ns3:cad>83</ns3:cad>
          </ns3:TrackPointExtension>
        </extensions>
      </trkpt>
      <trkpt lat="23.38807060383260250091552734375" lon="113.2275802083313465118408203125">
        <ele>-11.19999980926513671875</ele>
        <time>2025-03-17T12:25:21.000Z</time>
        <extensions>
          <ns3:TrackPointExtension>
            <ns3:cad>82</ns3:cad>
          </ns3:TrackPointExtension>
        </extensions>
      </trkpt>
      <trkpt lat="23.38801528327167034149169921875" lon="113.2277941145002841949462890625">
        <ele>-14.3999996185302734375</ele>
        <time>2025-03-17T12:25:30.000Z</time>
        <extensions>
          <ns3:TrackPointExtension>
            <ns3:cad>61</ns3:cad>
          </ns3:TrackPointExtension>
        </extensions>
      </trkpt>
      <trkpt lat="23.38796331547200679779052734375" lon="113.22799955494701862335205078125">
        <ele>-17.200000762939453125</ele>
        <time>2025-03-17T12:25:40.000Z</time>
        <extensions>
          <ns3:TrackPointExtension>
            <ns3:cad>61</ns3:cad>
          </ns3:TrackPointExtension>
        </extensions>
      </trkpt>
      <trkpt lat="23.387988545000553131103515625" lon="113.22819703258574008941650390625">
        <ele>-14.3999996185302734375</ele>
        <time>2025-03-17T12:25:51.000Z</time>
        <extensions>
          <ns3:TrackPointExtension>
            <ns3:cad>82</ns3:cad>
          </ns3:TrackPointExtension>
        </extensions>
      </trkpt>
      <trkpt lat="23.38799960911273956298828125" lon="113.22841630317270755767822265625">
        <ele>-9.80000019073486328125</ele>
        <time>2025-03-17T12:25:59.000Z</time>
        <extensions>
          <ns3:TrackPointExtension>
            <ns3:cad>82</ns3:cad>
          </ns3:TrackPointExtension>
        </extensions>
      </trkpt>
      <trkpt lat="23.38798544369637966156005859375" lon="113.2286745496094226837158203125">
        <ele>-2.7999999523162841796875</ele>
        <time>2025-03-17T12:26:06.000Z</time>
        <extensions>
          <ns3:TrackPointExtension>
            <ns3:cad>83</ns3:cad>
          </ns3:TrackPointExtension>
        </extensions>
      </trkpt>
      <trkpt lat="23.3880064822733402252197265625" lon="113.2288794033229351043701171875">
        <ele>2.7999999523162841796875</ele>
        <time>2025-03-17T12:26:13.000Z</time>
        <extensions>
          <ns3:TrackPointExtension>
            <ns3:cad>83</ns3:cad>
          </ns3:TrackPointExtension>
        </extensions>
      </trkpt>
      <trkpt lat="23.388042189180850982666015625" lon="113.22908886708319187164306640625">
        <ele>6.80000019073486328125</ele>
        <time>2025-03-17T12:26:23.000Z</time>
        <extensions>
          <ns3:TrackPointExtension>
            <ns3:cad>84</ns3:cad>
          </ns3:TrackPointExtension>
        </extensions>
      </trkpt>
      <trkpt lat="23.38804227299988269805908203125" lon="113.22915541939437389373779296875">
        <ele>6.80000019073486328125</ele>
        <time>2025-03-17T12:26:29.000Z</time>
        <extensions>
          <ns3:TrackPointExtension>
            <ns3:cad>82</ns3:cad>
          </ns3:TrackPointExtension>
        </extensions>
      </trkpt>
      <trkpt lat="23.38803573511540889739990234375" lon="113.22917553596198558807373046875">
        <ele>7</ele>
        <time>2025-03-17T12:26:31.000Z</time>
        <extensions>
          <ns3:TrackPointExtension>
            <ns3:cad>61</ns3:cad>
          </ns3:TrackPointExtension>
        </extensions>
      </trkpt>
      <trkpt lat="23.3880229108035564422607421875" lon="113.2291965745389461517333984375">
        <ele>7</ele>
        <time>2025-03-17T12:26:36.000Z</time>
        <extensions>
          <ns3:TrackPointExtension>
            <ns3:cad>61</ns3:cad>
          </ns3:TrackPointExtension>
        </extensions>
      </trkpt>
      <trkpt lat="23.38801243342459201812744140625" lon="113.2292671501636505126953125">
        <ele>6.80000019073486328125</ele>
        <time>2025-03-17T12:26:42.000Z</time>
        <extensions>
          <ns3:TrackPointExtension>
            <ns3:cad>59</ns3:cad>
          </ns3:TrackPointExtension>
        </extensions>
      </trkpt>
      <trkpt lat="23.38801545090973377227783203125" lon="113.22932171635329723358154296875">
        <ele>7</ele>
        <time>2025-03-17T12:26:47.000Z</time>
        <extensions>
          <ns3:TrackPointExtension>
            <ns3:cad>58</ns3:cad>
          </ns3:TrackPointExtension>
        </extensions>
      </trkpt>
      <trkpt lat="23.38801964186131954193115234375" lon="113.2293769530951976776123046875">
        <ele>7</ele>
        <time>2025-03-17T12:26:51.000Z</time>
        <extensions>
          <ns3:TrackPointExtension>
            <ns3:cad>60</ns3:cad>
          </ns3:TrackPointExtension>
        </extensions>
      </trkpt>
      <trkpt lat="23.38802450336515903472900390625" lon="113.22940528392791748046875">
        <ele>7.19999980926513671875</ele>
        <time>2025-03-17T12:26:54.000Z</time>
        <extensions>
          <ns3:TrackPointExtension>
            <ns3:cad>60</ns3:cad>
          </ns3:TrackPointExtension>
        </extensions>
      </trkpt>
      <trkpt lat="23.38803422637283802032470703125" lon="113.22951793670654296875">
        <ele>7.400000095367431640625</ele>
        <time>2025-03-17T12:27:03.000Z</time>
        <extensions>
          <ns3:TrackPointExtension>
            <ns3:cad>117</ns3:cad>
          </ns3:TrackPointExtension>
        </extensions>
      </trkpt>
      <trkpt lat="23.388029448688030242919921875" lon="113.2295667193830013275146484375">
        <ele>7.599999904632568359375</ele>
        <time>2025-03-17T12:27:06.000Z</time>
        <extensions>
          <ns3:TrackPointExtension>
            <ns3:cad>117</ns3:cad>
          </ns3:TrackPointExtension>
        </extensions>
      </trkpt>
      <trkpt lat="23.3880343101918697357177734375" lon="113.22960049845278263092041015625">
        <ele>7.80000019073486328125</ele>
        <time>2025-03-17T12:27:09.000Z</time>
        <extensions>
          <ns3:TrackPointExtension>
            <ns3:cad>117</ns3:cad>
          </ns3:TrackPointExtension>
        </extensions>
      </trkpt>
      <trkpt lat="23.3880369924008846282958984375" lon="113.22971214540302753448486328125">
        <ele>7.599999904632568359375</ele>
        <time>2025-03-17T12:27:15.000Z</time>
        <extensions>
          <ns3:TrackPointExtension>
            <ns3:cad>117</ns3:cad>
          </ns3:TrackPointExtension>
        </extensions>
      </trkpt>
      <trkpt lat="23.38803187943994998931884765625" lon="113.22979931719601154327392578125">
        <ele>7</ele>
        <time>2025-03-17T12:27:22.000Z</time>
        <extensions>
          <ns3:TrackPointExtension>
            <ns3:cad>117</ns3:cad>
          </ns3:TrackPointExtension>
        </extensions>
      </trkpt>
      <trkpt lat="23.38803724385797977447509765625" lon="113.22987609542906284332275390625">
        <ele>6.400000095367431640625</ele>
        <time>2025-03-17T12:27:28.000Z</time>
        <extensions>
          <ns3:TrackPointExtension>
            <ns3:cad>57</ns3:cad>
          </ns3:TrackPointExtension>
        </extensions>
      </trkpt>
      <trkpt lat="23.3880339749157428741455078125" lon="113.2299278117716312408447265625">
        <ele>6</ele>
        <time>2025-03-17T12:27:30.000Z</time>
        <extensions>
          <ns3:TrackPointExtension>
            <ns3:cad>57</ns3:cad>
          </ns3:TrackPointExtension>
        </extensions>
      </trkpt>
      <trkpt lat="23.38801394216716289520263671875" lon="113.2300374470651149749755859375">
        <ele>4.80000019073486328125</ele>
        <time>2025-03-17T12:27:37.000Z</time>
        <extensions>
          <ns3:TrackPointExtension>
            <ns3:cad>61</ns3:cad>
          </ns3:TrackPointExtension>
        </extensions>
      </trkpt>
      <trkpt lat="23.38800966739654541015625" lon="113.23012654669582843780517578125">
        <ele>3.7999999523162841796875</ele>
        <time>2025-03-17T12:27:44.000Z</time>
        <extensions>
          <ns3:TrackPointExtension>
            <ns3:cad>61</ns3:cad>
          </ns3:TrackPointExtension>
        </extensions>
      </trkpt>
      <trkpt lat="23.38801025412976741790771484375" lon="113.23018035851418972015380859375">
        <ele>3.2000000476837158203125</ele>
        <time>2025-03-17T12:27:48.000Z</time>
        <extensions>
          <ns3:TrackPointExtension>
            <ns3:cad>61</ns3:cad>
          </ns3:TrackPointExtension>
        </extensions>
      </trkpt>
      <trkpt lat="23.38800187222659587860107421875" lon="113.230233080685138702392578125">
        <ele>2.7999999523162841796875</ele>
        <time>2025-03-17T12:27:51.000Z</time>
        <extensions>
          <ns3:TrackPointExtension>
            <ns3:cad>57</ns3:cad>
          </ns3:TrackPointExtension>
        </extensions>
      </trkpt>
      <trkpt lat="23.387961052358150482177734375" lon="113.230434916913509368896484375">
        <ele>2.2000000476837158203125</ele>
        <time>2025-03-17T12:28:02.000Z</time>
        <extensions>
          <ns3:TrackPointExtension>
            <ns3:cad>61</ns3:cad>
          </ns3:TrackPointExtension>
        </extensions>
      </trkpt>
      <trkpt lat="23.38796205818653106689453125" lon="113.23052736930549144744873046875">
        <ele>2.2000000476837158203125</ele>
        <time>2025-03-17T12:28:09.000Z</time>
        <extensions>
          <ns3:TrackPointExtension>
            <ns3:cad>61</ns3:cad>
          </ns3:TrackPointExtension>
        </extensions>
      </trkpt>
      <trkpt lat="23.387959711253643035888671875" lon="113.23054455220699310302734375">
        <ele>2.2000000476837158203125</ele>
        <time>2025-03-17T12:28:13.000Z</time>
        <extensions>
          <ns3:TrackPointExtension>
            <ns3:cad>61</ns3:cad>
          </ns3:TrackPointExtension>
        </extensions>
      </trkpt>
      <trkpt lat="23.38795158080756664276123046875" lon="113.23057196103036403656005859375">
        <ele>2.2000000476837158203125</ele>
        <time>2025-03-17T12:28:16.000Z</time>
        <extensions>
          <ns3:TrackPointExtension>
            <ns3:cad>61</ns3:cad>
          </ns3:TrackPointExtension>
        </extensions>
      </trkpt>
      <trkpt lat="23.3879260160028934478759765625" lon="113.2306654192507266998291015625">
        <ele>2</ele>
        <time>2025-03-17T12:28:24.000Z</time>
        <extensions>
          <ns3:TrackPointExtension>
            <ns3:cad>61</ns3:cad>
          </ns3:TrackPointExtension>
        </extensions>
      </trkpt>
      <trkpt lat="23.38791939429938793182373046875" lon="113.230690397322177886962890625">
        <ele>2</ele>
        <time>2025-03-17T12:28:26.000Z</time>
        <extensions>
          <ns3:TrackPointExtension>
            <ns3:cad>61</ns3:cad>
          </ns3:TrackPointExtension>
        </extensions>
      </trkpt>
      <trkpt lat="23.38790045119822025299072265625" lon="113.230782933533191680908203125">
        <ele>1.7999999523162841796875</ele>
        <time>2025-03-17T12:28:32.000Z</time>
        <extensions>
          <ns3:TrackPointExtension>
            <ns3:cad>61</ns3:cad>
          </ns3:TrackPointExtension>
        </extensions>
      </trkpt>
      <trkpt lat="23.38786524720489978790283203125" lon="113.23098485358059406280517578125">
        <ele>1.7999999523162841796875</ele>
        <time>2025-03-17T12:28:46.000Z</time>
        <extensions>
          <ns3:TrackPointExtension>
            <ns3:cad>61</ns3:cad>
          </ns3:TrackPointExtension>
        </extensions>
      </trkpt>
      <trkpt lat="23.3878629840910434722900390625" lon="113.23100832290947437286376953125">
        <ele>1.60000002384185791015625</ele>
        <time>2025-03-17T12:28:48.000Z</time>
        <extensions>
          <ns3:TrackPointExtension>
            <ns3:cad>61</ns3:cad>
          </ns3:TrackPointExtension>
        </extensions>
      </trkpt>
      <trkpt lat="23.38782601989805698394775390625" lon="113.2312092371284961700439453125">
        <ele>2.599999904632568359375</ele>
        <time>2025-03-17T12:29:02.000Z</time>
        <extensions>
          <ns3:TrackPointExtension>
            <ns3:cad>57</ns3:cad>
          </ns3:TrackPointExtension>
        </extensions>
      </trkpt>
      <trkpt lat="23.3878130279481410980224609375" lon="113.23127235285937786102294921875">
        <ele>2.7999999523162841796875</ele>
        <time>2025-03-17T12:29:07.000Z</time>
        <extensions>
          <ns3:TrackPointExtension>
            <ns3:cad>57</ns3:cad>
          </ns3:TrackPointExtension>
        </extensions>
      </trkpt>
      <trkpt lat="23.3877915702760219573974609375" lon="113.23133890517055988311767578125">
        <ele>3</ele>
        <time>2025-03-17T12:29:14.000Z</time>
        <extensions>
          <ns3:TrackPointExtension>
            <ns3:cad>57</ns3:cad>
          </ns3:TrackPointExtension>
        </extensions>
      </trkpt>
      <trkpt lat="23.3877848647534847259521484375" lon="113.231347538530826568603515625">
        <ele>2.7999999523162841796875</ele>
        <time>2025-03-17T12:29:16.000Z</time>
        <extensions>
          <ns3:TrackPointExtension>
            <ns3:cad>57</ns3:cad>
          </ns3:TrackPointExtension>
        </extensions>
      </trkpt>
      <trkpt lat="23.38777296245098114013671875" lon="113.23140830732882022857666015625">
        <ele>3.2000000476837158203125</ele>
        <time>2025-03-17T12:29:23.000Z</time>
        <extensions>
          <ns3:TrackPointExtension>
            <ns3:cad>57</ns3:cad>
          </ns3:TrackPointExtension>
        </extensions>
      </trkpt>
      <trkpt lat="23.3877637423574924468994140625" lon="113.23143227957189083099365234375">
        <ele>3.400000095367431640625</ele>
        <time>2025-03-17T12:29:25.000Z</time>
        <extensions>
          <ns3:TrackPointExtension>
            <ns3:cad>57</ns3:cad>
          </ns3:TrackPointExtension>
        </extensions>
      </trkpt>
      <trkpt lat="23.3877560310065746307373046875" lon="113.23145960457623004913330078125">
        <ele>3.400000095367431640625</ele>
        <time>2025-03-17T12:29:28.000Z</time>
        <extensions>
          <ns3:TrackPointExtension>
            <ns3:cad>57</ns3:cad>
          </ns3:TrackPointExtension>
        </extensions>
      </trkpt>
      <trkpt lat="23.3877473138272762298583984375" lon="113.2314848341047763824462890625">
        <ele>3.599999904632568359375</ele>
        <time>2025-03-17T12:29:31.000Z</time>
        <extensions>
          <ns3:TrackPointExtension>
            <ns3:cad>57</ns3:cad>
          </ns3:TrackPointExtension>
        </extensions>
      </trkpt>
      <trkpt lat="23.38773809373378753662109375" lon="113.231519199907779693603515625">
        <ele>3.7999999523162841796875</ele>
        <time>2025-03-17T12:29:34.000Z</time>
        <extensions>
          <ns3:TrackPointExtension>
            <ns3:cad>57</ns3:cad>
          </ns3:TrackPointExtension>
        </extensions>
      </trkpt>
      <trkpt lat="23.38770967908203601837158203125" lon="113.23171474970877170562744140625">
        <ele>3.599999904632568359375</ele>
        <time>2025-03-17T12:29:51.000Z</time>
        <extensions>
          <ns3:TrackPointExtension>
            <ns3:cad>61</ns3:cad>
          </ns3:TrackPointExtension>
        </extensions>
      </trkpt>
      <trkpt lat="23.3877107687294483184814453125" lon="113.23174618184566497802734375">
        <ele>3.400000095367431640625</ele>
        <time>2025-03-17T12:29:56.000Z</time>
        <extensions>
          <ns3:TrackPointExtension>
            <ns3:cad>61</ns3:cad>
          </ns3:TrackPointExtension>
        </extensions>
      </trkpt>
      <trkpt lat="23.38769660331308841705322265625" lon="113.23176093399524688720703125">
        <ele>3.400000095367431640625</ele>
        <time>2025-03-17T12:30:01.000Z</time>
        <extensions>
          <ns3:TrackPointExtension>
            <ns3:cad>61</ns3:cad>
          </ns3:TrackPointExtension>
        </extensions>
      </trkpt>
      <trkpt lat="23.38766408152878284454345703125" lon="113.2318911887705326080322265625">
        <ele>3.599999904632568359375</ele>
        <time>2025-03-17T12:30:07.000Z</time>
        <extensions>
          <ns3:TrackPointExtension>
            <ns3:cad>61</ns3:cad>
          </ns3:TrackPointExtension>
        </extensions>
      </trkpt>
      <trkpt lat="23.3876591362059116363525390625" lon="113.23191876523196697235107421875">
        <ele>3.599999904632568359375</ele>
        <time>2025-03-17T12:30:08.000Z</time>
        <extensions>
          <ns3:TrackPointExtension>
            <ns3:cad>61</ns3:cad>
          </ns3:TrackPointExtension>
        </extensions>
      </trkpt>
      <trkpt lat="23.38765234686434268951416015625" lon="113.23195698671042919158935546875">
        <ele>3.599999904632568359375</ele>
        <time>2025-03-17T12:30:11.000Z</time>
        <extensions>
          <ns3:TrackPointExtension>
            <ns3:cad>61</ns3:cad>
          </ns3:TrackPointExtension>
        </extensions>
      </trkpt>
      <trkpt lat="23.387608341872692108154296875" lon="113.23215865530073642730712890625">
        <ele>3.2000000476837158203125</ele>
        <time>2025-03-17T12:30:21.000Z</time>
        <extensions>
          <ns3:TrackPointExtension>
            <ns3:cad>55</ns3:cad>
          </ns3:TrackPointExtension>
        </extensions>
      </trkpt>
      <trkpt lat="23.38758562691509723663330078125" lon="113.23220944963395595550537109375">
        <ele>3.599999904632568359375</ele>
        <time>2025-03-17T12:30:27.000Z</time>
        <extensions>
          <ns3:TrackPointExtension>
            <ns3:cad>55</ns3:cad>
          </ns3:TrackPointExtension>
        </extensions>
      </trkpt>
      <trkpt lat="23.3875961042940616607666015625" lon="113.23218480683863162994384765625">
        <ele>3.400000095367431640625</ele>
        <time>2025-03-17T12:30:30.000Z</time>
        <extensions>
          <ns3:TrackPointExtension>
            <ns3:cad>59</ns3:cad>
          </ns3:TrackPointExtension>
        </extensions>
      </trkpt>
      <trkpt lat="23.3876054920256137847900390625" lon="113.23215664364397525787353515625">
        <ele>3</ele>
        <time>2025-03-17T12:30:33.000Z</time>
        <extensions>
          <ns3:TrackPointExtension>
            <ns3:cad>61</ns3:cad>
          </ns3:TrackPointExtension>
        </extensions>
      </trkpt>
      <trkpt lat="23.38760205544531345367431640625" lon="113.23207114823162555694580078125">
        <ele>3.599999904632568359375</ele>
        <time>2025-03-17T12:30:44.000Z</time>
        <extensions>
          <ns3:TrackPointExtension>
            <ns3:cad>54</ns3:cad>
          </ns3:TrackPointExtension>
        </extensions>
      </trkpt>
      <trkpt lat="23.38747389614582061767578125" lon="113.2320772670209407806396484375">
        <ele>3.599999904632568359375</ele>
        <time>2025-03-17T12:30:56.000Z</time>
        <extensions>
          <ns3:TrackPointExtension>
            <ns3:cad>58</ns3:cad>
          </ns3:TrackPointExtension>
        </extensions>
      </trkpt>
      <trkpt lat="23.38744573295116424560546875" lon="113.23209193535149097442626953125">
        <ele>3.400000095367431640625</ele>
        <time>2025-03-17T12:31:00.000Z</time>
        <extensions>
          <ns3:TrackPointExtension>
            <ns3:cad>58</ns3:cad>
          </ns3:TrackPointExtension>
        </extensions>
      </trkpt>
      <trkpt lat="23.38730365969240665435791015625" lon="113.23221598751842975616455078125">
        <ele>4.80000019073486328125</ele>
        <time>2025-03-17T12:31:11.000Z</time>
        <extensions>
          <ns3:TrackPointExtension>
            <ns3:cad>58</ns3:cad>
          </ns3:TrackPointExtension>
        </extensions>
      </trkpt>
      <trkpt lat="23.387178517878055572509765625" lon="113.23236853815615177154541015625">
        <ele>6.400000095367431640625</ele>
        <time>2025-03-17T12:31:21.000Z</time>
        <extensions>
          <ns3:TrackPointExtension>
            <ns3:cad>81</ns3:cad>
          </ns3:TrackPointExtension>
        </extensions>
      </trkpt>
      <trkpt lat="23.38712546043097972869873046875" lon="113.232583366334438323974609375">
        <ele>6.599999904632568359375</ele>
        <time>2025-03-17T12:31:31.000Z</time>
        <extensions>
          <ns3:TrackPointExtension>
            <ns3:cad>81</ns3:cad>
          </ns3:TrackPointExtension>
        </extensions>
      </trkpt>
      <trkpt lat="23.3870532922446727752685546875" lon="113.232789225876331329345703125">
        <ele>4.599999904632568359375</ele>
        <time>2025-03-17T12:31:40.000Z</time>
        <extensions>
          <ns3:TrackPointExtension>
            <ns3:cad>82</ns3:cad>
          </ns3:TrackPointExtension>
        </extensions>
      </trkpt>
      <trkpt lat="23.3870254643261432647705078125" lon="113.2328447140753269195556640625">
        <ele>4</ele>
        <time>2025-03-17T12:31:41.000Z</time>
        <extensions>
          <ns3:TrackPointExtension>
            <ns3:cad>81</ns3:cad>
          </ns3:TrackPointExtension>
        </extensions>
      </trkpt>
      <trkpt lat="23.38702755980193614959716796875" lon="113.2329230010509490966796875">
        <ele>3.2000000476837158203125</ele>
        <time>2025-03-17T12:31:43.000Z</time>
        <extensions>
          <ns3:TrackPointExtension>
            <ns3:cad>81</ns3:cad>
          </ns3:TrackPointExtension>
        </extensions>
      </trkpt>
      <trkpt lat="23.38700450956821441650390625" lon="113.2329939119517803192138671875">
        <ele>2.7999999523162841796875</ele>
        <time>2025-03-17T12:31:47.000Z</time>
        <extensions>
          <ns3:TrackPointExtension>
            <ns3:cad>83</ns3:cad>
          </ns3:TrackPointExtension>
        </extensions>
      </trkpt>
      <trkpt lat="23.386927060782909393310546875" lon="113.233179487287998199462890625">
        <ele>1</ele>
        <time>2025-03-17T12:31:53.000Z</time>
        <extensions>
          <ns3:TrackPointExtension>
            <ns3:cad>83</ns3:cad>
          </ns3:TrackPointExtension>
        </extensions>
      </trkpt>
      <trkpt lat="23.3869101293385028839111328125" lon="113.23338358663022518157958984375">
        <ele>0</ele>
        <time>2025-03-17T12:32:00.000Z</time>
        <extensions>
          <ns3:TrackPointExtension>
            <ns3:cad>82</ns3:cad>
          </ns3:TrackPointExtension>
        </extensions>
      </trkpt>
      <trkpt lat="23.38697877712547779083251953125" lon="113.23356279172003269195556640625">
        <ele>1.60000002384185791015625</ele>
        <time>2025-03-17T12:32:08.000Z</time>
        <extensions>
          <ns3:TrackPointExtension>
            <ns3:cad>83</ns3:cad>
          </ns3:TrackPointExtension>
        </extensions>
      </trkpt>
      <trkpt lat="23.38716519065201282501220703125" lon="113.23362867347896099090576171875">
        <ele>5.80000019073486328125</ele>
        <time>2025-03-17T12:32:15.000Z</time>
        <extensions>
          <ns3:TrackPointExtension>
            <ns3:cad>82</ns3:cad>
          </ns3:TrackPointExtension>
        </extensions>
      </trkpt>
      <trkpt lat="23.38735629804432392120361328125" lon="113.23369103483855724334716796875">
        <ele>7.19999980926513671875</ele>
        <time>2025-03-17T12:32:24.000Z</time>
        <extensions>
          <ns3:TrackPointExtension>
            <ns3:cad>83</ns3:cad>
          </ns3:TrackPointExtension>
        </extensions>
      </trkpt>
      <trkpt lat="23.38744598440825939178466796875" lon="113.23372565209865570068359375">
        <ele>7.599999904632568359375</ele>
        <time>2025-03-17T12:32:28.000Z</time>
        <extensions>
          <ns3:TrackPointExtension>
            <ns3:cad>83</ns3:cad>
          </ns3:TrackPointExtension>
        </extensions>
      </trkpt>
      <trkpt lat="23.3875015564262866973876953125" lon="113.23376320302486419677734375">
        <ele>7.80000019073486328125</ele>
        <time>2025-03-17T12:32:32.000Z</time>
        <extensions>
          <ns3:TrackPointExtension>
            <ns3:cad>82</ns3:cad>
          </ns3:TrackPointExtension>
        </extensions>
      </trkpt>
      <trkpt lat="23.3874774165451526641845703125" lon="113.2339886762201786041259765625">
        <ele>8.6000003814697265625</ele>
        <time>2025-03-17T12:32:40.000Z</time>
        <extensions>
          <ns3:TrackPointExtension>
            <ns3:cad>84</ns3:cad>
          </ns3:TrackPointExtension>
        </extensions>
      </trkpt>
      <trkpt lat="23.3874338306486606597900390625" lon="113.23418422602117061614990234375">
        <ele>8.6000003814697265625</ele>
        <time>2025-03-17T12:32:48.000Z</time>
        <extensions>
          <ns3:TrackPointExtension>
            <ns3:cad>82</ns3:cad>
          </ns3:TrackPointExtension>
        </extensions>
      </trkpt>
      <trkpt lat="23.3874220959842205047607421875" lon="113.23440047912299633026123046875">
        <ele>6</ele>
        <time>2025-03-17T12:33:00.000Z</time>
        <extensions>
          <ns3:TrackPointExtension>
            <ns3:cad>83</ns3:cad>
          </ns3:TrackPointExtension>
        </extensions>
      </trkpt>
      <trkpt lat="23.38740508072078227996826171875" lon="113.23461187072098255157470703125">
        <ele>0</ele>
        <time>2025-03-17T12:33:08.000Z</time>
        <extensions>
          <ns3:TrackPointExtension>
            <ns3:cad>84</ns3:cad>
          </ns3:TrackPointExtension>
        </extensions>
      </trkpt>
      <trkpt lat="23.387382365763187408447265625" lon="113.23481823317706584930419921875">
        <ele>-0.4000000059604644775390625</ele>
        <time>2025-03-17T12:33:15.000Z</time>
        <extensions>
          <ns3:TrackPointExtension>
            <ns3:cad>84</ns3:cad>
          </ns3:TrackPointExtension>
        </extensions>
      </trkpt>
      <trkpt lat="23.387354202568531036376953125" lon="113.2350432872772216796875">
        <ele>2</ele>
        <time>2025-03-17T12:33:23.000Z</time>
        <extensions>
          <ns3:TrackPointExtension>
            <ns3:cad>84</ns3:cad>
          </ns3:TrackPointExtension>
        </extensions>
      </trkpt>
      <trkpt lat="23.38731774128973484039306640625" lon="113.2352650724351406097412109375">
        <ele>2.400000095367431640625</ele>
        <time>2025-03-17T12:33:31.000Z</time>
        <extensions>
          <ns3:TrackPointExtension>
            <ns3:cad>82</ns3:cad>
          </ns3:TrackPointExtension>
        </extensions>
      </trkpt>
      <trkpt lat="23.38725923560559749603271484375" lon="113.23546028696000576019287109375">
        <ele>2.400000095367431640625</ele>
        <time>2025-03-17T12:33:38.000Z</time>
        <extensions>
          <ns3:TrackPointExtension>
            <ns3:cad>82</ns3:cad>
          </ns3:TrackPointExtension>
        </extensions>
      </trkpt>
      <trkpt lat="23.3872152306139469146728515625" lon="113.2356610335409641265869140625">
        <ele>2.7999999523162841796875</ele>
        <time>2025-03-17T12:33:45.000Z</time>
        <extensions>
          <ns3:TrackPointExtension>
            <ns3:cad>83</ns3:cad>
          </ns3:TrackPointExtension>
        </extensions>
      </trkpt>
      <trkpt lat="23.38716820813715457916259765625" lon="113.23586865328252315521240234375">
        <ele>3.400000095367431640625</ele>
        <time>2025-03-17T12:33:53.000Z</time>
        <extensions>
          <ns3:TrackPointExtension>
            <ns3:cad>83</ns3:cad>
          </ns3:TrackPointExtension>
        </extensions>
      </trkpt>
      <trkpt lat="23.3871585689485073089599609375" lon="113.235964290797710418701171875">
        <ele>3.599999904632568359375</ele>
        <time>2025-03-17T12:33:58.000Z</time>
        <extensions>
          <ns3:TrackPointExtension>
            <ns3:cad>83</ns3:cad>
          </ns3:TrackPointExtension>
        </extensions>
      </trkpt>
      <trkpt lat="23.38713987730443477630615234375" lon="113.2361706532537937164306640625">
        <ele>5.400000095367431640625</ele>
        <time>2025-03-17T12:34:12.000Z</time>
        <extensions>
          <ns3:TrackPointExtension>
            <ns3:cad>61</ns3:cad>
          </ns3:TrackPointExtension>
        </extensions>
      </trkpt>
      <trkpt lat="23.3871159888803958892822265625" lon="113.236380033195018768310546875">
        <ele>7.599999904632568359375</ele>
        <time>2025-03-17T12:34:26.000Z</time>
        <extensions>
          <ns3:TrackPointExtension>
            <ns3:cad>61</ns3:cad>
          </ns3:TrackPointExtension>
        </extensions>
      </trkpt>
      <trkpt lat="23.3870992250740528106689453125" lon="113.23658480308949947357177734375">
        <ele>9.19999980926513671875</ele>
        <time>2025-03-17T12:34:36.000Z</time>
        <extensions>
          <ns3:TrackPointExtension>
            <ns3:cad>83</ns3:cad>
          </ns3:TrackPointExtension>
        </extensions>
      </trkpt>
      <trkpt lat="23.3870626799762248992919921875" lon="113.236799798905849456787109375">
        <ele>10.6000003814697265625</ele>
        <time>2025-03-17T12:34:45.000Z</time>
        <extensions>
          <ns3:TrackPointExtension>
            <ns3:cad>83</ns3:cad>
          </ns3:TrackPointExtension>
        </extensions>
      </trkpt>
      <trkpt lat="23.38703946210443973541259765625" lon="113.237015046179294586181640625">
        <ele>9.3999996185302734375</ele>
        <time>2025-03-17T12:34:54.000Z</time>
        <extensions>
          <ns3:TrackPointExtension>
            <ns3:cad>83</ns3:cad>
          </ns3:TrackPointExtension>
        </extensions>
      </trkpt>
      <trkpt lat="23.38702186010777950286865234375" lon="113.2372307963669300079345703125">
        <ele>8.80000019073486328125</ele>
        <time>2025-03-17T12:35:03.000Z</time>
        <extensions>
          <ns3:TrackPointExtension>
            <ns3:cad>83</ns3:cad>
          </ns3:TrackPointExtension>
        </extensions>
      </trkpt>
      <trkpt lat="23.3870177529752254486083984375" lon="113.23743891902267932891845703125">
        <ele>8.6000003814697265625</ele>
        <time>2025-03-17T12:35:12.000Z</time>
        <extensions>
          <ns3:TrackPointExtension>
            <ns3:cad>84</ns3:cad>
          </ns3:TrackPointExtension>
        </extensions>
      </trkpt>
      <trkpt lat="23.387029655277729034423828125" lon="113.23763723485171794891357421875">
        <ele>7.400000095367431640625</ele>
        <time>2025-03-17T12:35:20.000Z</time>
        <extensions>
          <ns3:TrackPointExtension>
            <ns3:cad>83</ns3:cad>
          </ns3:TrackPointExtension>
        </extensions>
      </trkpt>
      <trkpt lat="23.387053795158863067626953125" lon="113.23784275911748409271240234375">
        <ele>7</ele>
        <time>2025-03-17T12:35:29.000Z</time>
        <extensions>
          <ns3:TrackPointExtension>
            <ns3:cad>83</ns3:cad>
          </ns3:TrackPointExtension>
        </extensions>
      </trkpt>
      <trkpt lat="23.38707114569842815399169921875" lon="113.2380555756390094757080078125">
        <ele>5.400000095367431640625</ele>
        <time>2025-03-17T12:35:39.000Z</time>
        <extensions>
          <ns3:TrackPointExtension>
            <ns3:cad>83</ns3:cad>
          </ns3:TrackPointExtension>
        </extensions>
      </trkpt>
      <trkpt lat="23.38706963695585727691650390625" lon="113.23825179599225521087646484375">
        <ele>5.19999980926513671875</ele>
        <time>2025-03-17T12:35:47.000Z</time>
        <extensions>
          <ns3:TrackPointExtension>
            <ns3:cad>83</ns3:cad>
          </ns3:TrackPointExtension>
        </extensions>
      </trkpt>
      <trkpt lat="23.38708824478089809417724609375" lon="113.23846117593348026275634765625">
        <ele>2.7999999523162841796875</ele>
        <time>2025-03-17T12:35:56.000Z</time>
        <extensions>
          <ns3:TrackPointExtension>
            <ns3:cad>81</ns3:cad>
          </ns3:TrackPointExtension>
        </extensions>
      </trkpt>
      <trkpt lat="23.3871082775294780731201171875" lon="113.23867072351276874542236328125">
        <ele>0.60000002384185791015625</ele>
        <time>2025-03-17T12:36:05.000Z</time>
        <extensions>
          <ns3:TrackPointExtension>
            <ns3:cad>84</ns3:cad>
          </ns3:TrackPointExtension>
        </extensions>
      </trkpt>
      <trkpt lat="23.38710735552012920379638671875" lon="113.238874487578868865966796875">
        <ele>-0.800000011920928955078125</ele>
        <time>2025-03-17T12:36:13.000Z</time>
        <extensions>
          <ns3:TrackPointExtension>
            <ns3:cad>84</ns3:cad>
          </ns3:TrackPointExtension>
        </extensions>
      </trkpt>
      <trkpt lat="23.3871139772236347198486328125" lon="113.2390848733484745025634765625">
        <ele>-0.60000002384185791015625</ele>
        <time>2025-03-17T12:36:22.000Z</time>
        <extensions>
          <ns3:TrackPointExtension>
            <ns3:cad>82</ns3:cad>
          </ns3:TrackPointExtension>
        </extensions>
      </trkpt>
      <trkpt lat="23.3871498517692089080810546875" lon="113.23928662575781345367431640625">
        <ele>2.2000000476837158203125</ele>
        <time>2025-03-17T12:36:36.000Z</time>
        <extensions>
          <ns3:TrackPointExtension>
            <ns3:cad>61</ns3:cad>
          </ns3:TrackPointExtension>
        </extensions>
      </trkpt>
      <trkpt lat="23.38718949817121028900146484375" lon="113.239482678472995758056640625">
        <ele>3.400000095367431640625</ele>
        <time>2025-03-17T12:36:52.000Z</time>
        <extensions>
          <ns3:TrackPointExtension>
            <ns3:cad>61</ns3:cad>
          </ns3:TrackPointExtension>
        </extensions>
      </trkpt>
      <trkpt lat="23.38723392225801944732666015625" lon="113.23968057520687580108642578125">
        <ele>3.599999904632568359375</ele>
        <time>2025-03-17T12:37:08.000Z</time>
        <extensions>
          <ns3:TrackPointExtension>
            <ns3:cad>61</ns3:cad>
          </ns3:TrackPointExtension>
        </extensions>
      </trkpt>
      <trkpt lat="23.38725353591144084930419921875" lon="113.2398841716349124908447265625">
        <ele>2.7999999523162841796875</ele>
        <time>2025-03-17T12:37:24.000Z</time>
        <extensions>
          <ns3:TrackPointExtension>
            <ns3:cad>61</ns3:cad>
          </ns3:TrackPointExtension>
        </extensions>
      </trkpt>
      <trkpt lat="23.3873007260262966156005859375" lon="113.24007603339850902557373046875">
        <ele>1</ele>
        <time>2025-03-17T12:37:37.000Z</time>
        <extensions>
          <ns3:TrackPointExtension>
            <ns3:cad>61</ns3:cad>
          </ns3:TrackPointExtension>
        </extensions>
      </trkpt>
      <trkpt lat="23.387348167598247528076171875" lon="113.24027954600751399993896484375">
        <ele>0</ele>
        <time>2025-03-17T12:37:52.000Z</time>
        <extensions>
          <ns3:TrackPointExtension>
            <ns3:cad>61</ns3:cad>
          </ns3:TrackPointExtension>
        </extensions>
      </trkpt>
      <trkpt lat="23.38742963969707489013671875" lon="113.24045975692570209503173828125">
        <ele>1</ele>
        <time>2025-03-17T12:38:06.000Z</time>
        <extensions>
          <ns3:TrackPointExtension>
            <ns3:cad>61</ns3:cad>
          </ns3:TrackPointExtension>
        </extensions>
      </trkpt>
      <trkpt lat="23.38746794499456882476806640625" lon="113.24056218378245830535888671875">
        <ele>1.7999999523162841796875</ele>
        <time>2025-03-17T12:38:14.000Z</time>
        <extensions>
          <ns3:TrackPointExtension>
            <ns3:cad>61</ns3:cad>
          </ns3:TrackPointExtension>
        </extensions>
      </trkpt>
      <trkpt lat="23.38747297413647174835205078125" lon="113.2405996508896350860595703125">
        <ele>2.2000000476837158203125</ele>
        <time>2025-03-17T12:38:18.000Z</time>
        <extensions>
          <ns3:TrackPointExtension>
            <ns3:cad>59</ns3:cad>
          </ns3:TrackPointExtension>
        </extensions>
      </trkpt>
      <trkpt lat="23.38746576569974422454833984375" lon="113.24061884544789791107177734375">
        <ele>2.400000095367431640625</ele>
        <time>2025-03-17T12:38:20.000Z</time>
        <extensions>
          <ns3:TrackPointExtension>
            <ns3:cad>59</ns3:cad>
          </ns3:TrackPointExtension>
        </extensions>
      </trkpt>
      <trkpt lat="23.387456126511096954345703125" lon="113.24064834974706172943115234375">
        <ele>2.7999999523162841796875</ele>
        <time>2025-03-17T12:38:23.000Z</time>
        <extensions>
          <ns3:TrackPointExtension>
            <ns3:cad>61</ns3:cad>
          </ns3:TrackPointExtension>
        </extensions>
      </trkpt>
      <trkpt lat="23.38741346262395381927490234375" lon="113.24075966142117977142333984375">
        <ele>3.2000000476837158203125</ele>
        <time>2025-03-17T12:38:34.000Z</time>
        <extensions>
          <ns3:TrackPointExtension>
            <ns3:cad>61</ns3:cad>
          </ns3:TrackPointExtension>
        </extensions>
      </trkpt>
      <trkpt lat="23.3873887360095977783203125" lon="113.240958563983440399169921875">
        <ele>3.599999904632568359375</ele>
        <time>2025-03-17T12:38:48.000Z</time>
        <extensions>
          <ns3:TrackPointExtension>
            <ns3:cad>61</ns3:cad>
          </ns3:TrackPointExtension>
        </extensions>
      </trkpt>
      <trkpt lat="23.387384377419948577880859375" lon="113.24098362587392330169677734375">
        <ele>3.400000095367431640625</ele>
        <time>2025-03-17T12:38:49.000Z</time>
        <extensions>
          <ns3:TrackPointExtension>
            <ns3:cad>61</ns3:cad>
          </ns3:TrackPointExtension>
        </extensions>
      </trkpt>
      <trkpt lat="23.38740994222462177276611328125" lon="113.2411840371787548065185546875">
        <ele>5</ele>
        <time>2025-03-17T12:39:07.000Z</time>
        <extensions>
          <ns3:TrackPointExtension>
            <ns3:cad>61</ns3:cad>
          </ns3:TrackPointExtension>
        </extensions>
      </trkpt>
      <trkpt lat="23.38745922781527042388916015625" lon="113.24125318787992000579833984375">
        <ele>6.400000095367431640625</ele>
        <time>2025-03-17T12:39:12.000Z</time>
        <extensions>
          <ns3:TrackPointExtension>
            <ns3:cad>61</ns3:cad>
          </ns3:TrackPointExtension>
        </extensions>
      </trkpt>
      <trkpt lat="23.3874955214560031890869140625" lon="113.24126458726823329925537109375">
        <ele>6.80000019073486328125</ele>
        <time>2025-03-17T12:39:18.000Z</time>
        <extensions>
          <ns3:TrackPointExtension>
            <ns3:cad>61</ns3:cad>
          </ns3:TrackPointExtension>
        </extensions>
      </trkpt>
      <trkpt lat="23.3875796757638454437255859375" lon="113.24131320230662822723388671875">
        <ele>7.80000019073486328125</ele>
        <time>2025-03-17T12:39:24.000Z</time>
        <extensions>
          <ns3:TrackPointExtension>
            <ns3:cad>61</ns3:cad>
          </ns3:TrackPointExtension>
        </extensions>
      </trkpt>
      <trkpt lat="23.38757959194481372833251953125" lon="113.2413781620562076568603515625">
        <ele>7.400000095367431640625</ele>
        <time>2025-03-17T12:39:26.000Z</time>
        <extensions>
          <ns3:TrackPointExtension>
            <ns3:cad>59</ns3:cad>
          </ns3:TrackPointExtension>
        </extensions>
      </trkpt>
      <trkpt lat="23.38759736157953739166259765625" lon="113.24144798330962657928466796875">
        <ele>7</ele>
        <time>2025-03-17T12:39:29.000Z</time>
        <extensions>
          <ns3:TrackPointExtension>
            <ns3:cad>59</ns3:cad>
          </ns3:TrackPointExtension>
        </extensions>
      </trkpt>
      <trkpt lat="23.3876705355942249298095703125" lon="113.24163439683616161346435546875">
        <ele>6.599999904632568359375</ele>
        <time>2025-03-17T12:39:46.000Z</time>
        <extensions>
          <ns3:TrackPointExtension>
            <ns3:cad>56</ns3:cad>
          </ns3:TrackPointExtension>
        </extensions>
      </trkpt>
      <trkpt lat="23.38768310844898223876953125" lon="113.24167043901979923248291015625">
        <ele>6.400000095367431640625</ele>
        <time>2025-03-17T12:39:49.000Z</time>
        <extensions>
          <ns3:TrackPointExtension>
            <ns3:cad>56</ns3:cad>
          </ns3:TrackPointExtension>
        </extensions>
      </trkpt>
      <trkpt lat="23.38777673430740833282470703125" lon="113.24185282923281192779541015625">
        <ele>6</ele>
        <time>2025-03-17T12:40:03.000Z</time>
        <extensions>
          <ns3:TrackPointExtension>
            <ns3:cad>59</ns3:cad>
          </ns3:TrackPointExtension>
        </extensions>
      </trkpt>
      <trkpt lat="23.38790430687367916107177734375" lon="113.241991885006427764892578125">
        <ele>5.599999904632568359375</ele>
        <time>2025-03-17T12:40:18.000Z</time>
        <extensions>
          <ns3:TrackPointExtension>
            <ns3:cad>61</ns3:cad>
          </ns3:TrackPointExtension>
        </extensions>
      </trkpt>
      <trkpt lat="23.3879384212195873260498046875" lon="113.242062963545322418212890625">
        <ele>5.400000095367431640625</ele>
        <time>2025-03-17T12:40:25.000Z</time>
        <extensions>
          <ns3:TrackPointExtension>
            <ns3:cad>61</ns3:cad>
          </ns3:TrackPointExtension>
        </extensions>
      </trkpt>
      <trkpt lat="23.3880048058927059173583984375" lon="113.2422478683292865753173828125">
        <ele>3.599999904632568359375</ele>
        <time>2025-03-17T12:40:42.000Z</time>
        <extensions>
          <ns3:TrackPointExtension>
            <ns3:cad>58</ns3:cad>
          </ns3:TrackPointExtension>
        </extensions>
      </trkpt>
      <trkpt lat="23.38808200322091579437255859375" lon="113.24244023300707340240478515625">
        <ele>1</ele>
        <time>2025-03-17T12:40:56.000Z</time>
        <extensions>
          <ns3:TrackPointExtension>
            <ns3:cad>59</ns3:cad>
          </ns3:TrackPointExtension>
        </extensions>
      </trkpt>
      <trkpt lat="23.38815961964428424835205078125" lon="113.24261692352592945098876953125">
        <ele>-1</ele>
        <time>2025-03-17T12:41:10.000Z</time>
        <extensions>
          <ns3:TrackPointExtension>
            <ns3:cad>61</ns3:cad>
          </ns3:TrackPointExtension>
        </extensions>
      </trkpt>
      <trkpt lat="23.3882421813905239105224609375" lon="113.24279864318668842315673828125">
        <ele>-0.4000000059604644775390625</ele>
        <time>2025-03-17T12:41:26.000Z</time>
        <extensions>
          <ns3:TrackPointExtension>
            <ns3:cad>61</ns3:cad>
          </ns3:TrackPointExtension>
        </extensions>
      </trkpt>
      <trkpt lat="23.3883162774145603179931640625" lon="113.24299226514995098114013671875">
        <ele>3.2000000476837158203125</ele>
        <time>2025-03-17T12:41:43.000Z</time>
        <extensions>
          <ns3:TrackPointExtension>
            <ns3:cad>61</ns3:cad>
          </ns3:TrackPointExtension>
        </extensions>
      </trkpt>
      <trkpt lat="23.3883363939821720123291015625" lon="113.24304020963609218597412109375">
        <ele>4</ele>
        <time>2025-03-17T12:41:47.000Z</time>
        <extensions>
          <ns3:TrackPointExtension>
            <ns3:cad>61</ns3:cad>
          </ns3:TrackPointExtension>
        </extensions>
      </trkpt>
      <trkpt lat="23.38842599652707576751708984375" lon="113.243221342563629150390625">
        <ele>7.19999980926513671875</ele>
        <time>2025-03-17T12:42:03.000Z</time>
        <extensions>
          <ns3:TrackPointExtension>
            <ns3:cad>61</ns3:cad>
          </ns3:TrackPointExtension>
        </extensions>
      </trkpt>
      <trkpt lat="23.38851031847298145294189453125" lon="113.24339761398732662200927734375">
        <ele>6</ele>
        <time>2025-03-17T12:42:16.000Z</time>
        <extensions>
          <ns3:TrackPointExtension>
            <ns3:cad>61</ns3:cad>
          </ns3:TrackPointExtension>
        </extensions>
      </trkpt>
      <trkpt lat="23.38857821188867092132568359375" lon="113.2435926608741283416748046875">
        <ele>4.400000095367431640625</ele>
        <time>2025-03-17T12:42:33.000Z</time>
        <extensions>
          <ns3:TrackPointExtension>
            <ns3:cad>61</ns3:cad>
          </ns3:TrackPointExtension>
        </extensions>
      </trkpt>
      <trkpt lat="23.38867359794676303863525390625" lon="113.24377530254423618316650390625">
        <ele>4.599999904632568359375</ele>
        <time>2025-03-17T12:42:47.000Z</time>
        <extensions>
          <ns3:TrackPointExtension>
            <ns3:cad>81</ns3:cad>
          </ns3:TrackPointExtension>
        </extensions>
      </trkpt>
      <trkpt lat="23.38876898400485515594482421875" lon="113.2439547590911388397216796875">
        <ele>5.400000095367431640625</ele>
        <time>2025-03-17T12:42:56.000Z</time>
        <extensions>
          <ns3:TrackPointExtension>
            <ns3:cad>83</ns3:cad>
          </ns3:TrackPointExtension>
        </extensions>
      </trkpt>
      <trkpt lat="23.3888590894639492034912109375" lon="113.24412918649613857269287109375">
        <ele>5.80000019073486328125</ele>
        <time>2025-03-17T12:43:06.000Z</time>
        <extensions>
          <ns3:TrackPointExtension>
            <ns3:cad>82</ns3:cad>
          </ns3:TrackPointExtension>
        </extensions>
      </trkpt>
      <trkpt lat="23.3889714069664478302001953125" lon="113.24431057088077068328857421875">
        <ele>4.400000095367431640625</ele>
        <time>2025-03-17T12:43:16.000Z</time>
        <extensions>
          <ns3:TrackPointExtension>
            <ns3:cad>82</ns3:cad>
          </ns3:TrackPointExtension>
        </extensions>
      </trkpt>
      <trkpt lat="23.3890597522258758544921875" lon="113.24448273517191410064697265625">
        <ele>4</ele>
        <time>2025-03-17T12:43:26.000Z</time>
        <extensions>
          <ns3:TrackPointExtension>
            <ns3:cad>83</ns3:cad>
          </ns3:TrackPointExtension>
        </extensions>
      </trkpt>
      <trkpt lat="23.38906989432871341705322265625" lon="113.244503438472747802734375">
        <ele>4</ele>
        <time>2025-03-17T12:43:27.000Z</time>
        <extensions>
          <ns3:TrackPointExtension>
            <ns3:cad>81</ns3:cad>
          </ns3:TrackPointExtension>
        </extensions>
      </trkpt>
      <trkpt lat="23.389135189354419708251953125" lon="113.24470259249210357666015625">
        <ele>4.19999980926513671875</ele>
        <time>2025-03-17T12:43:34.000Z</time>
        <extensions>
          <ns3:TrackPointExtension>
            <ns3:cad>83</ns3:cad>
          </ns3:TrackPointExtension>
        </extensions>
      </trkpt>
      <trkpt lat="23.3892099559307098388671875" lon="113.24489043094217777252197265625">
        <ele>4</ele>
        <time>2025-03-17T12:43:42.000Z</time>
        <extensions>
          <ns3:TrackPointExtension>
            <ns3:cad>83</ns3:cad>
          </ns3:TrackPointExtension>
        </extensions>
      </trkpt>
      <trkpt lat="23.3892905898392200469970703125" lon="113.24509226717054843902587890625">
        <ele>3.7999999523162841796875</ele>
        <time>2025-03-17T12:43:51.000Z</time>
        <extensions>
          <ns3:TrackPointExtension>
            <ns3:cad>81</ns3:cad>
          </ns3:TrackPointExtension>
        </extensions>
      </trkpt>
      <trkpt lat="23.3893737383186817169189453125" lon="113.245269544422626495361328125">
        <ele>3.599999904632568359375</ele>
        <time>2025-03-17T12:43:59.000Z</time>
        <extensions>
          <ns3:TrackPointExtension>
            <ns3:cad>79</ns3:cad>
          </ns3:TrackPointExtension>
        </extensions>
      </trkpt>
      <trkpt lat="23.389387317001819610595703125" lon="113.2453059218823909759521484375">
        <ele>3.599999904632568359375</ele>
        <time>2025-03-17T12:44:01.000Z</time>
        <extensions>
          <ns3:TrackPointExtension>
            <ns3:cad>81</ns3:cad>
          </ns3:TrackPointExtension>
        </extensions>
      </trkpt>
      <trkpt lat="23.389466106891632080078125" lon="113.24550616554915904998779296875">
        <ele>3.599999904632568359375</ele>
        <time>2025-03-17T12:44:11.000Z</time>
        <extensions>
          <ns3:TrackPointExtension>
            <ns3:cad>82</ns3:cad>
          </ns3:TrackPointExtension>
        </extensions>
      </trkpt>
      <trkpt lat="23.38955554179847240447998046875" lon="113.24569098651409149169921875">
        <ele>3.2000000476837158203125</ele>
        <time>2025-03-17T12:44:20.000Z</time>
        <extensions>
          <ns3:TrackPointExtension>
            <ns3:cad>81</ns3:cad>
          </ns3:TrackPointExtension>
        </extensions>
      </trkpt>
      <trkpt lat="23.3896422944962978363037109375" lon="113.2458792440593242645263671875">
        <ele>3</ele>
        <time>2025-03-17T12:44:29.000Z</time>
        <extensions>
          <ns3:TrackPointExtension>
            <ns3:cad>82</ns3:cad>
          </ns3:TrackPointExtension>
        </extensions>
      </trkpt>
      <trkpt lat="23.38972921483218669891357421875" lon="113.24607563205063343048095703125">
        <ele>3</ele>
        <time>2025-03-17T12:44:38.000Z</time>
        <extensions>
          <ns3:TrackPointExtension>
            <ns3:cad>82</ns3:cad>
          </ns3:TrackPointExtension>
        </extensions>
      </trkpt>
      <trkpt lat="23.38979861699044704437255859375" lon="113.24626271612942218780517578125">
        <ele>2.599999904632568359375</ele>
        <time>2025-03-17T12:44:47.000Z</time>
        <extensions>
          <ns3:TrackPointExtension>
            <ns3:cad>81</ns3:cad>
          </ns3:TrackPointExtension>
        </extensions>
      </trkpt>
      <trkpt lat="23.38986902497708797454833984375" lon="113.24645382352173328399658203125">
        <ele>2.2000000476837158203125</ele>
        <time>2025-03-17T12:45:02.000Z</time>
        <extensions>
          <ns3:TrackPointExtension>
            <ns3:cad>61</ns3:cad>
          </ns3:TrackPointExtension>
        </extensions>
      </trkpt>
      <trkpt lat="23.3899544365704059600830078125" lon="113.24663587845861911773681640625">
        <ele>2</ele>
        <time>2025-03-17T12:45:15.000Z</time>
        <extensions>
          <ns3:TrackPointExtension>
            <ns3:cad>61</ns3:cad>
          </ns3:TrackPointExtension>
        </extensions>
      </trkpt>
      <trkpt lat="23.3900602161884307861328125" lon="113.24680410325527191162109375">
        <ele>3.400000095367431640625</ele>
        <time>2025-03-17T12:45:28.000Z</time>
        <extensions>
          <ns3:TrackPointExtension>
            <ns3:cad>61</ns3:cad>
          </ns3:TrackPointExtension>
        </extensions>
      </trkpt>
      <trkpt lat="23.39018200524151325225830078125" lon="113.24695288203656673431396484375">
        <ele>5</ele>
        <time>2025-03-17T12:45:42.000Z</time>
        <extensions>
          <ns3:TrackPointExtension>
            <ns3:cad>61</ns3:cad>
          </ns3:TrackPointExtension>
        </extensions>
      </trkpt>
      <trkpt lat="23.39030572213232517242431640625" lon="113.24709923006594181060791015625">
        <ele>6.400000095367431640625</ele>
        <time>2025-03-17T12:46:01.000Z</time>
        <extensions>
          <ns3:TrackPointExtension>
            <ns3:cad>61</ns3:cad>
          </ns3:TrackPointExtension>
        </extensions>
      </trkpt>
      <trkpt lat="23.39046648703515529632568359375" lon="113.24719746597111225128173828125">
        <ele>6.400000095367431640625</ele>
        <time>2025-03-17T12:46:15.000Z</time>
        <extensions>
          <ns3:TrackPointExtension>
            <ns3:cad>62</ns3:cad>
          </ns3:TrackPointExtension>
        </extensions>
      </trkpt>
      <trkpt lat="23.3906370587646961212158203125" lon="113.24727122671902179718017578125">
        <ele>5.19999980926513671875</ele>
        <time>2025-03-17T12:46:28.000Z</time>
        <extensions>
          <ns3:TrackPointExtension>
            <ns3:cad>61</ns3:cad>
          </ns3:TrackPointExtension>
        </extensions>
      </trkpt>
      <trkpt lat="23.39081467129290103912353515625" lon="113.24731430970132350921630859375">
        <ele>3.7999999523162841796875</ele>
        <time>2025-03-17T12:46:44.000Z</time>
        <extensions>
          <ns3:TrackPointExtension>
            <ns3:cad>61</ns3:cad>
          </ns3:TrackPointExtension>
        </extensions>
      </trkpt>
      <trkpt lat="23.39098851196467876434326171875" lon="113.24737499468028545379638671875">
        <ele>2</ele>
        <time>2025-03-17T12:47:01.000Z</time>
        <extensions>
          <ns3:TrackPointExtension>
            <ns3:cad>61</ns3:cad>
          </ns3:TrackPointExtension>
        </extensions>
      </trkpt>
      <trkpt lat="23.3911557309329509735107421875" lon="113.24745990335941314697265625">
        <ele>1.39999997615814208984375</ele>
        <time>2025-03-17T12:47:16.000Z</time>
        <extensions>
          <ns3:TrackPointExtension>
            <ns3:cad>61</ns3:cad>
          </ns3:TrackPointExtension>
        </extensions>
      </trkpt>
      <trkpt lat="23.391324542462825775146484375" lon="113.24753609485924243927001953125">
        <ele>2.599999904632568359375</ele>
        <time>2025-03-17T12:47:31.000Z</time>
        <extensions>
          <ns3:TrackPointExtension>
            <ns3:cad>61</ns3:cad>
          </ns3:TrackPointExtension>
        </extensions>
      </trkpt>
      <trkpt lat="23.3915034122765064239501953125" lon="113.24760667048394680023193359375">
        <ele>4.80000019073486328125</ele>
        <time>2025-03-17T12:47:47.000Z</time>
        <extensions>
          <ns3:TrackPointExtension>
            <ns3:cad>61</ns3:cad>
          </ns3:TrackPointExtension>
        </extensions>
      </trkpt>
      <trkpt lat="23.39151891879737377166748046875" lon="113.24761823751032352447509765625">
        <ele>5</ele>
        <time>2025-03-17T12:47:49.000Z</time>
        <extensions>
          <ns3:TrackPointExtension>
            <ns3:cad>61</ns3:cad>
          </ns3:TrackPointExtension>
        </extensions>
      </trkpt>
      <trkpt lat="23.39155278168618679046630859375" lon="113.24762896634638309478759765625">
        <ele>5.599999904632568359375</ele>
        <time>2025-03-17T12:47:52.000Z</time>
        <extensions>
          <ns3:TrackPointExtension>
            <ns3:cad>61</ns3:cad>
          </ns3:TrackPointExtension>
        </extensions>
      </trkpt>
      <trkpt lat="23.3917330764234066009521484375" lon="113.2476840354502201080322265625">
        <ele>6.19999980926513671875</ele>
        <time>2025-03-17T12:48:05.000Z</time>
        <extensions>
          <ns3:TrackPointExtension>
            <ns3:cad>61</ns3:cad>
          </ns3:TrackPointExtension>
        </extensions>
      </trkpt>
      <trkpt lat="23.391903899610042572021484375" lon="113.2477510906755924224853515625">
        <ele>6.19999980926513671875</ele>
        <time>2025-03-17T12:48:19.000Z</time>
        <extensions>
          <ns3:TrackPointExtension>
            <ns3:cad>61</ns3:cad>
          </ns3:TrackPointExtension>
        </extensions>
      </trkpt>
      <trkpt lat="23.39207262732088565826416015625" lon="113.2478427886962890625">
        <ele>5.400000095367431640625</ele>
        <time>2025-03-17T12:48:34.000Z</time>
        <extensions>
          <ns3:TrackPointExtension>
            <ns3:cad>61</ns3:cad>
          </ns3:TrackPointExtension>
        </extensions>
      </trkpt>
      <trkpt lat="23.39225736446678638458251953125" lon="113.2479180581867694854736328125">
        <ele>5</ele>
        <time>2025-03-17T12:48:44.000Z</time>
        <extensions>
          <ns3:TrackPointExtension>
            <ns3:cad>82</ns3:cad>
          </ns3:TrackPointExtension>
        </extensions>
      </trkpt>
      <trkpt lat="23.392442353069782257080078125" lon="113.2479599677026271820068359375">
        <ele>5</ele>
        <time>2025-03-17T12:48:54.000Z</time>
        <extensions>
          <ns3:TrackPointExtension>
            <ns3:cad>83</ns3:cad>
          </ns3:TrackPointExtension>
        </extensions>
      </trkpt>
      <trkpt lat="23.3926259167492389678955078125" lon="113.24799123220145702362060546875">
        <ele>5.599999904632568359375</ele>
        <time>2025-03-17T12:49:02.000Z</time>
        <extensions>
          <ns3:TrackPointExtension>
            <ns3:cad>82</ns3:cad>
          </ns3:TrackPointExtension>
        </extensions>
      </trkpt>
      <trkpt lat="23.39281174354255199432373046875" lon="113.24799978174269199371337890625">
        <ele>5.80000019073486328125</ele>
        <time>2025-03-17T12:49:10.000Z</time>
        <extensions>
          <ns3:TrackPointExtension>
            <ns3:cad>83</ns3:cad>
          </ns3:TrackPointExtension>
        </extensions>
      </trkpt>
      <trkpt lat="23.39299924671649932861328125" lon="113.2479733787477016448974609375">
        <ele>5</ele>
        <time>2025-03-17T12:49:19.000Z</time>
        <extensions>
          <ns3:TrackPointExtension>
            <ns3:cad>83</ns3:cad>
          </ns3:TrackPointExtension>
        </extensions>
      </trkpt>
      <trkpt lat="23.393189013004302978515625" lon="113.24798553250730037689208984375">
        <ele>1.39999997615814208984375</ele>
        <time>2025-03-17T12:49:27.000Z</time>
        <extensions>
          <ns3:TrackPointExtension>
            <ns3:cad>82</ns3:cad>
          </ns3:TrackPointExtension>
        </extensions>
      </trkpt>
      <trkpt lat="23.3933863230049610137939453125" lon="113.2479700259864330291748046875">
        <ele>-0.60000002384185791015625</ele>
        <time>2025-03-17T12:49:36.000Z</time>
        <extensions>
          <ns3:TrackPointExtension>
            <ns3:cad>82</ns3:cad>
          </ns3:TrackPointExtension>
        </extensions>
      </trkpt>
      <trkpt lat="23.39356720447540283203125" lon="113.24799290858209133148193359375">
        <ele>0</ele>
        <time>2025-03-17T12:49:47.000Z</time>
        <extensions>
          <ns3:TrackPointExtension>
            <ns3:cad>83</ns3:cad>
          </ns3:TrackPointExtension>
        </extensions>
      </trkpt>
      <trkpt lat="23.3937547914683818817138671875" lon="113.24797664768993854522705078125">
        <ele>3.2000000476837158203125</ele>
        <time>2025-03-17T12:50:02.000Z</time>
        <extensions>
          <ns3:TrackPointExtension>
            <ns3:cad>61</ns3:cad>
          </ns3:TrackPointExtension>
        </extensions>
      </trkpt>
      <trkpt lat="23.39377976953983306884765625" lon="113.2479646615684032440185546875">
        <ele>3.599999904632568359375</ele>
        <time>2025-03-17T12:50:04.000Z</time>
        <extensions>
          <ns3:TrackPointExtension>
            <ns3:cad>56</ns3:cad>
          </ns3:TrackPointExtension>
        </extensions>
      </trkpt>
      <trkpt lat="23.39387389831244945526123046875" lon="113.24777917005121707916259765625">
        <ele>5</ele>
        <time>2025-03-17T12:50:17.000Z</time>
        <extensions>
          <ns3:TrackPointExtension>
            <ns3:cad>85</ns3:cad>
          </ns3:TrackPointExtension>
        </extensions>
      </trkpt>
      <trkpt lat="23.39396324940025806427001953125" lon="113.24758504517376422882080078125">
        <ele>6.599999904632568359375</ele>
        <time>2025-03-17T12:50:25.000Z</time>
        <extensions>
          <ns3:TrackPointExtension>
            <ns3:cad>81</ns3:cad>
          </ns3:TrackPointExtension>
        </extensions>
      </trkpt>
      <trkpt lat="23.39403550140559673309326171875" lon="113.24740215204656124114990234375">
        <ele>6.19999980926513671875</ele>
        <time>2025-03-17T12:50:32.000Z</time>
        <extensions>
          <ns3:TrackPointExtension>
            <ns3:cad>80</ns3:cad>
          </ns3:TrackPointExtension>
        </extensions>
      </trkpt>
      <trkpt lat="23.394105322659015655517578125" lon="113.24721314013004302978515625">
        <ele>5.400000095367431640625</ele>
        <time>2025-03-17T12:50:40.000Z</time>
        <extensions>
          <ns3:TrackPointExtension>
            <ns3:cad>81</ns3:cad>
          </ns3:TrackPointExtension>
        </extensions>
      </trkpt>
      <trkpt lat="23.39418067596852779388427734375" lon="113.24701205827295780181884765625">
        <ele>5</ele>
        <time>2025-03-17T12:50:49.000Z</time>
        <extensions>
          <ns3:TrackPointExtension>
            <ns3:cad>80</ns3:cad>
          </ns3:TrackPointExtension>
        </extensions>
      </trkpt>
      <trkpt lat="23.3942503295838832855224609375" lon="113.2468294166028499603271484375">
        <ele>5.19999980926513671875</ele>
        <time>2025-03-17T12:50:57.000Z</time>
        <extensions>
          <ns3:TrackPointExtension>
            <ns3:cad>81</ns3:cad>
          </ns3:TrackPointExtension>
        </extensions>
      </trkpt>
      <trkpt lat="23.3943016268312931060791015625" lon="113.2466627843677997589111328125">
        <ele>6.19999980926513671875</ele>
        <time>2025-03-17T12:51:05.000Z</time>
        <extensions>
          <ns3:TrackPointExtension>
            <ns3:cad>82</ns3:cad>
          </ns3:TrackPointExtension>
        </extensions>
      </trkpt>
      <trkpt lat="23.3941477350890636444091796875" lon="113.246542252600193023681640625">
        <ele>6.19999980926513671875</ele>
        <time>2025-03-17T12:51:17.000Z</time>
        <extensions>
          <ns3:TrackPointExtension>
            <ns3:cad>82</ns3:cad>
          </ns3:TrackPointExtension>
        </extensions>
      </trkpt>
    </trkseg>
  </trk>
</gpx>
