<gpx xmlns:ns3="http://www.garmin.com/xmlschemas/TrackPointExtension/v1" xmlns="http://www.topografix.com/GPX/1/1" xmlns:xsi="http://www.w3.org/2001/XMLSchema-instance" xmlns:ns2="http://www.garmin.com/xmlschemas/GpxExtensions/v3" creator="Garmin Connect" version="1.1" xsi:schemaLocation="http://www.topografix.com/GPX/1/1 http://www.topografix.com/GPX/11.xsd">
  <extensions>
<distance>663.08</distance>
<average_hr>117.0</average_hr>
<average_speed>1.1720000505447388</average_speed>
<start_time>2025-05-11T02:44:13+00:00</start_time>
<end_time>2025-05-11T02:53:38.845000+00:00</end_time>
<moving_time>565.845</moving_time>
<elapsed_time>566.752</elapsed_time>
</extensions>
<metadata>
    <link href="connect.garmin.com">
      <text>Garmin Connect</text>
    </link>
    <time>2025-05-11T02:44:13.000Z</time>
  </metadata>
  <trk>
    <name>广州市 跑步</name>
    <type>running</type>
    <trkseg>
      <trkpt lat="23.3957121334969997406005859375" lon="113.2470661215484142303466796875">
        <ele>8.3999996185302734375</ele>
        <time>2025-05-11T02:45:30.000Z</time>
        <extensions>
          <ns3:TrackPointExtension>
            <ns3:hr>141</ns3:hr>
            <ns3:cad>82</ns3:cad>
          </ns3:TrackPointExtension>
        </extensions>
      </trkpt>
      <trkpt lat="23.3957718126475811004638671875" lon="113.24710316956043243408203125">
        <ele>8.19999980926513671875</ele>
        <time>2025-05-11T02:45:35.000Z</time>
        <extensions>
          <ns3:TrackPointExtension>
            <ns3:hr>138</ns3:hr>
            <ns3:cad>82</ns3:cad>
          </ns3:TrackPointExtension>
        </extensions>
      </trkpt>
      <trkpt lat="23.39578078128397464752197265625" lon="113.247034437954425811767578125">
        <ele>8.3999996185302734375</ele>
        <time>2025-05-11T02:45:39.000Z</time>
        <extensions>
          <ns3:TrackPointExtension>
            <ns3:hr>142</ns3:hr>
            <ns3:cad>82</ns3:cad>
          </ns3:TrackPointExtension>
        </extensions>
      </trkpt>
      <trkpt lat="23.395788408815860748291015625" lon="113.2470446638762950897216796875">
        <ele>8.3999996185302734375</ele>
        <time>2025-05-11T02:45:40.000Z</time>
        <extensions>
          <ns3:TrackPointExtension>
            <ns3:hr>142</ns3:hr>
            <ns3:cad>82</ns3:cad>
          </ns3:TrackPointExtension>
        </extensions>
      </trkpt>
      <trkpt lat="23.3957959525287151336669921875" lon="113.24704860337078571319580078125">
        <ele>8.3999996185302734375</ele>
        <time>2025-05-11T02:45:41.000Z</time>
        <extensions>
          <ns3:TrackPointExtension>
            <ns3:hr>142</ns3:hr>
            <ns3:cad>82</ns3:cad>
          </ns3:TrackPointExtension>
        </extensions>
      </trkpt>
      <trkpt lat="23.3958418853580951690673828125" lon="113.247065283358097076416015625">
        <ele>8</ele>
        <time>2025-05-11T02:45:44.000Z</time>
        <extensions>
          <ns3:TrackPointExtension>
            <ns3:hr>142</ns3:hr>
            <ns3:cad>82</ns3:cad>
          </ns3:TrackPointExtension>
        </extensions>
      </trkpt>
      <trkpt lat="23.39588521979749202728271484375" lon="113.24707307852804660797119140625">
        <ele>7.400000095367431640625</ele>
        <time>2025-05-11T02:45:47.000Z</time>
        <extensions>
          <ns3:TrackPointExtension>
            <ns3:hr>145</ns3:hr>
            <ns3:cad>82</ns3:cad>
          </ns3:TrackPointExtension>
        </extensions>
      </trkpt>
      <trkpt lat="23.3959075994789600372314453125" lon="113.24707098305225372314453125">
        <ele>7.19999980926513671875</ele>
        <time>2025-05-11T02:45:49.000Z</time>
        <extensions>
          <ns3:TrackPointExtension>
            <ns3:hr>149</ns3:hr>
            <ns3:cad>82</ns3:cad>
          </ns3:TrackPointExtension>
        </extensions>
      </trkpt>
      <trkpt lat="23.3959181606769561767578125" lon="113.2470667921006679534912109375">
        <ele>7</ele>
        <time>2025-05-11T02:45:50.000Z</time>
        <extensions>
          <ns3:TrackPointExtension>
            <ns3:hr>152</ns3:hr>
            <ns3:cad>82</ns3:cad>
          </ns3:TrackPointExtension>
        </extensions>
      </trkpt>
      <trkpt lat="23.395926542580127716064453125" lon="113.24706251733005046844482421875">
        <ele>7</ele>
        <time>2025-05-11T02:45:51.000Z</time>
        <extensions>
          <ns3:TrackPointExtension>
            <ns3:hr>152</ns3:hr>
            <ns3:cad>82</ns3:cad>
          </ns3:TrackPointExtension>
        </extensions>
      </trkpt>
      <trkpt lat="23.39595311321318149566650390625" lon="113.24703938327729701995849609375">
        <ele>6.80000019073486328125</ele>
        <time>2025-05-11T02:45:54.000Z</time>
        <extensions>
          <ns3:TrackPointExtension>
            <ns3:hr>149</ns3:hr>
            <ns3:cad>82</ns3:cad>
          </ns3:TrackPointExtension>
        </extensions>
      </trkpt>
      <trkpt lat="23.3960075117647647857666015625" lon="113.24694835580885410308837890625">
        <ele>7</ele>
        <time>2025-05-11T02:45:59.000Z</time>
        <extensions>
          <ns3:TrackPointExtension>
            <ns3:hr>146</ns3:hr>
            <ns3:cad>81</ns3:cad>
          </ns3:TrackPointExtension>
        </extensions>
      </trkpt>
      <trkpt lat="23.3961139619350433349609375" lon="113.246774263679981231689453125">
        <ele>7.80000019073486328125</ele>
        <time>2025-05-11T02:46:10.000Z</time>
        <extensions>
          <ns3:TrackPointExtension>
            <ns3:hr>141</ns3:hr>
            <ns3:cad>80</ns3:cad>
          </ns3:TrackPointExtension>
        </extensions>
      </trkpt>
      <trkpt lat="23.39612795971333980560302734375" lon="113.2467341981828212738037109375">
        <ele>8.19999980926513671875</ele>
        <time>2025-05-11T02:46:14.000Z</time>
        <extensions>
          <ns3:TrackPointExtension>
            <ns3:hr>147</ns3:hr>
            <ns3:cad>81</ns3:cad>
          </ns3:TrackPointExtension>
        </extensions>
      </trkpt>
      <trkpt lat="23.39613609015941619873046875" lon="113.246722631156444549560546875">
        <ele>8.19999980926513671875</ele>
        <time>2025-05-11T02:46:15.000Z</time>
        <extensions>
          <ns3:TrackPointExtension>
            <ns3:hr>150</ns3:hr>
            <ns3:cad>82</ns3:cad>
          </ns3:TrackPointExtension>
        </extensions>
      </trkpt>
      <trkpt lat="23.3961379341781139373779296875" lon="113.2467122375965118408203125">
        <ele>8.3999996185302734375</ele>
        <time>2025-05-11T02:46:16.000Z</time>
        <extensions>
          <ns3:TrackPointExtension>
            <ns3:hr>150</ns3:hr>
            <ns3:cad>83</ns3:cad>
          </ns3:TrackPointExtension>
        </extensions>
      </trkpt>
      <trkpt lat="23.39614120312035083770751953125" lon="113.24669471941888332366943359375">
        <ele>8.6000003814697265625</ele>
        <time>2025-05-11T02:46:18.000Z</time>
        <extensions>
          <ns3:TrackPointExtension>
            <ns3:hr>146</ns3:hr>
            <ns3:cad>83</ns3:cad>
          </ns3:TrackPointExtension>
        </extensions>
      </trkpt>
      <trkpt lat="23.39614891447126865386962890625" lon="113.2466842420399188995361328125">
        <ele>8.6000003814697265625</ele>
        <time>2025-05-11T02:46:20.000Z</time>
        <extensions>
          <ns3:TrackPointExtension>
            <ns3:hr>142</ns3:hr>
            <ns3:cad>83</ns3:cad>
          </ns3:TrackPointExtension>
        </extensions>
      </trkpt>
      <trkpt lat="23.39618747122585773468017578125" lon="113.24665901251137256622314453125">
        <ele>8.6000003814697265625</ele>
        <time>2025-05-11T02:46:23.000Z</time>
        <extensions>
          <ns3:TrackPointExtension>
            <ns3:hr>139</ns3:hr>
            <ns3:cad>82</ns3:cad>
          </ns3:TrackPointExtension>
        </extensions>
      </trkpt>
      <trkpt lat="23.3962051570415496826171875" lon="113.2466393150389194488525390625">
        <ele>8.6000003814697265625</ele>
        <time>2025-05-11T02:46:25.000Z</time>
        <extensions>
          <ns3:TrackPointExtension>
            <ns3:hr>144</ns3:hr>
            <ns3:cad>82</ns3:cad>
          </ns3:TrackPointExtension>
        </extensions>
      </trkpt>
      <trkpt lat="23.39620959945023059844970703125" lon="113.24662615545094013214111328125">
        <ele>8.6000003814697265625</ele>
        <time>2025-05-11T02:46:26.000Z</time>
        <extensions>
          <ns3:TrackPointExtension>
            <ns3:hr>147</ns3:hr>
            <ns3:cad>82</ns3:cad>
          </ns3:TrackPointExtension>
        </extensions>
      </trkpt>
      <trkpt lat="23.39621563442051410675048828125" lon="113.24661173857748508453369140625">
        <ele>8.6000003814697265625</ele>
        <time>2025-05-11T02:46:27.000Z</time>
        <extensions>
          <ns3:TrackPointExtension>
            <ns3:hr>147</ns3:hr>
            <ns3:cad>81</ns3:cad>
          </ns3:TrackPointExtension>
        </extensions>
      </trkpt>
      <trkpt lat="23.3962351642549037933349609375" lon="113.24659891426563262939453125">
        <ele>8.3999996185302734375</ele>
        <time>2025-05-11T02:46:32.000Z</time>
        <extensions>
          <ns3:TrackPointExtension>
            <ns3:hr>144</ns3:hr>
            <ns3:cad>81</ns3:cad>
          </ns3:TrackPointExtension>
        </extensions>
      </trkpt>
      <trkpt lat="23.39620674960315227508544921875" lon="113.24654258787631988525390625">
        <ele>8.3999996185302734375</ele>
        <time>2025-05-11T02:46:45.000Z</time>
        <extensions>
          <ns3:TrackPointExtension>
            <ns3:hr>144</ns3:hr>
            <ns3:cad>61</ns3:cad>
          </ns3:TrackPointExtension>
        </extensions>
      </trkpt>
      <trkpt lat="23.39619467966258525848388671875" lon="113.24639800004661083221435546875">
        <ele>8</ele>
        <time>2025-05-11T02:47:04.000Z</time>
        <extensions>
          <ns3:TrackPointExtension>
            <ns3:hr>141</ns3:hr>
            <ns3:cad>61</ns3:cad>
          </ns3:TrackPointExtension>
        </extensions>
      </trkpt>
      <trkpt lat="23.39617489837110042572021484375" lon="113.2463761232793331146240234375">
        <ele>8</ele>
        <time>2025-05-11T02:47:08.000Z</time>
        <extensions>
          <ns3:TrackPointExtension>
            <ns3:hr>138</ns3:hr>
            <ns3:cad>61</ns3:cad>
          </ns3:TrackPointExtension>
        </extensions>
      </trkpt>
      <trkpt lat="23.3961506746709346771240234375" lon="113.2463546656072139739990234375">
        <ele>8</ele>
        <time>2025-05-11T02:47:13.000Z</time>
        <extensions>
          <ns3:TrackPointExtension>
            <ns3:hr>135</ns3:hr>
            <ns3:cad>61</ns3:cad>
          </ns3:TrackPointExtension>
        </extensions>
      </trkpt>
      <trkpt lat="23.39612108655273914337158203125" lon="113.2463367283344268798828125">
        <ele>8</ele>
        <time>2025-05-11T02:47:19.000Z</time>
        <extensions>
          <ns3:TrackPointExtension>
            <ns3:hr>132</ns3:hr>
            <ns3:cad>61</ns3:cad>
          </ns3:TrackPointExtension>
        </extensions>
      </trkpt>
      <trkpt lat="23.39606459252536296844482421875" lon="113.24631736613810062408447265625">
        <ele>8</ele>
        <time>2025-05-11T02:47:30.000Z</time>
        <extensions>
          <ns3:TrackPointExtension>
            <ns3:hr>129</ns3:hr>
            <ns3:cad>0</ns3:cad>
          </ns3:TrackPointExtension>
        </extensions>
      </trkpt>
      <trkpt lat="23.39603148400783538818359375" lon="113.2462530769407749176025390625">
        <ele>8.19999980926513671875</ele>
        <time>2025-05-11T02:47:40.000Z</time>
        <extensions>
          <ns3:TrackPointExtension>
            <ns3:hr>125</ns3:hr>
            <ns3:cad>58</ns3:cad>
          </ns3:TrackPointExtension>
        </extensions>
      </trkpt>
      <trkpt lat="23.39600332081317901611328125" lon="113.24614293873310089111328125">
        <ele>8.6000003814697265625</ele>
        <time>2025-05-11T02:47:47.000Z</time>
        <extensions>
          <ns3:TrackPointExtension>
            <ns3:hr>122</ns3:hr>
            <ns3:cad>61</ns3:cad>
          </ns3:TrackPointExtension>
        </extensions>
      </trkpt>
      <trkpt lat="23.39597809128463268280029296875" lon="113.2461491413414478302001953125">
        <ele>8.6000003814697265625</ele>
        <time>2025-05-11T02:47:50.000Z</time>
        <extensions>
          <ns3:TrackPointExtension>
            <ns3:hr>122</ns3:hr>
            <ns3:cad>0</ns3:cad>
          </ns3:TrackPointExtension>
        </extensions>
      </trkpt>
      <trkpt lat="23.3959114551544189453125" lon="113.24607429094612598419189453125">
        <ele>8.80000019073486328125</ele>
        <time>2025-05-11T02:47:54.000Z</time>
        <extensions>
          <ns3:TrackPointExtension>
            <ns3:hr>121</ns3:hr>
            <ns3:cad>0</ns3:cad>
          </ns3:TrackPointExtension>
        </extensions>
      </trkpt>
      <trkpt lat="23.3958499319851398468017578125" lon="113.24597538448870182037353515625">
        <ele>9.3999996185302734375</ele>
        <time>2025-05-11T02:47:59.000Z</time>
        <extensions>
          <ns3:TrackPointExtension>
            <ns3:hr>119</ns3:hr>
            <ns3:cad>0</ns3:cad>
          </ns3:TrackPointExtension>
        </extensions>
      </trkpt>
      <trkpt lat="23.3958375267684459686279296875" lon="113.245951496064662933349609375">
        <ele>9.6000003814697265625</ele>
        <time>2025-05-11T02:48:00.000Z</time>
        <extensions>
          <ns3:TrackPointExtension>
            <ns3:hr>120</ns3:hr>
            <ns3:cad>0</ns3:cad>
          </ns3:TrackPointExtension>
        </extensions>
      </trkpt>
      <trkpt lat="23.39580743573606014251708984375" lon="113.24586172588169574737548828125">
        <ele>10.19999980926513671875</ele>
        <time>2025-05-11T02:48:05.000Z</time>
        <extensions>
          <ns3:TrackPointExtension>
            <ns3:hr>122</ns3:hr>
            <ns3:cad>0</ns3:cad>
          </ns3:TrackPointExtension>
        </extensions>
      </trkpt>
      <trkpt lat="23.39576988480985164642333984375" lon="113.2457940839231014251708984375">
        <ele>10.6000003814697265625</ele>
        <time>2025-05-11T02:48:11.000Z</time>
        <extensions>
          <ns3:TrackPointExtension>
            <ns3:hr>119</ns3:hr>
            <ns3:cad>0</ns3:cad>
          </ns3:TrackPointExtension>
        </extensions>
      </trkpt>
      <trkpt lat="23.3957223594188690185546875" lon="113.24572853744029998779296875">
        <ele>10.80000019073486328125</ele>
        <time>2025-05-11T02:48:19.000Z</time>
        <extensions>
          <ns3:TrackPointExtension>
            <ns3:hr>116</ns3:hr>
            <ns3:cad>56</ns3:cad>
          </ns3:TrackPointExtension>
        </extensions>
      </trkpt>
      <trkpt lat="23.3956286497414112091064453125" lon="113.24559803120791912078857421875">
        <ele>11</ele>
        <time>2025-05-11T02:48:35.000Z</time>
        <extensions>
          <ns3:TrackPointExtension>
            <ns3:hr>113</ns3:hr>
            <ns3:cad>57</ns3:cad>
          </ns3:TrackPointExtension>
        </extensions>
      </trkpt>
      <trkpt lat="23.39568455703556537628173828125" lon="113.24562066234648227691650390625">
        <ele>11</ele>
        <time>2025-05-11T02:48:41.000Z</time>
        <extensions>
          <ns3:TrackPointExtension>
            <ns3:hr>112</ns3:hr>
            <ns3:cad>56</ns3:cad>
          </ns3:TrackPointExtension>
        </extensions>
      </trkpt>
      <trkpt lat="23.39584263972938060760498046875" lon="113.24551873840391635894775390625">
        <ele>12.19999980926513671875</ele>
        <time>2025-05-11T02:48:47.000Z</time>
        <extensions>
          <ns3:TrackPointExtension>
            <ns3:hr>114</ns3:hr>
            <ns3:cad>56</ns3:cad>
          </ns3:TrackPointExtension>
        </extensions>
      </trkpt>
      <trkpt lat="23.3958713896572589874267578125" lon="113.24548101983964443206787109375">
        <ele>12.19999980926513671875</ele>
        <time>2025-05-11T02:48:50.000Z</time>
        <extensions>
          <ns3:TrackPointExtension>
            <ns3:hr>113</ns3:hr>
            <ns3:cad>55</ns3:cad>
          </ns3:TrackPointExtension>
        </extensions>
      </trkpt>
      <trkpt lat="23.39587767608463764190673828125" lon="113.24546073563396930694580078125">
        <ele>12.19999980926513671875</ele>
        <time>2025-05-11T02:48:52.000Z</time>
        <extensions>
          <ns3:TrackPointExtension>
            <ns3:hr>113</ns3:hr>
            <ns3:cad>55</ns3:cad>
          </ns3:TrackPointExtension>
        </extensions>
      </trkpt>
      <trkpt lat="23.39587549678981304168701171875" lon="113.24543240480124950408935546875">
        <ele>12.19999980926513671875</ele>
        <time>2025-05-11T02:48:55.000Z</time>
        <extensions>
          <ns3:TrackPointExtension>
            <ns3:hr>112</ns3:hr>
            <ns3:cad>55</ns3:cad>
          </ns3:TrackPointExtension>
        </extensions>
      </trkpt>
      <trkpt lat="23.39587314985692501068115234375" lon="113.2454044930636882781982421875">
        <ele>12.19999980926513671875</ele>
        <time>2025-05-11T02:48:58.000Z</time>
        <extensions>
          <ns3:TrackPointExtension>
            <ns3:hr>111</ns3:hr>
            <ns3:cad>55</ns3:cad>
          </ns3:TrackPointExtension>
        </extensions>
      </trkpt>
      <trkpt lat="23.39584800414741039276123046875" lon="113.245375491678714752197265625">
        <ele>12.19999980926513671875</ele>
        <time>2025-05-11T02:49:01.000Z</time>
        <extensions>
          <ns3:TrackPointExtension>
            <ns3:hr>110</ns3:hr>
            <ns3:cad>55</ns3:cad>
          </ns3:TrackPointExtension>
        </extensions>
      </trkpt>
      <trkpt lat="23.39582017622888088226318359375" lon="113.24533551000058650970458984375">
        <ele>12</ele>
        <time>2025-05-11T02:49:05.000Z</time>
        <extensions>
          <ns3:TrackPointExtension>
            <ns3:hr>110</ns3:hr>
            <ns3:cad>55</ns3:cad>
          </ns3:TrackPointExtension>
        </extensions>
      </trkpt>
      <trkpt lat="23.39580592699348926544189453125" lon="113.2453136332333087921142578125">
        <ele>12</ele>
        <time>2025-05-11T02:49:08.000Z</time>
        <extensions>
          <ns3:TrackPointExtension>
            <ns3:hr>109</ns3:hr>
            <ns3:cad>55</ns3:cad>
          </ns3:TrackPointExtension>
        </extensions>
      </trkpt>
      <trkpt lat="23.39578111656010150909423828125" lon="113.24528370983898639678955078125">
        <ele>12</ele>
        <time>2025-05-11T02:49:11.000Z</time>
        <extensions>
          <ns3:TrackPointExtension>
            <ns3:hr>110</ns3:hr>
            <ns3:cad>55</ns3:cad>
          </ns3:TrackPointExtension>
        </extensions>
      </trkpt>
      <trkpt lat="23.395760916173458099365234375" lon="113.24525437317788600921630859375">
        <ele>12.19999980926513671875</ele>
        <time>2025-05-11T02:49:16.000Z</time>
        <extensions>
          <ns3:TrackPointExtension>
            <ns3:hr>109</ns3:hr>
            <ns3:cad>55</ns3:cad>
          </ns3:TrackPointExtension>
        </extensions>
      </trkpt>
      <trkpt lat="23.39573618955910205841064453125" lon="113.245228640735149383544921875">
        <ele>12.19999980926513671875</ele>
        <time>2025-05-11T02:49:19.000Z</time>
        <extensions>
          <ns3:TrackPointExtension>
            <ns3:hr>109</ns3:hr>
            <ns3:cad>55</ns3:cad>
          </ns3:TrackPointExtension>
        </extensions>
      </trkpt>
      <trkpt lat="23.39569914154708385467529296875" lon="113.2452053390443325042724609375">
        <ele>12.3999996185302734375</ele>
        <time>2025-05-11T02:49:21.000Z</time>
        <extensions>
          <ns3:TrackPointExtension>
            <ns3:hr>109</ns3:hr>
            <ns3:cad>55</ns3:cad>
          </ns3:TrackPointExtension>
        </extensions>
      </trkpt>
      <trkpt lat="23.39563443325459957122802734375" lon="113.2451788522303104400634765625">
        <ele>12.80000019073486328125</ele>
        <time>2025-05-11T02:49:23.000Z</time>
        <extensions>
          <ns3:TrackPointExtension>
            <ns3:hr>109</ns3:hr>
            <ns3:cad>55</ns3:cad>
          </ns3:TrackPointExtension>
        </extensions>
      </trkpt>
      <trkpt lat="23.3954784460365772247314453125" lon="113.24506645090878009796142578125">
        <ele>13.6000003814697265625</ele>
        <time>2025-05-11T02:49:34.000Z</time>
        <extensions>
          <ns3:TrackPointExtension>
            <ns3:hr>108</ns3:hr>
            <ns3:cad>55</ns3:cad>
          </ns3:TrackPointExtension>
        </extensions>
      </trkpt>
      <trkpt lat="23.395477272570133209228515625" lon="113.24501196853816509246826171875">
        <ele>13.80000019073486328125</ele>
        <time>2025-05-11T02:49:38.000Z</time>
        <extensions>
          <ns3:TrackPointExtension>
            <ns3:hr>108</ns3:hr>
            <ns3:cad>55</ns3:cad>
          </ns3:TrackPointExtension>
        </extensions>
      </trkpt>
      <trkpt lat="23.39548221789300441741943359375" lon="113.24496804736554622650146484375">
        <ele>13.80000019073486328125</ele>
        <time>2025-05-11T02:49:43.000Z</time>
        <extensions>
          <ns3:TrackPointExtension>
            <ns3:hr>108</ns3:hr>
            <ns3:cad>56</ns3:cad>
          </ns3:TrackPointExtension>
        </extensions>
      </trkpt>
      <trkpt lat="23.3954878337681293487548828125" lon="113.24494625441730022430419921875">
        <ele>14</ele>
        <time>2025-05-11T02:49:45.000Z</time>
        <extensions>
          <ns3:TrackPointExtension>
            <ns3:hr>109</ns3:hr>
            <ns3:cad>56</ns3:cad>
          </ns3:TrackPointExtension>
        </extensions>
      </trkpt>
      <trkpt lat="23.39548724703490734100341796875" lon="113.2449032552540302276611328125">
        <ele>14</ele>
        <time>2025-05-11T02:49:50.000Z</time>
        <extensions>
          <ns3:TrackPointExtension>
            <ns3:hr>109</ns3:hr>
            <ns3:cad>55</ns3:cad>
          </ns3:TrackPointExtension>
        </extensions>
      </trkpt>
      <trkpt lat="23.39549629949033260345458984375" lon="113.24488171376287937164306640625">
        <ele>14</ele>
        <time>2025-05-11T02:49:53.000Z</time>
        <extensions>
          <ns3:TrackPointExtension>
            <ns3:hr>110</ns3:hr>
            <ns3:cad>55</ns3:cad>
          </ns3:TrackPointExtension>
        </extensions>
      </trkpt>
      <trkpt lat="23.395495377480983734130859375" lon="113.24487651698291301727294921875">
        <ele>14</ele>
        <time>2025-05-11T02:49:57.000Z</time>
        <extensions>
          <ns3:TrackPointExtension>
            <ns3:hr>110</ns3:hr>
            <ns3:cad>55</ns3:cad>
          </ns3:TrackPointExtension>
        </extensions>
      </trkpt>
      <trkpt lat="23.39546780101954936981201171875" lon="113.244851790368556976318359375">
        <ele>14</ele>
        <time>2025-05-11T02:50:04.000Z</time>
        <extensions>
          <ns3:TrackPointExtension>
            <ns3:hr>109</ns3:hr>
            <ns3:cad>55</ns3:cad>
          </ns3:TrackPointExtension>
        </extensions>
      </trkpt>
      <trkpt lat="23.3954640291631221771240234375" lon="113.24482287280261516571044921875">
        <ele>14</ele>
        <time>2025-05-11T02:50:08.000Z</time>
        <extensions>
          <ns3:TrackPointExtension>
            <ns3:hr>109</ns3:hr>
            <ns3:cad>57</ns3:cad>
          </ns3:TrackPointExtension>
        </extensions>
      </trkpt>
      <trkpt lat="23.3954646997153759002685546875" lon="113.24481197632849216461181640625">
        <ele>14</ele>
        <time>2025-05-11T02:50:09.000Z</time>
        <extensions>
          <ns3:TrackPointExtension>
            <ns3:hr>109</ns3:hr>
            <ns3:cad>57</ns3:cad>
          </ns3:TrackPointExtension>
        </extensions>
      </trkpt>
      <trkpt lat="23.3954697288572788238525390625" lon="113.2447919435799121856689453125">
        <ele>14</ele>
        <time>2025-05-11T02:50:11.000Z</time>
        <extensions>
          <ns3:TrackPointExtension>
            <ns3:hr>109</ns3:hr>
            <ns3:cad>57</ns3:cad>
          </ns3:TrackPointExtension>
        </extensions>
      </trkpt>
      <trkpt lat="23.395471908152103424072265625" lon="113.24476989917457103729248046875">
        <ele>14</ele>
        <time>2025-05-11T02:50:13.000Z</time>
        <extensions>
          <ns3:TrackPointExtension>
            <ns3:hr>109</ns3:hr>
            <ns3:cad>57</ns3:cad>
          </ns3:TrackPointExtension>
        </extensions>
      </trkpt>
      <trkpt lat="23.395484983921051025390625" lon="113.24472941458225250244140625">
        <ele>14</ele>
        <time>2025-05-11T02:50:17.000Z</time>
        <extensions>
          <ns3:TrackPointExtension>
            <ns3:hr>109</ns3:hr>
            <ns3:cad>54</ns3:cad>
          </ns3:TrackPointExtension>
        </extensions>
      </trkpt>
      <trkpt lat="23.3954955451190471649169921875" lon="113.24471675790846347808837890625">
        <ele>14</ele>
        <time>2025-05-11T02:50:26.000Z</time>
        <extensions>
          <ns3:TrackPointExtension>
            <ns3:hr>107</ns3:hr>
            <ns3:cad>56</ns3:cad>
          </ns3:TrackPointExtension>
        </extensions>
      </trkpt>
      <trkpt lat="23.39551591314375400543212890625" lon="113.24470720253884792327880859375">
        <ele>14</ele>
        <time>2025-05-11T02:50:28.000Z</time>
        <extensions>
          <ns3:TrackPointExtension>
            <ns3:hr>108</ns3:hr>
            <ns3:cad>54</ns3:cad>
          </ns3:TrackPointExtension>
        </extensions>
      </trkpt>
      <trkpt lat="23.39549546130001544952392578125" lon="113.24470661580562591552734375">
        <ele>14</ele>
        <time>2025-05-11T02:50:33.000Z</time>
        <extensions>
          <ns3:TrackPointExtension>
            <ns3:hr>109</ns3:hr>
            <ns3:cad>55</ns3:cad>
          </ns3:TrackPointExtension>
        </extensions>
      </trkpt>
      <trkpt lat="23.39547651819884777069091796875" lon="113.2446943782269954681396484375">
        <ele>14</ele>
        <time>2025-05-11T02:50:36.000Z</time>
        <extensions>
          <ns3:TrackPointExtension>
            <ns3:hr>109</ns3:hr>
            <ns3:cad>55</ns3:cad>
          </ns3:TrackPointExtension>
        </extensions>
      </trkpt>
      <trkpt lat="23.39542237110435962677001953125" lon="113.2446833141148090362548828125">
        <ele>14</ele>
        <time>2025-05-11T02:50:41.000Z</time>
        <extensions>
          <ns3:TrackPointExtension>
            <ns3:hr>109</ns3:hr>
            <ns3:cad>52</ns3:cad>
          </ns3:TrackPointExtension>
        </extensions>
      </trkpt>
      <trkpt lat="23.39536436833441257476806640625" lon="113.24468490667641162872314453125">
        <ele>14</ele>
        <time>2025-05-11T02:50:42.000Z</time>
        <extensions>
          <ns3:TrackPointExtension>
            <ns3:hr>109</ns3:hr>
            <ns3:cad>52</ns3:cad>
          </ns3:TrackPointExtension>
        </extensions>
      </trkpt>
      <trkpt lat="23.39517761953175067901611328125" lon="113.24470569379627704620361328125">
        <ele>13.3999996185302734375</ele>
        <time>2025-05-11T02:50:53.000Z</time>
        <extensions>
          <ns3:TrackPointExtension>
            <ns3:hr>110</ns3:hr>
            <ns3:cad>55</ns3:cad>
          </ns3:TrackPointExtension>
        </extensions>
      </trkpt>
      <trkpt lat="23.39511693455278873443603515625" lon="113.24472614564001560211181640625">
        <ele>13</ele>
        <time>2025-05-11T02:51:03.000Z</time>
        <extensions>
          <ns3:TrackPointExtension>
            <ns3:hr>108</ns3:hr>
            <ns3:cad>55</ns3:cad>
          </ns3:TrackPointExtension>
        </extensions>
      </trkpt>
      <trkpt lat="23.39510235004127025604248046875" lon="113.24468993581831455230712890625">
        <ele>13</ele>
        <time>2025-05-11T02:51:07.000Z</time>
        <extensions>
          <ns3:TrackPointExtension>
            <ns3:hr>109</ns3:hr>
            <ns3:cad>55</ns3:cad>
          </ns3:TrackPointExtension>
        </extensions>
      </trkpt>
      <trkpt lat="23.39504308998584747314453125" lon="113.24465028941631317138671875">
        <ele>12.6000003814697265625</ele>
        <time>2025-05-11T02:51:16.000Z</time>
        <extensions>
          <ns3:TrackPointExtension>
            <ns3:hr>110</ns3:hr>
            <ns3:cad>53</ns3:cad>
          </ns3:TrackPointExtension>
        </extensions>
      </trkpt>
      <trkpt lat="23.3950053714215755462646484375" lon="113.2446464337408542633056640625">
        <ele>12.19999980926513671875</ele>
        <time>2025-05-11T02:51:21.000Z</time>
        <extensions>
          <ns3:TrackPointExtension>
            <ns3:hr>112</ns3:hr>
            <ns3:cad>53</ns3:cad>
          </ns3:TrackPointExtension>
        </extensions>
      </trkpt>
      <trkpt lat="23.394871093332767486572265625" lon="113.2445958070456981658935546875">
        <ele>11.80000019073486328125</ele>
        <time>2025-05-11T02:51:29.000Z</time>
        <extensions>
          <ns3:TrackPointExtension>
            <ns3:hr>111</ns3:hr>
            <ns3:cad>56</ns3:cad>
          </ns3:TrackPointExtension>
        </extensions>
      </trkpt>
      <trkpt lat="23.39486472308635711669921875" lon="113.2446040213108062744140625">
        <ele>11.80000019073486328125</ele>
        <time>2025-05-11T02:51:32.000Z</time>
        <extensions>
          <ns3:TrackPointExtension>
            <ns3:hr>110</ns3:hr>
            <ns3:cad>0</ns3:cad>
          </ns3:TrackPointExtension>
        </extensions>
      </trkpt>
      <trkpt lat="23.39486648328602313995361328125" lon="113.244605362415313720703125">
        <ele>11.80000019073486328125</ele>
        <time>2025-05-11T02:51:34.000Z</time>
        <extensions>
          <ns3:TrackPointExtension>
            <ns3:hr>109</ns3:hr>
            <ns3:cad>0</ns3:cad>
          </ns3:TrackPointExtension>
        </extensions>
      </trkpt>
      <trkpt lat="23.39488978497684001922607421875" lon="113.24460343457758426666259765625">
        <ele>11.80000019073486328125</ele>
        <time>2025-05-11T02:51:38.000Z</time>
        <extensions>
          <ns3:TrackPointExtension>
            <ns3:hr>112</ns3:hr>
            <ns3:cad>58</ns3:cad>
          </ns3:TrackPointExtension>
        </extensions>
      </trkpt>
      <trkpt lat="23.394889533519744873046875" lon="113.244603686034679412841796875">
        <ele>11.80000019073486328125</ele>
        <time>2025-05-11T02:51:39.000Z</time>
        <extensions>
          <ns3:TrackPointExtension>
            <ns3:hr>112</ns3:hr>
            <ns3:cad>58</ns3:cad>
          </ns3:TrackPointExtension>
        </extensions>
      </trkpt>
      <trkpt lat="23.3948886953294277191162109375" lon="113.244603015482425689697265625">
        <ele>11.80000019073486328125</ele>
        <time>2025-05-11T02:51:40.000Z</time>
        <extensions>
          <ns3:TrackPointExtension>
            <ns3:hr>113</ns3:hr>
            <ns3:cad>58</ns3:cad>
          </ns3:TrackPointExtension>
        </extensions>
      </trkpt>
      <trkpt lat="23.39489079080522060394287109375" lon="113.24454476125538349151611328125">
        <ele>11.80000019073486328125</ele>
        <time>2025-05-11T02:51:45.000Z</time>
        <extensions>
          <ns3:TrackPointExtension>
            <ns3:hr>113</ns3:hr>
            <ns3:cad>54</ns3:cad>
          </ns3:TrackPointExtension>
        </extensions>
      </trkpt>
      <trkpt lat="23.39490336365997791290283203125" lon="113.24449245817959308624267578125">
        <ele>11.80000019073486328125</ele>
        <time>2025-05-11T02:51:51.000Z</time>
        <extensions>
          <ns3:TrackPointExtension>
            <ns3:hr>111</ns3:hr>
            <ns3:cad>55</ns3:cad>
          </ns3:TrackPointExtension>
        </extensions>
      </trkpt>
      <trkpt lat="23.394915349781513214111328125" lon="113.24448399245738983154296875">
        <ele>11.80000019073486328125</ele>
        <time>2025-05-11T02:51:54.000Z</time>
        <extensions>
          <ns3:TrackPointExtension>
            <ns3:hr>110</ns3:hr>
            <ns3:cad>54</ns3:cad>
          </ns3:TrackPointExtension>
        </extensions>
      </trkpt>
      <trkpt lat="23.39492867700755596160888671875" lon="113.24447502382099628448486328125">
        <ele>11.80000019073486328125</ele>
        <time>2025-05-11T02:51:56.000Z</time>
        <extensions>
          <ns3:TrackPointExtension>
            <ns3:hr>110</ns3:hr>
            <ns3:cad>54</ns3:cad>
          </ns3:TrackPointExtension>
        </extensions>
      </trkpt>
      <trkpt lat="23.3949037827551364898681640625" lon="113.24440696276724338531494140625">
        <ele>11.80000019073486328125</ele>
        <time>2025-05-11T02:52:02.000Z</time>
        <extensions>
          <ns3:TrackPointExtension>
            <ns3:hr>107</ns3:hr>
            <ns3:cad>55</ns3:cad>
          </ns3:TrackPointExtension>
        </extensions>
      </trkpt>
      <trkpt lat="23.39493823237717151641845703125" lon="113.24422591365873813629150390625">
        <ele>12</ele>
        <time>2025-05-11T02:52:21.000Z</time>
        <extensions>
          <ns3:TrackPointExtension>
            <ns3:hr>109</ns3:hr>
            <ns3:cad>53</ns3:cad>
          </ns3:TrackPointExtension>
        </extensions>
      </trkpt>
      <trkpt lat="23.3949275873601436614990234375" lon="113.24413488619029521942138671875">
        <ele>12</ele>
        <time>2025-05-11T02:52:28.000Z</time>
        <extensions>
          <ns3:TrackPointExtension>
            <ns3:hr>110</ns3:hr>
            <ns3:cad>53</ns3:cad>
          </ns3:TrackPointExtension>
        </extensions>
      </trkpt>
      <trkpt lat="23.3949275873601436614990234375" lon="113.24408643878996372222900390625">
        <ele>12</ele>
        <time>2025-05-11T02:52:34.000Z</time>
        <extensions>
          <ns3:TrackPointExtension>
            <ns3:hr>109</ns3:hr>
            <ns3:cad>53</ns3:cad>
          </ns3:TrackPointExtension>
        </extensions>
      </trkpt>
      <trkpt lat="23.3949242345988750457763671875" lon="113.24404553510248661041259765625">
        <ele>12.19999980926513671875</ele>
        <time>2025-05-11T02:52:38.000Z</time>
        <extensions>
          <ns3:TrackPointExtension>
            <ns3:hr>109</ns3:hr>
            <ns3:cad>53</ns3:cad>
          </ns3:TrackPointExtension>
        </extensions>
      </trkpt>
      <trkpt lat="23.39491778053343296051025390625" lon="113.24404737912118434906005859375">
        <ele>12.19999980926513671875</ele>
        <time>2025-05-11T02:52:40.000Z</time>
        <extensions>
          <ns3:TrackPointExtension>
            <ns3:hr>109</ns3:hr>
            <ns3:cad>55</ns3:cad>
          </ns3:TrackPointExtension>
        </extensions>
      </trkpt>
      <trkpt lat="23.39490939863026142120361328125" lon="113.24405123479664325714111328125">
        <ele>12.19999980926513671875</ele>
        <time>2025-05-11T02:52:42.000Z</time>
        <extensions>
          <ns3:TrackPointExtension>
            <ns3:hr>110</ns3:hr>
            <ns3:cad>55</ns3:cad>
          </ns3:TrackPointExtension>
        </extensions>
      </trkpt>
      <trkpt lat="23.3948964066803455352783203125" lon="113.24383732862770557403564453125">
        <ele>12.19999980926513671875</ele>
        <time>2025-05-11T02:53:00.000Z</time>
        <extensions>
          <ns3:TrackPointExtension>
            <ns3:hr>108</ns3:hr>
            <ns3:cad>53</ns3:cad>
          </ns3:TrackPointExtension>
        </extensions>
      </trkpt>
      <trkpt lat="23.39489213190972805023193359375" lon="113.24379776604473590850830078125">
        <ele>12.19999980926513671875</ele>
        <time>2025-05-11T02:53:03.000Z</time>
        <extensions>
          <ns3:TrackPointExtension>
            <ns3:hr>108</ns3:hr>
            <ns3:cad>53</ns3:cad>
          </ns3:TrackPointExtension>
        </extensions>
      </trkpt>
      <trkpt lat="23.39488291181623935699462890625" lon="113.24375233612954616546630859375">
        <ele>12.3999996185302734375</ele>
        <time>2025-05-11T02:53:07.000Z</time>
        <extensions>
          <ns3:TrackPointExtension>
            <ns3:hr>107</ns3:hr>
            <ns3:cad>53</ns3:cad>
          </ns3:TrackPointExtension>
        </extensions>
      </trkpt>
      <trkpt lat="23.3948937244713306427001953125" lon="113.24373431503772735595703125">
        <ele>12.19999980926513671875</ele>
        <time>2025-05-11T02:53:09.000Z</time>
        <extensions>
          <ns3:TrackPointExtension>
            <ns3:hr>107</ns3:hr>
            <ns3:cad>53</ns3:cad>
          </ns3:TrackPointExtension>
        </extensions>
      </trkpt>
      <trkpt lat="23.3948970772325992584228515625" lon="113.24371847324073314666748046875">
        <ele>12.19999980926513671875</ele>
        <time>2025-05-11T02:53:12.000Z</time>
        <extensions>
          <ns3:TrackPointExtension>
            <ns3:hr>107</ns3:hr>
            <ns3:cad>53</ns3:cad>
          </ns3:TrackPointExtension>
        </extensions>
      </trkpt>
      <trkpt lat="23.3948843367397785186767578125" lon="113.24372216127812862396240234375">
        <ele>12.3999996185302734375</ele>
        <time>2025-05-11T02:53:16.000Z</time>
        <extensions>
          <ns3:TrackPointExtension>
            <ns3:hr>107</ns3:hr>
            <ns3:cad>55</ns3:cad>
          </ns3:TrackPointExtension>
        </extensions>
      </trkpt>
      <trkpt lat="23.39484150521457195281982421875" lon="113.2437375001609325408935546875">
        <ele>12.3999996185302734375</ele>
        <time>2025-05-11T02:53:21.000Z</time>
        <extensions>
          <ns3:TrackPointExtension>
            <ns3:hr>107</ns3:hr>
            <ns3:cad>57</ns3:cad>
          </ns3:TrackPointExtension>
        </extensions>
      </trkpt>
      <trkpt lat="23.394795320928096771240234375" lon="113.24372618459165096282958984375">
        <ele>12.6000003814697265625</ele>
        <time>2025-05-11T02:53:24.000Z</time>
        <extensions>
          <ns3:TrackPointExtension>
            <ns3:hr>108</ns3:hr>
            <ns3:cad>57</ns3:cad>
          </ns3:TrackPointExtension>
        </extensions>
      </trkpt>
      <trkpt lat="23.39465592987835407257080078125" lon="113.24370673857629299163818359375">
        <ele>13.19999980926513671875</ele>
        <time>2025-05-11T02:53:37.000Z</time>
        <extensions>
          <ns3:TrackPointExtension>
            <ns3:hr>105</ns3:hr>
            <ns3:cad>59</ns3:cad>
          </ns3:TrackPointExtension>
        </extensions>
      </trkpt>
      <trkpt lat="23.3946419321000576019287109375" lon="113.24373297393321990966796875">
        <ele>13.19999980926513671875</ele>
        <time>2025-05-11T02:53:39.000Z</time>
        <extensions>
          <ns3:TrackPointExtension>
            <ns3:hr>105</ns3:hr>
            <ns3:cad>17</ns3:cad>
          </ns3:TrackPointExtension>
        </extensions>
      </trkpt>
      <trkpt lat="23.39462692849338054656982421875" lon="113.2437564432621002197265625">
        <ele>13.19999980926513671875</ele>
        <time>2025-05-11T02:53:41.000Z</time>
        <extensions>
          <ns3:TrackPointExtension>
            <ns3:hr>105</ns3:hr>
            <ns3:cad>0</ns3:cad>
          </ns3:TrackPointExtension>
        </extensions>
      </trkpt>
    </trkseg>
  </trk>
</gpx>
