<gpx xmlns:ns3="http://www.garmin.com/xmlschemas/TrackPointExtension/v1" xmlns="http://www.topografix.com/GPX/1/1" xmlns:xsi="http://www.w3.org/2001/XMLSchema-instance" xmlns:ns2="http://www.garmin.com/xmlschemas/GpxExtensions/v3" creator="Garmin Connect" version="1.1" xsi:schemaLocation="http://www.topografix.com/GPX/1/1 http://www.topografix.com/GPX/11.xsd">
  <extensions>
<distance>1021.7</distance>
<average_hr>122.0</average_hr>
<average_speed>1.2100000381469727</average_speed>
<start_time>2026-03-08T05:02:04+00:00</start_time>
<end_time>2026-03-08T05:16:08.051000+00:00</end_time>
<moving_time>829.114</moving_time>
<elapsed_time>844.051</elapsed_time>
</extensions>
<metadata>
    <link href="connect.garmin.com">
      <text>Garmin Connect</text>
    </link>
    <time>2026-03-08T05:02:04.000Z</time>
  </metadata>
  <trk>
    <name>广州市 跑步</name>
    <type>running</type>
    <trkseg>
      <trkpt lat="23.39272792451083660125732421875" lon="113.24462740682065486907958984375">
        <ele>8</ele>
        <time>2026-03-08T05:02:04.000Z</time>
        <extensions>
          <ns3:TrackPointExtension>
            <ns3:hr>85</ns3:hr>
            <ns3:cad>0</ns3:cad>
          </ns3:TrackPointExtension>
        </extensions>
      </trkpt>
      <trkpt lat="23.3927129209041595458984375" lon="113.244627155363559722900390625">
        <ele>8</ele>
        <time>2026-03-08T05:02:05.000Z</time>
        <extensions>
          <ns3:TrackPointExtension>
            <ns3:hr>86</ns3:hr>
            <ns3:cad>0</ns3:cad>
          </ns3:TrackPointExtension>
        </extensions>
      </trkpt>
      <trkpt lat="23.39270889759063720703125" lon="113.2446206174790859222412109375">
        <ele>8</ele>
        <time>2026-03-08T05:02:06.000Z</time>
        <extensions>
          <ns3:TrackPointExtension>
            <ns3:hr>89</ns3:hr>
            <ns3:cad>0</ns3:cad>
          </ns3:TrackPointExtension>
        </extensions>
      </trkpt>
      <trkpt lat="23.39271283708512783050537109375" lon="113.24460628442466259002685546875">
        <ele>8.19999980926513671875</ele>
        <time>2026-03-08T05:02:07.000Z</time>
        <extensions>
          <ns3:TrackPointExtension>
            <ns3:hr>93</ns3:hr>
            <ns3:cad>0</ns3:cad>
          </ns3:TrackPointExtension>
        </extensions>
      </trkpt>
      <trkpt lat="23.39274267666041851043701171875" lon="113.244568146765232086181640625">
        <ele>8.19999980926513671875</ele>
        <time>2026-03-08T05:02:09.000Z</time>
        <extensions>
          <ns3:TrackPointExtension>
            <ns3:hr>96</ns3:hr>
            <ns3:cad>0</ns3:cad>
          </ns3:TrackPointExtension>
        </extensions>
      </trkpt>
      <trkpt lat="23.3927026949822902679443359375" lon="113.2445208728313446044921875">
        <ele>8.3999996185302734375</ele>
        <time>2026-03-08T05:02:12.000Z</time>
        <extensions>
          <ns3:TrackPointExtension>
            <ns3:hr>99</ns3:hr>
            <ns3:cad>0</ns3:cad>
          </ns3:TrackPointExtension>
        </extensions>
      </trkpt>
      <trkpt lat="23.39269707910716533660888671875" lon="113.24451617896556854248046875">
        <ele>8.3999996185302734375</ele>
        <time>2026-03-08T05:02:14.000Z</time>
        <extensions>
          <ns3:TrackPointExtension>
            <ns3:hr>102</ns3:hr>
            <ns3:cad>61</ns3:cad>
          </ns3:TrackPointExtension>
        </extensions>
      </trkpt>
      <trkpt lat="23.39275608770549297332763671875" lon="113.24453151784837245941162109375">
        <ele>8.3999996185302734375</ele>
        <time>2026-03-08T05:02:18.000Z</time>
        <extensions>
          <ns3:TrackPointExtension>
            <ns3:hr>106</ns3:hr>
            <ns3:cad>80</ns3:cad>
          </ns3:TrackPointExtension>
        </extensions>
      </trkpt>
      <trkpt lat="23.392761535942554473876953125" lon="113.2445253990590572357177734375">
        <ele>8.3999996185302734375</ele>
        <time>2026-03-08T05:02:19.000Z</time>
        <extensions>
          <ns3:TrackPointExtension>
            <ns3:hr>109</ns3:hr>
            <ns3:cad>80</ns3:cad>
          </ns3:TrackPointExtension>
        </extensions>
      </trkpt>
      <trkpt lat="23.3927665650844573974609375" lon="113.24451886117458343505859375">
        <ele>8.3999996185302734375</ele>
        <time>2026-03-08T05:02:20.000Z</time>
        <extensions>
          <ns3:TrackPointExtension>
            <ns3:hr>106</ns3:hr>
            <ns3:cad>81</ns3:cad>
          </ns3:TrackPointExtension>
        </extensions>
      </trkpt>
      <trkpt lat="23.39279405772686004638671875" lon="113.24447703547775745391845703125">
        <ele>8.6000003814697265625</ele>
        <time>2026-03-08T05:02:26.000Z</time>
        <extensions>
          <ns3:TrackPointExtension>
            <ns3:hr>110</ns3:hr>
            <ns3:cad>83</ns3:cad>
          </ns3:TrackPointExtension>
        </extensions>
      </trkpt>
      <trkpt lat="23.3927290141582489013671875" lon="113.2445079647004604339599609375">
        <ele>8.6000003814697265625</ele>
        <time>2026-03-08T05:02:28.000Z</time>
        <extensions>
          <ns3:TrackPointExtension>
            <ns3:hr>109</ns3:hr>
            <ns3:cad>82</ns3:cad>
          </ns3:TrackPointExtension>
        </extensions>
      </trkpt>
      <trkpt lat="23.392705880105495452880859375" lon="113.24455716647207736968994140625">
        <ele>8.3999996185302734375</ele>
        <time>2026-03-08T05:02:29.000Z</time>
        <extensions>
          <ns3:TrackPointExtension>
            <ns3:hr>116</ns3:hr>
            <ns3:cad>81</ns3:cad>
          </ns3:TrackPointExtension>
        </extensions>
      </trkpt>
      <trkpt lat="23.39259046129882335662841796875" lon="113.2445445097982883453369140625">
        <ele>8.19999980926513671875</ele>
        <time>2026-03-08T05:02:30.000Z</time>
        <extensions>
          <ns3:TrackPointExtension>
            <ns3:hr>118</ns3:hr>
            <ns3:cad>81</ns3:cad>
          </ns3:TrackPointExtension>
        </extensions>
      </trkpt>
      <trkpt lat="23.39254729449748992919921875" lon="113.2445959746837615966796875">
        <ele>7.599999904632568359375</ele>
        <time>2026-03-08T05:02:32.000Z</time>
        <extensions>
          <ns3:TrackPointExtension>
            <ns3:hr>121</ns3:hr>
            <ns3:cad>81</ns3:cad>
          </ns3:TrackPointExtension>
        </extensions>
      </trkpt>
      <trkpt lat="23.39252793230116367340087890625" lon="113.24462120421230792999267578125">
        <ele>7.400000095367431640625</ele>
        <time>2026-03-08T05:02:33.000Z</time>
        <extensions>
          <ns3:TrackPointExtension>
            <ns3:hr>124</ns3:hr>
            <ns3:cad>78</ns3:cad>
          </ns3:TrackPointExtension>
        </extensions>
      </trkpt>
      <trkpt lat="23.392504043877124786376953125" lon="113.244645930826663970947265625">
        <ele>7.19999980926513671875</ele>
        <time>2026-03-08T05:02:34.000Z</time>
        <extensions>
          <ns3:TrackPointExtension>
            <ns3:hr>123</ns3:hr>
            <ns3:cad>78</ns3:cad>
          </ns3:TrackPointExtension>
        </extensions>
      </trkpt>
      <trkpt lat="23.39248484931886196136474609375" lon="113.2448093779385089874267578125">
        <ele>7</ele>
        <time>2026-03-08T05:02:39.000Z</time>
        <extensions>
          <ns3:TrackPointExtension>
            <ns3:hr>127</ns3:hr>
            <ns3:cad>82</ns3:cad>
          </ns3:TrackPointExtension>
        </extensions>
      </trkpt>
      <trkpt lat="23.3925068937242031097412109375" lon="113.244856484234333038330078125">
        <ele>7.19999980926513671875</ele>
        <time>2026-03-08T05:02:41.000Z</time>
        <extensions>
          <ns3:TrackPointExtension>
            <ns3:hr>133</ns3:hr>
            <ns3:cad>82</ns3:cad>
          </ns3:TrackPointExtension>
        </extensions>
      </trkpt>
      <trkpt lat="23.39255123399198055267333984375" lon="113.2449729926884174346923828125">
        <ele>7.19999980926513671875</ele>
        <time>2026-03-08T05:02:47.000Z</time>
        <extensions>
          <ns3:TrackPointExtension>
            <ns3:hr>139</ns3:hr>
            <ns3:cad>83</ns3:cad>
          </ns3:TrackPointExtension>
        </extensions>
      </trkpt>
      <trkpt lat="23.39255810715258121490478515625" lon="113.244993276894092559814453125">
        <ele>7.400000095367431640625</ele>
        <time>2026-03-08T05:02:48.000Z</time>
        <extensions>
          <ns3:TrackPointExtension>
            <ns3:hr>142</ns3:hr>
            <ns3:cad>83</ns3:cad>
          </ns3:TrackPointExtension>
        </extensions>
      </trkpt>
      <trkpt lat="23.392596580088138580322265625" lon="113.24507483281195163726806640625">
        <ele>7.599999904632568359375</ele>
        <time>2026-03-08T05:02:52.000Z</time>
        <extensions>
          <ns3:TrackPointExtension>
            <ns3:hr>139</ns3:hr>
            <ns3:cad>83</ns3:cad>
          </ns3:TrackPointExtension>
        </extensions>
      </trkpt>
      <trkpt lat="23.392651565372943878173828125" lon="113.24517088942229747772216796875">
        <ele>8.3999996185302734375</ele>
        <time>2026-03-08T05:02:57.000Z</time>
        <extensions>
          <ns3:TrackPointExtension>
            <ns3:hr>143</ns3:hr>
            <ns3:cad>83</ns3:cad>
          </ns3:TrackPointExtension>
        </extensions>
      </trkpt>
      <trkpt lat="23.39268567971885204315185546875" lon="113.24522939510643482208251953125">
        <ele>8.6000003814697265625</ele>
        <time>2026-03-08T05:03:00.000Z</time>
        <extensions>
          <ns3:TrackPointExtension>
            <ns3:hr>146</ns3:hr>
            <ns3:cad>83</ns3:cad>
          </ns3:TrackPointExtension>
        </extensions>
      </trkpt>
      <trkpt lat="23.39270629920065402984619140625" lon="113.24531438760459423065185546875">
        <ele>9</ele>
        <time>2026-03-08T05:03:04.000Z</time>
        <extensions>
          <ns3:TrackPointExtension>
            <ns3:hr>149</ns3:hr>
            <ns3:cad>82</ns3:cad>
          </ns3:TrackPointExtension>
        </extensions>
      </trkpt>
      <trkpt lat="23.39272029697895050048828125" lon="113.2453847117722034454345703125">
        <ele>9.3999996185302734375</ele>
        <time>2026-03-08T05:03:07.000Z</time>
        <extensions>
          <ns3:TrackPointExtension>
            <ns3:hr>153</ns3:hr>
            <ns3:cad>82</ns3:cad>
          </ns3:TrackPointExtension>
        </extensions>
      </trkpt>
      <trkpt lat="23.392736054956912994384765625" lon="113.24545151554048061370849609375">
        <ele>9.80000019073486328125</ele>
        <time>2026-03-08T05:03:10.000Z</time>
        <extensions>
          <ns3:TrackPointExtension>
            <ns3:hr>148</ns3:hr>
            <ns3:cad>82</ns3:cad>
          </ns3:TrackPointExtension>
        </extensions>
      </trkpt>
      <trkpt lat="23.39277318678796291351318359375" lon="113.24559534899890422821044921875">
        <ele>10</ele>
        <time>2026-03-08T05:03:22.000Z</time>
        <extensions>
          <ns3:TrackPointExtension>
            <ns3:hr>152</ns3:hr>
            <ns3:cad>57</ns3:cad>
          </ns3:TrackPointExtension>
        </extensions>
      </trkpt>
      <trkpt lat="23.3927851729094982147216796875" lon="113.24562099762260913848876953125">
        <ele>10</ele>
        <time>2026-03-08T05:03:25.000Z</time>
        <extensions>
          <ns3:TrackPointExtension>
            <ns3:hr>149</ns3:hr>
            <ns3:cad>60</ns3:cad>
          </ns3:TrackPointExtension>
        </extensions>
      </trkpt>
      <trkpt lat="23.3927871845662593841552734375" lon="113.24569257907569408416748046875">
        <ele>10</ele>
        <time>2026-03-08T05:03:33.000Z</time>
        <extensions>
          <ns3:TrackPointExtension>
            <ns3:hr>143</ns3:hr>
            <ns3:cad>57</ns3:cad>
          </ns3:TrackPointExtension>
        </extensions>
      </trkpt>
      <trkpt lat="23.3928140066564083099365234375" lon="113.24576851911842823028564453125">
        <ele>10</ele>
        <time>2026-03-08T05:03:42.000Z</time>
        <extensions>
          <ns3:TrackPointExtension>
            <ns3:hr>140</ns3:hr>
            <ns3:cad>56</ns3:cad>
          </ns3:TrackPointExtension>
        </extensions>
      </trkpt>
      <trkpt lat="23.39284510351717472076416015625" lon="113.2458158768713474273681640625">
        <ele>10.19999980926513671875</ele>
        <time>2026-03-08T05:03:49.000Z</time>
        <extensions>
          <ns3:TrackPointExtension>
            <ns3:hr>136</ns3:hr>
            <ns3:cad>57</ns3:cad>
          </ns3:TrackPointExtension>
        </extensions>
      </trkpt>
      <trkpt lat="23.39284895919263362884521484375" lon="113.24583792127668857574462890625">
        <ele>10.19999980926513671875</ele>
        <time>2026-03-08T05:03:52.000Z</time>
        <extensions>
          <ns3:TrackPointExtension>
            <ns3:hr>133</ns3:hr>
            <ns3:cad>55</ns3:cad>
          </ns3:TrackPointExtension>
        </extensions>
      </trkpt>
      <trkpt lat="23.39286647737026214599609375" lon="113.24601779691874980926513671875">
        <ele>10.3999996185302734375</ele>
        <time>2026-03-08T05:04:08.000Z</time>
        <extensions>
          <ns3:TrackPointExtension>
            <ns3:hr>131</ns3:hr>
            <ns3:cad>54</ns3:cad>
          </ns3:TrackPointExtension>
        </extensions>
      </trkpt>
      <trkpt lat="23.39292808435857295989990234375" lon="113.2461082376539707183837890625">
        <ele>9.6000003814697265625</ele>
        <time>2026-03-08T05:04:15.000Z</time>
        <extensions>
          <ns3:TrackPointExtension>
            <ns3:hr>131</ns3:hr>
            <ns3:cad>60</ns3:cad>
          </ns3:TrackPointExtension>
        </extensions>
      </trkpt>
      <trkpt lat="23.39295289479196071624755859375" lon="113.2461457885801792144775390625">
        <ele>9.19999980926513671875</ele>
        <time>2026-03-08T05:04:20.000Z</time>
        <extensions>
          <ns3:TrackPointExtension>
            <ns3:hr>130</ns3:hr>
            <ns3:cad>53</ns3:cad>
          </ns3:TrackPointExtension>
        </extensions>
      </trkpt>
      <trkpt lat="23.39303201995790004730224609375" lon="113.2462524063885211944580078125">
        <ele>8</ele>
        <time>2026-03-08T05:04:32.000Z</time>
        <extensions>
          <ns3:TrackPointExtension>
            <ns3:hr>127</ns3:hr>
            <ns3:cad>55</ns3:cad>
          </ns3:TrackPointExtension>
        </extensions>
      </trkpt>
      <trkpt lat="23.3932019211351871490478515625" lon="113.24632608331739902496337890625">
        <ele>7.400000095367431640625</ele>
        <time>2026-03-08T05:04:49.000Z</time>
        <extensions>
          <ns3:TrackPointExtension>
            <ns3:hr>125</ns3:hr>
            <ns3:cad>55</ns3:cad>
          </ns3:TrackPointExtension>
        </extensions>
      </trkpt>
      <trkpt lat="23.39336561970412731170654296875" lon="113.24638140387833118438720703125">
        <ele>7</ele>
        <time>2026-03-08T05:05:07.000Z</time>
        <extensions>
          <ns3:TrackPointExtension>
            <ns3:hr>122</ns3:hr>
            <ns3:cad>55</ns3:cad>
          </ns3:TrackPointExtension>
        </extensions>
      </trkpt>
      <trkpt lat="23.39350978843867778778076171875" lon="113.2464190386235713958740234375">
        <ele>7</ele>
        <time>2026-03-08T05:05:26.000Z</time>
        <extensions>
          <ns3:TrackPointExtension>
            <ns3:hr>121</ns3:hr>
            <ns3:cad>61</ns3:cad>
          </ns3:TrackPointExtension>
        </extensions>
      </trkpt>
      <trkpt lat="23.39353568851947784423828125" lon="113.2464046217501163482666015625">
        <ele>7.19999980926513671875</ele>
        <time>2026-03-08T05:05:30.000Z</time>
        <extensions>
          <ns3:TrackPointExtension>
            <ns3:hr>123</ns3:hr>
            <ns3:cad>61</ns3:cad>
          </ns3:TrackPointExtension>
        </extensions>
      </trkpt>
      <trkpt lat="23.39355136267840862274169921875" lon="113.2464002631604671478271484375">
        <ele>7.400000095367431640625</ele>
        <time>2026-03-08T05:05:31.000Z</time>
        <extensions>
          <ns3:TrackPointExtension>
            <ns3:hr>123</ns3:hr>
            <ns3:cad>61</ns3:cad>
          </ns3:TrackPointExtension>
        </extensions>
      </trkpt>
      <trkpt lat="23.393738530576229095458984375" lon="113.2464062981307506561279296875">
        <ele>8</ele>
        <time>2026-03-08T05:05:48.000Z</time>
        <extensions>
          <ns3:TrackPointExtension>
            <ns3:hr>122</ns3:hr>
            <ns3:cad>56</ns3:cad>
          </ns3:TrackPointExtension>
        </extensions>
      </trkpt>
      <trkpt lat="23.393829055130481719970703125" lon="113.246471844613552093505859375">
        <ele>7.400000095367431640625</ele>
        <time>2026-03-08T05:05:57.000Z</time>
        <extensions>
          <ns3:TrackPointExtension>
            <ns3:hr>119</ns3:hr>
            <ns3:cad>58</ns3:cad>
          </ns3:TrackPointExtension>
        </extensions>
      </trkpt>
      <trkpt lat="23.3938805200159549713134765625" lon="113.246485255658626556396484375">
        <ele>7.19999980926513671875</ele>
        <time>2026-03-08T05:06:02.000Z</time>
        <extensions>
          <ns3:TrackPointExtension>
            <ns3:hr>122</ns3:hr>
            <ns3:cad>52</ns3:cad>
          </ns3:TrackPointExtension>
        </extensions>
      </trkpt>
      <trkpt lat="23.39395084418356418609619140625" lon="113.24651165865361690521240234375">
        <ele>7</ele>
        <time>2026-03-08T05:06:09.000Z</time>
        <extensions>
          <ns3:TrackPointExtension>
            <ns3:hr>119</ns3:hr>
            <ns3:cad>57</ns3:cad>
          </ns3:TrackPointExtension>
        </extensions>
      </trkpt>
      <trkpt lat="23.393979258835315704345703125" lon="113.246534876525402069091796875">
        <ele>6.599999904632568359375</ele>
        <time>2026-03-08T05:06:12.000Z</time>
        <extensions>
          <ns3:TrackPointExtension>
            <ns3:hr>122</ns3:hr>
            <ns3:cad>57</ns3:cad>
          </ns3:TrackPointExtension>
        </extensions>
      </trkpt>
      <trkpt lat="23.3941532671451568603515625" lon="113.2466098107397556304931640625">
        <ele>6</ele>
        <time>2026-03-08T05:06:33.000Z</time>
        <extensions>
          <ns3:TrackPointExtension>
            <ns3:hr>121</ns3:hr>
            <ns3:cad>57</ns3:cad>
          </ns3:TrackPointExtension>
        </extensions>
      </trkpt>
      <trkpt lat="23.39426164515316486358642578125" lon="113.2466775365173816680908203125">
        <ele>5.80000019073486328125</ele>
        <time>2026-03-08T05:06:48.000Z</time>
        <extensions>
          <ns3:TrackPointExtension>
            <ns3:hr>121</ns3:hr>
            <ns3:cad>56</ns3:cad>
          </ns3:TrackPointExtension>
        </extensions>
      </trkpt>
      <trkpt lat="23.3942525088787078857421875" lon="113.24670176021754741668701171875">
        <ele>5.599999904632568359375</ele>
        <time>2026-03-08T05:06:51.000Z</time>
        <extensions>
          <ns3:TrackPointExtension>
            <ns3:hr>122</ns3:hr>
            <ns3:cad>55</ns3:cad>
          </ns3:TrackPointExtension>
        </extensions>
      </trkpt>
      <trkpt lat="23.39424152858555316925048828125" lon="113.24673302471637725830078125">
        <ele>5.599999904632568359375</ele>
        <time>2026-03-08T05:06:55.000Z</time>
        <extensions>
          <ns3:TrackPointExtension>
            <ns3:hr>121</ns3:hr>
            <ns3:cad>55</ns3:cad>
          </ns3:TrackPointExtension>
        </extensions>
      </trkpt>
      <trkpt lat="23.39423281140625476837158203125" lon="113.24674953706562519073486328125">
        <ele>5.400000095367431640625</ele>
        <time>2026-03-08T05:06:56.000Z</time>
        <extensions>
          <ns3:TrackPointExtension>
            <ns3:hr>118</ns3:hr>
            <ns3:cad>56</ns3:cad>
          </ns3:TrackPointExtension>
        </extensions>
      </trkpt>
      <trkpt lat="23.3942298777401447296142578125" lon="113.24675993062555789947509765625">
        <ele>5.400000095367431640625</ele>
        <time>2026-03-08T05:06:58.000Z</time>
        <extensions>
          <ns3:TrackPointExtension>
            <ns3:hr>119</ns3:hr>
            <ns3:cad>56</ns3:cad>
          </ns3:TrackPointExtension>
        </extensions>
      </trkpt>
      <trkpt lat="23.3941490761935710906982421875" lon="113.24694835580885410308837890625">
        <ele>5</ele>
        <time>2026-03-08T05:07:18.000Z</time>
        <extensions>
          <ns3:TrackPointExtension>
            <ns3:hr>121</ns3:hr>
            <ns3:cad>55</ns3:cad>
          </ns3:TrackPointExtension>
        </extensions>
      </trkpt>
      <trkpt lat="23.3940853737294673919677734375" lon="113.247134685516357421875">
        <ele>5.19999980926513671875</ele>
        <time>2026-03-08T05:07:36.000Z</time>
        <extensions>
          <ns3:TrackPointExtension>
            <ns3:hr>122</ns3:hr>
            <ns3:cad>56</ns3:cad>
          </ns3:TrackPointExtension>
        </extensions>
      </trkpt>
      <trkpt lat="23.394069112837314605712890625" lon="113.24718740768730640411376953125">
        <ele>5.400000095367431640625</ele>
        <time>2026-03-08T05:07:42.000Z</time>
        <extensions>
          <ns3:TrackPointExtension>
            <ns3:hr>119</ns3:hr>
            <ns3:cad>56</ns3:cad>
          </ns3:TrackPointExtension>
        </extensions>
      </trkpt>
      <trkpt lat="23.394015468657016754150390625" lon="113.24737633578479290008544921875">
        <ele>6.19999980926513671875</ele>
        <time>2026-03-08T05:07:59.000Z</time>
        <extensions>
          <ns3:TrackPointExtension>
            <ns3:hr>119</ns3:hr>
            <ns3:cad>58</ns3:cad>
          </ns3:TrackPointExtension>
        </extensions>
      </trkpt>
      <trkpt lat="23.3939965255558490753173828125" lon="113.24742176569998264312744140625">
        <ele>6.400000095367431640625</ele>
        <time>2026-03-08T05:08:04.000Z</time>
        <extensions>
          <ns3:TrackPointExtension>
            <ns3:hr>116</ns3:hr>
            <ns3:cad>55</ns3:cad>
          </ns3:TrackPointExtension>
        </extensions>
      </trkpt>
      <trkpt lat="23.39393340982496738433837890625" lon="113.2476163096725940704345703125">
        <ele>6.19999980926513671875</ele>
        <time>2026-03-08T05:08:21.000Z</time>
        <extensions>
          <ns3:TrackPointExtension>
            <ns3:hr>117</ns3:hr>
            <ns3:cad>58</ns3:cad>
          </ns3:TrackPointExtension>
        </extensions>
      </trkpt>
      <trkpt lat="23.39390926994383335113525390625" lon="113.24766718782484531402587890625">
        <ele>5.599999904632568359375</ele>
        <time>2026-03-08T05:08:28.000Z</time>
        <extensions>
          <ns3:TrackPointExtension>
            <ns3:hr>119</ns3:hr>
            <ns3:cad>0</ns3:cad>
          </ns3:TrackPointExtension>
        </extensions>
      </trkpt>
      <trkpt lat="23.39383970014750957489013671875" lon="113.24785276316106319427490234375">
        <ele>4.80000019073486328125</ele>
        <time>2026-03-08T05:08:52.000Z</time>
        <extensions>
          <ns3:TrackPointExtension>
            <ns3:hr>119</ns3:hr>
            <ns3:cad>53</ns3:cad>
          </ns3:TrackPointExtension>
        </extensions>
      </trkpt>
      <trkpt lat="23.39382058940827846527099609375" lon="113.2478789985179901123046875">
        <ele>4.400000095367431640625</ele>
        <time>2026-03-08T05:08:57.000Z</time>
        <extensions>
          <ns3:TrackPointExtension>
            <ns3:hr>120</ns3:hr>
            <ns3:cad>0</ns3:cad>
          </ns3:TrackPointExtension>
        </extensions>
      </trkpt>
      <trkpt lat="23.39392033405601978302001953125" lon="113.2477289624512195587158203125">
        <ele>5.19999980926513671875</ele>
        <time>2026-03-08T05:09:24.000Z</time>
        <extensions>
          <ns3:TrackPointExtension>
            <ns3:hr>122</ns3:hr>
            <ns3:cad>57</ns3:cad>
          </ns3:TrackPointExtension>
        </extensions>
      </trkpt>
      <trkpt lat="23.393982946872711181640625" lon="113.247563838958740234375">
        <ele>7</ele>
        <time>2026-03-08T05:09:42.000Z</time>
        <extensions>
          <ns3:TrackPointExtension>
            <ns3:hr>119</ns3:hr>
            <ns3:cad>0</ns3:cad>
          </ns3:TrackPointExtension>
        </extensions>
      </trkpt>
      <trkpt lat="23.39405394159257411956787109375" lon="113.2473806105554103851318359375">
        <ele>6.19999980926513671875</ele>
        <time>2026-03-08T05:09:59.000Z</time>
        <extensions>
          <ns3:TrackPointExtension>
            <ns3:hr>119</ns3:hr>
            <ns3:cad>61</ns3:cad>
          </ns3:TrackPointExtension>
        </extensions>
      </trkpt>
      <trkpt lat="23.39411437511444091796875" lon="113.24718941934406757354736328125">
        <ele>5.19999980926513671875</ele>
        <time>2026-03-08T05:10:16.000Z</time>
        <extensions>
          <ns3:TrackPointExtension>
            <ns3:hr>120</ns3:hr>
            <ns3:cad>61</ns3:cad>
          </ns3:TrackPointExtension>
        </extensions>
      </trkpt>
      <trkpt lat="23.39418134652078151702880859375" lon="113.24700183235108852386474609375">
        <ele>5</ele>
        <time>2026-03-08T05:10:32.000Z</time>
        <extensions>
          <ns3:TrackPointExtension>
            <ns3:hr>119</ns3:hr>
            <ns3:cad>61</ns3:cad>
          </ns3:TrackPointExtension>
        </extensions>
      </trkpt>
      <trkpt lat="23.39426793158054351806640625" lon="113.2468163408339023590087890625">
        <ele>5.19999980926513671875</ele>
        <time>2026-03-08T05:10:47.000Z</time>
        <extensions>
          <ns3:TrackPointExtension>
            <ns3:hr>118</ns3:hr>
            <ns3:cad>61</ns3:cad>
          </ns3:TrackPointExtension>
        </extensions>
      </trkpt>
      <trkpt lat="23.39431830681860446929931640625" lon="113.2466661371290683746337890625">
        <ele>6.19999980926513671875</ele>
        <time>2026-03-08T05:11:00.000Z</time>
        <extensions>
          <ns3:TrackPointExtension>
            <ns3:hr>119</ns3:hr>
            <ns3:cad>61</ns3:cad>
          </ns3:TrackPointExtension>
        </extensions>
      </trkpt>
      <trkpt lat="23.394352756440639495849609375" lon="113.24658055789768695831298828125">
        <ele>6.80000019073486328125</ele>
        <time>2026-03-08T05:11:09.000Z</time>
        <extensions>
          <ns3:TrackPointExtension>
            <ns3:hr>119</ns3:hr>
            <ns3:cad>61</ns3:cad>
          </ns3:TrackPointExtension>
        </extensions>
      </trkpt>
      <trkpt lat="23.394362814724445343017578125" lon="113.2465554960072040557861328125">
        <ele>7</ele>
        <time>2026-03-08T05:11:12.000Z</time>
        <extensions>
          <ns3:TrackPointExtension>
            <ns3:hr>120</ns3:hr>
            <ns3:cad>61</ns3:cad>
          </ns3:TrackPointExtension>
        </extensions>
      </trkpt>
      <trkpt lat="23.3943780697882175445556640625" lon="113.2465320266783237457275390625">
        <ele>7.19999980926513671875</ele>
        <time>2026-03-08T05:11:14.000Z</time>
        <extensions>
          <ns3:TrackPointExtension>
            <ns3:hr>120</ns3:hr>
            <ns3:cad>61</ns3:cad>
          </ns3:TrackPointExtension>
        </extensions>
      </trkpt>
      <trkpt lat="23.39446364901959896087646484375" lon="113.24634435586631298065185546875">
        <ele>9</ele>
        <time>2026-03-08T05:11:31.000Z</time>
        <extensions>
          <ns3:TrackPointExtension>
            <ns3:hr>118</ns3:hr>
            <ns3:cad>59</ns3:cad>
          </ns3:TrackPointExtension>
        </extensions>
      </trkpt>
      <trkpt lat="23.39455735869705677032470703125" lon="113.24617152102291584014892578125">
        <ele>10</ele>
        <time>2026-03-08T05:11:46.000Z</time>
        <extensions>
          <ns3:TrackPointExtension>
            <ns3:hr>118</ns3:hr>
            <ns3:cad>61</ns3:cad>
          </ns3:TrackPointExtension>
        </extensions>
      </trkpt>
      <trkpt lat="23.39464318938553333282470703125" lon="113.2459929026663303375244140625">
        <ele>10.80000019073486328125</ele>
        <time>2026-03-08T05:12:03.000Z</time>
        <extensions>
          <ns3:TrackPointExtension>
            <ns3:hr>116</ns3:hr>
            <ns3:cad>61</ns3:cad>
          </ns3:TrackPointExtension>
        </extensions>
      </trkpt>
      <trkpt lat="23.394652493298053741455078125" lon="113.2459583692252635955810546875">
        <ele>10.80000019073486328125</ele>
        <time>2026-03-08T05:12:08.000Z</time>
        <extensions>
          <ns3:TrackPointExtension>
            <ns3:hr>117</ns3:hr>
            <ns3:cad>61</ns3:cad>
          </ns3:TrackPointExtension>
        </extensions>
      </trkpt>
      <trkpt lat="23.39466347359120845794677734375" lon="113.2458889670670032501220703125">
        <ele>10.80000019073486328125</ele>
        <time>2026-03-08T05:12:14.000Z</time>
        <extensions>
          <ns3:TrackPointExtension>
            <ns3:hr>118</ns3:hr>
            <ns3:cad>57</ns3:cad>
          </ns3:TrackPointExtension>
        </extensions>
      </trkpt>
      <trkpt lat="23.39467219077050685882568359375" lon="113.245694674551486968994140625">
        <ele>11.3999996185302734375</ele>
        <time>2026-03-08T05:12:31.000Z</time>
        <extensions>
          <ns3:TrackPointExtension>
            <ns3:hr>119</ns3:hr>
            <ns3:cad>55</ns3:cad>
          </ns3:TrackPointExtension>
        </extensions>
      </trkpt>
      <trkpt lat="23.39467202313244342803955078125" lon="113.24567950330674648284912109375">
        <ele>11.6000003814697265625</ele>
        <time>2026-03-08T05:12:33.000Z</time>
        <extensions>
          <ns3:TrackPointExtension>
            <ns3:hr>119</ns3:hr>
            <ns3:cad>59</ns3:cad>
          </ns3:TrackPointExtension>
        </extensions>
      </trkpt>
      <trkpt lat="23.39466213248670101165771484375" lon="113.24563457630574703216552734375">
        <ele>11.80000019073486328125</ele>
        <time>2026-03-08T05:12:37.000Z</time>
        <extensions>
          <ns3:TrackPointExtension>
            <ns3:hr>119</ns3:hr>
            <ns3:cad>59</ns3:cad>
          </ns3:TrackPointExtension>
        </extensions>
      </trkpt>
      <trkpt lat="23.3946560136973857879638671875" lon="113.2456009648740291595458984375">
        <ele>12</ele>
        <time>2026-03-08T05:12:40.000Z</time>
        <extensions>
          <ns3:TrackPointExtension>
            <ns3:hr>119</ns3:hr>
            <ns3:cad>59</ns3:cad>
          </ns3:TrackPointExtension>
        </extensions>
      </trkpt>
      <trkpt lat="23.39464268647134304046630859375" lon="113.245400302112102508544921875">
        <ele>13</ele>
        <time>2026-03-08T05:12:54.000Z</time>
        <extensions>
          <ns3:TrackPointExtension>
            <ns3:hr>120</ns3:hr>
            <ns3:cad>61</ns3:cad>
          </ns3:TrackPointExtension>
        </extensions>
      </trkpt>
      <trkpt lat="23.394684009253978729248046875" lon="113.24519653804600238800048828125">
        <ele>13</ele>
        <time>2026-03-08T05:13:10.000Z</time>
        <extensions>
          <ns3:TrackPointExtension>
            <ns3:hr>119</ns3:hr>
            <ns3:cad>61</ns3:cad>
          </ns3:TrackPointExtension>
        </extensions>
      </trkpt>
      <trkpt lat="23.394777216017246246337890625" lon="113.24501750059425830841064453125">
        <ele>12</ele>
        <time>2026-03-08T05:13:26.000Z</time>
        <extensions>
          <ns3:TrackPointExtension>
            <ns3:hr>119</ns3:hr>
            <ns3:cad>61</ns3:cad>
          </ns3:TrackPointExtension>
        </extensions>
      </trkpt>
      <trkpt lat="23.39473237283527851104736328125" lon="113.24483335018157958984375">
        <ele>12</ele>
        <time>2026-03-08T05:13:45.000Z</time>
        <extensions>
          <ns3:TrackPointExtension>
            <ns3:hr>119</ns3:hr>
            <ns3:cad>61</ns3:cad>
          </ns3:TrackPointExtension>
        </extensions>
      </trkpt>
      <trkpt lat="23.3946737833321094512939453125" lon="113.24464299716055393218994140625">
        <ele>12.19999980926513671875</ele>
        <time>2026-03-08T05:14:02.000Z</time>
        <extensions>
          <ns3:TrackPointExtension>
            <ns3:hr>119</ns3:hr>
            <ns3:cad>61</ns3:cad>
          </ns3:TrackPointExtension>
        </extensions>
      </trkpt>
      <trkpt lat="23.39466364122927188873291015625" lon="113.2445944659411907196044921875">
        <ele>12</ele>
        <time>2026-03-08T05:14:08.000Z</time>
        <extensions>
          <ns3:TrackPointExtension>
            <ns3:hr>120</ns3:hr>
            <ns3:cad>53</ns3:cad>
          </ns3:TrackPointExtension>
        </extensions>
      </trkpt>
      <trkpt lat="23.3946789801120758056640625" lon="113.24456286616623401641845703125">
        <ele>11.80000019073486328125</ele>
        <time>2026-03-08T05:14:12.000Z</time>
        <extensions>
          <ns3:TrackPointExtension>
            <ns3:hr>120</ns3:hr>
            <ns3:cad>53</ns3:cad>
          </ns3:TrackPointExtension>
        </extensions>
      </trkpt>
      <trkpt lat="23.3946845121681690216064453125" lon="113.24454425834119319915771484375">
        <ele>11.6000003814697265625</ele>
        <time>2026-03-08T05:14:14.000Z</time>
        <extensions>
          <ns3:TrackPointExtension>
            <ns3:hr>120</ns3:hr>
            <ns3:cad>53</ns3:cad>
          </ns3:TrackPointExtension>
        </extensions>
      </trkpt>
      <trkpt lat="23.39469800703227519989013671875" lon="113.2445233874022960662841796875">
        <ele>11.6000003814697265625</ele>
        <time>2026-03-08T05:14:16.000Z</time>
        <extensions>
          <ns3:TrackPointExtension>
            <ns3:hr>120</ns3:hr>
            <ns3:cad>53</ns3:cad>
          </ns3:TrackPointExtension>
        </extensions>
      </trkpt>
      <trkpt lat="23.3947562612593173980712890625" lon="113.24442766606807708740234375">
        <ele>11.19999980926513671875</ele>
        <time>2026-03-08T05:14:22.000Z</time>
        <extensions>
          <ns3:TrackPointExtension>
            <ns3:hr>122</ns3:hr>
            <ns3:cad>58</ns3:cad>
          </ns3:TrackPointExtension>
        </extensions>
      </trkpt>
      <trkpt lat="23.39486514218151569366455078125" lon="113.24425374157726764678955078125">
        <ele>12</ele>
        <time>2026-03-08T05:14:33.000Z</time>
        <extensions>
          <ns3:TrackPointExtension>
            <ns3:hr>119</ns3:hr>
            <ns3:cad>61</ns3:cad>
          </ns3:TrackPointExtension>
        </extensions>
      </trkpt>
      <trkpt lat="23.3949527330696582794189453125" lon="113.24414041824638843536376953125">
        <ele>12</ele>
        <time>2026-03-08T05:14:45.000Z</time>
        <extensions>
          <ns3:TrackPointExtension>
            <ns3:hr>120</ns3:hr>
            <ns3:cad>61</ns3:cad>
          </ns3:TrackPointExtension>
        </extensions>
      </trkpt>
      <trkpt lat="23.39495901949703693389892578125" lon="113.2440489716827869415283203125">
        <ele>12</ele>
        <time>2026-03-08T05:14:58.000Z</time>
        <extensions>
          <ns3:TrackPointExtension>
            <ns3:hr>119</ns3:hr>
            <ns3:cad>61</ns3:cad>
          </ns3:TrackPointExtension>
        </extensions>
      </trkpt>
      <trkpt lat="23.394976370036602020263671875" lon="113.24399189092218875885009765625">
        <ele>12</ele>
        <time>2026-03-08T05:15:04.000Z</time>
        <extensions>
          <ns3:TrackPointExtension>
            <ns3:hr>118</ns3:hr>
            <ns3:cad>52</ns3:cad>
          </ns3:TrackPointExtension>
        </extensions>
      </trkpt>
      <trkpt lat="23.39497393928468227386474609375" lon="113.24395333416759967803955078125">
        <ele>12</ele>
        <time>2026-03-08T05:15:06.000Z</time>
        <extensions>
          <ns3:TrackPointExtension>
            <ns3:hr>117</ns3:hr>
            <ns3:cad>52</ns3:cad>
          </ns3:TrackPointExtension>
        </extensions>
      </trkpt>
      <trkpt lat="23.39498542249202728271484375" lon="113.2438860274851322174072265625">
        <ele>12</ele>
        <time>2026-03-08T05:15:11.000Z</time>
        <extensions>
          <ns3:TrackPointExtension>
            <ns3:hr>114</ns3:hr>
            <ns3:cad>61</ns3:cad>
          </ns3:TrackPointExtension>
        </extensions>
      </trkpt>
      <trkpt lat="23.3950171060860157012939453125" lon="113.2436821796000003814697265625">
        <ele>11.6000003814697265625</ele>
        <time>2026-03-08T05:15:27.000Z</time>
        <extensions>
          <ns3:TrackPointExtension>
            <ns3:hr>117</ns3:hr>
            <ns3:cad>61</ns3:cad>
          </ns3:TrackPointExtension>
        </extensions>
      </trkpt>
      <trkpt lat="23.3950449340045452117919921875" lon="113.24347422458231449127197265625">
        <ele>11.80000019073486328125</ele>
        <time>2026-03-08T05:15:40.000Z</time>
        <extensions>
          <ns3:TrackPointExtension>
            <ns3:hr>118</ns3:hr>
            <ns3:cad>61</ns3:cad>
          </ns3:TrackPointExtension>
        </extensions>
      </trkpt>
      <trkpt lat="23.39505205862224102020263671875" lon="113.243291079998016357421875">
        <ele>11.80000019073486328125</ele>
        <time>2026-03-08T05:15:52.000Z</time>
        <extensions>
          <ns3:TrackPointExtension>
            <ns3:hr>118</ns3:hr>
            <ns3:cad>57</ns3:cad>
          </ns3:TrackPointExtension>
        </extensions>
      </trkpt>
      <trkpt lat="23.394993133842945098876953125" lon="113.2431098632514476776123046875">
        <ele>13</ele>
        <time>2026-03-08T05:16:07.000Z</time>
        <extensions>
          <ns3:TrackPointExtension>
            <ns3:hr>120</ns3:hr>
            <ns3:cad>61</ns3:cad>
          </ns3:TrackPointExtension>
        </extensions>
      </trkpt>
      <trkpt lat="23.39498550631105899810791015625" lon="113.2431051693856716156005859375">
        <ele>13</ele>
        <time>2026-03-08T05:16:08.000Z</time>
        <extensions>
          <ns3:TrackPointExtension>
            <ns3:hr>121</ns3:hr>
            <ns3:cad>61</ns3:cad>
          </ns3:TrackPointExtension>
        </extensions>
      </trkpt>
    </trkseg>
  </trk>
</gpx>
