<gpx xmlns:ns3="http://www.garmin.com/xmlschemas/TrackPointExtension/v1" xmlns="http://www.topografix.com/GPX/1/1" xmlns:xsi="http://www.w3.org/2001/XMLSchema-instance" xmlns:ns2="http://www.garmin.com/xmlschemas/GpxExtensions/v3" creator="Garmin Connect" version="1.1" xsi:schemaLocation="http://www.topografix.com/GPX/1/1 http://www.topografix.com/GPX/11.xsd">
  <extensions>
<distance>45.41</distance>
<average_hr></average_hr>
<average_speed>0.45899999141693115</average_speed>
<start_time>2022-07-09T23:32:45+00:00</start_time>
<end_time>2022-07-09T23:34:23.959000+00:00</end_time>
<moving_time>43.0</moving_time>
<elapsed_time>101.217</elapsed_time>
</extensions>
<metadata>
    <link href="connect.garmin.com">
      <text>Garmin Connect</text>
    </link>
    <time>2022-07-09T23:32:45.000Z</time>
  </metadata>
  <trk>
    <name>跑步</name>
    <type>running</type>
    <trkseg/>
  </trk>
</gpx>
