<gpx xmlns:ns3="http://www.garmin.com/xmlschemas/TrackPointExtension/v1" xmlns="http://www.topografix.com/GPX/1/1" xmlns:xsi="http://www.w3.org/2001/XMLSchema-instance" xmlns:ns2="http://www.garmin.com/xmlschemas/GpxExtensions/v3" creator="Garmin Connect" version="1.1" xsi:schemaLocation="http://www.topografix.com/GPX/1/1 http://www.topografix.com/GPX/11.xsd">
  <extensions>
<distance>3677.03</distance>
<average_hr>127.0</average_hr>
<average_speed>1.4839999675750732</average_speed>
<start_time>2022-10-26T09:36:10+00:00</start_time>
<end_time>2022-10-26T10:17:27.827000+00:00</end_time>
<moving_time>2420.662</moving_time>
<elapsed_time>2477.827</elapsed_time>
</extensions>
<metadata>
    <link href="connect.garmin.com">
      <text>Garmin Connect</text>
    </link>
    <time>2022-10-26T09:36:10.000Z</time>
  </metadata>
  <trk>
    <name>广州市 跑步</name>
    <type>running</type>
    <trkseg>
      <trkpt lat="23.18051464855670928955078125" lon="113.2545397616922855377197265625">
        <ele>26.3999996185302734375</ele>
        <time>2022-10-26T09:39:12.000Z</time>
        <extensions>
          <ns3:TrackPointExtension>
            <ns3:hr>154</ns3:hr>
            <ns3:cad>81</ns3:cad>
          </ns3:TrackPointExtension>
        </extensions>
      </trkpt>
      <trkpt lat="23.18053543567657470703125" lon="113.25453666038811206817626953125">
        <ele>26.3999996185302734375</ele>
        <time>2022-10-26T09:39:15.000Z</time>
        <extensions>
          <ns3:TrackPointExtension>
            <ns3:hr>153</ns3:hr>
            <ns3:cad>82</ns3:cad>
          </ns3:TrackPointExtension>
        </extensions>
      </trkpt>
      <trkpt lat="23.18057457916438579559326171875" lon="113.25452961958944797515869140625">
        <ele>26.3999996185302734375</ele>
        <time>2022-10-26T09:39:18.000Z</time>
        <extensions>
          <ns3:TrackPointExtension>
            <ns3:hr>156</ns3:hr>
            <ns3:cad>79</ns3:cad>
          </ns3:TrackPointExtension>
        </extensions>
      </trkpt>
      <trkpt lat="23.1814381666481494903564453125" lon="113.25451620854437351226806640625">
        <ele>13.6000003814697265625</ele>
        <time>2022-10-26T09:40:07.000Z</time>
        <extensions>
          <ns3:TrackPointExtension>
            <ns3:hr>155</ns3:hr>
            <ns3:cad>83</ns3:cad>
          </ns3:TrackPointExtension>
        </extensions>
      </trkpt>
      <trkpt lat="23.181664645671844482421875" lon="113.25463078916072845458984375">
        <ele>12.6000003814697265625</ele>
        <time>2022-10-26T09:40:19.000Z</time>
        <extensions>
          <ns3:TrackPointExtension>
            <ns3:hr>157</ns3:hr>
            <ns3:cad>61</ns3:cad>
          </ns3:TrackPointExtension>
        </extensions>
      </trkpt>
      <trkpt lat="23.18176212720572948455810546875" lon="113.2545912265777587890625">
        <ele>12.3999996185302734375</ele>
        <time>2022-10-26T09:40:30.000Z</time>
        <extensions>
          <ns3:TrackPointExtension>
            <ns3:hr>154</ns3:hr>
            <ns3:cad>61</ns3:cad>
          </ns3:TrackPointExtension>
        </extensions>
      </trkpt>
      <trkpt lat="23.1818116642534732818603515625" lon="113.2545840181410312652587890625">
        <ele>12.19999980926513671875</ele>
        <time>2022-10-26T09:40:35.000Z</time>
        <extensions>
          <ns3:TrackPointExtension>
            <ns3:hr>151</ns3:hr>
            <ns3:cad>61</ns3:cad>
          </ns3:TrackPointExtension>
        </extensions>
      </trkpt>
      <trkpt lat="23.1818767078220844268798828125" lon="113.25459055602550506591796875">
        <ele>12.19999980926513671875</ele>
        <time>2022-10-26T09:40:41.000Z</time>
        <extensions>
          <ns3:TrackPointExtension>
            <ns3:hr>148</ns3:hr>
            <ns3:cad>61</ns3:cad>
          </ns3:TrackPointExtension>
        </extensions>
      </trkpt>
      <trkpt lat="23.18190109916031360626220703125" lon="113.2545920647680759429931640625">
        <ele>12.3999996185302734375</ele>
        <time>2022-10-26T09:40:44.000Z</time>
        <extensions>
          <ns3:TrackPointExtension>
            <ns3:hr>146</ns3:hr>
            <ns3:cad>61</ns3:cad>
          </ns3:TrackPointExtension>
        </extensions>
      </trkpt>
      <trkpt lat="23.18192808888852596282958984375" lon="113.254595585167407989501953125">
        <ele>12.6000003814697265625</ele>
        <time>2022-10-26T09:40:47.000Z</time>
        <extensions>
          <ns3:TrackPointExtension>
            <ns3:hr>146</ns3:hr>
            <ns3:cad>61</ns3:cad>
          </ns3:TrackPointExtension>
        </extensions>
      </trkpt>
      <trkpt lat="23.18195222876965999603271484375" lon="113.25460639782249927520751953125">
        <ele>12.6000003814697265625</ele>
        <time>2022-10-26T09:40:51.000Z</time>
        <extensions>
          <ns3:TrackPointExtension>
            <ns3:hr>144</ns3:hr>
            <ns3:cad>61</ns3:cad>
          </ns3:TrackPointExtension>
        </extensions>
      </trkpt>
      <trkpt lat="23.181984834372997283935546875" lon="113.2546185515820980072021484375">
        <ele>13</ele>
        <time>2022-10-26T09:40:57.000Z</time>
        <extensions>
          <ns3:TrackPointExtension>
            <ns3:hr>143</ns3:hr>
            <ns3:cad>61</ns3:cad>
          </ns3:TrackPointExtension>
        </extensions>
      </trkpt>
      <trkpt lat="23.18202028982341289520263671875" lon="113.25462617911398410797119140625">
        <ele>13.19999980926513671875</ele>
        <time>2022-10-26T09:41:01.000Z</time>
        <extensions>
          <ns3:TrackPointExtension>
            <ns3:hr>142</ns3:hr>
            <ns3:cad>61</ns3:cad>
          </ns3:TrackPointExtension>
        </extensions>
      </trkpt>
      <trkpt lat="23.1820597685873508453369140625" lon="113.254631124436855316162109375">
        <ele>13.3999996185302734375</ele>
        <time>2022-10-26T09:41:04.000Z</time>
        <extensions>
          <ns3:TrackPointExtension>
            <ns3:hr>139</ns3:hr>
            <ns3:cad>61</ns3:cad>
          </ns3:TrackPointExtension>
        </extensions>
      </trkpt>
      <trkpt lat="23.18208315409719944000244140625" lon="113.25463615357875823974609375">
        <ele>13.6000003814697265625</ele>
        <time>2022-10-26T09:41:05.000Z</time>
        <extensions>
          <ns3:TrackPointExtension>
            <ns3:hr>138</ns3:hr>
            <ns3:cad>61</ns3:cad>
          </ns3:TrackPointExtension>
        </extensions>
      </trkpt>
      <trkpt lat="23.18209690041840076446533203125" lon="113.25464017689228057861328125">
        <ele>13.80000019073486328125</ele>
        <time>2022-10-26T09:41:07.000Z</time>
        <extensions>
          <ns3:TrackPointExtension>
            <ns3:hr>137</ns3:hr>
            <ns3:cad>61</ns3:cad>
          </ns3:TrackPointExtension>
        </extensions>
      </trkpt>
      <trkpt lat="23.18215079605579376220703125" lon="113.25464864261448383331298828125">
        <ele>14.19999980926513671875</ele>
        <time>2022-10-26T09:41:11.000Z</time>
        <extensions>
          <ns3:TrackPointExtension>
            <ns3:hr>134</ns3:hr>
            <ns3:cad>61</ns3:cad>
          </ns3:TrackPointExtension>
        </extensions>
      </trkpt>
      <trkpt lat="23.18232052959501743316650390625" lon="113.2547597028315067291259765625">
        <ele>17.200000762939453125</ele>
        <time>2022-10-26T09:41:20.000Z</time>
        <extensions>
          <ns3:TrackPointExtension>
            <ns3:hr>132</ns3:hr>
            <ns3:cad>83</ns3:cad>
          </ns3:TrackPointExtension>
        </extensions>
      </trkpt>
      <trkpt lat="23.18240921013057231903076171875" lon="113.25487730093300342559814453125">
        <ele>19.3999996185302734375</ele>
        <time>2022-10-26T09:41:23.000Z</time>
        <extensions>
          <ns3:TrackPointExtension>
            <ns3:hr>135</ns3:hr>
            <ns3:cad>82</ns3:cad>
          </ns3:TrackPointExtension>
        </extensions>
      </trkpt>
      <trkpt lat="23.182522617280483245849609375" lon="113.25504208914935588836669921875">
        <ele>19.200000762939453125</ele>
        <time>2022-10-26T09:41:25.000Z</time>
        <extensions>
          <ns3:TrackPointExtension>
            <ns3:hr>135</ns3:hr>
            <ns3:cad>83</ns3:cad>
          </ns3:TrackPointExtension>
        </extensions>
      </trkpt>
      <trkpt lat="23.18263066001236438751220703125" lon="113.2551576755940914154052734375">
        <ele>18.3999996185302734375</ele>
        <time>2022-10-26T09:41:28.000Z</time>
        <extensions>
          <ns3:TrackPointExtension>
            <ns3:hr>140</ns3:hr>
            <ns3:cad>83</ns3:cad>
          </ns3:TrackPointExtension>
        </extensions>
      </trkpt>
      <trkpt lat="23.18268681876361370086669921875" lon="113.25518072582781314849853515625">
        <ele>18</ele>
        <time>2022-10-26T09:41:30.000Z</time>
        <extensions>
          <ns3:TrackPointExtension>
            <ns3:hr>144</ns3:hr>
            <ns3:cad>83</ns3:cad>
          </ns3:TrackPointExtension>
        </extensions>
      </trkpt>
      <trkpt lat="23.18283417262136936187744140625" lon="113.25524308718740940093994140625">
        <ele>19.799999237060546875</ele>
        <time>2022-10-26T09:41:35.000Z</time>
        <extensions>
          <ns3:TrackPointExtension>
            <ns3:hr>147</ns3:hr>
            <ns3:cad>83</ns3:cad>
          </ns3:TrackPointExtension>
        </extensions>
      </trkpt>
      <trkpt lat="23.1828892417252063751220703125" lon="113.25528617016971111297607421875">
        <ele>21</ele>
        <time>2022-10-26T09:41:37.000Z</time>
        <extensions>
          <ns3:TrackPointExtension>
            <ns3:hr>151</ns3:hr>
            <ns3:cad>83</ns3:cad>
          </ns3:TrackPointExtension>
        </extensions>
      </trkpt>
      <trkpt lat="23.18293877877295017242431640625" lon="113.25533176772296428680419921875">
        <ele>22.3999996185302734375</ele>
        <time>2022-10-26T09:41:38.000Z</time>
        <extensions>
          <ns3:TrackPointExtension>
            <ns3:hr>154</ns3:hr>
            <ns3:cad>83</ns3:cad>
          </ns3:TrackPointExtension>
        </extensions>
      </trkpt>
      <trkpt lat="23.18293877877295017242431640625" lon="113.25533176772296428680419921875">
        <ele>22.3999996185302734375</ele>
        <time>2022-10-26T09:41:39.000Z</time>
        <extensions>
          <ns3:TrackPointExtension>
            <ns3:hr>154</ns3:hr>
            <ns3:cad>82</ns3:cad>
          </ns3:TrackPointExtension>
        </extensions>
      </trkpt>
      <trkpt lat="23.18308194167912006378173828125" lon="113.25549052096903324127197265625">
        <ele>25.6000003814697265625</ele>
        <time>2022-10-26T09:41:45.000Z</time>
        <extensions>
          <ns3:TrackPointExtension>
            <ns3:hr>152</ns3:hr>
            <ns3:cad>83</ns3:cad>
          </ns3:TrackPointExtension>
        </extensions>
      </trkpt>
      <trkpt lat="23.18316844291985034942626953125" lon="113.25560619123280048370361328125">
        <ele>24.799999237060546875</ele>
        <time>2022-10-26T09:41:49.000Z</time>
        <extensions>
          <ns3:TrackPointExtension>
            <ns3:hr>155</ns3:hr>
            <ns3:cad>83</ns3:cad>
          </ns3:TrackPointExtension>
        </extensions>
      </trkpt>
      <trkpt lat="23.183295428752899169921875" lon="113.25578623451292514801025390625">
        <ele>22.200000762939453125</ele>
        <time>2022-10-26T09:41:55.000Z</time>
        <extensions>
          <ns3:TrackPointExtension>
            <ns3:hr>153</ns3:hr>
            <ns3:cad>83</ns3:cad>
          </ns3:TrackPointExtension>
        </extensions>
      </trkpt>
      <trkpt lat="23.18331663496792316436767578125" lon="113.25581070967018604278564453125">
        <ele>21.200000762939453125</ele>
        <time>2022-10-26T09:41:56.000Z</time>
        <extensions>
          <ns3:TrackPointExtension>
            <ns3:hr>158</ns3:hr>
            <ns3:cad>83</ns3:cad>
          </ns3:TrackPointExtension>
        </extensions>
      </trkpt>
      <trkpt lat="23.18334949202835559844970703125" lon="113.25585379265248775482177734375">
        <ele>19.3999996185302734375</ele>
        <time>2022-10-26T09:41:57.000Z</time>
        <extensions>
          <ns3:TrackPointExtension>
            <ns3:hr>158</ns3:hr>
            <ns3:cad>82</ns3:cad>
          </ns3:TrackPointExtension>
        </extensions>
      </trkpt>
      <trkpt lat="23.18337396718561649322509765625" lon="113.25590576045215129852294921875">
        <ele>17.6000003814697265625</ele>
        <time>2022-10-26T09:42:02.000Z</time>
        <extensions>
          <ns3:TrackPointExtension>
            <ns3:hr>167</ns3:hr>
            <ns3:cad>81</ns3:cad>
          </ns3:TrackPointExtension>
        </extensions>
      </trkpt>
      <trkpt lat="23.18338117562234401702880859375" lon="113.2559392042458057403564453125">
        <ele>16.6000003814697265625</ele>
        <time>2022-10-26T09:42:03.000Z</time>
        <extensions>
          <ns3:TrackPointExtension>
            <ns3:hr>171</ns3:hr>
            <ns3:cad>85</ns3:cad>
          </ns3:TrackPointExtension>
        </extensions>
      </trkpt>
      <trkpt lat="23.18339123390614986419677734375" lon="113.25597700662910938262939453125">
        <ele>15.6000003814697265625</ele>
        <time>2022-10-26T09:42:06.000Z</time>
        <extensions>
          <ns3:TrackPointExtension>
            <ns3:hr>174</ns3:hr>
            <ns3:cad>85</ns3:cad>
          </ns3:TrackPointExtension>
        </extensions>
      </trkpt>
      <trkpt lat="23.18339743651449680328369140625" lon="113.2560141384601593017578125">
        <ele>14.3999996185302734375</ele>
        <time>2022-10-26T09:42:07.000Z</time>
        <extensions>
          <ns3:TrackPointExtension>
            <ns3:hr>171</ns3:hr>
            <ns3:cad>85</ns3:cad>
          </ns3:TrackPointExtension>
        </extensions>
      </trkpt>
      <trkpt lat="23.18342057056725025177001953125" lon="113.25604121200740337371826171875">
        <ele>13.19999980926513671875</ele>
        <time>2022-10-26T09:42:11.000Z</time>
        <extensions>
          <ns3:TrackPointExtension>
            <ns3:hr>168</ns3:hr>
            <ns3:cad>84</ns3:cad>
          </ns3:TrackPointExtension>
        </extensions>
      </trkpt>
      <trkpt lat="23.18344605155289173126220703125" lon="113.256065435707569122314453125">
        <ele>12.6000003814697265625</ele>
        <time>2022-10-26T09:42:12.000Z</time>
        <extensions>
          <ns3:TrackPointExtension>
            <ns3:hr>165</ns3:hr>
            <ns3:cad>83</ns3:cad>
          </ns3:TrackPointExtension>
        </extensions>
      </trkpt>
      <trkpt lat="23.18346080370247364044189453125" lon="113.2560803554952144622802734375">
        <ele>12.19999980926513671875</ele>
        <time>2022-10-26T09:42:14.000Z</time>
        <extensions>
          <ns3:TrackPointExtension>
            <ns3:hr>162</ns3:hr>
            <ns3:cad>82</ns3:cad>
          </ns3:TrackPointExtension>
        </extensions>
      </trkpt>
      <trkpt lat="23.18357915617525577545166015625" lon="113.25624086894094944000244140625">
        <ele>9.6000003814697265625</ele>
        <time>2022-10-26T09:42:25.000Z</time>
        <extensions>
          <ns3:TrackPointExtension>
            <ns3:hr>161</ns3:hr>
            <ns3:cad>82</ns3:cad>
          </ns3:TrackPointExtension>
        </extensions>
      </trkpt>
      <trkpt lat="23.183723576366901397705078125" lon="113.25638453476130962371826171875">
        <ele>8.80000019073486328125</ele>
        <time>2022-10-26T09:42:32.000Z</time>
        <extensions>
          <ns3:TrackPointExtension>
            <ns3:hr>160</ns3:hr>
            <ns3:cad>83</ns3:cad>
          </ns3:TrackPointExtension>
        </extensions>
      </trkpt>
      <trkpt lat="23.18387084640562534332275390625" lon="113.256519734859466552734375">
        <ele>10.19999980926513671875</ele>
        <time>2022-10-26T09:42:40.000Z</time>
        <extensions>
          <ns3:TrackPointExtension>
            <ns3:hr>160</ns3:hr>
            <ns3:cad>83</ns3:cad>
          </ns3:TrackPointExtension>
        </extensions>
      </trkpt>
      <trkpt lat="23.18401300348341464996337890625" lon="113.25664035044610500335693359375">
        <ele>12.19999980926513671875</ele>
        <time>2022-10-26T09:42:51.000Z</time>
        <extensions>
          <ns3:TrackPointExtension>
            <ns3:hr>158</ns3:hr>
            <ns3:cad>82</ns3:cad>
          </ns3:TrackPointExtension>
        </extensions>
      </trkpt>
      <trkpt lat="23.1841720081865787506103515625" lon="113.25676892884075641632080078125">
        <ele>13.80000019073486328125</ele>
        <time>2022-10-26T09:43:00.000Z</time>
        <extensions>
          <ns3:TrackPointExtension>
            <ns3:hr>157</ns3:hr>
            <ns3:cad>83</ns3:cad>
          </ns3:TrackPointExtension>
        </extensions>
      </trkpt>
      <trkpt lat="23.18430821411311626434326171875" lon="113.25690253637731075286865234375">
        <ele>15.3999996185302734375</ele>
        <time>2022-10-26T09:43:10.000Z</time>
        <extensions>
          <ns3:TrackPointExtension>
            <ns3:hr>157</ns3:hr>
            <ns3:cad>82</ns3:cad>
          </ns3:TrackPointExtension>
        </extensions>
      </trkpt>
      <trkpt lat="23.18433520384132862091064453125" lon="113.2569212280213832855224609375">
        <ele>15.6000003814697265625</ele>
        <time>2022-10-26T09:43:13.000Z</time>
        <extensions>
          <ns3:TrackPointExtension>
            <ns3:hr>157</ns3:hr>
            <ns3:cad>61</ns3:cad>
          </ns3:TrackPointExtension>
        </extensions>
      </trkpt>
      <trkpt lat="23.1843547336757183074951171875" lon="113.256927095353603363037109375">
        <ele>15.80000019073486328125</ele>
        <time>2022-10-26T09:43:15.000Z</time>
        <extensions>
          <ns3:TrackPointExtension>
            <ns3:hr>157</ns3:hr>
            <ns3:cad>61</ns3:cad>
          </ns3:TrackPointExtension>
        </extensions>
      </trkpt>
      <trkpt lat="23.1843818910419940948486328125" lon="113.2569483853876590728759765625">
        <ele>16</ele>
        <time>2022-10-26T09:43:18.000Z</time>
        <extensions>
          <ns3:TrackPointExtension>
            <ns3:hr>159</ns3:hr>
            <ns3:cad>62</ns3:cad>
          </ns3:TrackPointExtension>
        </extensions>
      </trkpt>
      <trkpt lat="23.18450384773313999176025390625" lon="113.25709565542638301849365234375">
        <ele>17.6000003814697265625</ele>
        <time>2022-10-26T09:43:26.000Z</time>
        <extensions>
          <ns3:TrackPointExtension>
            <ns3:hr>157</ns3:hr>
            <ns3:cad>60</ns3:cad>
          </ns3:TrackPointExtension>
        </extensions>
      </trkpt>
      <trkpt lat="23.184591270983219146728515625" lon="113.2572246529161930084228515625">
        <ele>19.200000762939453125</ele>
        <time>2022-10-26T09:43:30.000Z</time>
        <extensions>
          <ns3:TrackPointExtension>
            <ns3:hr>155</ns3:hr>
            <ns3:cad>61</ns3:cad>
          </ns3:TrackPointExtension>
        </extensions>
      </trkpt>
      <trkpt lat="23.184634186327457427978515625" lon="113.2573228888213634490966796875">
        <ele>20.3999996185302734375</ele>
        <time>2022-10-26T09:43:35.000Z</time>
        <extensions>
          <ns3:TrackPointExtension>
            <ns3:hr>154</ns3:hr>
            <ns3:cad>61</ns3:cad>
          </ns3:TrackPointExtension>
        </extensions>
      </trkpt>
      <trkpt lat="23.184648267924785614013671875" lon="113.2573476992547512054443359375">
        <ele>20.6000003814697265625</ele>
        <time>2022-10-26T09:43:37.000Z</time>
        <extensions>
          <ns3:TrackPointExtension>
            <ns3:hr>153</ns3:hr>
            <ns3:cad>61</ns3:cad>
          </ns3:TrackPointExtension>
        </extensions>
      </trkpt>
      <trkpt lat="23.18466243334114551544189453125" lon="113.25736722908914089202880859375">
        <ele>20.6000003814697265625</ele>
        <time>2022-10-26T09:43:39.000Z</time>
        <extensions>
          <ns3:TrackPointExtension>
            <ns3:hr>151</ns3:hr>
            <ns3:cad>59</ns3:cad>
          </ns3:TrackPointExtension>
        </extensions>
      </trkpt>
      <trkpt lat="23.18467349745333194732666015625" lon="113.257405199110507965087890625">
        <ele>21</ele>
        <time>2022-10-26T09:43:42.000Z</time>
        <extensions>
          <ns3:TrackPointExtension>
            <ns3:hr>148</ns3:hr>
            <ns3:cad>60</ns3:cad>
          </ns3:TrackPointExtension>
        </extensions>
      </trkpt>
      <trkpt lat="23.18465991877019405364990234375" lon="113.25744182802736759185791015625">
        <ele>21.6000003814697265625</ele>
        <time>2022-10-26T09:43:45.000Z</time>
        <extensions>
          <ns3:TrackPointExtension>
            <ns3:hr>145</ns3:hr>
            <ns3:cad>60</ns3:cad>
          </ns3:TrackPointExtension>
        </extensions>
      </trkpt>
      <trkpt lat="23.18466360680758953094482421875" lon="113.25753922574222087860107421875">
        <ele>20.799999237060546875</ele>
        <time>2022-10-26T09:43:53.000Z</time>
        <extensions>
          <ns3:TrackPointExtension>
            <ns3:hr>143</ns3:hr>
            <ns3:cad>61</ns3:cad>
          </ns3:TrackPointExtension>
        </extensions>
      </trkpt>
      <trkpt lat="23.18469797261059284210205078125" lon="113.2576253078877925872802734375">
        <ele>19.6000003814697265625</ele>
        <time>2022-10-26T09:43:59.000Z</time>
        <extensions>
          <ns3:TrackPointExtension>
            <ns3:hr>141</ns3:hr>
            <ns3:cad>61</ns3:cad>
          </ns3:TrackPointExtension>
        </extensions>
      </trkpt>
      <trkpt lat="23.1849495135247707366943359375" lon="113.25753285549581050872802734375">
        <ele>17.799999237060546875</ele>
        <time>2022-10-26T09:44:03.000Z</time>
        <extensions>
          <ns3:TrackPointExtension>
            <ns3:hr>140</ns3:hr>
            <ns3:cad>59</ns3:cad>
          </ns3:TrackPointExtension>
        </extensions>
      </trkpt>
      <trkpt lat="23.18501673638820648193359375" lon="113.257646262645721435546875">
        <ele>17.200000762939453125</ele>
        <time>2022-10-26T09:44:10.000Z</time>
        <extensions>
          <ns3:TrackPointExtension>
            <ns3:hr>137</ns3:hr>
            <ns3:cad>59</ns3:cad>
          </ns3:TrackPointExtension>
        </extensions>
      </trkpt>
      <trkpt lat="23.18504096008837223052978515625" lon="113.25775950215756893157958984375">
        <ele>17.799999237060546875</ele>
        <time>2022-10-26T09:44:17.000Z</time>
        <extensions>
          <ns3:TrackPointExtension>
            <ns3:hr>134</ns3:hr>
            <ns3:cad>59</ns3:cad>
          </ns3:TrackPointExtension>
        </extensions>
      </trkpt>
      <trkpt lat="23.1850735656917095184326171875" lon="113.25788254849612712860107421875">
        <ele>19.200000762939453125</ele>
        <time>2022-10-26T09:44:24.000Z</time>
        <extensions>
          <ns3:TrackPointExtension>
            <ns3:hr>131</ns3:hr>
            <ns3:cad>59</ns3:cad>
          </ns3:TrackPointExtension>
        </extensions>
      </trkpt>
      <trkpt lat="23.1851045787334442138671875" lon="113.2580832950770854949951171875">
        <ele>19.799999237060546875</ele>
        <time>2022-10-26T09:44:37.000Z</time>
        <extensions>
          <ns3:TrackPointExtension>
            <ns3:hr>129</ns3:hr>
            <ns3:cad>60</ns3:cad>
          </ns3:TrackPointExtension>
        </extensions>
      </trkpt>
      <trkpt lat="23.18510147742927074432373046875" lon="113.25813584960997104644775390625">
        <ele>20.200000762939453125</ele>
        <time>2022-10-26T09:44:41.000Z</time>
        <extensions>
          <ns3:TrackPointExtension>
            <ns3:hr>127</ns3:hr>
            <ns3:cad>56</ns3:cad>
          </ns3:TrackPointExtension>
        </extensions>
      </trkpt>
      <trkpt lat="23.1850910000503063201904296875" lon="113.25826727785170078277587890625">
        <ele>19.799999237060546875</ele>
        <time>2022-10-26T09:44:49.000Z</time>
        <extensions>
          <ns3:TrackPointExtension>
            <ns3:hr>124</ns3:hr>
            <ns3:cad>117</ns3:cad>
          </ns3:TrackPointExtension>
        </extensions>
      </trkpt>
      <trkpt lat="23.18510256707668304443359375" lon="113.2583719678223133087158203125">
        <ele>21.200000762939453125</ele>
        <time>2022-10-26T09:44:54.000Z</time>
        <extensions>
          <ns3:TrackPointExtension>
            <ns3:hr>123</ns3:hr>
            <ns3:cad>61</ns3:cad>
          </ns3:TrackPointExtension>
        </extensions>
      </trkpt>
      <trkpt lat="23.1850725598633289337158203125" lon="113.2585339061915874481201171875">
        <ele>22.3999996185302734375</ele>
        <time>2022-10-26T09:45:02.000Z</time>
        <extensions>
          <ns3:TrackPointExtension>
            <ns3:hr>122</ns3:hr>
            <ns3:cad>59</ns3:cad>
          </ns3:TrackPointExtension>
        </extensions>
      </trkpt>
      <trkpt lat="23.1851060874760150909423828125" lon="113.25867815874516963958740234375">
        <ele>22.200000762939453125</ele>
        <time>2022-10-26T09:45:15.000Z</time>
        <extensions>
          <ns3:TrackPointExtension>
            <ns3:hr>121</ns3:hr>
            <ns3:cad>58</ns3:cad>
          </ns3:TrackPointExtension>
        </extensions>
      </trkpt>
      <trkpt lat="23.18514506332576274871826171875" lon="113.25875728391110897064208984375">
        <ele>22.3999996185302734375</ele>
        <time>2022-10-26T09:45:21.000Z</time>
        <extensions>
          <ns3:TrackPointExtension>
            <ns3:hr>121</ns3:hr>
            <ns3:cad>61</ns3:cad>
          </ns3:TrackPointExtension>
        </extensions>
      </trkpt>
      <trkpt lat="23.18519401364028453826904296875" lon="113.2588215731084346771240234375">
        <ele>23</ele>
        <time>2022-10-26T09:45:30.000Z</time>
        <extensions>
          <ns3:TrackPointExtension>
            <ns3:hr>120</ns3:hr>
            <ns3:cad>59</ns3:cad>
          </ns3:TrackPointExtension>
        </extensions>
      </trkpt>
      <trkpt lat="23.18528093397617340087890625" lon="113.2590123452246189117431640625">
        <ele>17.200000762939453125</ele>
        <time>2022-10-26T09:45:38.000Z</time>
        <extensions>
          <ns3:TrackPointExtension>
            <ns3:hr>122</ns3:hr>
            <ns3:cad>77</ns3:cad>
          </ns3:TrackPointExtension>
        </extensions>
      </trkpt>
      <trkpt lat="23.1853069178760051727294921875" lon="113.25909775681793689727783203125">
        <ele>14.6000003814697265625</ele>
        <time>2022-10-26T09:45:41.000Z</time>
        <extensions>
          <ns3:TrackPointExtension>
            <ns3:hr>125</ns3:hr>
            <ns3:cad>83</ns3:cad>
          </ns3:TrackPointExtension>
        </extensions>
      </trkpt>
      <trkpt lat="23.18531446158885955810546875" lon="113.2591206394135951995849609375">
        <ele>14.19999980926513671875</ele>
        <time>2022-10-26T09:45:42.000Z</time>
        <extensions>
          <ns3:TrackPointExtension>
            <ns3:hr>128</ns3:hr>
            <ns3:cad>83</ns3:cad>
          </ns3:TrackPointExtension>
        </extensions>
      </trkpt>
      <trkpt lat="23.1853347457945346832275390625" lon="113.2591967470943927764892578125">
        <ele>12.80000019073486328125</ele>
        <time>2022-10-26T09:45:45.000Z</time>
        <extensions>
          <ns3:TrackPointExtension>
            <ns3:hr>135</ns3:hr>
            <ns3:cad>82</ns3:cad>
          </ns3:TrackPointExtension>
        </extensions>
      </trkpt>
      <trkpt lat="23.18534136749804019927978515625" lon="113.25921912677586078643798828125">
        <ele>12.3999996185302734375</ele>
        <time>2022-10-26T09:45:46.000Z</time>
        <extensions>
          <ns3:TrackPointExtension>
            <ns3:hr>135</ns3:hr>
            <ns3:cad>81</ns3:cad>
          </ns3:TrackPointExtension>
        </extensions>
      </trkpt>
      <trkpt lat="23.18534857593476772308349609375" lon="113.2592403329908847808837890625">
        <ele>12</ele>
        <time>2022-10-26T09:45:47.000Z</time>
        <extensions>
          <ns3:TrackPointExtension>
            <ns3:hr>139</ns3:hr>
            <ns3:cad>81</ns3:cad>
          </ns3:TrackPointExtension>
        </extensions>
      </trkpt>
      <trkpt lat="23.18537992425262928009033203125" lon="113.25930059887468814849853515625">
        <ele>10.80000019073486328125</ele>
        <time>2022-10-26T09:45:50.000Z</time>
        <extensions>
          <ns3:TrackPointExtension>
            <ns3:hr>142</ns3:hr>
            <ns3:cad>82</ns3:cad>
          </ns3:TrackPointExtension>
        </extensions>
      </trkpt>
      <trkpt lat="23.18540724925696849822998046875" lon="113.2593335397541522979736328125">
        <ele>10</ele>
        <time>2022-10-26T09:45:52.000Z</time>
        <extensions>
          <ns3:TrackPointExtension>
            <ns3:hr>145</ns3:hr>
            <ns3:cad>82</ns3:cad>
          </ns3:TrackPointExtension>
        </extensions>
      </trkpt>
      <trkpt lat="23.18552291952073574066162109375" lon="113.2595112361013889312744140625">
        <ele>9.19999980926513671875</ele>
        <time>2022-10-26T09:46:03.000Z</time>
        <extensions>
          <ns3:TrackPointExtension>
            <ns3:hr>146</ns3:hr>
            <ns3:cad>83</ns3:cad>
          </ns3:TrackPointExtension>
        </extensions>
      </trkpt>
      <trkpt lat="23.18556818179786205291748046875" lon="113.25956177897751331329345703125">
        <ele>9.3999996185302734375</ele>
        <time>2022-10-26T09:46:07.000Z</time>
        <extensions>
          <ns3:TrackPointExtension>
            <ns3:hr>149</ns3:hr>
            <ns3:cad>83</ns3:cad>
          </ns3:TrackPointExtension>
        </extensions>
      </trkpt>
      <trkpt lat="23.18565317429602146148681640625" lon="113.25964123941957950592041015625">
        <ele>9.19999980926513671875</ele>
        <time>2022-10-26T09:46:13.000Z</time>
        <extensions>
          <ns3:TrackPointExtension>
            <ns3:hr>152</ns3:hr>
            <ns3:cad>83</ns3:cad>
          </ns3:TrackPointExtension>
        </extensions>
      </trkpt>
      <trkpt lat="23.18575308658182621002197265625" lon="113.25976395048201084136962890625">
        <ele>8.6000003814697265625</ele>
        <time>2022-10-26T09:46:23.000Z</time>
        <extensions>
          <ns3:TrackPointExtension>
            <ns3:hr>151</ns3:hr>
            <ns3:cad>82</ns3:cad>
          </ns3:TrackPointExtension>
        </extensions>
      </trkpt>
      <trkpt lat="23.1857746280729770660400390625" lon="113.25977970845997333526611328125">
        <ele>8.3999996185302734375</ele>
        <time>2022-10-26T09:46:25.000Z</time>
        <extensions>
          <ns3:TrackPointExtension>
            <ns3:hr>152</ns3:hr>
            <ns3:cad>82</ns3:cad>
          </ns3:TrackPointExtension>
        </extensions>
      </trkpt>
      <trkpt lat="23.18583304993808269500732421875" lon="113.25984324328601360321044921875">
        <ele>8</ele>
        <time>2022-10-26T09:46:31.000Z</time>
        <extensions>
          <ns3:TrackPointExtension>
            <ns3:hr>150</ns3:hr>
            <ns3:cad>61</ns3:cad>
          </ns3:TrackPointExtension>
        </extensions>
      </trkpt>
      <trkpt lat="23.1858537532389163970947265625" lon="113.259860761463642120361328125">
        <ele>7.80000019073486328125</ele>
        <time>2022-10-26T09:46:33.000Z</time>
        <extensions>
          <ns3:TrackPointExtension>
            <ns3:hr>153</ns3:hr>
            <ns3:cad>61</ns3:cad>
          </ns3:TrackPointExtension>
        </extensions>
      </trkpt>
      <trkpt lat="23.1858648173511028289794921875" lon="113.25986872427165508270263671875">
        <ele>7.80000019073486328125</ele>
        <time>2022-10-26T09:46:34.000Z</time>
        <extensions>
          <ns3:TrackPointExtension>
            <ns3:hr>153</ns3:hr>
            <ns3:cad>61</ns3:cad>
          </ns3:TrackPointExtension>
        </extensions>
      </trkpt>
      <trkpt lat="23.18588912487030029296875" lon="113.2599078677594661712646484375">
        <ele>7.599999904632568359375</ele>
        <time>2022-10-26T09:46:38.000Z</time>
        <extensions>
          <ns3:TrackPointExtension>
            <ns3:hr>152</ns3:hr>
            <ns3:cad>58</ns3:cad>
          </ns3:TrackPointExtension>
        </extensions>
      </trkpt>
      <trkpt lat="23.18590044043958187103271484375" lon="113.25999923050403594970703125">
        <ele>7.400000095367431640625</ele>
        <time>2022-10-26T09:46:43.000Z</time>
        <extensions>
          <ns3:TrackPointExtension>
            <ns3:hr>150</ns3:hr>
            <ns3:cad>58</ns3:cad>
          </ns3:TrackPointExtension>
        </extensions>
      </trkpt>
      <trkpt lat="23.18591971881687641143798828125" lon="113.260069303214550018310546875">
        <ele>7.400000095367431640625</ele>
        <time>2022-10-26T09:46:48.000Z</time>
        <extensions>
          <ns3:TrackPointExtension>
            <ns3:hr>148</ns3:hr>
            <ns3:cad>61</ns3:cad>
          </ns3:TrackPointExtension>
        </extensions>
      </trkpt>
      <trkpt lat="23.18595626391470432281494140625" lon="113.26020182110369205474853515625">
        <ele>7</ele>
        <time>2022-10-26T09:46:55.000Z</time>
        <extensions>
          <ns3:TrackPointExtension>
            <ns3:hr>145</ns3:hr>
            <ns3:cad>61</ns3:cad>
          </ns3:TrackPointExtension>
        </extensions>
      </trkpt>
      <trkpt lat="23.185985349118709564208984375" lon="113.2602493464946746826171875">
        <ele>7</ele>
        <time>2022-10-26T09:46:58.000Z</time>
        <extensions>
          <ns3:TrackPointExtension>
            <ns3:hr>142</ns3:hr>
            <ns3:cad>61</ns3:cad>
          </ns3:TrackPointExtension>
        </extensions>
      </trkpt>
      <trkpt lat="23.1860026158392429351806640625" lon="113.26031162403523921966552734375">
        <ele>7</ele>
        <time>2022-10-26T09:47:02.000Z</time>
        <extensions>
          <ns3:TrackPointExtension>
            <ns3:hr>139</ns3:hr>
            <ns3:cad>61</ns3:cad>
          </ns3:TrackPointExtension>
        </extensions>
      </trkpt>
      <trkpt lat="23.1860379874706268310546875" lon="113.2604369334876537322998046875">
        <ele>7.19999980926513671875</ele>
        <time>2022-10-26T09:47:09.000Z</time>
        <extensions>
          <ns3:TrackPointExtension>
            <ns3:hr>136</ns3:hr>
            <ns3:cad>118</ns3:cad>
          </ns3:TrackPointExtension>
        </extensions>
      </trkpt>
      <trkpt lat="23.18605215288698673248291015625" lon="113.26052033342421054840087890625">
        <ele>7.400000095367431640625</ele>
        <time>2022-10-26T09:47:14.000Z</time>
        <extensions>
          <ns3:TrackPointExtension>
            <ns3:hr>133</ns3:hr>
            <ns3:cad>118</ns3:cad>
          </ns3:TrackPointExtension>
        </extensions>
      </trkpt>
      <trkpt lat="23.1860354728996753692626953125" lon="113.26062058098614215850830078125">
        <ele>7.19999980926513671875</ele>
        <time>2022-10-26T09:47:21.000Z</time>
        <extensions>
          <ns3:TrackPointExtension>
            <ns3:hr>130</ns3:hr>
            <ns3:cad>119</ns3:cad>
          </ns3:TrackPointExtension>
        </extensions>
      </trkpt>
      <trkpt lat="23.18604276515543460845947265625" lon="113.2606637477874755859375">
        <ele>7.19999980926513671875</ele>
        <time>2022-10-26T09:47:24.000Z</time>
        <extensions>
          <ns3:TrackPointExtension>
            <ns3:hr>131</ns3:hr>
            <ns3:cad>59</ns3:cad>
          </ns3:TrackPointExtension>
        </extensions>
      </trkpt>
      <trkpt lat="23.18601812236011028289794921875" lon="113.2608121074736118316650390625">
        <ele>7</ele>
        <time>2022-10-26T09:47:35.000Z</time>
        <extensions>
          <ns3:TrackPointExtension>
            <ns3:hr>131</ns3:hr>
            <ns3:cad>60</ns3:cad>
          </ns3:TrackPointExtension>
        </extensions>
      </trkpt>
      <trkpt lat="23.1860106624662876129150390625" lon="113.2608287036418914794921875">
        <ele>7</ele>
        <time>2022-10-26T09:47:37.000Z</time>
        <extensions>
          <ns3:TrackPointExtension>
            <ns3:hr>131</ns3:hr>
            <ns3:cad>61</ns3:cad>
          </ns3:TrackPointExtension>
        </extensions>
      </trkpt>
      <trkpt lat="23.18598761223256587982177734375" lon="113.26086960732936859130859375">
        <ele>7</ele>
        <time>2022-10-26T09:47:41.000Z</time>
        <extensions>
          <ns3:TrackPointExtension>
            <ns3:hr>128</ns3:hr>
            <ns3:cad>61</ns3:cad>
          </ns3:TrackPointExtension>
        </extensions>
      </trkpt>
      <trkpt lat="23.18594754673540592193603515625" lon="113.26094479300081729888916015625">
        <ele>7</ele>
        <time>2022-10-26T09:47:47.000Z</time>
        <extensions>
          <ns3:TrackPointExtension>
            <ns3:hr>125</ns3:hr>
            <ns3:cad>61</ns3:cad>
          </ns3:TrackPointExtension>
        </extensions>
      </trkpt>
      <trkpt lat="23.18586657755076885223388671875" lon="113.261116035282611846923828125">
        <ele>7.19999980926513671875</ele>
        <time>2022-10-26T09:47:56.000Z</time>
        <extensions>
          <ns3:TrackPointExtension>
            <ns3:hr>122</ns3:hr>
            <ns3:cad>82</ns3:cad>
          </ns3:TrackPointExtension>
        </extensions>
      </trkpt>
      <trkpt lat="23.185843862593173980712890625" lon="113.26115249656140804290771484375">
        <ele>7.400000095367431640625</ele>
        <time>2022-10-26T09:47:58.000Z</time>
        <extensions>
          <ns3:TrackPointExtension>
            <ns3:hr>127</ns3:hr>
            <ns3:cad>83</ns3:cad>
          </ns3:TrackPointExtension>
        </extensions>
      </trkpt>
      <trkpt lat="23.18583346903324127197265625" lon="113.261170350015163421630859375">
        <ele>7.80000019073486328125</ele>
        <time>2022-10-26T09:47:59.000Z</time>
        <extensions>
          <ns3:TrackPointExtension>
            <ns3:hr>130</ns3:hr>
            <ns3:cad>83</ns3:cad>
          </ns3:TrackPointExtension>
        </extensions>
      </trkpt>
      <trkpt lat="23.1858099997043609619140625" lon="113.26120714657008647918701171875">
        <ele>8.19999980926513671875</ele>
        <time>2022-10-26T09:48:01.000Z</time>
        <extensions>
          <ns3:TrackPointExtension>
            <ns3:hr>134</ns3:hr>
            <ns3:cad>82</ns3:cad>
          </ns3:TrackPointExtension>
        </extensions>
      </trkpt>
      <trkpt lat="23.185763396322727203369140625" lon="113.2613036222755908966064453125">
        <ele>9.6000003814697265625</ele>
        <time>2022-10-26T09:48:06.000Z</time>
        <extensions>
          <ns3:TrackPointExtension>
            <ns3:hr>129</ns3:hr>
            <ns3:cad>84</ns3:cad>
          </ns3:TrackPointExtension>
        </extensions>
      </trkpt>
      <trkpt lat="23.1857550144195556640625" lon="113.261321224272251129150390625">
        <ele>10</ele>
        <time>2022-10-26T09:48:07.000Z</time>
        <extensions>
          <ns3:TrackPointExtension>
            <ns3:hr>126</ns3:hr>
            <ns3:cad>84</ns3:cad>
          </ns3:TrackPointExtension>
        </extensions>
      </trkpt>
      <trkpt lat="23.18574503995478153228759765625" lon="113.261340670287609100341796875">
        <ele>10.19999980926513671875</ele>
        <time>2022-10-26T09:48:08.000Z</time>
        <extensions>
          <ns3:TrackPointExtension>
            <ns3:hr>126</ns3:hr>
            <ns3:cad>84</ns3:cad>
          </ns3:TrackPointExtension>
        </extensions>
      </trkpt>
      <trkpt lat="23.18573598749935626983642578125" lon="113.26136254705488681793212890625">
        <ele>10.3999996185302734375</ele>
        <time>2022-10-26T09:48:09.000Z</time>
        <extensions>
          <ns3:TrackPointExtension>
            <ns3:hr>129</ns3:hr>
            <ns3:cad>84</ns3:cad>
          </ns3:TrackPointExtension>
        </extensions>
      </trkpt>
      <trkpt lat="23.1857270188629627227783203125" lon="113.2613866031169891357421875">
        <ele>10.6000003814697265625</ele>
        <time>2022-10-26T09:48:10.000Z</time>
        <extensions>
          <ns3:TrackPointExtension>
            <ns3:hr>132</ns3:hr>
            <ns3:cad>84</ns3:cad>
          </ns3:TrackPointExtension>
        </extensions>
      </trkpt>
      <trkpt lat="23.18571805022656917572021484375" lon="113.26141166500747203826904296875">
        <ele>11</ele>
        <time>2022-10-26T09:48:11.000Z</time>
        <extensions>
          <ns3:TrackPointExtension>
            <ns3:hr>136</ns3:hr>
            <ns3:cad>84</ns3:cad>
          </ns3:TrackPointExtension>
        </extensions>
      </trkpt>
      <trkpt lat="23.1856881268322467803955078125" lon="113.2614722661674022674560546875">
        <ele>11.80000019073486328125</ele>
        <time>2022-10-26T09:48:14.000Z</time>
        <extensions>
          <ns3:TrackPointExtension>
            <ns3:hr>139</ns3:hr>
            <ns3:cad>84</ns3:cad>
          </ns3:TrackPointExtension>
        </extensions>
      </trkpt>
      <trkpt lat="23.18566189147531986236572265625" lon="113.261537812650203704833984375">
        <ele>12.3999996185302734375</ele>
        <time>2022-10-26T09:48:17.000Z</time>
        <extensions>
          <ns3:TrackPointExtension>
            <ns3:hr>142</ns3:hr>
            <ns3:cad>85</ns3:cad>
          </ns3:TrackPointExtension>
        </extensions>
      </trkpt>
      <trkpt lat="23.18559902720153331756591796875" lon="113.26168768107891082763671875">
        <ele>12.6000003814697265625</ele>
        <time>2022-10-26T09:48:23.000Z</time>
        <extensions>
          <ns3:TrackPointExtension>
            <ns3:hr>145</ns3:hr>
            <ns3:cad>85</ns3:cad>
          </ns3:TrackPointExtension>
        </extensions>
      </trkpt>
      <trkpt lat="23.18558108992874622344970703125" lon="113.2617341168224811553955078125">
        <ele>12.6000003814697265625</ele>
        <time>2022-10-26T09:48:25.000Z</time>
        <extensions>
          <ns3:TrackPointExtension>
            <ns3:hr>149</ns3:hr>
            <ns3:cad>84</ns3:cad>
          </ns3:TrackPointExtension>
        </extensions>
      </trkpt>
      <trkpt lat="23.18551026284694671630859375" lon="113.26186059974133968353271484375">
        <ele>12</ele>
        <time>2022-10-26T09:48:32.000Z</time>
        <extensions>
          <ns3:TrackPointExtension>
            <ns3:hr>153</ns3:hr>
            <ns3:cad>84</ns3:cad>
          </ns3:TrackPointExtension>
        </extensions>
      </trkpt>
      <trkpt lat="23.18548821844160556793212890625" lon="113.26190502382814884185791015625">
        <ele>11.80000019073486328125</ele>
        <time>2022-10-26T09:48:34.000Z</time>
        <extensions>
          <ns3:TrackPointExtension>
            <ns3:hr>156</ns3:hr>
            <ns3:cad>84</ns3:cad>
          </ns3:TrackPointExtension>
        </extensions>
      </trkpt>
      <trkpt lat="23.1854049861431121826171875" lon="113.2620975561439990997314453125">
        <ele>10.19999980926513671875</ele>
        <time>2022-10-26T09:48:42.000Z</time>
        <extensions>
          <ns3:TrackPointExtension>
            <ns3:hr>157</ns3:hr>
            <ns3:cad>85</ns3:cad>
          </ns3:TrackPointExtension>
        </extensions>
      </trkpt>
      <trkpt lat="23.18529903888702392578125" lon="113.26226125471293926239013671875">
        <ele>9.3999996185302734375</ele>
        <time>2022-10-26T09:48:50.000Z</time>
        <extensions>
          <ns3:TrackPointExtension>
            <ns3:hr>159</ns3:hr>
            <ns3:cad>85</ns3:cad>
          </ns3:TrackPointExtension>
        </extensions>
      </trkpt>
      <trkpt lat="23.18521262146532535552978515625" lon="113.26243643648922443389892578125">
        <ele>9</ele>
        <time>2022-10-26T09:48:57.000Z</time>
        <extensions>
          <ns3:TrackPointExtension>
            <ns3:hr>161</ns3:hr>
            <ns3:cad>84</ns3:cad>
          </ns3:TrackPointExtension>
        </extensions>
      </trkpt>
      <trkpt lat="23.1851205043494701385498046875" lon="113.26262637041509151458740234375">
        <ele>5.400000095367431640625</ele>
        <time>2022-10-26T09:49:05.000Z</time>
        <extensions>
          <ns3:TrackPointExtension>
            <ns3:hr>164</ns3:hr>
            <ns3:cad>82</ns3:cad>
          </ns3:TrackPointExtension>
        </extensions>
      </trkpt>
      <trkpt lat="23.18506241776049137115478515625" lon="113.262747824192047119140625">
        <ele>3.400000095367431640625</ele>
        <time>2022-10-26T09:49:14.000Z</time>
        <extensions>
          <ns3:TrackPointExtension>
            <ns3:hr>167</ns3:hr>
            <ns3:cad>85</ns3:cad>
          </ns3:TrackPointExtension>
        </extensions>
      </trkpt>
      <trkpt lat="23.18501648493111133575439453125" lon="113.262811861932277679443359375">
        <ele>1.60000002384185791015625</ele>
        <time>2022-10-26T09:49:21.000Z</time>
        <extensions>
          <ns3:TrackPointExtension>
            <ns3:hr>164</ns3:hr>
            <ns3:cad>85</ns3:cad>
          </ns3:TrackPointExtension>
        </extensions>
      </trkpt>
      <trkpt lat="23.18498346023261547088623046875" lon="113.262878246605396270751953125">
        <ele>-1.39999997615814208984375</ele>
        <time>2022-10-26T09:49:26.000Z</time>
        <extensions>
          <ns3:TrackPointExtension>
            <ns3:hr>161</ns3:hr>
            <ns3:cad>60</ns3:cad>
          </ns3:TrackPointExtension>
        </extensions>
      </trkpt>
      <trkpt lat="23.1850128807127475738525390625" lon="113.262946642935276031494140625">
        <ele>-3.2000000476837158203125</ele>
        <time>2022-10-26T09:49:30.000Z</time>
        <extensions>
          <ns3:TrackPointExtension>
            <ns3:hr>158</ns3:hr>
            <ns3:cad>60</ns3:cad>
          </ns3:TrackPointExtension>
        </extensions>
      </trkpt>
      <trkpt lat="23.18499905057251453399658203125" lon="113.26295259408652782440185546875">
        <ele>-3.7999999523162841796875</ele>
        <time>2022-10-26T09:49:33.000Z</time>
        <extensions>
          <ns3:TrackPointExtension>
            <ns3:hr>155</ns3:hr>
            <ns3:cad>59</ns3:cad>
          </ns3:TrackPointExtension>
        </extensions>
      </trkpt>
      <trkpt lat="23.18498865701258182525634765625" lon="113.2629605568945407867431640625">
        <ele>-4.400000095367431640625</ele>
        <time>2022-10-26T09:49:35.000Z</time>
        <extensions>
          <ns3:TrackPointExtension>
            <ns3:hr>153</ns3:hr>
            <ns3:cad>59</ns3:cad>
          </ns3:TrackPointExtension>
        </extensions>
      </trkpt>
      <trkpt lat="23.1849585659801959991455078125" lon="113.26297723688185214996337890625">
        <ele>-5.599999904632568359375</ele>
        <time>2022-10-26T09:49:39.000Z</time>
        <extensions>
          <ns3:TrackPointExtension>
            <ns3:hr>150</ns3:hr>
            <ns3:cad>61</ns3:cad>
          </ns3:TrackPointExtension>
        </extensions>
      </trkpt>
      <trkpt lat="23.1849002279341220855712890625" lon="113.26297841034829616546630859375">
        <ele>-6.599999904632568359375</ele>
        <time>2022-10-26T09:49:44.000Z</time>
        <extensions>
          <ns3:TrackPointExtension>
            <ns3:hr>147</ns3:hr>
            <ns3:cad>61</ns3:cad>
          </ns3:TrackPointExtension>
        </extensions>
      </trkpt>
      <trkpt lat="23.1847728230059146881103515625" lon="113.26292686164379119873046875">
        <ele>-3.2000000476837158203125</ele>
        <time>2022-10-26T09:49:52.000Z</time>
        <extensions>
          <ns3:TrackPointExtension>
            <ns3:hr>144</ns3:hr>
            <ns3:cad>81</ns3:cad>
          </ns3:TrackPointExtension>
        </extensions>
      </trkpt>
      <trkpt lat="23.1846672110259532928466796875" lon="113.26286609284579753875732421875">
        <ele>0</ele>
        <time>2022-10-26T09:50:00.000Z</time>
        <extensions>
          <ns3:TrackPointExtension>
            <ns3:hr>147</ns3:hr>
            <ns3:cad>82</ns3:cad>
          </ns3:TrackPointExtension>
        </extensions>
      </trkpt>
      <trkpt lat="23.18462647497653961181640625" lon="113.262826614081859588623046875">
        <ele>1.60000002384185791015625</ele>
        <time>2022-10-26T09:50:04.000Z</time>
        <extensions>
          <ns3:TrackPointExtension>
            <ns3:hr>150</ns3:hr>
            <ns3:cad>82</ns3:cad>
          </ns3:TrackPointExtension>
        </extensions>
      </trkpt>
      <trkpt lat="23.18459093570709228515625" lon="113.262806832790374755859375">
        <ele>2.2000000476837158203125</ele>
        <time>2022-10-26T09:50:09.000Z</time>
        <extensions>
          <ns3:TrackPointExtension>
            <ns3:hr>151</ns3:hr>
            <ns3:cad>81</ns3:cad>
          </ns3:TrackPointExtension>
        </extensions>
      </trkpt>
      <trkpt lat="23.18441684357821941375732421875" lon="113.2627412863075733184814453125">
        <ele>5</ele>
        <time>2022-10-26T09:50:21.000Z</time>
        <extensions>
          <ns3:TrackPointExtension>
            <ns3:hr>149</ns3:hr>
            <ns3:cad>83</ns3:cad>
          </ns3:TrackPointExtension>
        </extensions>
      </trkpt>
      <trkpt lat="23.18440024740993976593017578125" lon="113.262735418975353240966796875">
        <ele>5.19999980926513671875</ele>
        <time>2022-10-26T09:50:22.000Z</time>
        <extensions>
          <ns3:TrackPointExtension>
            <ns3:hr>146</ns3:hr>
            <ns3:cad>83</ns3:cad>
          </ns3:TrackPointExtension>
        </extensions>
      </trkpt>
      <trkpt lat="23.1843872554600238800048828125" lon="113.26272561214864253997802734375">
        <ele>5.400000095367431640625</ele>
        <time>2022-10-26T09:50:23.000Z</time>
        <extensions>
          <ns3:TrackPointExtension>
            <ns3:hr>149</ns3:hr>
            <ns3:cad>83</ns3:cad>
          </ns3:TrackPointExtension>
        </extensions>
      </trkpt>
      <trkpt lat="23.18435867317020893096923828125" lon="113.262703903019428253173828125">
        <ele>6</ele>
        <time>2022-10-26T09:50:25.000Z</time>
        <extensions>
          <ns3:TrackPointExtension>
            <ns3:hr>153</ns3:hr>
            <ns3:cad>83</ns3:cad>
          </ns3:TrackPointExtension>
        </extensions>
      </trkpt>
      <trkpt lat="23.18432799540460109710693359375" lon="113.26267431490123271942138671875">
        <ele>6.19999980926513671875</ele>
        <time>2022-10-26T09:50:27.000Z</time>
        <extensions>
          <ns3:TrackPointExtension>
            <ns3:hr>156</ns3:hr>
            <ns3:cad>83</ns3:cad>
          </ns3:TrackPointExtension>
        </extensions>
      </trkpt>
      <trkpt lat="23.18429715000092983245849609375" lon="113.26257172040641307830810546875">
        <ele>6.80000019073486328125</ele>
        <time>2022-10-26T09:50:32.000Z</time>
        <extensions>
          <ns3:TrackPointExtension>
            <ns3:hr>159</ns3:hr>
            <ns3:cad>83</ns3:cad>
          </ns3:TrackPointExtension>
        </extensions>
      </trkpt>
      <trkpt lat="23.1841606087982654571533203125" lon="113.26236426830291748046875">
        <ele>7</ele>
        <time>2022-10-26T09:50:42.000Z</time>
        <extensions>
          <ns3:TrackPointExtension>
            <ns3:hr>158</ns3:hr>
            <ns3:cad>82</ns3:cad>
          </ns3:TrackPointExtension>
        </extensions>
      </trkpt>
      <trkpt lat="23.18397939205169677734375" lon="113.262363933026790618896484375">
        <ele>6.599999904632568359375</ele>
        <time>2022-10-26T09:50:50.000Z</time>
        <extensions>
          <ns3:TrackPointExtension>
            <ns3:hr>161</ns3:hr>
            <ns3:cad>82</ns3:cad>
          </ns3:TrackPointExtension>
        </extensions>
      </trkpt>
      <trkpt lat="23.1837876141071319580078125" lon="113.2623453252017498016357421875">
        <ele>6.19999980926513671875</ele>
        <time>2022-10-26T09:51:02.000Z</time>
        <extensions>
          <ns3:TrackPointExtension>
            <ns3:hr>163</ns3:hr>
            <ns3:cad>82</ns3:cad>
          </ns3:TrackPointExtension>
        </extensions>
      </trkpt>
      <trkpt lat="23.183612935245037078857421875" lon="113.262269385159015655517578125">
        <ele>9.80000019073486328125</ele>
        <time>2022-10-26T09:51:10.000Z</time>
        <extensions>
          <ns3:TrackPointExtension>
            <ns3:hr>161</ns3:hr>
            <ns3:cad>80</ns3:cad>
          </ns3:TrackPointExtension>
        </extensions>
      </trkpt>
      <trkpt lat="23.18350204266607761383056640625" lon="113.26223107986152172088623046875">
        <ele>13</ele>
        <time>2022-10-26T09:51:20.000Z</time>
        <extensions>
          <ns3:TrackPointExtension>
            <ns3:hr>159</ns3:hr>
            <ns3:cad>80</ns3:cad>
          </ns3:TrackPointExtension>
        </extensions>
      </trkpt>
      <trkpt lat="23.18346935324370861053466796875" lon="113.26221699826419353485107421875">
        <ele>14.3999996185302734375</ele>
        <time>2022-10-26T09:51:24.000Z</time>
        <extensions>
          <ns3:TrackPointExtension>
            <ns3:hr>160</ns3:hr>
            <ns3:cad>123</ns3:cad>
          </ns3:TrackPointExtension>
        </extensions>
      </trkpt>
      <trkpt lat="23.18345761857926845550537109375" lon="113.2622112147510051727294921875">
        <ele>14.80000019073486328125</ele>
        <time>2022-10-26T09:51:25.000Z</time>
        <extensions>
          <ns3:TrackPointExtension>
            <ns3:hr>159</ns3:hr>
            <ns3:cad>121</ns3:cad>
          </ns3:TrackPointExtension>
        </extensions>
      </trkpt>
      <trkpt lat="23.1832860410213470458984375" lon="113.26211415231227874755859375">
        <ele>20.799999237060546875</ele>
        <time>2022-10-26T09:51:36.000Z</time>
        <extensions>
          <ns3:TrackPointExtension>
            <ns3:hr>158</ns3:hr>
            <ns3:cad>61</ns3:cad>
          </ns3:TrackPointExtension>
        </extensions>
      </trkpt>
      <trkpt lat="23.18316542543470859527587890625" lon="113.26207903213798999786376953125">
        <ele>22</ele>
        <time>2022-10-26T09:51:42.000Z</time>
        <extensions>
          <ns3:TrackPointExtension>
            <ns3:hr>156</ns3:hr>
            <ns3:cad>61</ns3:cad>
          </ns3:TrackPointExtension>
        </extensions>
      </trkpt>
      <trkpt lat="23.18308428861200809478759765625" lon="113.262061513960361480712890625">
        <ele>22.3999996185302734375</ele>
        <time>2022-10-26T09:51:46.000Z</time>
        <extensions>
          <ns3:TrackPointExtension>
            <ns3:hr>153</ns3:hr>
            <ns3:cad>61</ns3:cad>
          </ns3:TrackPointExtension>
        </extensions>
      </trkpt>
      <trkpt lat="23.183053024113178253173828125" lon="113.262058831751346588134765625">
        <ele>22.6000003814697265625</ele>
        <time>2022-10-26T09:51:48.000Z</time>
        <extensions>
          <ns3:TrackPointExtension>
            <ns3:hr>151</ns3:hr>
            <ns3:cad>61</ns3:cad>
          </ns3:TrackPointExtension>
        </extensions>
      </trkpt>
      <trkpt lat="23.1830096058547496795654296875" lon="113.262057490646839141845703125">
        <ele>23</ele>
        <time>2022-10-26T09:51:50.000Z</time>
        <extensions>
          <ns3:TrackPointExtension>
            <ns3:hr>150</ns3:hr>
            <ns3:cad>61</ns3:cad>
          </ns3:TrackPointExtension>
        </extensions>
      </trkpt>
      <trkpt lat="23.18290877155959606170654296875" lon="113.26204600743949413299560546875">
        <ele>23.3999996185302734375</ele>
        <time>2022-10-26T09:51:56.000Z</time>
        <extensions>
          <ns3:TrackPointExtension>
            <ns3:hr>147</ns3:hr>
            <ns3:cad>49</ns3:cad>
          </ns3:TrackPointExtension>
        </extensions>
      </trkpt>
      <trkpt lat="23.18289267830550670623779296875" lon="113.26203393749892711639404296875">
        <ele>23.200000762939453125</ele>
        <time>2022-10-26T09:51:57.000Z</time>
        <extensions>
          <ns3:TrackPointExtension>
            <ns3:hr>146</ns3:hr>
            <ns3:cad>49</ns3:cad>
          </ns3:TrackPointExtension>
        </extensions>
      </trkpt>
      <trkpt lat="23.1828362680971622467041015625" lon="113.26201767660677433013916015625">
        <ele>23</ele>
        <time>2022-10-26T09:52:01.000Z</time>
        <extensions>
          <ns3:TrackPointExtension>
            <ns3:hr>143</ns3:hr>
            <ns3:cad>49</ns3:cad>
          </ns3:TrackPointExtension>
        </extensions>
      </trkpt>
      <trkpt lat="23.18278170190751552581787109375" lon="113.2620020024478435516357421875">
        <ele>22.6000003814697265625</ele>
        <time>2022-10-26T09:52:05.000Z</time>
        <extensions>
          <ns3:TrackPointExtension>
            <ns3:hr>140</ns3:hr>
            <ns3:cad>61</ns3:cad>
          </ns3:TrackPointExtension>
        </extensions>
      </trkpt>
      <trkpt lat="23.182775080204010009765625" lon="113.2619986496865749359130859375">
        <ele>22.6000003814697265625</ele>
        <time>2022-10-26T09:52:06.000Z</time>
        <extensions>
          <ns3:TrackPointExtension>
            <ns3:hr>140</ns3:hr>
            <ns3:cad>61</ns3:cad>
          </ns3:TrackPointExtension>
        </extensions>
      </trkpt>
      <trkpt lat="23.18275739438831806182861328125" lon="113.26199236325919628143310546875">
        <ele>22.3999996185302734375</ele>
        <time>2022-10-26T09:52:08.000Z</time>
        <extensions>
          <ns3:TrackPointExtension>
            <ns3:hr>139</ns3:hr>
            <ns3:cad>61</ns3:cad>
          </ns3:TrackPointExtension>
        </extensions>
      </trkpt>
      <trkpt lat="23.1826974637806415557861328125" lon="113.2619771920144557952880859375">
        <ele>22.200000762939453125</ele>
        <time>2022-10-26T09:52:13.000Z</time>
        <extensions>
          <ns3:TrackPointExtension>
            <ns3:hr>138</ns3:hr>
            <ns3:cad>61</ns3:cad>
          </ns3:TrackPointExtension>
        </extensions>
      </trkpt>
      <trkpt lat="23.182654045522212982177734375" lon="113.2619557343423366546630859375">
        <ele>26.6000003814697265625</ele>
        <time>2022-10-26T09:52:17.000Z</time>
        <extensions>
          <ns3:TrackPointExtension>
            <ns3:hr>135</ns3:hr>
            <ns3:cad>121</ns3:cad>
          </ns3:TrackPointExtension>
        </extensions>
      </trkpt>
      <trkpt lat="23.18261188454926013946533203125" lon="113.2619423232972621917724609375">
        <ele>32</ele>
        <time>2022-10-26T09:52:21.000Z</time>
        <extensions>
          <ns3:TrackPointExtension>
            <ns3:hr>135</ns3:hr>
            <ns3:cad>59</ns3:cad>
          </ns3:TrackPointExtension>
        </extensions>
      </trkpt>
      <trkpt lat="23.18260987289249897003173828125" lon="113.26192237436771392822265625">
        <ele>31.6000003814697265625</ele>
        <time>2022-10-26T09:52:25.000Z</time>
        <extensions>
          <ns3:TrackPointExtension>
            <ns3:hr>134</ns3:hr>
            <ns3:cad>58</ns3:cad>
          </ns3:TrackPointExtension>
        </extensions>
      </trkpt>
      <trkpt lat="23.18258673883974552154541015625" lon="113.26189597137272357940673828125">
        <ele>34</ele>
        <time>2022-10-26T09:52:28.000Z</time>
        <extensions>
          <ns3:TrackPointExtension>
            <ns3:hr>133</ns3:hr>
            <ns3:cad>58</ns3:cad>
          </ns3:TrackPointExtension>
        </extensions>
      </trkpt>
      <trkpt lat="23.18256226368248462677001953125" lon="113.26188088394701480865478515625">
        <ele>37</ele>
        <time>2022-10-26T09:52:31.000Z</time>
        <extensions>
          <ns3:TrackPointExtension>
            <ns3:hr>132</ns3:hr>
            <ns3:cad>59</ns3:cad>
          </ns3:TrackPointExtension>
        </extensions>
      </trkpt>
      <trkpt lat="23.18252823315560817718505859375" lon="113.261869065463542938232421875">
        <ele>39.799999237060546875</ele>
        <time>2022-10-26T09:52:34.000Z</time>
        <extensions>
          <ns3:TrackPointExtension>
            <ns3:hr>131</ns3:hr>
            <ns3:cad>59</ns3:cad>
          </ns3:TrackPointExtension>
        </extensions>
      </trkpt>
      <trkpt lat="23.18250845186412334442138671875" lon="113.2618668861687183380126953125">
        <ele>42.200000762939453125</ele>
        <time>2022-10-26T09:52:36.000Z</time>
        <extensions>
          <ns3:TrackPointExtension>
            <ns3:hr>130</ns3:hr>
            <ns3:cad>61</ns3:cad>
          </ns3:TrackPointExtension>
        </extensions>
      </trkpt>
      <trkpt lat="23.182416670024394989013671875" lon="113.2618538103997707366943359375">
        <ele>52.40000152587890625</ele>
        <time>2022-10-26T09:52:45.000Z</time>
        <extensions>
          <ns3:TrackPointExtension>
            <ns3:hr>129</ns3:hr>
            <ns3:cad>119</ns3:cad>
          </ns3:TrackPointExtension>
        </extensions>
      </trkpt>
      <trkpt lat="23.18240636028349399566650390625" lon="113.26184987090528011322021484375">
        <ele>53</ele>
        <time>2022-10-26T09:52:47.000Z</time>
        <extensions>
          <ns3:TrackPointExtension>
            <ns3:hr>129</ns3:hr>
            <ns3:cad>61</ns3:cad>
          </ns3:TrackPointExtension>
        </extensions>
      </trkpt>
      <trkpt lat="23.18236797116696834564208984375" lon="113.2618393935263156890869140625">
        <ele>54.200000762939453125</ele>
        <time>2022-10-26T09:52:52.000Z</time>
        <extensions>
          <ns3:TrackPointExtension>
            <ns3:hr>128</ns3:hr>
            <ns3:cad>61</ns3:cad>
          </ns3:TrackPointExtension>
        </extensions>
      </trkpt>
      <trkpt lat="23.182356990873813629150390625" lon="113.261834867298603057861328125">
        <ele>53</ele>
        <time>2022-10-26T09:52:53.000Z</time>
        <extensions>
          <ns3:TrackPointExtension>
            <ns3:hr>128</ns3:hr>
            <ns3:cad>61</ns3:cad>
          </ns3:TrackPointExtension>
        </extensions>
      </trkpt>
      <trkpt lat="23.18232706747949123382568359375" lon="113.26181776821613311767578125">
        <ele>49.799999237060546875</ele>
        <time>2022-10-26T09:52:56.000Z</time>
        <extensions>
          <ns3:TrackPointExtension>
            <ns3:hr>127</ns3:hr>
            <ns3:cad>60</ns3:cad>
          </ns3:TrackPointExtension>
        </extensions>
      </trkpt>
      <trkpt lat="23.18231365643441677093505859375" lon="113.2615582644939422607421875">
        <ele>12.19999980926513671875</ele>
        <time>2022-10-26T09:52:59.000Z</time>
        <extensions>
          <ns3:TrackPointExtension>
            <ns3:hr>127</ns3:hr>
            <ns3:cad>60</ns3:cad>
          </ns3:TrackPointExtension>
        </extensions>
      </trkpt>
      <trkpt lat="23.1822381354868412017822265625" lon="113.26151358895003795623779296875">
        <ele>18.6000003814697265625</ele>
        <time>2022-10-26T09:53:03.000Z</time>
        <extensions>
          <ns3:TrackPointExtension>
            <ns3:hr>126</ns3:hr>
            <ns3:cad>57</ns3:cad>
          </ns3:TrackPointExtension>
        </extensions>
      </trkpt>
      <trkpt lat="23.18207343108952045440673828125" lon="113.2614306919276714324951171875">
        <ele>27.6000003814697265625</ele>
        <time>2022-10-26T09:53:13.000Z</time>
        <extensions>
          <ns3:TrackPointExtension>
            <ns3:hr>124</ns3:hr>
            <ns3:cad>61</ns3:cad>
          </ns3:TrackPointExtension>
        </extensions>
      </trkpt>
      <trkpt lat="23.18191048689186573028564453125" lon="113.2613284327089786529541015625">
        <ele>25.3999996185302734375</ele>
        <time>2022-10-26T09:53:25.000Z</time>
        <extensions>
          <ns3:TrackPointExtension>
            <ns3:hr>124</ns3:hr>
            <ns3:cad>58</ns3:cad>
          </ns3:TrackPointExtension>
        </extensions>
      </trkpt>
      <trkpt lat="23.18173547275364398956298828125" lon="113.26123329810798168182373046875">
        <ele>34.40000152587890625</ele>
        <time>2022-10-26T09:53:37.000Z</time>
        <extensions>
          <ns3:TrackPointExtension>
            <ns3:hr>124</ns3:hr>
            <ns3:cad>61</ns3:cad>
          </ns3:TrackPointExtension>
        </extensions>
      </trkpt>
      <trkpt lat="23.1815662421286106109619140625" lon="113.26113740913569927215576171875">
        <ele>46.40000152587890625</ele>
        <time>2022-10-26T09:53:50.000Z</time>
        <extensions>
          <ns3:TrackPointExtension>
            <ns3:hr>124</ns3:hr>
            <ns3:cad>61</ns3:cad>
          </ns3:TrackPointExtension>
        </extensions>
      </trkpt>
      <trkpt lat="23.18145400844514369964599609375" lon="113.261108659207820892333984375">
        <ele>56.200000762939453125</ele>
        <time>2022-10-26T09:54:02.000Z</time>
        <extensions>
          <ns3:TrackPointExtension>
            <ns3:hr>121</ns3:hr>
            <ns3:cad>60</ns3:cad>
          </ns3:TrackPointExtension>
        </extensions>
      </trkpt>
      <trkpt lat="23.18135225214064121246337890625" lon="113.2610193081200122833251953125">
        <ele>65.1999969482421875</ele>
        <time>2022-10-26T09:54:21.000Z</time>
        <extensions>
          <ns3:TrackPointExtension>
            <ns3:hr>121</ns3:hr>
            <ns3:cad>60</ns3:cad>
          </ns3:TrackPointExtension>
        </extensions>
      </trkpt>
      <trkpt lat="23.18133448250591754913330078125" lon="113.26100078411400318145751953125">
        <ele>66.59999847412109375</ele>
        <time>2022-10-26T09:54:25.000Z</time>
        <extensions>
          <ns3:TrackPointExtension>
            <ns3:hr>121</ns3:hr>
            <ns3:cad>61</ns3:cad>
          </ns3:TrackPointExtension>
        </extensions>
      </trkpt>
      <trkpt lat="23.18132760934531688690185546875" lon="113.26099776662886142730712890625">
        <ele>67.1999969482421875</ele>
        <time>2022-10-26T09:54:26.000Z</time>
        <extensions>
          <ns3:TrackPointExtension>
            <ns3:hr>121</ns3:hr>
            <ns3:cad>61</ns3:cad>
          </ns3:TrackPointExtension>
        </extensions>
      </trkpt>
      <trkpt lat="23.18130916915833950042724609375" lon="113.2609975151717662811279296875">
        <ele>68.8000030517578125</ele>
        <time>2022-10-26T09:54:33.000Z</time>
        <extensions>
          <ns3:TrackPointExtension>
            <ns3:hr>127</ns3:hr>
            <ns3:cad>58</ns3:cad>
          </ns3:TrackPointExtension>
        </extensions>
      </trkpt>
      <trkpt lat="23.1813040561974048614501953125" lon="113.2609976828098297119140625">
        <ele>69.1999969482421875</ele>
        <time>2022-10-26T09:54:34.000Z</time>
        <extensions>
          <ns3:TrackPointExtension>
            <ns3:hr>134</ns3:hr>
            <ns3:cad>58</ns3:cad>
          </ns3:TrackPointExtension>
        </extensions>
      </trkpt>
      <trkpt lat="23.18130078725516796112060546875" lon="113.26099835336208343505859375">
        <ele>69.40000152587890625</ele>
        <time>2022-10-26T09:54:35.000Z</time>
        <extensions>
          <ns3:TrackPointExtension>
            <ns3:hr>134</ns3:hr>
            <ns3:cad>117</ns3:cad>
          </ns3:TrackPointExtension>
        </extensions>
      </trkpt>
      <trkpt lat="23.18128444254398345947265625" lon="113.260996341705322265625">
        <ele>69.8000030517578125</ele>
        <time>2022-10-26T09:54:42.000Z</time>
        <extensions>
          <ns3:TrackPointExtension>
            <ns3:hr>134</ns3:hr>
            <ns3:cad>117</ns3:cad>
          </ns3:TrackPointExtension>
        </extensions>
      </trkpt>
      <trkpt lat="23.181253261864185333251953125" lon="113.26098234392702579498291015625">
        <ele>70.1999969482421875</ele>
        <time>2022-10-26T09:54:47.000Z</time>
        <extensions>
          <ns3:TrackPointExtension>
            <ns3:hr>130</ns3:hr>
            <ns3:cad>59</ns3:cad>
          </ns3:TrackPointExtension>
        </extensions>
      </trkpt>
      <trkpt lat="23.18124731071293354034423828125" lon="113.260975889861583709716796875">
        <ele>70.1999969482421875</ele>
        <time>2022-10-26T09:54:48.000Z</time>
        <extensions>
          <ns3:TrackPointExtension>
            <ns3:hr>130</ns3:hr>
            <ns3:cad>60</ns3:cad>
          </ns3:TrackPointExtension>
        </extensions>
      </trkpt>
      <trkpt lat="23.18124127574265003204345703125" lon="113.2609616406261920928955078125">
        <ele>70.1999969482421875</ele>
        <time>2022-10-26T09:54:49.000Z</time>
        <extensions>
          <ns3:TrackPointExtension>
            <ns3:hr>124</ns3:hr>
            <ns3:cad>59</ns3:cad>
          </ns3:TrackPointExtension>
        </extensions>
      </trkpt>
      <trkpt lat="23.1812205724418163299560546875" lon="113.26093129813671112060546875">
        <ele>70.1999969482421875</ele>
        <time>2022-10-26T09:54:50.000Z</time>
        <extensions>
          <ns3:TrackPointExtension>
            <ns3:hr>125</ns3:hr>
            <ns3:cad>59</ns3:cad>
          </ns3:TrackPointExtension>
        </extensions>
      </trkpt>
      <trkpt lat="23.1812205724418163299560546875" lon="113.26093129813671112060546875">
        <ele>70.1999969482421875</ele>
        <time>2022-10-26T09:54:51.000Z</time>
        <extensions>
          <ns3:TrackPointExtension>
            <ns3:hr>128</ns3:hr>
            <ns3:cad>59</ns3:cad>
          </ns3:TrackPointExtension>
        </extensions>
      </trkpt>
      <trkpt lat="23.18121260963380336761474609375" lon="113.260919563472270965576171875">
        <ele>70.1999969482421875</ele>
        <time>2022-10-26T09:54:52.000Z</time>
        <extensions>
          <ns3:TrackPointExtension>
            <ns3:hr>131</ns3:hr>
            <ns3:cad>58</ns3:cad>
          </ns3:TrackPointExtension>
        </extensions>
      </trkpt>
      <trkpt lat="23.18119450472295284271240234375" lon="113.26090673916041851043701171875">
        <ele>70.40000152587890625</ele>
        <time>2022-10-26T09:54:55.000Z</time>
        <extensions>
          <ns3:TrackPointExtension>
            <ns3:hr>134</ns3:hr>
            <ns3:cad>58</ns3:cad>
          </ns3:TrackPointExtension>
        </extensions>
      </trkpt>
      <trkpt lat="23.181184865534305572509765625" lon="113.2609016261994838714599609375">
        <ele>70.59999847412109375</ele>
        <time>2022-10-26T09:54:56.000Z</time>
        <extensions>
          <ns3:TrackPointExtension>
            <ns3:hr>134</ns3:hr>
            <ns3:cad>58</ns3:cad>
          </ns3:TrackPointExtension>
        </extensions>
      </trkpt>
      <trkpt lat="23.1811642460525035858154296875" lon="113.26089106500148773193359375">
        <ele>70.8000030517578125</ele>
        <time>2022-10-26T09:54:58.000Z</time>
        <extensions>
          <ns3:TrackPointExtension>
            <ns3:hr>134</ns3:hr>
            <ns3:cad>58</ns3:cad>
          </ns3:TrackPointExtension>
        </extensions>
      </trkpt>
      <trkpt lat="23.181129880249500274658203125" lon="113.26085996814072132110595703125">
        <ele>71</ele>
        <time>2022-10-26T09:55:04.000Z</time>
        <extensions>
          <ns3:TrackPointExtension>
            <ns3:hr>132</ns3:hr>
            <ns3:cad>60</ns3:cad>
          </ns3:TrackPointExtension>
        </extensions>
      </trkpt>
      <trkpt lat="23.18111722357571125030517578125" lon="113.26084840111434459686279296875">
        <ele>71.1999969482421875</ele>
        <time>2022-10-26T09:55:06.000Z</time>
        <extensions>
          <ns3:TrackPointExtension>
            <ns3:hr>131</ns3:hr>
            <ns3:cad>60</ns3:cad>
          </ns3:TrackPointExtension>
        </extensions>
      </trkpt>
      <trkpt lat="23.18109107203781604766845703125" lon="113.26083968393504619598388671875">
        <ele>71.59999847412109375</ele>
        <time>2022-10-26T09:55:09.000Z</time>
        <extensions>
          <ns3:TrackPointExtension>
            <ns3:hr>130</ns3:hr>
            <ns3:cad>61</ns3:cad>
          </ns3:TrackPointExtension>
        </extensions>
      </trkpt>
      <trkpt lat="23.18107095547020435333251953125" lon="113.2608188129961490631103515625">
        <ele>71.8000030517578125</ele>
        <time>2022-10-26T09:55:12.000Z</time>
        <extensions>
          <ns3:TrackPointExtension>
            <ns3:hr>129</ns3:hr>
            <ns3:cad>61</ns3:cad>
          </ns3:TrackPointExtension>
        </extensions>
      </trkpt>
      <trkpt lat="23.181063830852508544921875" lon="113.260799534618854522705078125">
        <ele>71.59999847412109375</ele>
        <time>2022-10-26T09:55:14.000Z</time>
        <extensions>
          <ns3:TrackPointExtension>
            <ns3:hr>126</ns3:hr>
            <ns3:cad>55</ns3:cad>
          </ns3:TrackPointExtension>
        </extensions>
      </trkpt>
      <trkpt lat="23.18104564212262630462646484375" lon="113.26072317548096179962158203125">
        <ele>70.8000030517578125</ele>
        <time>2022-10-26T09:55:20.000Z</time>
        <extensions>
          <ns3:TrackPointExtension>
            <ns3:hr>125</ns3:hr>
            <ns3:cad>59</ns3:cad>
          </ns3:TrackPointExtension>
        </extensions>
      </trkpt>
      <trkpt lat="23.1809821911156177520751953125" lon="113.26051815412938594818115234375">
        <ele>62</ele>
        <time>2022-10-26T09:55:30.000Z</time>
        <extensions>
          <ns3:TrackPointExtension>
            <ns3:hr>125</ns3:hr>
            <ns3:cad>60</ns3:cad>
          </ns3:TrackPointExtension>
        </extensions>
      </trkpt>
      <trkpt lat="23.18104446865618228912353515625" lon="113.2603742368519306182861328125">
        <ele>63.40000152587890625</ele>
        <time>2022-10-26T09:55:45.000Z</time>
        <extensions>
          <ns3:TrackPointExtension>
            <ns3:hr>125</ns3:hr>
            <ns3:cad>57</ns3:cad>
          </ns3:TrackPointExtension>
        </extensions>
      </trkpt>
      <trkpt lat="23.18110800348222255706787109375" lon="113.26017147861421108245849609375">
        <ele>51.59999847412109375</ele>
        <time>2022-10-26T09:56:02.000Z</time>
        <extensions>
          <ns3:TrackPointExtension>
            <ns3:hr>125</ns3:hr>
            <ns3:cad>58</ns3:cad>
          </ns3:TrackPointExtension>
        </extensions>
      </trkpt>
      <trkpt lat="23.18111546337604522705078125" lon="113.26008514501154422760009765625">
        <ele>45</ele>
        <time>2022-10-26T09:56:08.000Z</time>
        <extensions>
          <ns3:TrackPointExtension>
            <ns3:hr>125</ns3:hr>
            <ns3:cad>58</ns3:cad>
          </ns3:TrackPointExtension>
        </extensions>
      </trkpt>
      <trkpt lat="23.1811203248798847198486328125" lon="113.25988464988768100738525390625">
        <ele>32.200000762939453125</ele>
        <time>2022-10-26T09:56:22.000Z</time>
        <extensions>
          <ns3:TrackPointExtension>
            <ns3:hr>124</ns3:hr>
            <ns3:cad>59</ns3:cad>
          </ns3:TrackPointExtension>
        </extensions>
      </trkpt>
      <trkpt lat="23.18115309812128543853759765625" lon="113.25969002209603786468505859375">
        <ele>17.6000003814697265625</ele>
        <time>2022-10-26T09:56:36.000Z</time>
        <extensions>
          <ns3:TrackPointExtension>
            <ns3:hr>122</ns3:hr>
            <ns3:cad>56</ns3:cad>
          </ns3:TrackPointExtension>
        </extensions>
      </trkpt>
      <trkpt lat="23.1812185607850551605224609375" lon="113.25949153862893581390380859375">
        <ele>14</ele>
        <time>2022-10-26T09:56:52.000Z</time>
        <extensions>
          <ns3:TrackPointExtension>
            <ns3:hr>123</ns3:hr>
            <ns3:cad>61</ns3:cad>
          </ns3:TrackPointExtension>
        </extensions>
      </trkpt>
      <trkpt lat="23.1812567822635173797607421875" lon="113.2592758722603321075439453125">
        <ele>8.6000003814697265625</ele>
        <time>2022-10-26T09:57:03.000Z</time>
        <extensions>
          <ns3:TrackPointExtension>
            <ns3:hr>123</ns3:hr>
            <ns3:cad>60</ns3:cad>
          </ns3:TrackPointExtension>
        </extensions>
      </trkpt>
      <trkpt lat="23.18125485442578792572021484375" lon="113.2591883651912212371826171875">
        <ele>7.19999980926513671875</ele>
        <time>2022-10-26T09:57:08.000Z</time>
        <extensions>
          <ns3:TrackPointExtension>
            <ns3:hr>123</ns3:hr>
            <ns3:cad>58</ns3:cad>
          </ns3:TrackPointExtension>
        </extensions>
      </trkpt>
      <trkpt lat="23.18130061961710453033447265625" lon="113.259046711027622222900390625">
        <ele>6.19999980926513671875</ele>
        <time>2022-10-26T09:57:18.000Z</time>
        <extensions>
          <ns3:TrackPointExtension>
            <ns3:hr>123</ns3:hr>
            <ns3:cad>58</ns3:cad>
          </ns3:TrackPointExtension>
        </extensions>
      </trkpt>
      <trkpt lat="23.1813468039035797119140625" lon="113.25902148149907588958740234375">
        <ele>7.400000095367431640625</ele>
        <time>2022-10-26T09:57:22.000Z</time>
        <extensions>
          <ns3:TrackPointExtension>
            <ns3:hr>124</ns3:hr>
            <ns3:cad>57</ns3:cad>
          </ns3:TrackPointExtension>
        </extensions>
      </trkpt>
      <trkpt lat="23.18149340339004993438720703125" lon="113.258908577263355255126953125">
        <ele>11.6000003814697265625</ele>
        <time>2022-10-26T09:57:37.000Z</time>
        <extensions>
          <ns3:TrackPointExtension>
            <ns3:hr>123</ns3:hr>
            <ns3:cad>59</ns3:cad>
          </ns3:TrackPointExtension>
        </extensions>
      </trkpt>
      <trkpt lat="23.18152072839438915252685546875" lon="113.2587940804660320281982421875">
        <ele>12.80000019073486328125</ele>
        <time>2022-10-26T09:57:47.000Z</time>
        <extensions>
          <ns3:TrackPointExtension>
            <ns3:hr>126</ns3:hr>
            <ns3:cad>58</ns3:cad>
          </ns3:TrackPointExtension>
        </extensions>
      </trkpt>
      <trkpt lat="23.181530535221099853515625" lon="113.2585568726062774658203125">
        <ele>12.3999996185302734375</ele>
        <time>2022-10-26T09:58:06.000Z</time>
        <extensions>
          <ns3:TrackPointExtension>
            <ns3:hr>125</ns3:hr>
            <ns3:cad>61</ns3:cad>
          </ns3:TrackPointExtension>
        </extensions>
      </trkpt>
      <trkpt lat="23.18168031983077526092529296875" lon="113.25844313018023967742919921875">
        <ele>12.6000003814697265625</ele>
        <time>2022-10-26T09:58:26.000Z</time>
        <extensions>
          <ns3:TrackPointExtension>
            <ns3:hr>127</ns3:hr>
            <ns3:cad>61</ns3:cad>
          </ns3:TrackPointExtension>
        </extensions>
      </trkpt>
      <trkpt lat="23.18183429539203643798828125" lon="113.25832511298358440399169921875">
        <ele>10.19999980926513671875</ele>
        <time>2022-10-26T09:58:42.000Z</time>
        <extensions>
          <ns3:TrackPointExtension>
            <ns3:hr>126</ns3:hr>
            <ns3:cad>61</ns3:cad>
          </ns3:TrackPointExtension>
        </extensions>
      </trkpt>
      <trkpt lat="23.18201676942408084869384765625" lon="113.25826107524335384368896484375">
        <ele>7.80000019073486328125</ele>
        <time>2022-10-26T09:58:56.000Z</time>
        <extensions>
          <ns3:TrackPointExtension>
            <ns3:hr>124</ns3:hr>
            <ns3:cad>61</ns3:cad>
          </ns3:TrackPointExtension>
        </extensions>
      </trkpt>
      <trkpt lat="23.18212824873626232147216796875" lon="113.25821296311914920806884765625">
        <ele>6.80000019073486328125</ele>
        <time>2022-10-26T09:59:06.000Z</time>
        <extensions>
          <ns3:TrackPointExtension>
            <ns3:hr>124</ns3:hr>
            <ns3:cad>62</ns3:cad>
          </ns3:TrackPointExtension>
        </extensions>
      </trkpt>
      <trkpt lat="23.1823591701686382293701171875" lon="113.2583101093769073486328125">
        <ele>7</ele>
        <time>2022-10-26T09:59:13.000Z</time>
        <extensions>
          <ns3:TrackPointExtension>
            <ns3:hr>124</ns3:hr>
            <ns3:cad>0</ns3:cad>
          </ns3:TrackPointExtension>
        </extensions>
      </trkpt>
      <trkpt lat="23.182479701936244964599609375" lon="113.2583672739565372467041015625">
        <ele>7.400000095367431640625</ele>
        <time>2022-10-26T09:59:18.000Z</time>
        <extensions>
          <ns3:TrackPointExtension>
            <ns3:hr>124</ns3:hr>
            <ns3:cad>0</ns3:cad>
          </ns3:TrackPointExtension>
        </extensions>
      </trkpt>
      <trkpt lat="23.182639963924884796142578125" lon="113.258488141000270843505859375">
        <ele>8.3999996185302734375</ele>
        <time>2022-10-26T09:59:28.000Z</time>
        <extensions>
          <ns3:TrackPointExtension>
            <ns3:hr>125</ns3:hr>
            <ns3:cad>61</ns3:cad>
          </ns3:TrackPointExtension>
        </extensions>
      </trkpt>
      <trkpt lat="23.18272872827947139739990234375" lon="113.2585439644753932952880859375">
        <ele>8.80000019073486328125</ele>
        <time>2022-10-26T09:59:38.000Z</time>
        <extensions>
          <ns3:TrackPointExtension>
            <ns3:hr>123</ns3:hr>
            <ns3:cad>0</ns3:cad>
          </ns3:TrackPointExtension>
        </extensions>
      </trkpt>
      <trkpt lat="23.18276904523372650146484375" lon="113.25858277268707752227783203125">
        <ele>9</ele>
        <time>2022-10-26T10:00:04.000Z</time>
        <extensions>
          <ns3:TrackPointExtension>
            <ns3:hr>120</ns3:hr>
            <ns3:cad>0</ns3:cad>
          </ns3:TrackPointExtension>
        </extensions>
      </trkpt>
      <trkpt lat="23.18265563808381557464599609375" lon="113.25856617651879787445068359375">
        <ele>9.6000003814697265625</ele>
        <time>2022-10-26T10:16:12.000Z</time>
        <extensions>
          <ns3:TrackPointExtension>
            <ns3:hr>124</ns3:hr>
            <ns3:cad>56</ns3:cad>
          </ns3:TrackPointExtension>
        </extensions>
      </trkpt>
      <trkpt lat="23.18263920955359935760498046875" lon="113.25855896808207035064697265625">
        <ele>9.6000003814697265625</ele>
        <time>2022-10-26T10:16:14.000Z</time>
        <extensions>
          <ns3:TrackPointExtension>
            <ns3:hr>124</ns3:hr>
            <ns3:cad>56</ns3:cad>
          </ns3:TrackPointExtension>
        </extensions>
      </trkpt>
      <trkpt lat="23.18262395448982715606689453125" lon="113.25836098752915859222412109375">
        <ele>7</ele>
        <time>2022-10-26T10:16:34.000Z</time>
        <extensions>
          <ns3:TrackPointExtension>
            <ns3:hr>127</ns3:hr>
            <ns3:cad>0</ns3:cad>
          </ns3:TrackPointExtension>
        </extensions>
      </trkpt>
      <trkpt lat="23.18262026645243167877197265625" lon="113.2583404518663883209228515625">
        <ele>6.80000019073486328125</ele>
        <time>2022-10-26T10:16:37.000Z</time>
        <extensions>
          <ns3:TrackPointExtension>
            <ns3:hr>128</ns3:hr>
            <ns3:cad>60</ns3:cad>
          </ns3:TrackPointExtension>
        </extensions>
      </trkpt>
      <trkpt lat="23.182648681104183197021484375" lon="113.2581480033695697784423828125">
        <ele>6.80000019073486328125</ele>
        <time>2022-10-26T10:16:54.000Z</time>
        <extensions>
          <ns3:TrackPointExtension>
            <ns3:hr>126</ns3:hr>
            <ns3:cad>59</ns3:cad>
          </ns3:TrackPointExtension>
        </extensions>
      </trkpt>
      <trkpt lat="23.18259310908615589141845703125" lon="113.2580450735986232757568359375">
        <ele>7.19999980926513671875</ele>
        <time>2022-10-26T10:17:05.000Z</time>
        <extensions>
          <ns3:TrackPointExtension>
            <ns3:hr>125</ns3:hr>
            <ns3:cad>58</ns3:cad>
          </ns3:TrackPointExtension>
        </extensions>
      </trkpt>
      <trkpt lat="23.182603754103183746337890625" lon="113.25786444358527660369873046875">
        <ele>9</ele>
        <time>2022-10-26T10:17:22.000Z</time>
        <extensions>
          <ns3:TrackPointExtension>
            <ns3:hr>127</ns3:hr>
            <ns3:cad>0</ns3:cad>
          </ns3:TrackPointExtension>
        </extensions>
      </trkpt>
      <trkpt lat="23.18262998946011066436767578125" lon="113.25781046412885189056396484375">
        <ele>9.80000019073486328125</ele>
        <time>2022-10-26T10:17:28.000Z</time>
        <extensions>
          <ns3:TrackPointExtension>
            <ns3:hr>126</ns3:hr>
            <ns3:cad>61</ns3:cad>
          </ns3:TrackPointExtension>
        </extensions>
      </trkpt>
    </trkseg>
  </trk>
</gpx>
